{"type":"Feature","properties":{"id":"Akitsu_Ferry_安芸津フェリー(安芸津-大西)","name":"安芸津フェリー(安芸津-大西)","operator":"Akitsu Ferry","category":"ferry","attribution":"© OpenStreetMap contributors"},"geometry":{"type":"MultiLineString","coordinates":[[[132.8183949,34.3164697],[132.8184271,34.3163656],[132.8185787,34.3161008],[132.8191808,34.3153576],[132.8193391,34.3150718],[132.8193981,34.3147217],[132.8194704,34.314424],[132.8195657,34.3141546],[132.8269213,34.2981648],[132.8273121,34.297553],[132.8277673,34.2969766],[132.8551,34.2649693],[132.85543,34.2646193],[132.8558663,34.2642341],[132.874692,34.2502897],[132.8748563,34.2501778],[132.8750125,34.2501063],[132.8752902,34.2500072],[132.8755182,34.2499642],[132.8765398,34.2497628],[132.8766844,34.2497191],[132.876783,34.2496725],[132.8769272,34.2495588],[132.8770215,34.2494427],[132.8771246,34.2493021]]]}}