{"type":"Feature","properties":{"id":"Camellia_Line_Co.,_ltd._부산_-_하카타_博多_-_釜山","name":"부산 - 하카타 博多 - 釜山","operator":"Camellia Line Co., ltd.","category":"ferry","attribution":"© OpenStreetMap contributors"},"geometry":{"type":"MultiLineString","coordinates":[[[129.0528818,35.1158795],[129.0529273,35.115522],[129.05313,35.1149038],[129.0534927,35.1142758],[129.0541574,35.1136418],[129.0547575,35.1132103],[129.0649795,35.1074112],[129.1096375,35.0822556],[129.5493349,34.7312043],[130.281354,33.6643496],[130.2971547,33.6521707],[130.3732435,33.6230021],[130.3834145,33.6191023],[130.3978655,33.6079742],[130.3981865,33.6078522],[130.3984735,33.6078522],[130.3987163,33.6079291],[130.398918,33.6081145]]]}}