{"type":"Feature","properties":{"id":"Hanil_Express_한일_골드스텔라_(여수_-_제주)_Yeosu_-_Jeju","name":"한일 골드스텔라 (여수 - 제주) / Yeosu - Jeju","operator":"Hanil Express","category":"ferry","attribution":"© OpenStreetMap contributors"},"geometry":{"type":"MultiLineString","coordinates":[[[127.7509519,34.7518609],[127.7539672,34.7503481],[127.7557622,34.7498081],[127.7558821,34.7497743],[127.7571999,34.7494026],[127.7587449,34.7491558],[127.7601611,34.7491382],[127.7612189,34.749243],[127.7620772,34.7494634],[127.7628068,34.7498424],[127.7633003,34.7502832],[127.7637294,34.7508121],[127.7641801,34.7516231],[127.7653066,34.7536418],[127.7666048,34.7557838],[127.768263,34.758483],[127.7701941,34.7603516],[127.7726403,34.7621497],[127.7748934,34.763225],[127.7778974,34.7643708],[127.7813736,34.7652346],[127.7839914,34.7656576],[127.7861801,34.7658515],[127.7885405,34.7659396],[127.7908579,34.765922],[127.7934113,34.7656576],[127.7962652,34.7651112],[127.7987114,34.7643356],[127.8010288,34.7634718],[127.8028527,34.7622202],[127.8049985,34.7605984],[127.8070584,34.7585359],[127.8093115,34.7557152],[127.8116504,34.7522774],[127.8214351,34.7393711],[127.8296104,34.7301486],[127.8428713,34.7141699],[127.852377,34.7046976],[127.8577629,34.6976412],[127.8617969,34.6919603],[127.8645435,34.6859615],[127.866861,34.6796093],[127.8711096,34.6697977],[127.8750363,34.6608675],[127.8798858,34.6504889],[127.8845421,34.6430571],[127.8889409,34.6341416],[127.8923527,34.626885],[127.8956357,34.6172967],[127.8998414,34.6053761],[127.9017511,34.5983112],[127.90512,34.5792154],[127.9059568,34.5688089],[127.9074803,34.5570403],[127.9080597,34.5454999],[127.9092613,34.5321372],[127.9093406,34.5262963],[127.9088686,34.5175451],[127.9073022,34.5064059],[127.9061096,34.4953836],[127.9047702,34.482991],[127.9042986,34.4789886],[127.9033679,34.474374],[127.9012296,34.469636],[127.8928542,34.4558491],[127.8863421,34.4464095],[127.8769212,34.4339521],[127.8689333,34.424784],[127.8642134,34.4182174],[127.8578808,34.4102348],[127.8495869,34.4025443],[127.8436249,34.3971406],[127.8184765,34.3783882],[127.7984779,34.3629264],[127.7827066,34.3502076],[127.7727717,34.3415796],[127.7562278,34.3304347],[127.7366155,34.3176932],[127.718591,34.3046485],[127.689988,34.2842444],[127.5968402,34.2242619],[127.5918362,34.2220378],[127.5864771,34.2199574],[127.5823251,34.2182629],[127.5756464,34.2162002],[127.5697616,34.2141508],[127.5644401,34.2123719],[127.5405102,34.201642],[127.2870604,34.0988132],[127.2827932,34.0970216],[127.2709846,34.0911458],[127.2500419,34.0817093],[127.2263956,34.0697656],[127.1942949,34.0517403],[127.1576452,34.0325019],[127.1303296,34.0196087],[127.1264313,34.0171803],[127.121165,34.0131437],[127.1173568,34.0094354],[127.1025205,33.9956454],[127.0903882,33.9848818],[127.083961,33.9788597],[127.0793742,33.9742342],[127.0692946,33.9658984],[127.0625984,33.9601215],[127.054076,33.9529938],[127.0468419,33.9468638],[127.0390132,33.9413557],[127.0295282,33.9342147],[127.0200714,33.9273432],[126.9971799,33.9096394],[126.9851042,33.9000164],[126.9806465,33.8966273],[126.9738376,33.8921384],[126.9681402,33.8877578],[126.9651776,33.8849271],[126.9608035,33.8813934],[126.9572603,33.8783495],[126.9486039,33.8711814],[126.9385832,33.863146],[126.9235199,33.8534704],[126.9070619,33.8453798],[126.8720215,33.8247043],[126.8298357,33.8042734],[126.7872422,33.781858],[126.7565577,33.7645923],[126.7390567,33.7460838],[126.707534,33.71118],[126.6683667,33.658549],[126.6329616,33.6173173],[126.6049042,33.5915614],[126.5654775,33.5519076],[126.542992,33.5323709],[126.5408629,33.5302587],[126.5401174,33.5293609],[126.5399856,33.5285038],[126.5402994,33.5276573],[126.543017,33.5258692]]]}}