{"type":"Feature","properties":{"id":"Imabari_City_今治市営せきぜん渡船_(今治－大下－小大下－岡村)","name":"今治市営せきぜん渡船 (今治－大下－小大下－岡村)","operator":"Imabari City","category":"ferry","attribution":"© OpenStreetMap contributors"},"geometry":{"type":"MultiLineString","coordinates":[[[133.0050484,34.0704852],[133.0053712,34.0709955],[133.0056265,34.0714284],[133.0057583,34.0717902],[133.005777,34.0720803],[133.0057303,34.0723395],[133.0056668,34.0725239],[133.0049361,34.0739197],[133.0034791,34.0765302],[133.0030121,34.077367],[133.0010334,34.080916],[132.9907717,34.0990653],[132.9832724,34.1112367],[132.9824512,34.1124876],[132.9803616,34.1154179],[132.9791463,34.1168477],[132.9782508,34.1175891],[132.9774406,34.1180657],[132.9760403,34.1185834],[132.9719183,34.1201133],[132.9706603,34.1206605],[132.9697008,34.12119],[132.9684855,34.1220196],[132.9637308,34.1260793],[132.9607457,34.1291327],[132.9442571,34.1458504],[132.94231,34.148195],[132.9185447,34.1837899],[132.9174192,34.1856274],[132.9170096,34.1865873],[132.9167588,34.187524],[132.9166596,34.1883698],[132.9166771,34.188641],[132.9167749,34.188948],[132.9169931,34.1892663],[132.9173435,34.1894868],[132.9177507,34.1895776],[132.9182499,34.1895512],[132.9187018,34.189453],[132.9196113,34.1892351],[132.9210707,34.1888919],[132.9216303,34.1888194],[132.9221852,34.1888011]]]}}