{"type":"Feature","properties":{"id":"Imabari_City_今治市営せきぜん渡船_(今治－大下・小大下・岡村)","name":"今治市営せきぜん渡船 (今治－大下・小大下・岡村)","operator":"Imabari City","category":"ferry","attribution":"© OpenStreetMap contributors"},"geometry":{"type":"MultiLineString","coordinates":[[[132.8995807,34.1903785],[132.8994392,34.1913751],[132.8993782,34.1916395],[132.8992242,34.1918952],[132.8989629,34.1920622],[132.8983236,34.192229],[132.897803,34.1922015],[132.8973064,34.1919963],[132.8965359,34.1914387],[132.896016,34.1908032],[132.8955161,34.1900203],[132.8951966,34.1892927],[132.8950265,34.188627],[132.8948986,34.1874983],[132.8950052,34.1869339],[132.8952184,34.186052],[132.8953677,34.1849937],[132.8951971,34.1840413],[132.8948853,34.1835761],[132.894364,34.1832333],[132.8935766,34.1830359],[132.8921907,34.1827537],[132.8903997,34.1826479],[132.8887153,34.1827184],[132.8871802,34.1828242],[132.886242,34.1829653],[132.8859254,34.1830373],[132.8855617,34.1831893],[132.8851256,34.1834562],[132.8847438,34.1837574],[132.884423,34.1840952],[132.8843421,34.184197]]]}}