{"type":"Feature","properties":{"id":"Imabari_City_今治市営せきぜん渡船_(今治－宗方－大下－小大下－岡村)","name":"今治市営せきぜん渡船 (今治－宗方－大下－小大下－岡村)","operator":"Imabari City","category":"ferry","attribution":"© OpenStreetMap contributors"},"geometry":{"type":"MultiLineString","coordinates":[[[132.9221852,34.1888011],[132.921648,34.1888535],[132.9210968,34.1889291],[132.919491,34.1893499],[132.918217,34.1898123],[132.9170731,34.1903555],[132.9079688,34.1946587],[132.9072433,34.1949614],[132.906263,34.1952407],[132.9042161,34.19547],[132.9028729,34.195276],[132.9019134,34.1949585],[132.9012311,34.1945],[132.9005275,34.1938298],[132.9000797,34.1931067],[132.8997388,34.1924483],[132.8995254,34.1917664],[132.899497,34.1913081],[132.8995807,34.1903785]],[[132.9221852,34.1888011],[132.9211279,34.1889802],[132.9206193,34.1891275],[132.9197965,34.1893464],[132.9192605,34.1895487],[132.9185747,34.1898815],[132.9179879,34.190308],[132.9175474,34.1908326],[132.9169895,34.1919153],[132.9164085,34.1935966],[132.9162385,34.1954942],[132.9162212,34.1975398],[132.9164316,34.1995585],[132.9166998,34.2006765],[132.9172744,34.2018491],[132.9183777,34.2029657],[132.9192387,34.2035487],[132.9203239,34.2039771],[132.9229417,34.204687],[132.9246339,34.2050239],[132.9283787,34.2057695],[132.932153,34.2065455],[132.9340113,34.2066124],[132.935052,34.2064793],[132.9364321,34.2062505],[132.9371785,34.2060092],[132.9378117,34.2056157],[132.9383788,34.2050894],[132.9398219,34.2031678],[132.9401937,34.2028487],[132.9406053,34.2025966],[132.9409553,34.2024668],[132.9411522,34.2024105],[132.94138,34.2023848],[132.9417693,34.2024258],[132.9422082,34.2025546],[132.9424581,34.2026711],[132.9426451,34.2028098],[132.9427471,34.2029046],[132.9428741,34.2031092]]]}}