{"type":"Feature","properties":{"id":"Kampu_Ferry_Co.,Ltd.,_Pugwan_Ferry_Co.,_Ltd._부산_-_시모노세키_下関_-_釜山","name":"부산 - 시모노세키 下関 - 釜山","operator":"Kampu Ferry Co.,Ltd., Pugwan Ferry Co., Ltd.","category":"ferry","attribution":"© OpenStreetMap contributors"},"geometry":{"type":"MultiLineString","coordinates":[[[129.051357,35.11685],[129.0516203,35.1161497],[129.0520417,35.1153489],[129.0524338,35.1147413],[129.0528903,35.1140109],[129.0533304,35.1135711],[129.053954,35.1131118],[129.0646339,35.1069291],[129.1091737,35.081496],[129.1259611,35.0676871],[129.5457009,34.7258943],[130.7600605,34.0285224],[130.8975573,33.9114084],[130.9051159,33.9072772],[130.9092748,33.9065851],[130.91674,33.9079844],[130.9241488,33.9114386],[130.9262818,33.9132247],[130.9383055,33.9405964],[130.9385781,33.9417429],[130.9383821,33.9429002],[130.9377391,33.9439399],[130.9367204,33.944747],[130.9354388,33.945232],[130.925778,33.9472941],[130.9246438,33.9472897]]]}}