{"type":"Feature","properties":{"id":"Lake_Chuzenji_Sightseeing","name":"Lake Chuzenji Sightseeing","operator":"","category":"ferry","attribution":"© OpenStreetMap contributors"},"geometry":{"type":"MultiLineString","coordinates":[[[139.4927888,36.739198],[139.4927063,36.7389991],[139.4924455,36.7385769],[139.4911795,36.7384049],[139.4883471,36.7384393],[139.4818884,36.7387488],[139.474228,36.7403652],[139.4662886,36.7430132],[139.4619327,36.7450593],[139.4583707,36.7472946],[139.4557113,36.7493245],[139.4552413,36.750604],[139.4551041,36.7511965],[139.4551687,36.7503262],[139.455494,36.7488863],[139.4585518,36.7443269],[139.4658048,36.7373282],[139.469753,36.7336138],[139.4744522,36.7291941],[139.4767053,36.7273023],[139.4778322,36.7258401],[139.4788787,36.7240416],[139.4794449,36.7232302],[139.4802307,36.7229522],[139.4815331,36.7230203],[139.482563,36.7233182],[139.4835419,36.723709],[139.4839576,36.7239544],[139.4838281,36.7247242],[139.483221,36.7266406],[139.4830715,36.728265],[139.4838281,36.7296798],[139.4853691,36.7305182],[139.4871393,36.7311328],[139.4885751,36.7313945],[139.4900417,36.7316513],[139.490332,36.731601],[139.4905193,36.7315397],[139.4901426,36.7322665],[139.4903357,36.7347085],[139.4920738,36.7371847],[139.4924455,36.7385769]]]}}