{"type":"Feature","properties":{"id":"Ohsaki_Kisen_大崎汽船・山陽商船(竹原‐白水)","name":"大崎汽船・山陽商船(竹原‐白水)","operator":"Ohsaki Kisen","category":"ferry","attribution":"© OpenStreetMap contributors"},"geometry":{"type":"MultiLineString","coordinates":[[[132.9133548,34.2697862],[132.9132466,34.2699575],[132.9132,34.2702204],[132.9132302,34.2704814],[132.9135393,34.2720951],[132.9136605,34.2726842],[132.9138941,34.2732072],[132.9141196,34.2736362],[132.9145149,34.2741822],[132.9174008,34.2771811],[132.9176975,34.2774772],[132.9241767,34.2828828],[132.9248741,34.28349],[132.9256144,34.2842302],[132.9261938,34.284904],[132.9279287,34.28745],[132.9284984,34.2886693],[132.9290962,34.2903361],[132.9293951,34.2916942],[132.9295165,34.293114],[132.9293764,34.2942483],[132.9291335,34.2948579],[132.9160183,34.3262255],[132.915626,34.3273716],[132.9154978,34.3279137],[132.9154018,34.3284823],[132.9153913,34.3292603],[132.9154664,34.3298362],[132.9156434,34.3303323],[132.9158902,34.3308019],[132.9161799,34.3311518],[132.9170038,34.3318279]]]}}