{"type":"Feature","properties":{"id":"Omishima_blueline_co._ltd._Imabari_City_大三島ブルーライン_(今治－宗方－木江)・今治市営せきぜん渡船_(今治－宗方－大下－小大下－岡村)","name":"大三島ブルーライン (今治－宗方－木江)・今治市営せきぜん渡船 (今治－宗方－大下－小大下－岡村)","operator":"Omishima blueline co. ltd. / Imabari City","category":"ferry","attribution":"© OpenStreetMap contributors"},"geometry":{"type":"MultiLineString","coordinates":[[[132.9428741,34.2031092],[132.9427324,34.2026567],[132.9426932,34.2024483],[132.9426978,34.202278],[132.9427208,34.202137],[132.9460623,34.1883208],[132.9646772,34.1277081],[132.9650253,34.1268453],[132.9654972,34.1261002],[132.9660385,34.1253607],[132.9683121,34.1227677],[132.9697071,34.1215561],[132.97098,34.1208493],[132.9770288,34.1185794],[132.9783212,34.1180471],[132.9791907,34.1174879],[132.9798392,34.1169092],[132.9807187,34.1159945],[132.9851169,34.1094507],[133.0037149,34.0765167],[133.0057676,34.0727048],[133.0059534,34.0723599],[133.0061006,34.0720401],[133.0061709,34.0717577],[133.0061709,34.071483],[133.0061008,34.0712161],[133.0060619,34.0711272],[133.0059998,34.0709856],[133.0058804,34.0707602]]]}}