{"type":"Feature","properties":{"id":"Orential_Trading_Company_蒸気船マークトウェイン号","name":"蒸気船マークトウェイン号","operator":"Orential Trading Company","category":"ferry","attribution":"© OpenStreetMap contributors"},"geometry":{"type":"MultiLineString","coordinates":[[[139.8830139,35.6314416],[139.8830462,35.6315078],[139.8830878,35.6315467],[139.8832148,35.6316655],[139.8832515,35.6317169],[139.8833059,35.6317621],[139.883399,35.6318046],[139.8834581,35.6318299],[139.8835289,35.6318344],[139.8836323,35.6318307],[139.8840638,35.6317404],[139.8841432,35.6317337],[139.884261,35.6317435],[139.8843897,35.6317824],[139.8845486,35.6318641],[139.88464,35.6319241],[139.8847084,35.6319861],[139.8847616,35.6320612],[139.8847887,35.6321456],[139.8848081,35.6324962],[139.8848369,35.6325649],[139.8848744,35.6326166],[139.8849289,35.6326737],[139.8850087,35.6327132],[139.8850936,35.6327416],[139.8851909,35.6327433],[139.8852866,35.6327265],[139.8853576,35.6327103],[139.8854425,35.632659],[139.8855164,35.6325961],[139.8855671,35.6325231],[139.8855916,35.6324478],[139.8856018,35.6323457],[139.8856044,35.6321569],[139.8855927,35.6320678],[139.8855561,35.6319486],[139.8854792,35.631807],[139.8853432,35.6316278],[139.8852572,35.631553],[139.8851678,35.6314987],[139.8849097,35.6313954],[139.8848243,35.6313735],[139.8847327,35.6313723],[139.8844985,35.6313866],[139.884369,35.6313749],[139.8842567,35.6313586],[139.8841373,35.631316],[139.8840525,35.631283],[139.8839621,35.6312392],[139.8837147,35.631048],[139.8836517,35.6310021],[139.8835695,35.6309636],[139.8834897,35.6309448],[139.8833916,35.630933],[139.8832793,35.6309447],[139.8831845,35.6309751],[139.8831173,35.6310166],[139.8830452,35.6310869],[139.8830086,35.6311388],[139.8829908,35.6311872],[139.8829727,35.6312469],[139.8829762,35.6313399],[139.8830139,35.6314416]]]}}