{"type":"Feature","properties":{"id":"Osakikamijima_Town_大崎上島町営フェリー(白水-福浦-契島)","name":"大崎上島町営フェリー(白水-福浦-契島)","operator":"Osakikamijima Town","category":"ferry","attribution":"© OpenStreetMap contributors"},"geometry":{"type":"MultiLineString","coordinates":[[[132.9036914,34.2982323],[132.9039153,34.2981468],[132.90413,34.2980203],[132.904312,34.2978008],[132.9044437,34.2974458],[132.9044315,34.2970979],[132.9043643,34.2967227],[132.9016833,34.2857324],[132.901601,34.2851598],[132.9015973,34.2847213],[132.9017169,34.2841454],[132.9020004,34.2836409],[132.9027008,34.2828238],[132.9036212,34.282225],[132.9046971,34.2818208],[132.9058169,34.2816166],[132.9066139,34.2815968],[132.9073342,34.281672],[132.9101943,34.2822548],[132.9107034,34.2824075],[132.911155,34.2826552],[132.9115784,34.2829596],[132.9131843,34.2844539]],[[132.9133548,34.2697862],[132.9132444,34.2698611],[132.9131716,34.2699493],[132.9131127,34.2701056],[132.9130912,34.2702774],[132.9135847,34.2769002],[132.9135311,34.2773641],[132.9133817,34.2778439],[132.9112815,34.2816041],[132.9112515,34.281964],[132.911304,34.282192],[132.9113946,34.2824802],[132.9115734,34.2827684],[132.9131843,34.2844539]]]}}