{"type":"Feature","properties":{"id":"Sanyo_Syosen_山陽商船・大崎汽船(竹原‐垂水)","name":"山陽商船・大崎汽船(竹原‐垂水)","operator":"Sanyo Syosen","category":"ferry","attribution":"© OpenStreetMap contributors"},"geometry":{"type":"MultiLineString","coordinates":[[[132.9238874,34.2802826],[132.9238722,34.2803348],[132.923871,34.2803771],[132.9238851,34.2804201],[132.9281662,34.2873465],[132.9285547,34.2881426],[132.9289475,34.2891026],[132.9292157,34.2897922],[132.9294272,34.2905052],[132.9296236,34.2913476],[132.9297351,34.29219],[132.9297814,34.2928818],[132.9297427,34.2935735],[132.9296568,34.2941617],[132.9295142,34.2947264],[132.9162537,34.3262635],[132.9157806,34.3276725],[132.9156557,34.328182],[132.9155844,34.3287447],[132.9155598,34.3292668],[132.9156081,34.3297451],[132.9157304,34.3302386],[132.9159577,34.3306965],[132.9162786,34.3311232],[132.9170038,34.3318279]]]}}