{"type":"Feature","properties":{"id":"Shimanami_Kaiun_しまなみ海運(竹原-めばる-一貫目-天満-沖浦-明石-大長)","name":"しまなみ海運(竹原-めばる-一貫目-天満-沖浦-明石-大長)","operator":"Shimanami Kaiun","category":"ferry","attribution":"© OpenStreetMap contributors"},"geometry":{"type":"MultiLineString","coordinates":[[[132.8586265,34.1849729],[132.8590012,34.1889212],[132.8590617,34.1891482],[132.8591725,34.1893719],[132.8604099,34.1908925],[132.8605972,34.19124],[132.8606983,34.1916282],[132.8606835,34.1939207],[132.8607816,34.1943113],[132.8609912,34.1947049],[132.861213,34.1949641],[132.86211,34.1957617],[132.8757645,34.2050434],[132.875882,34.2051617],[132.8759643,34.2053032],[132.8760158,34.2054518],[132.8760565,34.2056367],[132.8760594,34.2058658]]]}}