{"type":"Feature","properties":{"id":"Shimanami_Kaiun_しまなみ海運_(小長－明石)","name":"しまなみ海運 (小長－明石)","operator":"Shimanami Kaiun","category":"ferry","attribution":"© OpenStreetMap contributors"},"geometry":{"type":"MultiLineString","coordinates":[[[132.8536449,34.1888063],[132.8535035,34.1888932],[132.8534524,34.1889495],[132.8534332,34.189009],[132.8534319,34.1891302],[132.8534772,34.1892514],[132.8542369,34.1902977],[132.8543975,34.1905926],[132.8545101,34.1909171],[132.8545377,34.1913471],[132.8542589,34.1951461],[132.8543043,34.1955227],[132.8544355,34.1959347],[132.8547635,34.196578],[132.8553938,34.1972761],[132.8563311,34.1978426],[132.8572869,34.198291],[132.8753836,34.205067],[132.8756783,34.205214],[132.875874,34.2053844],[132.8759721,34.2055439],[132.8760313,34.2057268],[132.8760594,34.2058658]]]}}