{"type":"Feature","properties":{"id":"Shimanami_Kaiun_しまなみ海運(竹原-めばる-一貫目-天満-沖浦-明石-御手洗-大長)","name":"しまなみ海運(竹原-めばる-一貫目-天満-沖浦-明石-御手洗-大長)","operator":"Shimanami Kaiun","category":"ferry","attribution":"© OpenStreetMap contributors"},"geometry":{"type":"MultiLineString","coordinates":[[[132.8668941,34.1806159],[132.8668818,34.1806854],[132.8668369,34.1807683],[132.8667268,34.1809012],[132.8597442,34.1854555],[132.8595363,34.1855715],[132.8593445,34.1856097],[132.8590897,34.1856175],[132.8589107,34.1855465],[132.8587632,34.1853845],[132.8587068,34.1852137],[132.8586265,34.1849729]],[[132.8760594,34.2058658],[132.8761109,34.2056057],[132.8761284,34.2054249],[132.8760942,34.2052406],[132.8760022,34.2050562],[132.8758111,34.2048777],[132.8622713,34.1956618],[132.8615011,34.1950044],[132.8611437,34.1946119],[132.8609711,34.1943214],[132.8608664,34.1940105],[132.8608294,34.193669],[132.8609743,34.1922723],[132.861077,34.1918992],[132.8613001,34.1915144],[132.8616825,34.1910903],[132.8640801,34.1890749],[132.8642033,34.1889389],[132.8642782,34.1887851],[132.8662533,34.1828261],[132.8668807,34.1809329],[132.866899,34.1808185],[132.8669051,34.1807277],[132.8668941,34.1806159]],[[132.8760594,34.2058658],[132.876148,34.2056603],[132.8762449,34.2055312],[132.8763839,34.2054329],[132.8768429,34.2052372],[132.8773712,34.2050987],[132.8779798,34.2050334],[132.8794627,34.2050187],[132.8810405,34.2051463],[132.8830085,34.2054501],[132.8841565,34.2056738],[132.8848176,34.2058657],[132.8854849,34.2061647],[132.8862031,34.2065549],[132.8868535,34.206996],[132.8912493,34.2105887],[132.8918057,34.2109784],[132.8921207,34.211206],[132.8921755,34.2112587],[132.8922163,34.2113166],[132.8922524,34.2113916]],[[132.8922524,34.2113916],[132.8922474,34.2113154],[132.8922296,34.2112619],[132.8921812,34.211195],[132.8921028,34.2111284],[132.8914094,34.2106056],[132.8912941,34.2104604],[132.8912512,34.2102997],[132.8912484,34.2101497],[132.8913382,34.2099897],[132.891495,34.2098585],[132.8916743,34.2097955],[132.891943,34.209753],[132.9141688,34.2092901],[132.9151677,34.2093135],[132.9166897,34.2095531],[132.9182143,34.2100939],[132.9198248,34.2107668],[132.9215064,34.2117161],[132.9226761,34.2126739],[132.9233301,34.2133297],[132.9238159,34.2139615],[132.9240686,34.2146681],[132.924197,34.2155255],[132.9241635,34.2169795],[132.9239621,34.2182653],[132.9187135,34.2325081],[132.9185399,34.2327278],[132.9182749,34.2329265],[132.9179578,34.2330676],[132.9176402,34.2331659],[132.9174343,34.233214]],[[132.9200063,34.2366223],[132.9204121,34.2364628],[132.9207603,34.2363822],[132.9211085,34.2363636],[132.9219823,34.2364172],[132.9229672,34.236616],[132.9237572,34.2369758],[132.9244341,34.2373998],[132.9251415,34.2380315],[132.9323067,34.2463445],[132.9327504,34.2469264],[132.933086,34.2474864],[132.9390535,34.2600757],[132.9392001,34.2604765],[132.9437898,34.2772494],[132.9438242,34.2775281],[132.9437855,34.2778135],[132.9436557,34.27814],[132.943452,34.2784767],[132.9431395,34.2788236],[132.9426872,34.2791464],[132.9422308,34.2793919],[132.941752,34.279523],[132.9412732,34.2795264],[132.9409092,34.2794136],[132.9406269,34.2792386],[132.940513,34.2791291],[132.940426,34.2790064],[132.9403962,34.2789285]],[[132.9403962,34.2789285],[132.9403923,34.2790744],[132.9403099,34.2794616],[132.9401575,34.2798505],[132.9398785,34.2803147],[132.939426,34.2807777],[132.9353225,34.2835484],[132.9348819,34.2839856],[132.9345617,34.284487],[132.9163105,34.326898],[132.9159459,34.3278675],[132.9157735,34.3287918],[132.9157439,34.3295129],[132.9158364,34.3301525],[132.9160798,34.3307058],[132.9163054,34.3310096],[132.9170038,34.3318279]]]}}