{"type":"Feature","properties":{"id":"way1036788774","name":"way1036788774","operator":"","category":"ferry","attribution":"© OpenStreetMap contributors"},"geometry":{"type":"MultiLineString","coordinates":[[[129.0565904,33.2105684],[129.0567365,33.2109904],[129.056891,33.2112728],[129.0573098,33.2114905],[129.0576309,33.2115007],[129.0582042,33.2113306],[129.0584607,33.2113827],[129.059657,33.2120296],[129.0615426,33.2133597],[129.0645374,33.2145867],[129.0674706,33.2159374],[129.067754,33.2163395],[129.0678033,33.2167726],[129.0678526,33.2175562],[129.0677589,33.2178531],[129.0673049,33.218049]]]}}