{"type":"Feature","properties":{"id":"way1201414427","name":"way1201414427","operator":"","category":"ferry","attribution":"© OpenStreetMap contributors"},"geometry":{"type":"MultiLineString","coordinates":[[[123.8157972,39.7945634],[123.8158896,39.7948254],[123.8168328,39.796616],[123.8185598,39.7986803],[123.8244392,39.8038237],[123.8333656,39.8113898],[123.8507226,39.8156159],[123.84929,39.824496],[123.8524909,39.8255133],[123.8579736,39.8244668],[123.8593293,39.8261568],[123.8611271,39.8302037],[123.861064,39.8307117]]]}}