{"type":"Feature","properties":{"id":"way174078909","name":"way174078909","operator":"","category":"ferry","attribution":"© OpenStreetMap contributors"},"geometry":{"type":"MultiLineString","coordinates":[[[129.092331,32.9937457],[129.0957958,32.9924424],[129.1014024,32.9999109],[129.1146203,33.0428747],[129.1194268,33.0521556],[129.1291257,33.0997677],[129.1309281,33.1153691],[129.129984,33.1256487],[129.1285249,33.134274],[129.1179156,33.166295],[129.0696906,33.1824877],[129.0666868,33.1861771],[129.0625203,33.1862976]]]}}