{"type":"Feature","properties":{"id":"way131488328","name":"way131488328","operator":"","category":"ferry","attribution":"© OpenStreetMap contributors"},"geometry":{"type":"MultiLineString","coordinates":[[[127.7710022,34.5086976],[127.771942,34.5088888],[127.7740225,34.5093108],[127.7748228,34.5093108],[127.7780876,34.5089151],[127.7810965,34.5089415],[127.7822488,34.5091262],[127.782953,34.5095746],[127.7834971,34.5104977],[127.7836251,34.5117901],[127.7835611,34.5140847],[127.7833051,34.5159573],[127.7819927,34.520098],[127.779272,34.5252405],[127.7762311,34.5291961],[127.7748228,34.5306991],[127.7740866,34.5313584],[127.7728702,34.5321231],[127.7712698,34.5328614],[127.7699895,34.5331251],[127.7687091,34.5338634],[127.7676528,34.5357619],[127.7661484,34.5407717],[127.7648361,34.5437246],[127.7623074,34.5483384],[127.7597467,34.5520029],[127.7582743,34.5533738],[127.757058,34.5538746],[127.7556176,34.553611],[127.7539852,34.5529256],[127.7530889,34.5519502],[127.7526547,34.5505613]]]}}