{"type":"Feature","properties":{"id":"way1303597815","name":"way1303597815","operator":"","category":"ferry","attribution":"© OpenStreetMap contributors"},"geometry":{"type":"MultiLineString","coordinates":[[[140.0991026,35.6048399],[140.0990429,35.6047907],[140.0989042,35.604763],[140.0986605,35.6047889],[140.0983307,35.6048086],[140.0979561,35.6046954],[140.0940463,35.6021901],[140.0931639,35.6021563],[140.0923724,35.6023275],[140.0834135,35.610754],[140.0827171,35.6108767],[140.0823521,35.6108446],[140.0808871,35.6099348],[140.0807081,35.6095391],[140.0808671,35.6090922],[140.088017,35.6019488],[140.0883608,35.6012021],[140.087985,35.6001802],[140.0827735,35.5906059],[140.0828737,35.5899832],[140.0837699,35.589589],[140.1032815,35.5888232],[140.1038718,35.5884718],[140.1042609,35.5879148],[140.1063743,35.579172],[140.1070263,35.5786798],[140.1077047,35.5786308],[140.1103816,35.5788909],[140.1109353,35.579232],[140.1111531,35.5796665],[140.108831,35.5894387],[140.1081961,35.5900933],[140.1061869,35.591287],[140.1038118,35.5921516],[140.0893686,35.5931555],[140.0881397,35.5938253],[140.0878617,35.5949296],[140.0880584,35.5960425],[140.0914053,35.600107],[140.0936204,35.6017698],[140.0944166,35.6023168],[140.0979794,35.6046304],[140.0983368,35.6047231],[140.0986612,35.6047154],[140.0989048,35.604706],[140.0990501,35.6047558],[140.0991026,35.6048399]]]}}