{"type":"Feature","properties":{"id":"way1291799381","name":"way1291799381","operator":"","category":"ferry","attribution":"© OpenStreetMap contributors"},"geometry":{"type":"MultiLineString","coordinates":[[[121.9441729,29.2111602],[121.9446373,29.2111366],[121.9463646,29.2117547],[121.9471478,29.2133934],[121.9480491,29.2154816],[121.9497657,29.2171859],[121.9520187,29.2173919],[121.9555163,29.2173732],[121.9582844,29.216493],[121.9596576,29.2143954],[121.965022,29.2110992],[122.0000838,29.2019217],[122.0222282,29.1910948],[122.025919,29.1896149],[122.0263481,29.1896571]]]}}