{"type":"Feature","properties":{"id":"way1414544508","name":"way1414544508","operator":"","category":"ferry","attribution":"© OpenStreetMap contributors"},"geometry":{"type":"MultiLineString","coordinates":[[[126.6276524,35.9786962],[126.628074,35.9788528],[126.6282657,35.9789964],[126.6283096,35.9791514],[126.6282839,35.9792813],[126.6282087,35.9794513],[126.6279118,35.9797111],[126.6271324,35.980174],[126.6234376,35.9814595],[126.6209564,35.9819083],[126.6193823,35.9821247],[126.4981019,35.9761754],[126.4975797,35.9761117],[126.4968716,35.9758917],[126.4960991,35.9755965],[126.4946829,35.9750582],[126.4921724,35.9743752],[126.4869081,35.9733043],[126.4751639,35.9710468],[126.4619316,35.9701264],[126.4474048,35.9671162],[126.4440073,35.966381],[126.4404382,35.965941],[126.4330782,35.9657558],[126.4225139,35.9657731],[126.4086308,35.9655647],[126.3949479,35.9654953],[126.3894762,35.9657616],[126.3705362,35.9659294],[126.3543858,35.9668325],[126.3391222,35.9673825],[126.3338436,35.9676488],[126.3309182,35.9674635],[126.3285793,35.9670988],[126.3240661,35.9662999],[126.3210978,35.9654779],[126.3070787,35.9651421],[126.2991323,35.9641406],[126.2895764,35.9635848],[126.2794198,35.9642101],[126.2714018,35.9652869],[126.2621321,35.9664041],[126.2543572,35.9674056],[126.2455739,35.9685403],[126.2411465,35.9696806],[126.2345375,35.9714057],[126.2292303,35.9739816],[126.2153472,35.979573],[126.2023582,35.9857313],[126.1906852,35.9911946],[126.1781253,35.9971898],[126.1668314,36.0032194],[126.1652721,36.0043535],[126.147545,36.0147568],[126.1263756,36.0263392],[126.0910999,36.0495203],[126.0638233,36.0633142],[126.0462193,36.0723811],[126.0394673,36.0765088],[126.030608,36.082554],[126.0262735,36.0864615],[126.0235497,36.088658],[126.0177705,36.0915826],[126.0019007,36.0982696],[125.9943847,36.1025154],[125.9893356,36.1061561]]]}}