{"type":"Feature","properties":{"id":"way1349703443","name":"way1349703443","operator":"","category":"ferry","attribution":"© OpenStreetMap contributors"},"geometry":{"type":"MultiLineString","coordinates":[[[133.7607017,33.8858157],[133.760761,33.8859009],[133.7607742,33.8860161],[133.7607713,33.8861704],[133.7607356,33.886509],[133.7606335,33.8867382],[133.7604736,33.8871163],[133.7601627,33.8875294],[133.7595755,33.8881538],[133.7586394,33.8893027],[133.7583502,33.8898101],[133.7580498,33.8902554],[133.7577091,33.8905938],[133.7571244,33.8912684],[133.7571506,33.8918953],[133.7567773,33.8928443],[133.7566442,33.8938693],[133.7564968,33.8946268],[133.756142,33.8956725],[133.7560693,33.8962056],[133.756059,33.8962836],[133.756204,33.8962743],[133.7560693,33.8962056]]]}}