{"type":"Feature","properties":{"id":"way131488326","name":"way131488326","operator":"","category":"ferry","attribution":"© OpenStreetMap contributors"},"geometry":{"type":"MultiLineString","coordinates":[[[127.6713628,34.5802526],[127.6743896,34.5832529],[127.6749381,34.5835133],[127.6757301,34.583674],[127.6764264,34.583701],[127.6776596,34.5835177],[127.6788846,34.5832384],[127.6882083,34.5805032],[127.6908369,34.579373],[127.6936203,34.5780326],[127.6986036,34.5751648],[127.7030511,34.5717233],[127.7057303,34.56837],[127.7069092,34.5655019],[127.708088,34.5573383],[127.7098027,34.5385369],[127.709667,34.5376602]]]}}