{"type":"Feature","properties":{"id":"way168099458","name":"way168099458","operator":"","category":"ferry","attribution":"© OpenStreetMap contributors"},"geometry":{"type":"MultiLineString","coordinates":[[[129.3515319,33.000301],[129.351804,33.0005117],[129.3519927,33.0007151],[129.3526384,33.0017849],[129.3554413,33.0015644],[129.3693146,33.0014961],[129.4112,33.0228003],[129.486731,33.0393507],[129.5527992,33.0186442],[129.5609522,33.0159149],[129.5666573,33.0173003],[129.5669154,33.0202941],[129.5665626,33.0207716]]]}}