{"type":"Feature","properties":{"id":"way1303383814","name":"way1303383814","operator":"","category":"ferry","attribution":"© OpenStreetMap contributors"},"geometry":{"type":"MultiLineString","coordinates":[[[139.7614213,35.6506477],[139.761519,35.6506435],[139.7638653,35.6500648],[139.7640826,35.6499673],[139.7642197,35.6497347],[139.7643222,35.6495714],[139.7644531,35.6222239],[139.7645563,35.6219199],[139.7834085,35.5986823],[139.7840431,35.5982755],[139.785103,35.5980729],[139.7859766,35.5982192],[139.788381,35.5996071],[139.7951806,35.6067039],[139.8005646,35.611852],[139.8065112,35.6153994],[139.8077933,35.6157415],[139.8099026,35.6159834],[139.8117817,35.615843],[139.8223124,35.6122431],[139.824785,35.610631],[139.8261547,35.6092762],[139.8440693,35.5842621],[139.8443708,35.5830658],[139.8443556,35.5822451],[139.8442543,35.5814793],[139.8433957,35.5799741],[139.8421777,35.5788558],[139.8365018,35.5753614],[139.834596,35.5743619],[139.8203049,35.5685511],[139.8174174,35.5679124],[139.8144908,35.5677493],[139.8114235,35.5683383],[139.8101375,35.568923],[139.808471,35.5699625],[139.8075722,35.5707038],[139.7873385,35.5904738],[139.7634875,35.6215598],[139.7634542,35.6217307],[139.7614736,35.6505406],[139.7614213,35.6506477]]]}}