{"type":"Feature","properties":{"id":"way1014977821","name":"way1014977821","operator":"","category":"ferry","attribution":"© OpenStreetMap contributors"},"geometry":{"type":"MultiLineString","coordinates":[[[128.1818615,34.7092601],[128.1820138,34.7093822],[128.1821493,34.7095339],[128.1862148,34.7135844],[128.324522,34.8341372],[128.3370286,34.8468511],[128.346427,34.8492988],[128.3518877,34.8480637],[128.3606854,34.8441806],[128.372015,34.8367135],[128.3742252,34.8357096],[128.3862093,34.8303288],[128.3908978,34.8284882],[128.3941164,34.8277836],[128.3970561,34.8290783],[128.4018197,34.8315529],[128.4056177,34.8324953],[128.4077742,34.8342477],[128.4087398,34.8344327],[128.4112826,34.8346],[128.4170976,34.8362732],[128.4187391,34.8370217],[128.4199622,34.8379463],[128.4204158,34.8393395]]]}}