{"type":"Feature","properties":{"id":"way1087933187","name":"way1087933187","operator":"","category":"ferry","attribution":"© OpenStreetMap contributors"},"geometry":{"type":"MultiLineString","coordinates":[[[127.3086121,34.027727],[127.3085923,34.0277286],[127.3085703,34.0277286],[127.3085418,34.0277299],[127.308192,34.027784],[127.3078098,34.0278544],[127.3074276,34.0279717],[127.3072465,34.0281018],[127.3071444,34.0282533],[127.3069462,34.0287343],[127.306833,34.0292623],[127.3067197,34.0301657],[127.3065074,34.0327306],[127.3063786,34.0342065],[127.306331,34.0350556],[127.3063497,34.0357694],[127.3063858,34.0364738],[127.3065901,34.0384692],[127.3067141,34.0392945],[127.306958,34.0402166],[127.3072648,34.0411034],[127.3075028,34.0416872],[127.3080523,34.0429015],[127.3085888,34.0437905],[127.310835,34.0473358]]]}}