{"type":"Feature","properties":{"id":"way1314498872","name":"way1314498872","operator":"","category":"ferry","attribution":"© OpenStreetMap contributors"},"geometry":{"type":"MultiLineString","coordinates":[[[126.569263,34.1365446],[126.5692763,34.1367362],[126.5692056,34.1368715],[126.5691438,34.1369483],[126.5690333,34.1370141],[126.5686799,34.1370799],[126.5654967,34.1373586],[126.5648017,34.1373119],[126.5645123,34.1372114],[126.5643244,34.1370734],[126.5642759,34.1369756],[126.5642062,34.1369054],[126.5640865,34.1368661]]]}}