{"type":"Feature","properties":{"id":"way1201414423","name":"way1201414423","operator":"","category":"ferry","attribution":"© OpenStreetMap contributors"},"geometry":{"type":"MultiLineString","coordinates":[[[123.1524283,39.0702291],[123.1524552,39.0705769],[123.1517832,39.0713907],[123.1503676,39.0724897],[123.1483159,39.0729488],[123.1424564,39.0736235],[123.1320773,39.073853],[123.1035601,39.0801662],[123.0063353,39.108627],[122.7018415,39.1818701],[122.6772296,39.1862776],[122.6390135,39.2091426],[122.6234781,39.2239717],[122.6046068,39.2389578],[122.5956148,39.2468569],[122.5831751,39.2518405]]]}}