{"type":"Feature","properties":{"id":"way167938082","name":"way167938082","operator":"","category":"ferry","attribution":"© OpenStreetMap contributors"},"geometry":{"type":"MultiLineString","coordinates":[[[122.5831751,39.2518405],[122.5860086,39.2493102],[122.5878969,39.2471167],[122.5880685,39.2445908],[122.5791421,39.2293007],[122.5342355,39.1984576],[122.4485078,39.1513355],[122.4189821,39.1438804],[122.3925977,39.147841],[122.376925,39.154131],[122.3692003,39.1625167],[122.3692818,39.1660845],[122.3709437,39.1667965],[122.3719808,39.1662131]]]}}