{"type":"Feature","properties":{"id":"way168099454","name":"way168099454","operator":"","category":"ferry","attribution":"© OpenStreetMap contributors"},"geometry":{"type":"MultiLineString","coordinates":[[[129.2377778,32.9992356],[129.238147,32.9992524],[129.2380719,32.9990001],[129.2337549,32.9983433],[129.2305264,32.9893302],[129.2334446,32.9863065],[129.2611679,32.9859825],[129.2779264,32.9856225],[129.2990193,32.9857845],[129.3467411,32.9871884],[129.3563327,32.9947474],[129.3553028,33.0007312],[129.3530508,33.0016486],[129.3521422,33.0006984],[129.3518177,33.0004146],[129.3515319,33.000301]]]}}