{"type":"Feature","properties":{"id":"way1307149436","name":"way1307149436","operator":"","category":"ferry","attribution":"© OpenStreetMap contributors"},"geometry":{"type":"MultiLineString","coordinates":[[[140.0755626,35.8829242],[140.0755988,35.8832654],[140.0752662,35.883474],[140.0722621,35.8844302],[140.0706099,35.8851082],[140.0673161,35.8857602],[140.0657068,35.8863252],[140.0655983,35.8863756],[140.0620805,35.8880115],[140.0605892,35.888898],[140.0600205,35.8893066],[140.0600485,35.8897021]]]}}