{"type":"Feature","properties":{"id":"way169957110","name":"way169957110","operator":"","category":"ferry","attribution":"© OpenStreetMap contributors"},"geometry":{"type":"MultiLineString","coordinates":[[[126.7538205,26.3403947],[126.7535235,26.3402354],[126.7529682,26.3398605],[126.7528443,26.3396967],[126.7533178,26.3391679],[126.7556077,26.3364661],[126.7585163,26.3337334],[126.7589592,26.3329521],[126.7591277,26.3319614],[126.7589601,26.3309613],[126.7583791,26.3300926],[126.7552755,26.3279978],[126.7541603,26.3269964],[126.7533667,26.3253393],[126.7531899,26.323486],[126.753753,26.3155764],[126.7562655,26.3045702],[126.7599836,26.2949361],[126.7652616,26.2870961],[126.7796554,26.2724537],[126.7874419,26.2669448],[126.797209,26.2623933],[126.8092591,26.2595556],[126.821849,26.2578503],[126.8500551,26.2576001],[126.8964109,26.258117],[126.955702,26.26345],[126.995717,26.2681713],[127.1433303,26.2952923],[127.1823277,26.3011717],[127.2060902,26.3039317],[127.228348,26.3055416],[127.4015701,26.2685649],[127.5419427,26.2385484],[127.5746053,26.2349784],[127.6227298,26.2331174],[127.6369515,26.2307629],[127.6459741,26.2275856],[127.6486619,26.2252013],[127.6498153,26.2245185],[127.6502871,26.223523],[127.6510358,26.2228282],[127.6518527,26.2225057],[127.6528509,26.2223373],[127.6546744,26.2223896],[127.655258,26.2223867],[127.6638031,26.2249699],[127.6729405,26.2275194],[127.6740116,26.2275432],[127.674847,26.2274061],[127.6755161,26.2273113],[127.6765029,26.2271145],[127.6812852,26.2258816],[127.6818123,26.2256441],[127.6819895,26.225509],[127.6820888,26.2253827],[127.6821448,26.2250932],[127.6821447,26.224376]]]}}