{"type":"Feature","properties":{"id":"way1281889367","name":"way1281889367","operator":"","category":"ferry","attribution":"© OpenStreetMap contributors"},"geometry":{"type":"MultiLineString","coordinates":[[[122.1322206,30.6007881],[122.134366,30.5934447],[122.1342372,30.5891594],[122.1266841,30.5724596],[122.0296096,30.351213],[122.0213698,30.3292497],[122.0187091,30.3105788],[122.0171641,30.2926455],[122.0199108,30.2811945],[122.0539855,30.2213244],[122.075057,30.194102],[122.0960425,30.1800799],[122.1109342,30.1654621],[122.117393,30.1523822],[122.1171784,30.1464168],[122.1169639,30.144051],[122.1168351,30.142817],[122.1167278,30.1421675],[122.1163952,30.1418706],[122.1155976,30.1415803]]]}}