{"type":"Feature","properties":{"id":"way175699291","name":"way175699291","operator":"","category":"ferry","attribution":"© OpenStreetMap contributors"},"geometry":{"type":"MultiLineString","coordinates":[[[129.9366899,28.3263853],[129.9363501,28.3269227],[129.9359345,28.3276909],[129.9355305,28.3282516],[129.9340429,28.3299201],[129.9336648,28.3306723],[129.9330563,28.3327088],[129.8469236,29.2062288],[129.846093,29.2319656],[129.8481696,29.2576961],[129.8552304,29.2808841],[130.2809215,30.3102495],[130.5881321,31.0434902],[130.6009993,31.0680615],[130.6169957,31.0913339],[130.6817357,31.1656005],[130.6972705,31.1866574],[130.7096492,31.2088321],[130.716777,31.2286658],[130.7185894,31.2406125],[130.718344,31.2574665],[130.7137415,31.2740743],[130.6543511,31.3609367],[130.6279255,31.4083358],[130.6173385,31.4311255],[130.6059731,31.4670501],[130.5875209,31.5539361],[130.5825716,31.5715197],[130.577101,31.5908952],[130.5762289,31.5918968],[130.5752151,31.5924418],[130.5739972,31.5927285],[130.5686611,31.5940404],[130.567866,31.5942191],[130.5668454,31.5942135],[130.5664348,31.5943048]]]}}