{"type":"Feature","properties":{"id":"way242996561","name":"way242996561","operator":"","category":"ferry","attribution":"© OpenStreetMap contributors"},"geometry":{"type":"MultiLineString","coordinates":[[[127.9224236,38.4173617],[127.9225311,38.4186196],[127.9217372,38.4198805],[127.9194197,38.4202839],[127.9163728,38.419561],[127.9128537,38.4182497],[127.9098925,38.4168375],[127.9080257,38.4170056],[127.904099,38.4185692],[127.9029832,38.4201158],[127.9020949,38.4201755],[127.9009478,38.419946]]]}}