{"type":"Feature","properties":{"id":"way248637619","name":"way248637619","operator":"","category":"ferry","attribution":"© OpenStreetMap contributors"},"geometry":{"type":"MultiLineString","coordinates":[[[138.8775424,35.4088308],[138.8773898,35.4092365],[138.8772765,35.4096009],[138.8771883,35.4101038],[138.8773646,35.4105451],[138.8777235,35.4111095],[138.8781516,35.4114071],[138.8797571,35.4121101],[138.8814948,35.413085],[138.881797,35.4133724],[138.8818348,35.4137059],[138.8817277,35.4140548],[138.8812996,35.4146757],[138.8810793,35.4147988],[138.8807456,35.4147937],[138.8790016,35.4143217],[138.8779124,35.4138855],[138.8767161,35.4132441],[138.876351,35.4129927],[138.8762187,35.4127772],[138.8761873,35.4124642],[138.8763824,35.4119305],[138.877075,35.4101961],[138.8771883,35.4101038]]]}}