{"type":"Feature","properties":{"id":"way202535052","name":"way202535052","operator":"","category":"ferry","attribution":"© OpenStreetMap contributors"},"geometry":{"type":"MultiLineString","coordinates":[[[139.7151894,35.2206091],[139.7152205,35.2217342],[139.7161845,35.2230375],[139.7180782,35.2236582],[139.7313342,35.2212329],[139.7401456,35.2124213],[139.7378054,35.181144],[139.7178145,35.1324875],[139.4043366,34.8692827],[139.3521254,34.801075],[139.3476777,34.7952382],[139.3445223,34.7910025],[139.3420951,34.7866171],[139.3405781,34.7829292],[139.3388791,34.7779453],[139.3377869,34.7721635],[139.3372407,34.7682258],[139.3373664,34.7652413],[139.3378215,34.7628734],[139.3387417,34.7604827],[139.3433066,34.7523652],[139.345171,34.7516564],[139.3477524,34.7515705],[139.3497593,34.7517255]]]}}