{"type":"Feature","properties":{"id":"way233523109","name":"way233523109","operator":"","category":"ferry","attribution":"© OpenStreetMap contributors"},"geometry":{"type":"MultiLineString","coordinates":[[[140.8909816,40.426922],[140.8902563,40.4270638],[140.8900712,40.4288313],[140.8898532,40.4300476],[140.8895335,40.4309186],[140.8892138,40.4316102],[140.8888941,40.4321225],[140.8882884,40.4325835],[140.886976,40.4330062],[140.8855458,40.4334032],[140.883106,40.4336722],[140.8808414,40.4339203],[140.8799665,40.4340868],[140.8791252,40.4344325],[140.8785531,40.4348039],[140.8778801,40.4355595],[140.8772743,40.4368914],[140.8758573,40.4414297],[140.8749054,40.4450515],[140.8746199,40.4478765],[140.8745961,40.4497959],[140.8749054,40.4506107],[140.8757145,40.4514799],[140.8765282,40.4518352],[140.8778238,40.4519376],[140.8791194,40.4515663],[140.8802803,40.4507725],[140.8817105,40.4497226],[140.8833258,40.4485446],[140.8853113,40.4470081],[140.8857824,40.4461501],[140.8861962,40.4449743],[140.8868863,40.4439964],[140.8879095,40.443435],[140.8892896,40.4433083],[140.8915978,40.4433264],[140.8993289,40.4432692],[140.9032789,40.4432692],[140.9061819,40.4434503],[140.9086566,40.4442833],[140.9103223,40.4456234],[140.9106554,40.4468185],[140.9099416,40.4487742],[140.9079428,40.4514541],[140.905468,40.453627],[140.9035644,40.4555824],[140.9017999,40.4570107],[140.9008577,40.458675],[140.9014298,40.460877],[140.9028431,40.4629509],[140.9046267,40.4651271],[140.9058045,40.4659464],[140.9092804,40.4671613],[140.9211305,40.4708904],[140.9295065,40.4735332],[140.9329468,40.4746219],[140.9354691,40.4755088],[140.9370798,40.4760807],[140.9380978,40.4764967],[140.939141,40.4769254],[140.9397215,40.477271],[140.9400832,40.4776294],[140.9401926,40.4779621],[140.9401589,40.4781861],[140.9400594,40.4783406],[140.9399149,40.4784431]]]}}