{"type":"Feature","properties":{"id":"way289526612","name":"way289526612","operator":"","category":"ferry","attribution":"© OpenStreetMap contributors"},"geometry":{"type":"MultiLineString","coordinates":[[[121.7859514,25.1461024],[121.7859753,25.1460866],[121.7859986,25.1460758],[121.7860236,25.146072],[121.7860469,25.1460785],[121.786077,25.1461204],[121.7862183,25.146281],[121.7863478,25.1464356],[121.786515,25.146588],[121.7866662,25.1466514],[121.7870202,25.1466368],[121.7872616,25.1466052],[121.7874467,25.1465543],[121.7877203,25.1464596],[121.7879563,25.14636],[121.7882621,25.1462289],[121.7884793,25.1461391],[121.7886886,25.1460881],[121.7889219,25.1460565],[121.7891365,25.1460541],[121.7893028,25.1460759],[121.7894557,25.1461342],[121.7895978,25.1462095],[121.7896944,25.1462872],[121.7897936,25.1464086],[121.7898768,25.1465737],[121.7899492,25.1467412],[121.790719,25.1491036],[121.7910198,25.1498413],[121.7913014,25.1505121],[121.7919539,25.1518179],[121.7929448,25.153649],[121.7943519,25.1561431],[121.9442789,25.4186499],[121.9451992,25.4202596],[121.9455164,25.4209942],[121.9457719,25.4216681],[121.9458008,25.4221285],[121.9457867,25.4226179],[121.9456583,25.4230005],[121.9454869,25.4232631],[121.945223,25.4235839],[121.9451043,25.4239629],[121.9450666,25.4244045],[121.9451639,25.4247982],[121.945428,25.4250847],[121.9458637,25.4253515],[121.9463473,25.425443],[121.9468149,25.4253935],[121.9472448,25.4251942],[121.9475672,25.424859],[121.9478596,25.4244582],[121.9481657,25.4240841],[121.9485603,25.4238905],[121.9491093,25.423804],[121.9498101,25.4238541],[121.9505741,25.4240374],[121.9514229,25.4244282],[121.9523731,25.4251564],[121.9538307,25.4268542],[122.063352,25.6268013],[122.0644812,25.6288747],[122.0654506,25.6305402],[122.0667204,25.6321476],[122.0681004,25.6333199],[122.0699693,25.6343513],[122.0716665,25.634939],[122.073543,25.6354095],[122.0754004,25.6356864],[122.077535,25.6357813],[122.0794575,25.6357397],[122.0809938,25.6356224],[122.0825897,25.635383],[122.0835796,25.6350269],[122.0844595,25.6344513],[122.0849001,25.6338533],[122.0851805,25.6332715],[122.085401,25.6326836],[122.0855828,25.6319147],[122.0858438,25.631413],[122.0863488,25.6309978]]]}}