{"type":"Feature","properties":{"id":"way351397831","name":"way351397831","operator":"","category":"ferry","attribution":"© OpenStreetMap contributors"},"geometry":{"type":"MultiLineString","coordinates":[[[127.8159249,37.9516886],[127.8171508,37.9524901],[127.8174126,37.9534877],[127.8173467,37.9545566],[127.81711,37.9554119],[127.8164269,37.9569442],[127.8157033,37.9587392],[127.8152642,37.9600791],[127.8150853,37.9607394],[127.8149959,37.9614125],[127.8150772,37.9625792],[127.8150528,37.9629703],[127.8148333,37.9633677],[127.8144186,37.9636947],[127.8133291,37.964278],[127.8129632,37.9645537],[127.8127111,37.9648549],[127.8125404,37.965246],[127.8124916,37.9660088],[127.8126135,37.967637],[127.8127274,37.9683293],[127.8129063,37.9689382],[127.8136218,37.9705471],[127.8147898,37.9735368],[127.8156276,37.9748286],[127.8159453,37.9752342],[127.8172316,37.9755969]]]}}