{"type":"Feature","properties":{"id":"way351626179","name":"way351626179","operator":"","category":"ferry","attribution":"© OpenStreetMap contributors"},"geometry":{"type":"MultiLineString","coordinates":[[[126.2146897,37.6658929],[126.2154836,37.6656381],[126.2160415,37.6651625],[126.2179942,37.6615784],[126.2199254,37.6585717],[126.2214489,37.6574166],[126.2226505,37.6569919],[126.2237234,37.656839],[126.2256546,37.656856],[126.2268133,37.6569409],[126.2335081,37.658215],[126.2344522,37.6586057],[126.2350101,37.6590814],[126.2351495,37.6593808],[126.2352001,37.6594368]]]}}