{"type":"Feature","properties":{"id":"way376985762","name":"way376985762","operator":"","category":"ferry","attribution":"© OpenStreetMap contributors"},"geometry":{"type":"MultiLineString","coordinates":[[[128.7248352,34.8661324],[128.7399387,34.8505442],[128.7428569,34.7855408],[128.7264632,34.7682685],[128.6863482,34.7367219],[128.6861508,34.7331492],[128.6848033,34.7333838],[128.6859931,34.7328671],[128.6849063,34.7299168],[128.6837905,34.7292696],[128.6827144,34.7291867],[128.6822423,34.7294222],[128.6819558,34.7299627],[128.6817273,34.7330196],[128.681885,34.7342893],[128.6821876,34.7353129],[128.6825996,34.7359469],[128.6837475,34.7365473],[128.6845029,34.7365226],[128.6849599,34.7367342],[128.7065827,34.7691963],[128.7086924,34.7699922],[128.7096352,34.7697805],[128.7088748,34.7702759],[128.7085529,34.7715377],[128.708764,34.7723985],[128.7094182,34.7732122],[128.7104159,34.7743255],[128.7419128,34.7863163],[128.7392306,34.8504209],[128.7248352,34.8661324]]]}}