{"type":"Feature","properties":{"id":"way351564178","name":"way351564178","operator":"","category":"ferry","attribution":"© OpenStreetMap contributors"},"geometry":{"type":"MultiLineString","coordinates":[[[126.5602495,37.0364004],[126.5619758,37.0354639],[126.5625385,37.0353072],[126.5630249,37.0352013],[126.5638292,37.0350452],[126.5646403,37.0352797],[126.565286,37.0361094],[126.5656187,37.0375911],[126.5657045,37.037985],[126.565726,37.0384817],[126.5656401,37.0389613],[126.565447,37.0395608],[126.5629365,37.0428664],[126.5616061,37.0451786],[126.5607518,37.0604304],[126.5605835,37.061007]]]}}