{"type":"Feature","properties":{"id":"way301718500","name":"way301718500","operator":"","category":"ferry","attribution":"© OpenStreetMap contributors"},"geometry":{"type":"MultiLineString","coordinates":[[[139.883485,35.6339104],[139.8834396,35.6339324],[139.8834284,35.6339496],[139.8834105,35.6339692],[139.883386,35.633969],[139.8833532,35.6339557],[139.8832508,35.6338663],[139.8832217,35.6338561],[139.8831879,35.6338576],[139.8831801,35.6338829],[139.883184,35.6339114],[139.8832304,35.6339864],[139.8832576,35.6340055],[139.8832633,35.6340323],[139.8832458,35.6340529],[139.8832155,35.6340599],[139.8831536,35.634087],[139.8831023,35.6341052],[139.8830433,35.6341172],[139.882993,35.6341118],[139.8829521,35.6340829],[139.8829307,35.6340246],[139.8829059,35.633975],[139.8828582,35.6339384],[139.8828361,35.6339036],[139.8828509,35.6338736],[139.8828931,35.6338469],[139.8829166,35.6337967],[139.8829199,35.6337319],[139.8828717,35.633661],[139.8828582,35.6336256],[139.8828515,35.6335624],[139.8828287,35.6335422],[139.8827872,35.6335177],[139.8827268,35.633503],[139.8826517,35.6334915],[139.8826236,35.6334861],[139.882594,35.6334915],[139.8825753,35.6335035],[139.8825487,35.6335403],[139.8825375,35.6335923],[139.882499,35.6337392],[139.8824986,35.6338295],[139.882506,35.633896],[139.8825053,35.6339234],[139.8824995,35.6339496],[139.8824955,35.633985],[139.8825089,35.6340194],[139.8825371,35.6340409],[139.8825971,35.6340687],[139.8826366,35.6340984],[139.8826517,35.6341224],[139.8826498,35.6341545],[139.8826468,35.6341852],[139.8826461,35.6342106],[139.8826498,35.6342338],[139.8826566,35.634249],[139.882668,35.6342609],[139.882689,35.6342732],[139.8827093,35.6342785],[139.8827868,35.6342787],[139.8828166,35.6342817],[139.8828375,35.634289],[139.8828568,35.634302],[139.8828704,35.6343219],[139.8828738,35.634344],[139.8828779,35.6343729],[139.8828961,35.634405],[139.8829231,35.6344164],[139.882982,35.6344169],[139.8830229,35.6344115],[139.8830507,35.6343777],[139.8830923,35.6343267],[139.8831372,35.634293],[139.8831855,35.6342733],[139.883226,35.6342853],[139.8832566,35.6343126],[139.8832874,35.6343464],[139.883336,35.6343712],[139.8833779,35.6343842],[139.8834148,35.6343761],[139.8834534,35.6343614],[139.8835177,35.6343276],[139.883563,35.6343017],[139.88357,35.6342643],[139.8835821,35.6342167],[139.8836361,35.6341949],[139.8836984,35.6341785],[139.8837521,35.6341638],[139.8837645,35.6341346],[139.8837484,35.6341101],[139.8837243,35.6340635],[139.8836934,35.6340011],[139.8837062,35.6339562],[139.8837266,35.6339126],[139.8837575,35.6338452],[139.8837933,35.633821],[139.8838255,35.6338098],[139.8838621,35.6338104],[139.8839013,35.6338311],[139.8839298,35.6338542],[139.8839445,35.6339076],[139.883974,35.6339398],[139.8840237,35.6339881],[139.8840627,35.6340082],[139.8841123,35.6340158],[139.8841658,35.6340103],[139.8842136,35.6339924],[139.8842694,35.6339521],[139.8843083,35.6339172],[139.8843271,35.6338774],[139.8843181,35.6338369],[139.884318,35.6337747],[139.8842979,35.6337153],[139.8842698,35.6336902],[139.8842282,35.6336831],[139.8841839,35.6336951],[139.8841504,35.6337245],[139.8841253,35.6337679],[139.8840894,35.6337878],[139.8840356,35.6337886],[139.8839924,35.6337845],[139.8839582,35.6337764],[139.8839334,35.6337655],[139.8838619,35.6337363],[139.8838145,35.6337145],[139.8837883,35.6336978],[139.8837665,35.6336812],[139.883732,35.633676],[139.8836881,35.6336897],[139.8836435,35.6337185],[139.8836143,35.6337496],[139.8835908,35.6337981],[139.8835824,35.6338406],[139.8835583,35.6338676],[139.8835271,35.6338853],[139.883485,35.6339104]]]}}