{"type":"Feature","properties":{"id":"way365326535","name":"way365326535","operator":"","category":"ferry","attribution":"© OpenStreetMap contributors"},"geometry":{"type":"MultiLineString","coordinates":[[[127.8159249,37.9516886],[127.8160264,37.9517188],[127.8161283,37.9517061],[127.8162047,37.951667],[127.8174484,37.950808],[127.8180444,37.9499448],[127.8186607,37.9487534],[127.8193051,37.9477432],[127.8234702,37.9447136],[127.8255513,37.9429608],[127.8286799,37.9404711],[127.8330544,37.9379702],[127.8346258,37.9372221],[127.8359015,37.9369148],[127.837146,37.9367287],[127.8400642,37.9366779],[127.8427894,37.9369317],[127.8584535,37.9395041],[127.8602988,37.9395548],[127.8622944,37.9392502],[127.8635175,37.9387764],[127.8648479,37.9378118],[127.8653628,37.936881],[127.8655989,37.9357979],[127.8655774,37.9350871],[127.8653199,37.9343424],[127.8646762,37.9335131],[127.8622086,37.931533],[127.8619725,37.9310591],[127.8618652,37.9305006],[127.8618652,37.9298743],[127.8620369,37.9292312],[127.8646118,37.9248136],[127.8650839,37.924018],[127.8666932,37.9214113],[127.8668649,37.9210051],[127.8669293,37.9207004],[127.8670151,37.920091],[127.8669722,37.9194816],[127.8665216,37.9149957],[127.8662426,37.9139631],[127.866028,37.913032],[127.8659207,37.9124226],[127.8659422,37.9119316],[127.8661353,37.9115253],[127.8665001,37.911119],[127.8669293,37.9107635],[127.8677017,37.9105434],[127.8681309,37.9105434],[127.8684527,37.910645],[127.8687317,37.9107974],[127.8689463,37.9110513],[127.8693754,37.9122194],[127.8695256,37.9123718],[127.8698475,37.9125411],[127.8702123,37.912558],[127.8705771,37.9124564],[127.8728301,37.9105942],[127.8762848,37.9081055],[127.8802759,37.9054305],[127.881162,37.9049941],[127.883058,37.9042498],[127.8832915,37.9041319],[127.8836464,37.9037781],[127.8848666,37.9009117],[127.8849792,37.9000651],[127.8851455,37.8995656],[127.8852662,37.8993878],[127.8854164,37.8992883],[127.8855479,37.8992502],[127.8860763,37.8992142],[127.886484,37.8992269],[127.8879257,37.89908],[127.8896499,37.8960449]]]}}