{"type":"Feature","properties":{"id":"way453998741","name":"way453998741","operator":"","category":"ferry","attribution":"© OpenStreetMap contributors"},"geometry":{"type":"MultiLineString","coordinates":[[[133.5785362,34.3553351],[133.5787108,34.3558902],[133.5787591,34.3562533],[133.5796882,34.3569285],[133.5798982,34.3573073],[133.5796416,34.3577075],[133.5785768,34.3588895],[133.5779024,34.3596953],[133.5774496,34.3602996],[133.5776023,34.361146],[133.5796295,34.3624613],[133.5802931,34.3627707],[133.5810926,34.3629462],[133.5817067,34.3628707],[133.5822326,34.362597],[133.5826431,34.3620922]]]}}