{"type":"Feature","properties":{"id":"way462220921","name":"way462220921","operator":"","category":"ferry","attribution":"© OpenStreetMap contributors"},"geometry":{"type":"MultiLineString","coordinates":[[[124.1555104,24.3364757],[124.155737,24.3362228],[124.1557117,24.335936],[124.155449,24.3355233],[124.1548614,24.3352495],[124.1542836,24.3351349],[124.1459811,24.3350195],[124.1400108,24.3337916],[124.1363116,24.3336442],[124.1331079,24.3338102],[124.1315821,24.3335558],[124.1302946,24.3330686],[124.1267323,24.3304004],[124.1237712,24.3274676],[124.1088581,24.3018123],[124.0847826,24.2889827],[124.037919,24.2793206],[123.9752,24.2617664],[123.912565,24.250683],[123.9088636,24.2508199],[123.9048424,24.2517414],[123.9006152,24.2547542],[123.8995028,24.2558771],[123.8988483,24.2562358],[123.8982257,24.2562997],[123.8975126,24.2562374],[123.895551,24.2554793],[123.8949807,24.2553827],[123.894378,24.2554875],[123.8926239,24.2569412],[123.8922393,24.257465],[123.8919945,24.2581117],[123.8917352,24.2597175],[123.8914365,24.2606896],[123.88971,24.2633074],[123.8855553,24.2690132],[123.8853033,24.2695148],[123.8852157,24.2698506],[123.8850868,24.2716133],[123.8849886,24.2718475],[123.8848366,24.2719918],[123.8846086,24.2720472],[123.8843549,24.2720036],[123.8841042,24.2718945]]]}}