{"type":"Feature","properties":{"id":"way494684538","name":"way494684538","operator":"","category":"ferry","attribution":"© OpenStreetMap contributors"},"geometry":{"type":"MultiLineString","coordinates":[[[132.4878551,33.73644],[132.4876741,33.735917],[132.4877948,33.7356962],[132.488012,33.7355021],[132.4882346,33.7354279],[132.4884411,33.7353537],[132.4886423,33.7352528],[132.4888059,33.735134],[132.4889588,33.7338336],[132.4914264,33.7298364],[132.4934005,33.7189855],[132.4927997,33.7059199],[132.4911688,33.6703543],[132.4909971,33.6354885],[132.4910402,33.6236251],[132.4901068,33.6195869],[132.488476,33.6183897],[132.4861586,33.6169959],[132.4856597,33.6163258],[132.4852574,33.6156743]]]}}