{"type":"Feature","properties":{"id":"way439696427","name":"way439696427","operator":"","category":"ferry","attribution":"© OpenStreetMap contributors"},"geometry":{"type":"MultiLineString","coordinates":[[[132.0796668,33.8925069],[132.0795978,33.8923826],[132.0795281,33.8922798],[132.0794347,33.892205],[132.0792964,33.892139],[132.0787425,33.8917589],[132.0786765,33.8916764],[132.0757792,33.8867021],[132.0743685,33.884714],[132.0728965,33.8827021],[132.0675923,33.8761341],[132.0669832,33.8754261],[132.0667164,33.8751429]]]}}