{"type":"Feature","properties":{"id":"way453998704","name":"way453998704","operator":"","category":"ferry","attribution":"© OpenStreetMap contributors"},"geometry":{"type":"MultiLineString","coordinates":[[[133.5095187,34.4993068],[133.5072827,34.4971741],[133.5179436,34.4789851],[133.5180437,34.4788252],[133.5206258,34.474703],[133.5237658,34.4737861],[133.5262299,34.4742607],[133.5275924,34.4734293],[133.5335684,34.4575088],[133.5213157,34.444421],[133.5114988,34.4390768],[133.5060915,34.4361744],[133.5026139,34.4323635],[133.5032035,34.4311871]]]}}