{"type":"Feature","properties":{"id":"way453998730","name":"way453998730","operator":"","category":"ferry","attribution":"© OpenStreetMap contributors"},"geometry":{"type":"MultiLineString","coordinates":[[[133.5175487,34.4095393],[133.5180594,34.410265],[133.5184619,34.4116063],[133.5183623,34.4118241],[133.5173936,34.4129507],[133.516132,34.4139394],[133.5139069,34.4155189],[133.5113609,34.4170728],[133.5074767,34.4191656],[133.4993146,34.4235435],[133.4984139,34.4245429],[133.4981793,34.4256757],[133.498269,34.4270399],[133.4990038,34.4289734],[133.4999715,34.431052],[133.500886,34.4316999],[133.5019482,34.4315215],[133.5032035,34.4311871]]]}}