{"type":"Feature","properties":{"id":"way467722200","name":"way467722200","operator":"","category":"ferry","attribution":"© OpenStreetMap contributors"},"geometry":{"type":"MultiLineString","coordinates":[[[127.1403328,26.3720985],[127.1402859,26.3725469],[127.1401751,26.3726764],[127.1399392,26.3727799],[127.1393325,26.3727972],[127.1384705,26.3726548],[127.1369649,26.3722691],[127.1346125,26.3717481],[127.1322836,26.3711117],[127.1302591,26.370785],[127.1283291,26.3701798],[127.1258827,26.3693526],[127.1234831,26.3684867],[127.1201725,26.3673422],[127.1164953,26.3649751],[127.1118144,26.3615088],[127.0397864,26.3401816],[127.0243431,26.335917],[127.0082835,26.3312016],[126.986198,26.3266582],[126.9305313,26.314027],[126.8787004,26.2997446],[126.841954,26.2878887],[126.8191554,26.281151],[126.8055756,26.2806965],[126.7948855,26.2839306],[126.7884495,26.2888059],[126.77962,26.2918832],[126.7705314,26.2987988],[126.7647326,26.3028134],[126.7591293,26.3076167],[126.7560053,26.3115643],[126.7517024,26.3154999],[126.7493254,26.3197804],[126.7497664,26.3234804],[126.7536389,26.3271237],[126.7553205,26.3279448],[126.7584072,26.330066],[126.7590097,26.3309515],[126.759173,26.3319682],[126.7589902,26.3329647],[126.758545,26.3337497],[126.7556389,26.3364996],[126.7542273,26.3381703],[126.7533544,26.3391741],[126.7528866,26.3397435],[126.7533788,26.340045],[126.7535676,26.3401698],[126.7538205,26.3403947]]]}}