{"type":"Feature","properties":{"id":"way453998700","name":"way453998700","operator":"","category":"ferry","attribution":"© OpenStreetMap contributors"},"geometry":{"type":"MultiLineString","coordinates":[[[133.5175031,34.4105999],[133.5178971,34.4108707],[133.5182029,34.4110743],[133.5184282,34.4112779],[133.518514,34.4114372],[133.5185702,34.4116512],[133.5182415,34.413027],[133.5184709,34.4144453],[133.5191727,34.4160369],[133.5275411,34.4264802],[133.5344768,34.4575972],[133.5278893,34.4736446],[133.5263979,34.4745025],[133.5237229,34.4740219],[133.5208547,34.474874],[133.5180599,34.4790691],[133.5075045,34.4971416],[133.5095187,34.4993068]]]}}