{"type":"Feature","properties":{"id":"way453992075","name":"way453992075","operator":"","category":"ferry","attribution":"© OpenStreetMap contributors"},"geometry":{"type":"MultiLineString","coordinates":[[[133.6297277,34.3354007],[133.6304229,34.3350338],[133.6311564,34.3349219],[133.6343188,34.334085],[133.641642,34.3319823],[133.645365,34.3303042],[133.6475001,34.3256928],[133.6499372,34.3216282],[133.6558794,34.3157392],[133.6659626,34.3073452],[133.6707599,34.3048841],[133.673424,34.3040351],[133.674871,34.3036442],[133.6775838,34.3034069],[133.6788332,34.3034878],[133.679834,34.3038452],[133.6810688,34.3045723],[133.6826688,34.3062534],[133.6828676,34.3070177],[133.6829329,34.3076122],[133.682755,34.3079812],[133.6823859,34.3083449],[133.6814175,34.3083375]]]}}