{"type":"Feature","properties":{"id":"way453978552","name":"way453978552","operator":"","category":"ferry","attribution":"© OpenStreetMap contributors"},"geometry":{"type":"MultiLineString","coordinates":[[[133.6341549,34.2688854],[133.6339497,34.2685064],[133.6341213,34.2679832],[133.6350185,34.2675399],[133.6365393,34.2667597],[133.6390177,34.2658198],[133.6490599,34.264543],[133.6557547,34.2661745],[133.657128,34.2699338],[133.6563448,34.2737063],[133.6553899,34.2748323],[133.6539361,34.2764769],[133.6534065,34.2765294]]]}}