{"type":"Feature","properties":{"id":"way453998732","name":"way453998732","operator":"","category":"ferry","attribution":"© OpenStreetMap contributors"},"geometry":{"type":"MultiLineString","coordinates":[[[133.5175487,34.4095393],[133.5182418,34.4102606],[133.5186494,34.4117041],[133.5184115,34.4129752],[133.5185072,34.413901],[133.5189625,34.414917],[133.5200646,34.4162107],[133.521079,34.4168209],[133.5230298,34.4173759],[133.5248306,34.4175509],[133.5269243,34.4174399],[133.5350781,34.4159092],[133.5392125,34.4135968],[133.5435371,34.410601],[133.5478509,34.4072277],[133.5538663,34.4035908],[133.5561633,34.4008241],[133.5581814,34.3979292],[133.5590656,34.3960111],[133.5595682,34.3947011],[133.5595093,34.3930396],[133.558968,34.392011],[133.5579701,34.3910969],[133.5566031,34.3905207],[133.5551378,34.3903763],[133.5540313,34.3904994],[133.5534666,34.3906025],[133.5530662,34.3909691],[133.552619,34.3913059],[133.552334,34.3914986],[133.5519032,34.391566]]]}}