{"type":"Feature","properties":{"id":"way466569722","name":"way466569722","operator":"","category":"ferry","attribution":"© OpenStreetMap contributors"},"geometry":{"type":"MultiLineString","coordinates":[[[134.19602,34.6001379],[134.1961115,34.6004684],[134.1960445,34.6008239],[134.1940768,34.6030014],[134.1905463,34.6033704],[134.1875015,34.6032935],[134.1812624,34.6023863],[134.1743134,34.601187],[134.1672524,34.6010948],[134.1626944,34.602371],[134.1609012,34.6059381],[134.1609316,34.6066375]]]}}