{"type":"Feature","properties":{"id":"way467722205","name":"way467722205","operator":"","category":"ferry","attribution":"© OpenStreetMap contributors"},"geometry":{"type":"MultiLineString","coordinates":[[[128.5663534,27.328536],[128.5660624,27.3283829],[128.5658893,27.3280801],[128.5658429,27.3278191],[128.5658854,27.3275698],[128.5661402,27.3273455],[128.5666082,27.3271644],[128.5699536,27.3266606],[128.5970452,27.3251226],[128.6065662,27.3257378],[128.6153082,27.327814],[128.623825,27.3320283],[128.6680291,27.3660271],[128.712048,27.4006184],[128.7218399,27.4088041],[128.7274823,27.4148136],[128.7352613,27.4239107],[128.7417437,27.4341578],[128.7478817,27.4448955],[128.7673031,27.4875696],[128.7992831,27.5629594],[128.8303988,27.6384068],[128.8561607,27.7032714],[128.8602725,27.7170235],[128.8698669,27.7995],[128.8712691,27.8040005],[128.8736769,27.8075501],[128.8757764,27.8093836],[128.8782288,27.8106555],[128.8809002,27.8112634],[128.8880812,27.8122806],[128.8890024,27.8123255],[128.890832,27.8120833],[128.8915953,27.812322]]]}}