{"type":"Feature","properties":{"id":"way453978553","name":"way453978553","operator":"","category":"ferry","attribution":"© OpenStreetMap contributors"},"geometry":{"type":"MultiLineString","coordinates":[[[133.6534065,34.2765294],[133.653971,34.2765256],[133.6575276,34.2727134],[133.6622483,34.2684576],[133.6701636,34.2648903],[133.6789048,34.2656957],[133.6796719,34.265638],[133.6808494,34.2658597],[133.6815575,34.2664449],[133.6818901,34.2670722],[133.6819223,34.2677993],[133.6816579,34.2689082]]]}}