{"type":"Feature","properties":{"id":"way453998696","name":"way453998696","operator":"","category":"ferry","attribution":"© OpenStreetMap contributors"},"geometry":{"type":"MultiLineString","coordinates":[[[133.5275703,34.3887988],[133.5274519,34.3892843],[133.5269504,34.3899538],[133.5265212,34.3906267],[133.5265588,34.3913616],[133.5275887,34.3937696],[133.5300778,34.3954694],[133.5332764,34.3961179],[133.5340596,34.3964455],[133.5344525,34.3965119],[133.5356587,34.3961762],[133.5368912,34.3955826]]]}}