{"type":"Feature","properties":{"id":"way467722199","name":"way467722199","operator":"","category":"ferry","attribution":"© OpenStreetMap contributors"},"geometry":{"type":"MultiLineString","coordinates":[[[127.6821655,26.2243712],[127.6824663,26.2243161],[127.6828766,26.2244324],[127.6830236,26.2246344],[127.6829995,26.2248696],[127.682879,26.2250932],[127.6824196,26.2256253],[127.6811547,26.2262632],[127.6766209,26.2275637],[127.6752955,26.2278547],[127.6738194,26.2278331],[127.6694785,26.2268126],[127.6642201,26.2255277],[127.6593775,26.2241457],[127.6546635,26.2225448],[127.6528645,26.2225039],[127.6519276,26.2226727],[127.6511437,26.2229855],[127.6500675,26.2234715],[127.6494819,26.2239222],[127.6485433,26.2245751],[127.6438696,26.2274441],[127.6369534,26.2302017],[127.6187821,26.2316894],[127.6080926,26.2329698],[127.5940354,26.2344051],[127.5570814,26.2339379],[127.5444064,26.2356628],[127.4036762,26.2699994],[127.2324193,26.3145455],[127.1921696,26.3267775],[127.1603523,26.3329979],[127.1466227,26.3352569],[127.1425589,26.336431],[127.1395693,26.3395327],[127.1361503,26.3456094],[127.1332204,26.3510846],[127.1299002,26.35703],[127.1276417,26.3619896],[127.127737,26.3657548],[127.1286532,26.3675276],[127.1294568,26.3689808],[127.1304692,26.3699691],[127.1315209,26.3704995],[127.1329841,26.371223],[127.1346259,26.3717048],[127.137001,26.3721655],[127.1385139,26.3725771],[127.1393614,26.3727238],[127.1399055,26.3727195],[127.1401125,26.3726419],[127.1402329,26.3725124],[127.1403328,26.3720985]]]}}