{"type":"Feature","properties":{"id":"way467722201","name":"way467722201","operator":"","category":"ferry","attribution":"© OpenStreetMap contributors"},"geometry":{"type":"MultiLineString","coordinates":[[[130.5740898,30.4317008],[130.5743301,30.4313346],[130.5747628,30.4310046],[130.5754583,30.4308734],[130.5762209,30.4308796],[130.5782102,30.4317],[130.5804095,30.4334993],[130.584456,30.4394188],[130.5932322,30.4473735],[130.603446,30.4551426],[130.6137457,30.4618013],[130.6228438,30.4661662],[130.6324568,30.4698652],[130.6533995,30.4755612],[130.6773463,30.4791119],[130.7339531,30.4836177],[130.7925755,30.4857627],[130.8273369,30.4858366],[130.8354908,30.4856148],[130.8408982,30.485097],[130.8463055,30.4834697],[130.8522278,30.4813247],[130.859913,30.4775757],[130.8629651,30.4756404],[130.8652536,30.4741063],[130.8668345,30.4726236],[130.8673439,30.4714247],[130.8673637,30.470368],[130.8670238,30.4694391],[130.8662478,30.4687951],[130.8636243,30.4678238],[130.8626557,30.4672882],[130.8618326,30.4664693],[130.8614066,30.4658242]]]}}