{"type":"Feature","properties":{"id":"way453998728","name":"way453998728","operator":"","category":"ferry","attribution":"© OpenStreetMap contributors"},"geometry":{"type":"MultiLineString","coordinates":[[[133.5008348,34.3472385],[133.5015264,34.3478291],[133.5019046,34.3485156],[133.5025376,34.3507123],[133.5027736,34.3571605],[133.5037177,34.3709764],[133.5037177,34.3839399],[133.5035461,34.3920854],[133.5026878,34.4012215],[133.5007137,34.412127],[133.496465,34.4267833],[133.5005432,34.432098],[133.5032035,34.4311871]]]}}