{"type":"Feature","properties":{"id":"way439820685","name":"way439820685","operator":"","category":"ferry","attribution":"© OpenStreetMap contributors"},"geometry":{"type":"MultiLineString","coordinates":[[[131.9884607,33.7875115],[131.9883291,33.7876052],[131.9881783,33.7878325],[131.9880776,33.7881154],[131.9880692,33.7882456],[131.9881083,33.7883352],[131.988174,33.7883924],[131.9883555,33.788419],[131.9903045,33.788364],[131.9921009,33.7881932],[131.9989646,33.7871431],[132.0318938,33.7811752],[132.0355947,33.7807571],[132.0410839,33.7803248],[132.0437626,33.7803183],[132.0464854,33.7805133],[132.050104,33.7808383],[132.0555687,33.7816581],[132.0578259,33.7821158],[132.058918,33.7825037],[132.0603513,33.7831823],[132.0610845,33.7836668],[132.0620595,33.7844305],[132.0625801,33.7850552],[132.063016,33.7857886],[132.0633863,33.7866997],[132.0635987,33.7876436],[132.0636537,33.788771],[132.0636095,33.7896858],[132.0634226,33.7903653],[132.0630376,33.7911941],[132.062282,33.7921224],[132.0614424,33.7928567],[132.0604997,33.7933493],[132.0592129,33.7938094],[132.0586191,33.7939982],[132.0579942,33.7940753],[132.0576249,33.7940987],[132.0568799,33.7939775]]]}}