{"type":"Feature","properties":{"id":"way424709714","name":"way424709714","operator":"","category":"ferry","attribution":"© OpenStreetMap contributors"},"geometry":{"type":"MultiLineString","coordinates":[[[129.0541941,32.9786723],[129.0536897,32.9795089],[129.052481,32.9801208],[129.0453243,32.9810382],[129.0361404,32.9784102],[129.0294456,32.974954],[129.025197,32.974828],[129.016056,32.9808042],[129.0086745,32.9821002],[128.968334,32.9679155],[128.9183806,32.9290216],[128.9185522,32.9143239],[128.9576911,32.8774248],[128.9649009,32.8640883],[128.9717673,32.846135],[128.9574475,32.8001026],[128.9484748,32.7982687],[128.9398918,32.7980523],[128.9383468,32.7995674],[128.9374885,32.8088017],[128.936201,32.81212],[128.9350852,32.8140677],[128.9349136,32.8158711],[128.9357719,32.818017],[128.9368877,32.8198203],[128.9381322,32.8210285],[128.939307,32.8216641]]]}}