{"type":"Feature","properties":{"id":"way424709716","name":"way424709716","operator":"","category":"ferry","attribution":"© OpenStreetMap contributors"},"geometry":{"type":"MultiLineString","coordinates":[[[129.0541941,32.9786723],[129.0534552,32.9793886],[129.0523274,32.9798173],[129.0452492,32.9806286],[129.0363658,32.9780726],[129.029671,32.9746165],[129.0249503,32.9744004],[129.021517,32.9767766],[129.0155947,32.9802326],[129.0091574,32.9805926],[129.0037501,32.9786486],[128.9723361,32.9663356],[128.921696,32.9278733],[128.9204943,32.9147606],[128.9592898,32.8780058],[128.9663279,32.8645974],[128.9740527,32.8462836],[128.9579839,32.7999403],[128.872008,32.7213793],[128.8552787,32.7017448],[128.8524194,32.697763]]]}}