{"type":"Feature","properties":{"id":"way439697343","name":"way439697343","operator":"","category":"ferry","attribution":"© OpenStreetMap contributors"},"geometry":{"type":"MultiLineString","coordinates":[[[132.0452096,33.9123459],[132.0450664,33.9120928],[132.044884,33.9117971],[132.044606,33.9114326],[132.0442522,33.9111126],[132.0434143,33.9104761],[132.0432382,33.9103088],[132.0430701,33.9101115],[132.0428032,33.9096869],[132.0426936,33.9094221],[132.0426327,33.9090452],[132.0426804,33.9086296],[132.0428162,33.9082678],[132.043056,33.9078601],[132.0513491,33.8969739],[132.0513821,33.8968292],[132.051383,33.8966858],[132.0513468,33.8965139],[132.0512966,33.8964356],[132.0511995,33.8963669],[132.0511157,33.8963559],[132.0509027,33.8963771],[132.0506562,33.8964613]]]}}