{"type":"Feature","properties":{"id":"way467722204","name":"way467722204","operator":"","category":"ferry","attribution":"© OpenStreetMap contributors"},"geometry":{"type":"MultiLineString","coordinates":[[[128.8915953,27.812322],[128.8908194,27.8121492],[128.8890306,27.8124186],[128.8870642,27.8130709],[128.8751251,27.8178843],[128.8712391,27.8203938],[128.8680933,27.8235033],[128.8655643,27.8271581],[128.8632204,27.8313038],[128.8616166,27.8360493],[128.8612465,27.8421037],[128.8610615,27.8524116],[128.8615549,27.8623914],[128.8630065,27.8732157],[128.8652515,27.8816496],[128.8688435,27.8898846],[128.8742315,27.8981188],[129.1191612,28.1851318],[129.1336414,28.1998729],[129.1418357,28.2063029],[129.1454277,28.2082813],[129.149581,28.2095672],[129.1562037,28.2102596],[129.1803375,28.211051],[129.2156275,28.2111468],[129.220972,28.2105564],[129.2256865,28.2091716],[129.2325338,28.2064018],[129.237136,28.2038299],[129.2418505,28.2002686],[129.2462283,28.1960147],[129.2503815,28.1909469],[129.254647,28.184835],[129.2572288,28.1823614],[129.2725965,28.1728151],[129.2758444,28.1695784],[129.2796788,28.1638576],[129.2868628,28.1518827],[129.2893323,28.1484187],[129.293902,28.1446895],[129.2960481,28.1439113],[129.2986451,28.1436214],[129.3024027,28.1440084],[129.3042766,28.1443861],[129.3057746,28.1445377],[129.3073645,28.1446156],[129.3080103,28.1446162],[129.3084966,28.1445506],[129.309132,28.1444673],[129.3095557,28.1444598]]]}}