{"type":"Feature","properties":{"id":"way453975101","name":"way453975101","operator":"","category":"ferry","attribution":"© OpenStreetMap contributors"},"geometry":{"type":"MultiLineString","coordinates":[[[133.6369044,34.204008],[133.6369365,34.2038749],[133.6369379,34.2037595],[133.6368252,34.2033558],[133.6362781,34.2029032],[133.6353929,34.202433],[133.6341645,34.201976],[133.6325069,34.2014658],[133.6315896,34.2011729],[133.6309512,34.2008224],[133.6305757,34.2004231],[133.6303718,34.200188],[133.6303933,34.2000305]]]}}