{"type":"Feature","properties":{"id":"way456582461","name":"way456582461","operator":"","category":"ferry","attribution":"© OpenStreetMap contributors"},"geometry":{"type":"MultiLineString","coordinates":[[[133.6527897,34.3764476],[133.6533161,34.3764343],[133.6547323,34.3767575],[133.6561794,34.3770785],[133.6616458,34.3777913],[133.6710013,34.3802706],[133.6776961,34.386504],[133.6809577,34.3942951],[133.679756,34.3985622],[133.6796917,34.3995714],[133.6769236,34.4009347],[133.6715807,34.3988289]]]}}