{"type":"Feature","properties":{"id":"way453998706","name":"way453998706","operator":"","category":"ferry","attribution":"© OpenStreetMap contributors"},"geometry":{"type":"MultiLineString","coordinates":[[[133.5098798,34.4515348],[133.5098292,34.4501411],[133.5096766,34.4493432],[133.5096849,34.4487166],[133.5100543,34.4482507],[133.5111433,34.44774],[133.5132073,34.4476247],[133.5152368,34.4477429],[133.5168357,34.4480032],[133.5188021,34.4484257],[133.5206408,34.44895],[133.5261502,34.4513402],[133.5305901,34.4548261],[133.5321631,34.45754],[133.5324115,34.4593662],[133.5272956,34.4732141],[133.5260618,34.474019],[133.5238087,34.4735502],[133.520397,34.474532],[133.5178274,34.4789011],[133.507061,34.4972065],[133.5095187,34.4993068]]]}}