{"type":"Feature","properties":{"id":"way453998746","name":"way453998746","operator":"","category":"ferry","attribution":"© OpenStreetMap contributors"},"geometry":{"type":"MultiLineString","coordinates":[[[133.6229331,34.3503598],[133.623363,34.3505087],[133.6237251,34.3503271],[133.6252231,34.3493151],[133.6260117,34.3490139],[133.6301315,34.3473132],[133.6343372,34.3443368],[133.6356247,34.3400847],[133.6336721,34.3366739],[133.6324758,34.3357437],[133.6312956,34.3351368],[133.6307756,34.3351692],[133.6297277,34.3354007]]]}}