{"type":"Feature","properties":{"id":"way406895688","name":"way406895688","operator":"","category":"ferry","attribution":"© OpenStreetMap contributors"},"geometry":{"type":"MultiLineString","coordinates":[[[137.6135678,34.7675425],[137.6137502,34.7676064],[137.6139138,34.767624],[137.6140506,34.767624],[137.6140909,34.7676218],[137.6140614,34.7677298],[137.6141445,34.7678708],[137.6144127,34.7680867],[137.6148499,34.7682475],[137.6154963,34.7684414],[137.6159148,34.7685736],[137.6161186,34.7686948],[137.6161964,34.7688226],[137.6161427,34.7691419],[137.6161821,34.7693468],[137.6161776,34.7697458],[137.6160489,34.770116],[137.615896,34.7706271],[137.6155473,34.7714798],[137.614984,34.7725682],[137.6144905,34.7734054],[137.6142598,34.7738945],[137.6141204,34.774344],[137.6140614,34.7747802],[137.6141365,34.7752252],[137.6143725,34.7757804],[137.6148177,34.7763092],[137.6151503,34.7765559],[137.6158048,34.7768996],[137.6161696,34.7770803],[137.6167972,34.7773667],[137.6172478,34.7777412],[137.6175643,34.778151],[137.617575,34.778596],[137.6174785,34.7790058],[137.6173605,34.7792173],[137.617103,34.7794948],[137.6165719,34.7797636],[137.6161588,34.779887],[137.615617,34.7799531],[137.6150109,34.779909],[137.6143028,34.7797592],[137.6135464,34.7793803],[137.6096035,34.7772477],[137.6089169,34.7768115],[137.6084609,34.7764061],[137.6079191,34.7758862],[137.6075275,34.77545],[137.6070018,34.7748287],[137.60646,34.7740752],[137.6061006,34.7734627],[137.6058431,34.772718],[137.6057036,34.7720218],[137.6056982,34.7715415],[137.605886,34.7709642],[137.6061864,34.7705544],[137.6065834,34.7701622],[137.607152,34.769748],[137.6078815,34.7693823],[137.6082946,34.7692941],[137.6086647,34.7693162],[137.6088954,34.7693955],[137.6091851,34.7695365],[137.6097001,34.769986],[137.6105101,34.7705412],[137.6113845,34.7709554],[137.6124252,34.771255],[137.6134605,34.7713828],[137.6140989,34.7713652],[137.6147104,34.771211],[137.6152683,34.7709466],[137.6156599,34.7706998]]]}}