{"type":"Feature","properties":{"id":"way453757082","name":"way453757082","operator":"","category":"ferry","attribution":"© OpenStreetMap contributors"},"geometry":{"type":"MultiLineString","coordinates":[[[133.637956,34.1262533],[133.6376676,34.1258558],[133.6375013,34.125616],[133.637209,34.1248833],[133.6362756,34.1244037],[133.6305035,34.1241284],[133.6295352,34.1222966],[133.6278481,34.1241639],[133.5397429,34.1240573],[133.5349256,34.1245636],[133.5339386,34.1250543],[133.5337642,34.1252297],[133.5337157,34.1254537]]]}}