{"type":"Feature","properties":{"id":"way453998745","name":"way453998745","operator":"","category":"ferry","attribution":"© OpenStreetMap contributors"},"geometry":{"type":"MultiLineString","coordinates":[[[133.5826431,34.3620922],[133.5823425,34.3626346],[133.5824894,34.3628856],[133.5836526,34.3632373],[133.5848583,34.3640463],[133.5862626,34.3645822],[133.5880205,34.364861],[133.5950136,34.363231],[133.5999807,34.3626232],[133.6021065,34.3622377],[133.61011,34.3587916],[133.6190694,34.3569333],[133.6208492,34.3565226],[133.6244419,34.3540573],[133.6276771,34.3513929],[133.6334837,34.3465024],[133.6373139,34.3430226],[133.6378354,34.3417048],[133.6378276,34.3403702],[133.6362841,34.3381289],[133.6343014,34.3361421],[133.6331857,34.3353481],[133.6320393,34.3350377],[133.6312319,34.3350122],[133.6305277,34.3351267],[133.6297277,34.3354007]]]}}