{"type":"Feature","properties":{"id":"way453992076","name":"way453992076","operator":"","category":"ferry","attribution":"© OpenStreetMap contributors"},"geometry":{"type":"MultiLineString","coordinates":[[[133.7446605,34.2730988],[133.7440962,34.2725979],[133.7434123,34.2723663],[133.74299,34.2722891],[133.7422052,34.2724837],[133.7415848,34.2728203],[133.7411625,34.2731878],[133.7404711,34.2740803],[133.7403776,34.2746764],[133.7406841,34.2757109],[133.7408576,34.2767285],[133.740856,34.2773971],[133.7404897,34.2786632],[133.7392501,34.2804446],[133.737171,34.2835177],[133.7355099,34.284596],[133.7340243,34.2852531],[133.7257201,34.2877295],[133.720159,34.2896934],[133.7072213,34.295297],[133.6970851,34.3004812],[133.6923462,34.302667],[133.6869568,34.3053688],[133.6850583,34.3064656],[133.6832299,34.3077096],[133.6823995,34.3084307],[133.681895,34.3084477],[133.6814175,34.3083375]]]}}