{"type":"Feature","properties":{"id":"way453998717","name":"way453998717","operator":"","category":"ferry","attribution":"© OpenStreetMap contributors"},"geometry":{"type":"MultiLineString","coordinates":[[[133.5785362,34.3553351],[133.5785096,34.3556062],[133.5786203,34.3558886],[133.5786375,34.3563345],[133.5793962,34.3569058],[133.5796469,34.3572871],[133.5783429,34.3586711],[133.567317,34.3642989],[133.5396982,34.3135194],[133.5367156,34.3110026],[133.53597,34.3102494],[133.536116,34.3094735],[133.5368697,34.3096907],[133.5375121,34.3094658],[133.5369655,34.3085188]]]}}