{"type":"Feature","properties":{"id":"way467722202","name":"way467722202","operator":"","category":"ferry","attribution":"© OpenStreetMap contributors"},"geometry":{"type":"MultiLineString","coordinates":[[[129.4954145,28.3880785],[129.4960831,28.3894388],[129.5020781,28.3991722],[129.5051781,28.4066026],[129.5061229,28.4211266],[129.5075635,28.4407966],[129.509736,28.4506211],[129.5109076,28.4542991],[129.5125516,28.4584504],[129.514493,28.4626746],[129.5173703,28.4665435],[129.5198025,28.4692959],[129.5227657,28.4711235],[129.5315237,28.4758911],[129.6865556,28.5459541],[129.695631,28.5496419],[129.7052003,28.5525703],[129.7137818,28.5537091],[129.7218077,28.5543056],[129.7284136,28.5536548],[129.7355752,28.5518653],[129.7418107,28.5487199],[129.746877,28.5443876],[129.9323059,28.333945],[129.9330173,28.332697],[129.9336346,28.3306627],[129.9340148,28.3299078],[129.9348867,28.3289454],[129.9354969,28.3282318],[129.9359092,28.3276799],[129.9363178,28.3269033],[129.9366899,28.3263853]]]}}