{"type":"Feature","properties":{"id":"way467722203","name":"way467722203","operator":"","category":"ferry","attribution":"© OpenStreetMap contributors"},"geometry":{"type":"MultiLineString","coordinates":[[[129.3095557,28.1444598],[129.3091324,28.144488],[129.3085091,28.1445835],[129.3080064,28.1446466],[129.3073712,28.1446499],[129.3057766,28.1445819],[129.3042619,28.1444361],[129.3023978,28.1440704],[129.2986513,28.1437002],[129.2960837,28.1440045],[129.293971,28.1447915],[129.2894428,28.1484739],[129.2871261,28.1519681],[129.2798715,28.163998],[129.2762778,28.1697318],[129.2728976,28.1730841],[129.2575379,28.1826558],[129.2549108,28.1850158],[129.2507158,28.1910776],[129.2464954,28.1962211],[129.2422124,28.2005406],[129.2374465,28.2040682],[129.2327621,28.2067131],[129.2258402,28.2095023],[129.2210476,28.2108619],[129.2156131,28.2115217],[129.1946852,28.2115624],[129.1850125,28.2124093],[129.1719142,28.2146432],[129.1616891,28.217175],[129.1551822,28.2194088],[129.1467317,28.223653],[129.1386193,28.2286416],[129.1281407,28.2380224],[129.1239999,28.2426381],[129.1220563,28.2455414],[129.1207887,28.2484446],[129.1202817,28.2520177],[129.1210422,28.2580471],[129.1222253,28.2650436],[129.1237464,28.2723374],[129.1256055,28.2778447],[129.1278871,28.2843934],[129.1304223,28.2899001],[129.1339715,28.2960761],[129.1376052,28.30121],[129.1435206,28.307311],[129.1493514,28.3117749],[129.1578019,28.3171313],[129.1821408,28.328909],[129.2886487,28.3710737],[129.4026498,28.4115651],[129.4697534,28.4339816],[129.4770671,28.435988],[129.4844112,28.4368171],[129.4889152,28.4366134],[129.4941313,28.4354232],[129.4979228,28.4335752],[129.5024266,28.4288535],[129.5048103,28.4250593],[129.5056562,28.4210883],[129.5048149,28.4066235],[129.5017363,28.3992882],[129.4958978,28.3895316],[129.4954145,28.3880785]]]}}