{"type":"Feature","properties":{"id":"way424081579","name":"way424081579","operator":"","category":"ferry","attribution":"© OpenStreetMap contributors"},"geometry":{"type":"MultiLineString","coordinates":[[[133.0385186,36.0262409],[133.0380335,36.0278626],[133.037999,36.0287029],[133.0382916,36.0294804],[133.0388741,36.0301425],[133.0396865,36.0306209],[133.0406445,36.030866],[133.0416493,36.0308526],[133.0425968,36.0305819],[133.0724202,36.0178866],[133.1448233,35.9842658],[133.2224142,35.8508047],[133.3396348,35.5751538],[133.3399486,35.5696561],[133.3390044,35.5665842],[133.336172,35.5621157],[133.3332538,35.5603003],[133.3298205,35.5583452],[133.3247565,35.5565297],[133.3243274,35.5563203],[133.2680091,35.5535445],[133.2537183,35.5507862],[133.243945,35.5488951],[133.2389903,35.5486563],[133.2317161,35.5488833],[133.2280362,35.5483857],[133.2263946,35.5480802],[133.2236373,35.5475695],[133.2226932,35.5472072],[133.221513,35.5466049],[133.2213843,35.546474],[133.2212824,35.5462907],[133.2212287,35.546103],[133.2213038,35.5459589],[133.2214594,35.5458324],[133.2216579,35.5457669],[133.2219315,35.5457931],[133.2223201,35.5459501]]]}}