{"type":"Feature","properties":{"id":"way467677291","name":"way467677291","operator":"","category":"ferry","attribution":"© OpenStreetMap contributors"},"geometry":{"type":"MultiLineString","coordinates":[[[130.9108784,37.4962956],[130.911731,37.4966553],[130.9120718,37.4967355],[130.9126849,37.4969114],[130.9135344,37.4971245],[130.9150071,37.4973924],[130.91624,37.4975406],[130.9174759,37.4978575],[130.9187204,37.4984607],[130.9197332,37.4992153],[130.9215371,37.5004175],[130.9233944,37.5017495],[130.9248631,37.5034136],[130.9260003,37.5053882],[130.9271161,37.5087245],[130.9278028,37.5121117],[130.9282105,37.5155498],[130.9282105,37.5191069],[130.9277384,37.5223405],[130.9267728,37.5255229],[130.9253146,37.5286569],[130.9232752,37.5322786],[130.9224169,37.5336228],[130.9219663,37.5341673],[130.9213011,37.5346608],[130.9199493,37.5355626],[130.9193914,37.5359199],[130.9187047,37.5362262],[130.9135978,37.5377235],[130.9127476,37.5378214],[130.9127974,37.5381179]]]}}