{"type":"Feature","properties":{"id":"way485829776","name":"way485829776","operator":"","category":"ferry","attribution":"© OpenStreetMap contributors"},"geometry":{"type":"MultiLineString","coordinates":[[[133.8099198,34.4602733],[133.80989,34.4601388],[133.8112312,34.4596187],[133.8149433,34.4591587],[133.8162308,34.4526653],[133.8221102,34.4386683],[133.8269811,34.4284743],[133.8197928,34.4202793],[133.8116818,34.4119949],[133.8035922,34.4057811],[133.7983995,34.3991243],[133.7967472,34.3884296],[133.7937432,34.3835422],[133.786233,34.3821787],[133.7838281,34.3824017]]]}}