{"type":"Feature","properties":{"id":"way439831607","name":"way439831607","operator":"","category":"ferry","attribution":"© OpenStreetMap contributors"},"geometry":{"type":"MultiLineString","coordinates":[[[132.1170817,33.8358881],[132.1165963,33.8356079],[132.1163174,33.8354695],[132.1158948,33.835333],[132.1155243,33.8352355],[132.1151727,33.8350728],[132.1147377,33.8347692],[132.11446,33.8345169],[132.1124239,33.8319272],[132.112242,33.8317836],[132.1121147,33.8317268],[132.1118631,33.8316503],[132.1114184,33.8315615]]]}}