{"type":"Feature","properties":{"id":"way535405565","name":"way535405565","operator":"","category":"ferry","attribution":"© OpenStreetMap contributors"},"geometry":{"type":"MultiLineString","coordinates":[[[127.0737093,34.3789862],[127.0728156,34.3799404],[127.0704623,34.3799904],[127.067992,34.3798334],[127.0656291,34.3792628],[127.0639407,34.3783169],[127.0627086,34.3766989],[127.0619067,34.3747744],[127.0613668,34.3728467],[127.0606836,34.3692309],[127.0605769,34.3665299],[127.0607059,34.3638826],[127.0611127,34.3614197],[127.0618077,34.3593121],[127.0625452,34.3579353]]]}}