{"type":"Feature","properties":{"id":"way595807103","name":"way595807103","operator":"","category":"ferry","attribution":"© OpenStreetMap contributors"},"geometry":{"type":"MultiLineString","coordinates":[[[131.9030569,33.096719],[131.8921565,33.092836],[131.8838309,33.0893843],[131.871643,33.0828402],[131.8654632,33.0803231],[131.8634033,33.0798915],[131.8626737,33.0792353],[131.8627596,33.0787049],[131.8632638,33.0783003],[131.8641758,33.0781115],[131.8647337,33.0778958],[131.8648732,33.0775676],[131.8648463,33.077226]]]}}