{"type":"Feature","properties":{"id":"way556657025","name":"way556657025","operator":"","category":"ferry","attribution":"© OpenStreetMap contributors"},"geometry":{"type":"MultiLineString","coordinates":[[[128.6057629,34.7319206],[128.6053642,34.7320521],[128.6042922,34.7321006],[128.5995954,34.7313396],[128.583571,34.7279683],[128.5717661,34.7097947],[128.5706462,34.7065619],[128.5668803,34.6837588],[128.5683134,34.6538579],[128.5713761,34.6512672],[128.5744603,34.6499138],[128.5742753,34.6489212],[128.5747858,34.6477409]]]}}