{"type":"Feature","properties":{"id":"way538227492","name":"way538227492","operator":"","category":"ferry","attribution":"© OpenStreetMap contributors"},"geometry":{"type":"MultiLineString","coordinates":[[[128.458466,34.7175228],[128.4589061,34.7181718],[128.4578884,34.7200585],[128.456161,34.7226643],[128.4549701,34.7243045],[128.4543478,34.7256272],[128.4539938,34.7268705],[128.4539294,34.7288721],[128.4544337,34.7310941],[128.4558499,34.7325313],[128.4569228,34.7332014],[128.4584141,34.7335894],[128.4595621,34.7335276],[128.460356,34.732593],[128.4605062,34.7321169]]]}}