{"type":"Feature","properties":{"id":"way596050380","name":"way596050380","operator":"","category":"ferry","attribution":"© OpenStreetMap contributors"},"geometry":{"type":"MultiLineString","coordinates":[[[131.9257378,32.7231492],[131.9254267,32.7233658],[131.9243431,32.7233749],[131.9224012,32.7233839],[131.9209957,32.7244039],[131.9205236,32.725487],[131.920309,32.727942],[131.9231414,32.736534],[131.9286346,32.7564583],[131.9347285,32.7792648],[131.9335269,32.7825121],[131.929922,32.7833781],[131.9260597,32.782476],[131.9209957,32.7800225]]]}}