{"type":"Feature","properties":{"id":"way554812586","name":"way554812586","operator":"","category":"ferry","attribution":"© OpenStreetMap contributors"},"geometry":{"type":"MultiLineString","coordinates":[[[128.5747858,34.6477409],[128.5743965,34.6489522],[128.574635,34.6500494],[128.5847156,34.6556681],[128.6285537,34.6795638],[128.6581311,34.7080847],[128.6574571,34.7128368],[128.656195,34.717639],[128.6483591,34.7245304],[128.6305922,34.7299092],[128.6275689,34.7294662],[128.6280845,34.7318319]]]}}