{"type":"Feature","properties":{"id":"way556968613","name":"way556968613","operator":"","category":"ferry","attribution":"© OpenStreetMap contributors"},"geometry":{"type":"MultiLineString","coordinates":[[[128.605395,34.7348571],[128.6050288,34.7339306],[128.6042242,34.7330709],[128.5994623,34.7316515],[128.5834694,34.7281755],[128.5713458,34.7098681],[128.5702431,34.7065953],[128.5667238,34.683783],[128.5681954,34.6538061],[128.5713488,34.6511666],[128.5743985,34.6498377],[128.5742404,34.6488974],[128.5747858,34.6477409]]]}}