{"type":"Feature","properties":{"id":"way500418569","name":"way500418569","operator":"","category":"ferry","attribution":"© OpenStreetMap contributors"},"geometry":{"type":"MultiLineString","coordinates":[[[132.2660887,33.9487802],[132.2651154,33.9493322],[132.2639444,33.9496397],[132.2634923,33.9505602],[132.264018,33.9543603],[132.2630309,33.972264],[132.2618293,33.9958926],[132.2641039,33.9987033],[132.2645116,33.999466],[132.2647396,33.9997262],[132.2650775,33.9997484],[132.2651955,33.9996039],[132.2653028,33.9990924],[132.2653216,33.9988545],[132.2654946,33.9987377]]]}}