{"type":"Feature","properties":{"id":"way58961754","name":"way58961754","operator":"","category":"ferry","attribution":"© OpenStreetMap contributors"},"geometry":{"type":"MultiLineString","coordinates":[[[139.7921957,35.6291395],[139.7921805,35.6290719],[139.7918962,35.6289269],[139.791139,35.6287791],[139.7876266,35.6268276],[139.787535,35.6268036],[139.7858973,35.6267279],[139.7857993,35.626789],[139.7668061,35.6492912],[139.766098,35.6497445],[139.76495,35.6502414],[139.7626433,35.6510174],[139.7613992,35.651336]]]}}