{"type":"Feature","properties":{"id":"way535405564","name":"way535405564","operator":"","category":"ferry","attribution":"© OpenStreetMap contributors"},"geometry":{"type":"MultiLineString","coordinates":[[[127.0492445,34.3877688],[127.0513611,34.3876021],[127.0532493,34.3876021],[127.0548908,34.3877969],[127.0567577,34.3884166],[127.0591217,34.389913],[127.0678335,34.3992087],[127.0708591,34.4035818],[127.0724255,34.4071756],[127.0737773,34.4122564],[127.0759875,34.4208947],[127.0764792,34.4236859],[127.0764792,34.4247952],[127.0763532,34.4253694],[127.0761618,34.4258803],[127.0755406,34.4272095]]]}}