{"type":"Feature","properties":{"id":"way538815835","name":"way538815835","operator":"","category":"ferry","attribution":"© OpenStreetMap contributors"},"geometry":{"type":"MultiLineString","coordinates":[[[128.5706063,34.642247],[128.5708027,34.6424114],[128.5705304,34.6427149],[128.5704942,34.6428947],[128.5704902,34.6430602],[128.5704942,34.6433372],[128.5705264,34.6436715],[128.5706511,34.6440631],[128.5709327,34.6446435],[128.5711849,34.6452393],[128.5713029,34.6456894],[128.57126,34.6462852],[128.5714263,34.646753],[128.5711259,34.6472252],[128.5711205,34.6483461],[128.5715174,34.6495906],[128.5725903,34.6503144],[128.5741621,34.6496259],[128.5740843,34.6488426],[128.5747858,34.6477409]]]}}