{"type":"Feature","properties":{"id":"way58042979","name":"way58042979","operator":"","category":"ferry","attribution":"© OpenStreetMap contributors"},"geometry":{"type":"MultiLineString","coordinates":[[[135.1852417,34.6818657],[135.1858083,34.6807991],[135.186085,34.6804629],[135.187149,34.6792336],[135.1883087,34.6783295],[135.1903534,34.6773797],[135.1925506,34.6762848],[135.1948242,34.6751518],[135.1959229,34.6744232],[135.1979307,34.6728339],[135.1996156,34.6713914],[135.2001895,34.6708164],[135.2008732,34.669848],[135.2010193,34.668869],[135.2012634,34.6678505],[135.2012151,34.6649856],[135.2007904,34.6645202],[135.2001648,34.6640511],[135.1994629,34.6635399],[135.1986542,34.663166],[135.1977997,34.6630059],[135.1970062,34.662983],[135.1960602,34.6630516],[135.1950989,34.663269],[135.1941834,34.6636048],[135.1930084,34.6641808],[135.1893311,34.66642],[135.1880646,34.6671905],[135.1875,34.6675377],[135.186615,34.6679878],[135.1861114,34.6683083],[135.1855774,34.6688232],[135.1854248,34.6691857],[135.1855011,34.6694489],[135.1858521,34.6696587],[135.1864319,34.6697769],[135.1868897,34.6698227],[135.1875763,34.6698571],[135.1879578,34.6699142],[135.1884765,34.6700706],[135.1888428,34.6702538],[135.1891784,34.6705361],[135.189224,34.6706879],[135.1893616,34.6711464],[135.1894379,34.671814],[135.1894836,34.6720657],[135.1895599,34.6721992],[135.1895752,34.6723632],[135.1895294,34.6726303],[135.1893158,34.6731034],[135.188263,34.6748276],[135.1878357,34.6756172],[135.1872254,34.676857],[135.1868897,34.6775895],[135.1865235,34.6785736],[135.1858673,34.6803246],[135.1855927,34.6809769],[135.1852417,34.6818657]]]}}