{"type":"Feature","properties":{"id":"way594061745","name":"way594061745","operator":"","category":"ferry","attribution":"© OpenStreetMap contributors"},"geometry":{"type":"MultiLineString","coordinates":[[[123.7784993,24.4029953],[123.7786213,24.4020238],[123.7811104,24.3999964],[123.7820814,24.398184],[123.7832454,24.3962591],[123.7828592,24.3944564],[123.781207,24.39302],[123.7813572,24.3913541],[123.7826875,24.3898835],[123.7835458,24.3893754],[123.7836853,24.3889894],[123.7834278,24.3884129],[123.7823657,24.3880513],[123.7814323,24.3877435],[123.7787608,24.388022],[123.7776664,24.3881539],[123.777189,24.3879976],[123.7769262,24.3876898],[123.7765936,24.3858039],[123.7767169,24.3850466],[123.7778113,24.3836345],[123.7786857,24.3827502],[123.7803862,24.3811134],[123.7819687,24.3798137],[123.7835405,24.3789293],[123.7847099,24.3789733],[123.7855521,24.378387],[123.7866197,24.3764911]]]}}