{"type":"Feature","properties":{"id":"way548278800","name":"way548278800","operator":"","category":"ferry","attribution":"© OpenStreetMap contributors"},"geometry":{"type":"MultiLineString","coordinates":[[[128.4735017,34.8284694],[128.4737675,34.8293823],[128.4749476,34.8310204],[128.4764282,34.8323414],[128.4781877,34.8327817],[128.4797498,34.8328368],[128.4804193,34.832676],[128.4831874,34.8308618],[128.4863846,34.8272334],[128.4926931,34.8215086],[128.4999887,34.815484],[128.5003144,34.8148635],[128.5009114,34.8126652],[128.5007398,34.8112559],[128.5001223,34.8105484],[128.4997117,34.8103337],[128.4981858,34.8102406],[128.497755,34.8103754],[128.4965264,34.8113273]]]}}