{"type":"Feature","properties":{"id":"way585556564","name":"way585556564","operator":"","category":"ferry","attribution":"© OpenStreetMap contributors"},"geometry":{"type":"MultiLineString","coordinates":[[[136.2472363,35.2855345],[136.2472057,35.2854762],[136.2471031,35.2854598],[136.2468933,35.285404],[136.2461194,35.2851396],[136.2452504,35.284636],[136.2435713,35.2837493],[136.2428793,35.2834669],[136.2424099,35.2835194],[136.2420022,35.2837602],[136.2415623,35.2843908],[136.2376785,35.2907138],[136.226692,35.3055998],[136.2002562,35.3441153],[136.1609457,35.396187],[136.1434954,35.4178866],[136.1433828,35.4190801],[136.1435102,35.4196385],[136.1435162,35.4197757],[136.1434123,35.4200093],[136.1434137,35.4200262],[136.1434507,35.4200558]]]}}