{"type":"Feature","properties":{"id":"way531456235","name":"way531456235","operator":"","category":"ferry","attribution":"© OpenStreetMap contributors"},"geometry":{"type":"MultiLineString","coordinates":[[[133.3817799,34.3813596],[133.3813672,34.3811321],[133.380965,34.3807353],[133.3809704,34.3801907],[133.3816516,34.3797037],[133.3831108,34.3792699],[133.3864581,34.3778443],[133.3921336,34.3754623],[133.4004592,34.3723453],[133.4131621,34.3651189],[133.4247493,34.3572542],[133.428483,34.3534101],[133.4319249,34.3503497],[133.4328022,34.3499735],[133.4333137,34.3494198],[133.4334478,34.3490987],[133.4335095,34.3487643]]]}}