{"type":"Feature","properties":{"id":"way594061746","name":"way594061746","operator":"","category":"ferry","attribution":"© OpenStreetMap contributors"},"geometry":{"type":"MultiLineString","coordinates":[[[123.7866197,24.3764911],[123.7878427,24.3750643],[123.7887708,24.3741164],[123.7892697,24.3732418],[123.7895272,24.3718345],[123.789318,24.3702269],[123.7892536,24.3687658],[123.7891839,24.3672168],[123.7905893,24.3655309],[123.7931428,24.363542],[123.7938616,24.3635469],[123.7939314,24.36363]]]}}