{"type":"Feature","properties":{"id":"way538227495","name":"way538227495","operator":"","category":"ferry","attribution":"© OpenStreetMap contributors"},"geometry":{"type":"MultiLineString","coordinates":[[[128.5747858,34.6477409],[128.5741364,34.6488609],[128.5742409,34.6496965],[128.57126,34.6509763],[128.5652733,34.6529974],[128.556304,34.6571277],[128.4473417,34.7039412],[128.4453676,34.714419],[128.4583557,34.7181789],[128.4585352,34.7179815],[128.458466,34.7175228],[128.4587253,34.7181202],[128.4584684,34.7184709],[128.4442519,34.7150186],[128.4448527,34.7028121],[128.5377215,34.6373746],[128.5404414,34.6350926],[128.5429251,34.6331814],[128.5465622,34.6305419],[128.5471094,34.6298886],[128.5475472,34.6292642],[128.5472382,34.6299063],[128.547222,34.6300608],[128.547442,34.6302484],[128.5476726,34.6305154],[128.5480589,34.6308376],[128.5487723,34.631407],[128.5501724,34.6323869],[128.5517442,34.6335566],[128.5531443,34.6344968],[128.5554403,34.6360504],[128.5583049,34.6381116],[128.5599893,34.6391488],[128.56206,34.6400183],[128.5643238,34.6410996],[128.5666144,34.6424589],[128.5683846,34.6433416],[128.5693931,34.6435622],[128.570112,34.6434828],[128.5706377,34.6429973],[128.5707262,34.6427193],[128.5706793,34.6424843],[128.5706063,34.642247]]]}}