{"type":"Feature","properties":{"id":"way558664531","name":"way558664531","operator":"","category":"ferry","attribution":"© OpenStreetMap contributors"},"geometry":{"type":"MultiLineString","coordinates":[[[128.7278301,34.8671707],[128.7276117,34.8653855],[128.7279655,34.8635425],[128.7284732,34.8623559],[128.7291348,34.8616742],[128.7314271,34.8589348],[128.7354246,34.8537004],[128.7382079,34.8492673],[128.740273,34.8452884],[128.741677,34.8390586],[128.7431576,34.8268352],[128.7451866,34.8190475],[128.7472877,34.8173547]]]}}