{"type":"Feature","properties":{"id":"way508172347","name":"way508172347","operator":"","category":"ferry","attribution":"© OpenStreetMap contributors"},"geometry":{"type":"MultiLineString","coordinates":[[[132.9170038,34.3318279],[132.9160695,34.3312005],[132.9156617,34.330674],[132.9153714,34.3300572],[132.9151847,34.3294027],[132.9151848,34.3287482],[132.915343,34.3274816],[132.9155632,34.3259876],[132.9161166,34.3213933],[132.9132761,34.3128115],[132.9128551,34.3115395],[132.9060852,34.3006918],[132.9048568,34.2987176],[132.9043311,34.2982013],[132.9036914,34.2982323]]]}}