{"type":"Feature","properties":{"id":"way533157927","name":"way533157927","operator":"","category":"ferry","attribution":"© OpenStreetMap contributors"},"geometry":{"type":"MultiLineString","coordinates":[[[130.4834175,33.8534483],[130.4835779,33.8539364],[130.483836,33.8540189],[130.48537,33.8541255],[130.4858315,33.8545665],[130.4856384,33.8557871],[130.4864215,33.8592262],[130.4920005,33.8691328],[130.4992103,33.8801071],[130.5051487,33.8920286],[130.5053687,33.8930749],[130.5051863,33.8938764],[130.5046928,33.8944241],[130.5034322,33.8950965],[130.5026489,33.895515],[130.5020079,33.8958156]]]}}