{"type":"Feature","properties":{"id":"way585549375","name":"way585549375","operator":"","category":"ferry","attribution":"© OpenStreetMap contributors"},"geometry":{"type":"MultiLineString","coordinates":[[[136.1782422,35.2962322],[136.1783226,35.2962864],[136.1784728,35.2962854],[136.1786753,35.2962405],[136.1805045,35.2961431],[136.1841416,35.2960205],[136.1908579,35.294707],[136.2015009,35.2926754],[136.2243747,35.2883318],[136.2377322,35.2846711],[136.2420291,35.2834712],[136.2431824,35.2833924],[136.2448132,35.2841938],[136.2465754,35.2852578],[136.2472332,35.2854686],[136.2472363,35.2855345]]]}}