{"type":"Feature","properties":{"id":"way596050378","name":"way596050378","operator":"","category":"ferry","attribution":"© OpenStreetMap contributors"},"geometry":{"type":"MultiLineString","coordinates":[[[131.9254428,32.7972361],[131.9248956,32.7972947],[131.9241232,32.797448],[131.9232434,32.797687],[131.9226211,32.7977276],[131.921618,32.7974481],[131.920824,32.7956804],[131.9212532,32.7934798],[131.9228839,32.7913874],[131.9240855,32.7871303],[131.923828,32.7844604],[131.9219398,32.7814297],[131.9209957,32.7800225]]]}}