{"type":"Feature","properties":{"id":"way636627981","name":"way636627981","operator":"","category":"ferry","attribution":"© OpenStreetMap contributors"},"geometry":{"type":"MultiLineString","coordinates":[[[128.3512841,34.6503543],[128.3510459,34.6503954],[128.3506116,34.6506144],[128.3499625,34.6511062],[128.3495965,34.6519681],[128.348749,34.6524711],[128.3475259,34.6528065],[128.3464745,34.6532919],[128.346217,34.6537508],[128.3461955,34.6547305],[128.3463747,34.655179],[128.3466593,34.6553329],[128.3467203,34.6554432],[128.3466593,34.6555369],[128.3466024,34.6556572],[128.3466105,34.6557542],[128.3466796,34.6558345],[128.3469493,34.6559577]]]}}