{"type":"Feature","properties":{"id":"way674641461","name":"way674641461","operator":"","category":"ferry","attribution":"© OpenStreetMap contributors"},"geometry":{"type":"MultiLineString","coordinates":[[[137.6265162,34.7647805],[137.6264451,34.7650901],[137.6264532,34.7652906],[137.62648,34.765425],[137.6265309,34.7654757],[137.6266114,34.7654845],[137.6251684,34.7658172],[137.6241706,34.7660816],[137.6227222,34.7664959],[137.6211558,34.7669013],[137.6195679,34.767342],[137.6185594,34.7675535],[137.6181195,34.7677738],[137.6176153,34.7680559],[137.6173471,34.7681704],[137.6170145,34.7682233],[137.616655,34.7682453],[137.6162742,34.7682453],[137.6154749,34.7682387],[137.6151074,34.7681903],[137.6145495,34.7680625],[137.6142062,34.7679655],[137.6139219,34.7678223],[137.613718,34.7676901],[137.6136215,34.7675777],[137.6135678,34.7675425]]]}}