{"type":"Feature","properties":{"id":"way674641460","name":"way674641460","operator":"","category":"ferry","attribution":"© OpenStreetMap contributors"},"geometry":{"type":"MultiLineString","coordinates":[[[137.6156599,34.7706998],[137.6159657,34.7704046],[137.6161964,34.7699287],[137.6162608,34.7695409],[137.616352,34.7690297],[137.616529,34.7685494],[137.6167704,34.7681836],[137.6170547,34.7679589],[137.6175214,34.7677077],[137.6179506,34.7675491],[137.61831,34.7674742],[137.618884,34.7673993],[137.6200641,34.7671128],[137.6215662,34.766703],[137.6231111,34.7662535],[137.6242537,34.7658965],[137.6249672,34.7656454],[137.6254983,34.7653765],[137.6261206,34.7650152],[137.6262922,34.7648301],[137.6263566,34.7647067]]]}}