{"type":"Feature","properties":{"id":"way600239817","name":"way600239817","operator":"","category":"ferry","attribution":"© OpenStreetMap contributors"},"geometry":{"type":"MultiLineString","coordinates":[[[131.3840732,31.4800265],[131.3843853,31.4800376],[131.3847518,31.4798821],[131.3849866,31.4793686],[131.3851708,31.4790125],[131.3854846,31.4785573],[131.3856375,31.4780861],[131.3860854,31.4773312],[131.3863,31.4770475],[131.3864958,31.4769629],[131.3868526,31.4769766],[131.3874414,31.4770634]]]}}