{"type":"Feature","properties":{"id":"way636627990","name":"way636627990","operator":"","category":"ferry","attribution":"© OpenStreetMap contributors"},"geometry":{"type":"MultiLineString","coordinates":[[[128.2754619,34.6310076],[128.2753257,34.6312366],[128.2752606,34.6314507],[128.2752525,34.6317317],[128.2753826,34.6323472],[128.275594,34.6330497],[128.2778869,34.6346018],[128.2790497,34.6357993],[128.2799359,34.6371708],[128.2811149,34.6433787],[128.2829444,34.6467903],[128.2822614,34.6482284],[128.2824565,34.6511514],[128.2819524,34.6521681],[128.2812287,34.6545359],[128.2808141,34.6588364],[128.2816597,34.6640463],[128.2812603,34.6653336],[128.274274,34.6705726],[128.2678668,34.6718323],[128.2584334,34.6719092],[128.2580691,34.6717478],[128.2576208,34.671648],[128.2570604,34.6716403],[128.2566588,34.6718247],[128.256472,34.6722164],[128.256444,34.6725083],[128.2566121,34.6728386],[128.2567522,34.6730537],[128.2567396,34.6731969],[128.2566217,34.6732805],[128.2563237,34.6732504]]]}}