{"type":"Feature","properties":{"id":"way739576631","name":"way739576631","operator":"","category":"ferry","attribution":"© OpenStreetMap contributors"},"geometry":{"type":"MultiLineString","coordinates":[[[122.0768778,25.6248253],[122.0768285,25.6248055],[122.0765657,25.6246214],[122.0763505,25.6243576],[122.0762125,25.6239321],[122.0762333,25.6234796],[122.0764579,25.6229967],[122.0768112,25.6226394],[122.0772017,25.6223778],[122.0779061,25.6220369],[122.0785932,25.6218918],[122.0796744,25.6217718],[122.0808723,25.6218742],[122.0824604,25.6222992],[122.0836923,25.6228407],[122.0850722,25.6237572],[122.0857063,25.6243342],[122.0863113,25.6250957],[122.0866955,25.6259011],[122.0870094,25.6271884],[122.0871311,25.6283642],[122.0870404,25.6296413],[122.0868201,25.6303413],[122.0863488,25.6309978]]]}}