{"type":"Feature","properties":{"id":"way714001889","name":"way714001889","operator":"","category":"ferry","attribution":"© OpenStreetMap contributors"},"geometry":{"type":"MultiLineString","coordinates":[[[132.999908,34.3101057],[133.0006304,34.3067382],[133.0006548,34.3063759],[133.000619,34.306031],[133.0004929,34.3056347],[133.0003214,34.3052337],[133.0001083,34.3049446],[132.9998173,34.3046964],[132.9994468,34.304513],[132.9990693,34.3043471],[132.9986033,34.3042075],[132.9981586,34.3041322],[132.9976803,34.3041214],[132.9971666,34.3041457],[132.9966388,34.3042233],[132.9961436,34.3043351],[132.9959386,34.3044295],[132.9957864,34.3045289],[132.9956909,34.30464],[132.9955527,34.3048199]]]}}