{"type":"Feature","properties":{"id":"way739576628","name":"way739576628","operator":"","category":"ferry","attribution":"© OpenStreetMap contributors"},"geometry":{"type":"MultiLineString","coordinates":[[[121.7859374,25.1460868],[121.7859693,25.1460644],[121.7859979,25.1460538],[121.7860258,25.1460498],[121.7860588,25.1460604],[121.7860846,25.1460802],[121.7862079,25.1462215],[121.7863708,25.1463987],[121.7865338,25.1465599],[121.7866785,25.1466251],[121.7869751,25.1466003],[121.7872667,25.1465642],[121.7875666,25.1464779],[121.7884348,25.146117],[121.7886253,25.1460692],[121.7888478,25.1460312],[121.7889986,25.1460165],[121.7892334,25.1460236],[121.7894664,25.1460906],[121.7896678,25.1461995],[121.7898288,25.1463649],[121.7899644,25.146622],[121.7900814,25.1469395],[121.7907799,25.1490817],[121.7913633,25.1502717],[121.7928198,25.1524477],[121.7945288,25.1548093],[121.796589,25.1575412],[121.7988033,25.1601644],[121.8012116,25.1627803],[122.0932158,25.4770036],[122.0958745,25.4797185],[122.096936,25.480512],[122.0980384,25.4810761],[122.0994281,25.4813679],[122.1007207,25.4813791],[122.1020807,25.4812144],[122.1028453,25.4809093],[122.1040551,25.4802483],[122.105047,25.4799789],[122.1063393,25.4798063],[122.10771,25.4799919],[122.1090146,25.480592],[122.109924,25.4813621],[122.1103614,25.4821975],[122.1105419,25.4830958],[122.1104773,25.483853],[122.1103002,25.4842997],[122.1097663,25.4846777],[122.1093822,25.4850606],[122.1093013,25.4853326],[122.1092967,25.4856516],[122.1094947,25.4860791],[122.1097205,25.486666],[122.1097472,25.4874909],[122.109398,25.4884368],[122.1089301,25.489072],[122.1082694,25.4895821],[122.1073997,25.4899269],[122.10657,25.4900295],[122.1057263,25.4900579],[122.1049637,25.4900815],[122.1043085,25.4902407],[122.1038381,25.49049],[122.1034536,25.4909911],[122.1032229,25.4916759],[122.1030137,25.492488],[122.0762283,25.6168462],[122.0759022,25.6182228],[122.0755591,25.6198363],[122.0754079,25.6210652],[122.0753438,25.6219373],[122.0753886,25.6228801],[122.0755356,25.6235614],[122.0757833,25.6240553],[122.0760204,25.6243976],[122.0764442,25.624723],[122.0768485,25.6249335],[122.0768893,25.6249508],[122.0769137,25.6249539]]]}}