{"type":"Feature","properties":{"id":"way850047650","name":"way850047650","operator":"","category":"ferry","attribution":"© OpenStreetMap contributors"},"geometry":{"type":"MultiLineString","coordinates":[[[136.8979483,34.5224484],[136.8981024,34.5224255],[136.898013,34.5220143],[136.8979241,34.5219432],[136.8965231,34.5221586],[136.8957011,34.5220201],[136.8948979,34.5216661],[136.8945851,34.5213082],[136.8934447,34.5199919],[136.891969,34.5171694],[136.8912386,34.5146621],[136.8910491,34.5118803],[136.8905643,34.5099638],[136.8864253,34.506097],[136.8814686,34.5038463],[136.8553976,34.4940493],[136.8476085,34.4928003],[136.8469111,34.4923228],[136.8466027,34.4919646],[136.8463327,34.4903202],[136.8455593,34.4900635],[136.8455416,34.490089]]]}}