{"type":"Feature","properties":{"id":"way867673370","name":"way867673370","operator":"","category":"ferry","attribution":"© OpenStreetMap contributors"},"geometry":{"type":"MultiLineString","coordinates":[[[126.5433121,43.8299924],[126.5433208,43.8300527],[126.5433939,43.8301847],[126.5434427,43.8304017],[126.5435322,43.8308211],[126.5436234,43.8313319],[126.5437843,43.8316686],[126.5442175,43.8322627],[126.5449167,43.8330663],[126.5455916,43.8338229],[126.5457705,43.8341983],[126.5458213,43.8343611],[126.5458559,43.8346118],[126.5458588,43.834802],[126.5458417,43.8350141],[126.5458842,43.8351234],[126.5459779,43.8351959],[126.5460822,43.8352411]]]}}