{"type":"Feature","properties":{"id":"way829667322","name":"way829667322","operator":"","category":"ferry","attribution":"© OpenStreetMap contributors"},"geometry":{"type":"MultiLineString","coordinates":[[[139.8529175,34.9912571],[139.8527936,34.9911465],[139.8508345,34.9906159],[139.8451125,34.993531],[139.842466,34.9945711],[139.8295735,34.9946297],[139.8251211,34.9945125],[139.8209547,34.9936922],[139.8197924,34.9929012],[139.8189162,34.9916999],[139.8188804,34.9909968],[139.8195778,34.9907624],[139.8195778,34.9915534],[139.8201858,34.992447],[139.8221527,34.9934285],[139.8252105,34.9940877],[139.8295914,34.9943807],[139.8424124,34.9943074],[139.8449873,34.9932967],[139.8507987,34.9904108],[139.8527936,34.9911465]]]}}