{"type":"Feature","properties":{"id":"way959034454","name":"way959034454","operator":"","category":"ferry","attribution":"© OpenStreetMap contributors"},"geometry":{"type":"MultiLineString","coordinates":[[[131.4091617,31.5376094],[131.40881,31.5381559],[131.4086474,31.5382529],[131.4082896,31.5382252],[131.4080294,31.5381421],[131.4077855,31.5379342],[131.4075579,31.537657],[131.4066309,31.536964],[131.4062081,31.5366868],[131.4055078,31.5362121],[131.4043186,31.5352709],[131.4034126,31.5342212],[131.4021101,31.5319044],[131.401827,31.5313132],[131.4017137,31.5308546],[131.4016005,31.5303358],[131.4015297,31.5298531],[131.4036674,31.5278741],[131.4039505,31.5277172],[131.4043327,31.5275604],[131.4048849,31.5275604],[131.4048869,31.5274477]]]}}