{"type":"Feature","properties":{"id":"way959034460","name":"way959034460","operator":"","category":"ferry","attribution":"© OpenStreetMap contributors"},"geometry":{"type":"MultiLineString","coordinates":[[[131.4048869,31.5274477],[131.4048849,31.5275604],[131.4043327,31.5275604],[131.4039505,31.5277172],[131.4036674,31.5278741],[131.4015297,31.5298531],[131.4003974,31.5308698],[131.399686,31.5318697],[131.3993231,31.5330391],[131.3991067,31.5356802],[131.3989477,31.5400029],[131.3986787,31.54168],[131.3980275,31.5438276],[131.3970349,31.5447568],[131.3964495,31.5447291],[131.3958803,31.5445351],[131.39536,31.5442302],[131.3947095,31.5437035],[131.3942271,31.543292],[131.393648,31.5430692],[131.3929942,31.542894],[131.3919668,31.5428781],[131.3904351,31.5432124],[131.3898186,31.543292],[131.3891648,31.5431488],[131.3882121,31.54291],[131.3876891,31.5428304],[131.3873155,31.5429418],[131.3869793,31.5430214],[131.3859145,31.543101],[131.3846069,31.5432602],[131.3834077,31.5434813],[131.3834518,31.5436153]]]}}