{"type":"Feature","properties":{"id":"way909228777","name":"way909228777","operator":"","category":"ferry","attribution":"© OpenStreetMap contributors"},"geometry":{"type":"MultiLineString","coordinates":[[[132.3498953,33.961045],[132.349503,33.9611457],[132.3493536,33.9612154],[132.3492508,33.9614633],[132.3492135,33.9615795],[132.3490921,33.9616415],[132.3487745,33.9616105],[132.3484476,33.9614168],[132.3476537,33.9611379],[132.3454121,33.9608668],[132.3437562,33.9609209],[132.3420829,33.9607807],[132.3403141,33.9605968],[132.3386578,33.9601514],[132.337125,33.9594289],[132.3362213,33.9581624],[132.3358828,33.9567591],[132.3358664,33.9553723],[132.3362231,33.954089],[132.3373167,33.953236],[132.338335,33.9529735],[132.3389788,33.9531693],[132.3390421,33.9533298],[132.3388015,33.9533885]]]}}