{"type":"Feature","properties":{"id":"way938751336","name":"way938751336","operator":"","category":"ferry","attribution":"© OpenStreetMap contributors"},"geometry":{"type":"MultiLineString","coordinates":[[[126.4598706,37.0173146],[126.4597142,37.0171853],[126.4575239,37.017609],[126.4561426,37.0187776],[126.4540877,37.0238535],[126.4542918,37.0262761],[126.4561661,37.0304762],[126.4584809,37.0332335],[126.459256,37.0367661],[126.4581807,37.0407277],[126.4577742,37.042177],[126.456511,37.0427641],[126.4548333,37.0424632],[126.4531785,37.0415598],[126.4531546,37.0443504],[126.4549073,37.0502284],[126.4546091,37.051656],[126.4534529,37.052811],[126.4518366,37.053228],[126.4507295,37.053316]]]}}