{"type":"Feature","properties":{"id":"way997692445","name":"way997692445","operator":"","category":"ferry","attribution":"© OpenStreetMap contributors"},"geometry":{"type":"MultiLineString","coordinates":[[[127.7367154,34.7289368],[127.7368368,34.7288414],[127.7367606,34.7287355],[127.7366509,34.7286212],[127.7365298,34.7285278],[127.7364109,34.7284882],[127.7362637,34.7284881],[127.7359861,34.7285088],[127.7358035,34.7286074],[127.7356605,34.7287293],[127.7343085,34.7305319],[127.7336768,34.7330185],[127.7338414,34.7344886],[127.7360152,34.7360674],[127.736837,34.7362949],[127.7386128,34.736313],[127.7430724,34.7355609],[127.7485349,34.7351497],[127.750589,34.7350805],[127.7568087,34.7357693],[127.7598518,34.7359844],[127.763046,34.7357619],[127.7642766,34.7357172],[127.7680328,34.7355159],[127.7721888,34.7357149],[127.774008,34.7358454],[127.7757386,34.736065],[127.776439,34.7362045],[127.7766731,34.7362395],[127.776784,34.7361408],[127.7767647,34.7359351],[127.7766271,34.7357172],[127.7764415,34.7354468],[127.7755248,34.7347376],[127.7733009,34.7330716],[127.7731098,34.7329679],[127.7728462,34.7329024],[127.7724342,34.732927],[127.7722412,34.7330035],[127.7719701,34.7331121],[127.7717402,34.7333533],[127.7713933,34.7337014],[127.7630075,34.7355903],[127.7598493,34.7358182],[127.7567986,34.7356226],[127.7505841,34.7349522],[127.7485266,34.7350444],[127.7430455,34.7354464],[127.7386051,34.7361877],[127.7368759,34.7361847],[127.7360759,34.7359723],[127.7339515,34.7344283],[127.7338049,34.7330164],[127.7344214,34.7305577],[127.7357102,34.7288004],[127.7358732,34.7287456],[127.7360361,34.728733],[127.7362285,34.7287781],[127.7364152,34.7288593],[127.7366143,34.7290297],[127.7367154,34.7289368]]]}}