{"type":"Feature","properties":{"id":"way924796843","name":"way924796843","operator":"","category":"ferry","attribution":"© OpenStreetMap contributors"},"geometry":{"type":"MultiLineString","coordinates":[[[128.3644559,34.8200085],[128.3624497,34.817832],[128.3610598,34.8162525],[128.3597082,34.8153573],[128.3591018,34.8154187],[128.3590347,34.8154409],[128.3600452,34.8163361],[128.3606531,34.8183739],[128.3600885,34.8190085],[128.3582914,34.8204305],[128.3556137,34.8214496],[128.3545238,34.821343],[128.353001,34.8204833],[128.3532631,34.8210011],[128.3533447,34.8218013],[128.3523802,34.8223795],[128.3513135,34.822434],[128.3505429,34.8222873],[128.3486537,34.821526],[128.347673,34.8210884]]]}}