{"type":"Feature","properties":{"id":"way909228781","name":"way909228781","operator":"","category":"ferry","attribution":"© OpenStreetMap contributors"},"geometry":{"type":"MultiLineString","coordinates":[[[132.3388015,33.9533885],[132.3390421,33.9533298],[132.3389788,33.9531693],[132.338335,33.9529735],[132.3359987,33.9524619],[132.3356885,33.9523404],[132.3353237,33.9520912],[132.3349696,33.9515484],[132.3344868,33.9503202],[132.334002,33.9485008],[132.3345624,33.9463468],[132.3361502,33.9445647],[132.3376446,33.9438519],[132.3397937,33.9437969],[132.3424878,33.9448216],[132.3441831,33.9457029],[132.3453968,33.9461144],[132.3463681,33.9461144],[132.3467044,33.9461299],[132.3467863,33.9463694],[132.346965,33.946439]]]}}