{"type":"Feature","properties":{"id":"way959034456","name":"way959034456","operator":"","category":"ferry","attribution":"© OpenStreetMap contributors"},"geometry":{"type":"MultiLineString","coordinates":[[[131.4091617,31.5376094],[131.40881,31.5381559],[131.4086474,31.5382529],[131.4082896,31.5382252],[131.4080294,31.5381421],[131.4078934,31.5381623],[131.4071556,31.5383931],[131.4062122,31.5386956],[131.4052876,31.5391493],[131.4043536,31.5396349],[131.402564,31.5409178],[131.4013769,31.542179],[131.3999296,31.5433155],[131.3989213,31.5440223],[131.3977667,31.5446459],[131.3970349,31.5447568],[131.3964495,31.5447291],[131.3958803,31.5445351],[131.39536,31.5442302],[131.3947095,31.5437035],[131.3942271,31.543292],[131.393648,31.5430692],[131.3929942,31.542894],[131.3919668,31.5428781],[131.3904351,31.5432124],[131.3898186,31.543292],[131.3891648,31.5431488],[131.3882121,31.54291],[131.3876891,31.5428304],[131.3873155,31.5429418],[131.3869793,31.5430214],[131.3859145,31.543101],[131.3846069,31.5432602],[131.3834077,31.5434813],[131.3834518,31.5436153]]]}}