{"type":"Feature","properties":{"id":"way978688165","name":"way978688165","operator":"","category":"ferry","attribution":"© OpenStreetMap contributors"},"geometry":{"type":"MultiLineString","coordinates":[[[127.803369,34.4528698],[127.8032699,34.4539296],[127.8055358,34.4554866],[127.8069778,34.4567464],[127.8091407,34.4586855],[127.8092609,34.4601717],[127.8086086,34.4625353],[127.8074928,34.4644743],[127.7999053,34.4674181],[127.7973476,34.4693429],[127.7956138,34.4710553],[127.7948757,34.4742677],[127.7945541,34.47756],[127.7946195,34.4779162],[127.7949379,34.4781295],[127.7951939,34.4780937],[127.7959337,34.4777144],[127.796212,34.4769544],[127.7964128,34.4790127],[127.7954601,34.4816235],[127.7951425,34.4833427],[127.7952432,34.4872104],[127.7957773,34.4907421],[127.7977679,34.4925429],[127.8002077,34.4925829],[127.8013245,34.4919526],[127.8025831,34.4904924],[127.8027029,34.4921914],[127.8029942,34.4931118],[127.8007961,34.5001772],[127.7959038,34.5042231],[127.7879559,34.5086791],[127.7805229,34.5086084],[127.7745663,34.5086084],[127.771825,34.5087036],[127.7710022,34.5086976]]]}}