{"type":"Feature","properties":{"id":"way962710791","name":"way962710791","operator":"","category":"ferry","attribution":"© OpenStreetMap contributors"},"geometry":{"type":"MultiLineString","coordinates":[[[125.9160699,34.2538431],[125.916463,34.2534893],[125.9165978,34.2531553],[125.9166719,34.2526143],[125.9165505,34.2514493],[125.9155437,34.2492918],[125.9150435,34.247981],[125.9153498,34.2471676],[125.9170203,34.2461027],[125.9277848,34.2391216],[125.9285492,34.2385925],[125.929404,34.2381631],[125.9303418,34.2381564],[125.9312054,34.238367],[125.931446,34.238566],[125.9314407,34.2386845]]]}}