{"type":"Feature","properties":{"id":"YOKOSUKA軍港めぐり","name":"YOKOSUKA軍港めぐり","operator":"","category":"ferry","attribution":"© OpenStreetMap contributors"},"geometry":{"type":"MultiLineString","coordinates":[[[139.6611468,35.2834461],[139.6611482,35.2834963],[139.6576506,35.2862152],[139.657422,35.2867125],[139.6573001,35.2872553],[139.6546415,35.2911823],[139.6543754,35.2923718],[139.6544729,35.2934205],[139.6548978,35.294293],[139.6594202,35.3013282],[139.6598037,35.3027543],[139.6597919,35.3046394],[139.6588857,35.3075098],[139.6584866,35.3080171],[139.6565027,35.3096248],[139.6559783,35.3099949],[139.6533531,35.3110897],[139.6522487,35.3112571],[139.6512884,35.3112486],[139.6499883,35.3109487],[139.6489742,35.3101344],[139.6422727,35.301506],[139.6409114,35.300468],[139.639548,35.2999561],[139.6381643,35.299793],[139.6363889,35.2999412],[139.6342665,35.3004832],[139.6337456,35.3004588],[139.6336038,35.3001788],[139.6337318,35.2998118],[139.6341022,35.2995811],[139.6363618,35.2989025],[139.6399268,35.2978917],[139.6407652,35.2979972],[139.641217,35.2984253],[139.6419674,35.2995573],[139.6423743,35.2997279],[139.6430203,35.2995467],[139.6436011,35.2991065],[139.6455371,35.2973979],[139.6470136,35.2957456],[139.6481864,35.2942516],[139.6489344,35.2937766],[139.6504659,35.29317],[139.6521223,35.292835],[139.652924,35.2923557],[139.653607,35.2918075],[139.6575044,35.2860976],[139.6611132,35.2834412],[139.6611468,35.2834461]]]}}