{"type":"Feature","properties":{"id":"Владивосток_-_п-ов_Песчаный","name":"Владивосток - п-ов Песчаный","operator":"","category":"ferry","attribution":"© OpenStreetMap contributors"},"geometry":{"type":"MultiLineString","coordinates":[[[131.886137,43.1127659],[131.8856406,43.1118852],[131.8845501,43.1094973],[131.8755894,43.0944836],[131.8483028,43.0721406],[131.8434166,43.0716875],[131.8393536,43.0728734],[131.8219898,43.0809098],[131.8131064,43.0998549],[131.807098,43.1636204],[131.7769175,43.1816105]]]}}