{"type":"Feature","properties":{"id":"Владивосток_-_Канал_о._Русский","name":"Владивосток - Канал о. Русский","operator":"","category":"ferry","attribution":"© OpenStreetMap contributors"},"geometry":{"type":"MultiLineString","coordinates":[[[131.8841122,43.1121954],[131.8847228,43.1118008],[131.8857033,43.1092471],[131.8768888,43.0938846],[131.8500246,43.0709197],[131.8465757,43.0641236],[131.8446961,43.0613833],[131.8425521,43.0583121],[131.8425199,43.0582614],[131.8425124,43.0582058],[131.8425305,43.0581514],[131.8425723,43.0581046],[131.8426316,43.0580709],[131.8427026,43.0580532],[131.8427777,43.0580532],[131.8428487,43.0580711],[131.8431743,43.0582917]]]}}