{"type":"Feature","properties":{"id":"Джапандом_Корсаков_-_Вакканай_稚内_-_コルサコフ","name":"Корсаков - Вакканай 稚内 - コルサコフ","operator":"Джапандом","category":"ferry","attribution":"© OpenStreetMap contributors"},"geometry":{"type":"MultiLineString","coordinates":[[[142.7590444,46.6205078],[142.7587187,46.6216707],[142.7578711,46.6223117],[142.7544233,46.6232474],[142.7501544,46.6217802],[142.7470086,46.6199577],[142.7445852,46.6177884],[142.6596177,46.5201006],[142.5608464,46.4063213],[142.4685257,46.2997577],[142.416006,46.2390428],[142.357518,46.171349],[142.2632604,46.0620802],[142.2117051,46.0022227],[142.1561182,45.9376116],[142.0608963,45.8267561],[141.9702613,45.721035],[141.9475849,45.6947245],[141.8830893,45.6198258],[141.8264205,45.5539338],[141.7608626,45.4776093],[141.7086779,45.4167804],[141.7042602,45.4142333],[141.6955018,45.4131836],[141.6902017,45.4126262],[141.6856527,45.41234],[141.681565,45.4114739],[141.6801488,45.4114814],[141.6794944,45.4116998],[141.6792905,45.4128974],[141.6794836,45.414189],[141.6794971,45.4147601]]]}}