{"type":"Feature","properties":{"id":"Корсаков_—_Южно-Курильск_(о._Кунашир)_—_Малокурильское_(о._Шикотан)_—_Курильск_(о._Итуруп)","name":"Корсаков — Южно-Курильск (о. Кунашир) — Малокурильское (о. Шикотан) — Курильск (о. Итуруп)","operator":"","category":"ferry","attribution":"© OpenStreetMap contributors"},"geometry":{"type":"MultiLineString","coordinates":[[[145.8507693,44.0201524],[145.8502767,44.0199742],[145.8497948,44.0196737],[145.849461,44.0192828],[145.8493063,44.0188378],[145.849345,44.0183799],[145.8495735,44.0179516],[145.8499706,44.0175926],[145.8504996,44.0173362],[145.8511113,44.0172062],[145.8561772,44.0166353],[145.8642769,44.0160893],[145.8720874,44.0160893],[145.8785247,44.01683],[145.8847475,44.01862],[145.9769688,44.0607054],[146.0600562,44.0985968],[146.1440965,44.1368982],[146.2533819,44.1866679],[146.3426412,44.2272863],[146.4385271,44.2708891],[146.5344349,44.3144694],[146.635788,44.360489],[146.6689769,44.3892967],[146.688894,44.423774],[146.6937898,44.460885],[146.6832341,44.4973674],[146.6581543,44.5300203],[146.6207536,44.5559835],[146.5051753,44.6018334],[146.3715924,44.6547807],[146.2619213,44.6982142],[146.1373407,44.7475129],[146.0127601,44.7967695],[145.900094,44.8412792],[145.7834781,44.8873131],[145.6671391,44.933201],[145.5228211,44.9900739],[145.3921917,45.0415037],[145.2839178,45.084097],[145.1601088,45.1327626],[145.0164337,45.1891851],[144.8916941,45.2381261],[144.7268778,45.3027264],[144.5895632,45.3564911],[144.4388781,45.4154323],[144.3107532,45.4655006],[144.1988784,45.5091825],[144.0948135,45.5497845],[143.9793943,45.5947822],[143.8885233,45.6301841],[143.7814875,45.6718549],[143.6750881,45.7132472],[143.5739593,45.7525607],[143.4675598,45.7938933],[143.3331592,45.8460596],[143.302201,45.8610511],[143.2755711,45.8796375],[143.2541211,45.9012212],[143.1892271,45.9855089],[143.1255496,46.068092],[143.0594791,46.1536482],[143.0052961,46.2237118],[142.9406952,46.3071301],[142.8773716,46.3887759],[142.8138863,46.4705077],[142.7613257,46.5380821],[142.7467344,46.5657061],[142.7412413,46.5891872],[142.7422713,46.6058183],[142.7465629,46.6162839],[142.7481937,46.6186863],[142.7500675,46.6203613],[142.7519197,46.6211837],[142.7535752,46.6214825],[142.7569457,46.6218365],[142.7585101,46.6215906],[142.7590444,46.6205078]],[[142.7590444,46.6205078],[142.7583845,46.6214405],[142.7568306,46.6216528],[142.7534723,46.6207938],[142.751584,46.6197916],[142.7498674,46.6181409],[142.7487516,46.6162249],[142.7479577,46.6137193],[142.7474212,46.6109187],[142.7474209,46.6065261],[142.7515411,46.5896],[142.7597807,46.5701907],[142.7808951,46.5410341],[142.83672,46.4762182],[142.9066743,46.3948881],[142.9663969,46.3253576],[143.0390581,46.2406442],[143.1050265,46.1636203],[143.168586,46.089307],[143.2313425,46.0158341],[143.3096824,45.9239795],[143.3289905,45.907785],[143.3532927,45.8952581],[143.3811866,45.8871241],[143.535166,45.8653255],[143.6558647,45.8482323],[143.7969142,45.8282505],[143.9042352,45.813042],[144.0259476,45.7957891],[144.1487324,45.7783788],[144.2817072,45.7595174],[144.3834264,45.7450851],[144.5131778,45.72667],[144.6831339,45.7025397],[144.8523688,45.6785014],[145.0345947,45.6526063],[145.2126191,45.6272967],[145.3741074,45.6043281],[145.537646,45.5810583],[145.6949687,45.5586639],[145.8487104,45.5367706],[146.0239046,45.511812],[146.2008567,45.4865917],[146.3377048,45.4670796],[146.4959697,45.4445053],[146.6554077,45.4217546],[146.8115929,45.3994591],[146.9692079,45.3769506],[147.1110017,45.3566939],[147.2830375,45.332107],[147.4261246,45.3116492],[147.4296643,45.3112211],[147.5495164,45.2967637],[147.6494576,45.2847053],[147.7327841,45.2746495],[147.8795697,45.2569313],[147.852698,45.2585278],[147.7942658,45.2585544],[147.7361834,45.25406],[147.6791547,45.2450978],[147.6238707,45.2317744],[147.5710013,45.2142482],[147.5211871,45.1927279],[147.4750317,45.1674698],[147.3634068,45.0934189],[147.2698323,45.0312683],[147.1631778,44.9603478],[147.0531948,44.8871221],[146.9642166,44.8142749],[146.8812525,44.7281232],[146.8173109,44.6340058],[146.7738214,44.5339941],[146.7517563,44.4303009],[146.7516091,44.3252319],[146.7650727,44.2157016],[146.7792834,44.0998711],[146.7902542,44.0102935],[146.8020629,43.9137233],[146.8076419,43.8952948],[146.8157315,43.8786856],[146.8178444,43.8750539],[146.8190773,43.8736904],[146.820704,43.8725616],[146.822641,43.8717254],[146.8254387,43.8709811]]]}}