{"type":"Feature","properties":{"id":"Южно-Курильск_(о._Кунашир)_—_Малокурильское_(о._Шикотан)","name":"Южно-Курильск (о. Кунашир) — Малокурильское (о. Шикотан)","operator":"","category":"ferry","attribution":"© OpenStreetMap contributors"},"geometry":{"type":"MultiLineString","coordinates":[[[146.8254387,43.8709811],[146.8224925,43.8715278],[146.8202437,43.8722364],[146.8184035,43.873407],[146.8171484,43.8749273],[146.8152809,43.8781288],[146.8077278,43.8834802],[146.7943381,43.8904703],[146.753311,43.9053138],[146.7004381,43.9166921],[146.5861955,43.9301023],[146.483261,43.9421826],[146.3708403,43.9553733],[146.2746899,43.9666527],[146.1599603,43.9801088],[146.0461258,43.9934569],[145.9556135,44.0040681],[145.8559513,44.0157498],[145.8503575,44.0167169],[145.8496361,44.0170062],[145.8490857,44.0174491],[145.8487669,44.017997],[145.8487145,44.0185898],[145.8489345,44.0191623],[145.8494025,44.0196516],[145.8500672,44.0200042],[145.8507693,44.0201524]]]}}