{"type":"Feature","properties":{"id":"くるしま(波止浜－来島－小島－馬島)","name":"くるしま(波止浜－来島－小島－馬島)","operator":"","category":"ferry","attribution":"© OpenStreetMap contributors"},"geometry":{"type":"MultiLineString","coordinates":[[[132.9694441,34.1094306],[132.9695818,34.1094378],[132.969731,34.1094776],[132.969859,34.1095412],[132.9699568,34.109633],[132.9700011,34.1097338],[132.9700254,34.1098498],[132.9702359,34.1169595],[132.9703418,34.1168607],[132.9705187,34.1167889],[132.9706787,34.1167491],[132.9708833,34.1167452],[132.9711276,34.1167951],[132.9712804,34.1168569],[132.9713827,34.1169416],[132.9765278,34.1228666],[132.9765084,34.1225911],[132.9765454,34.122376],[132.9766478,34.1221744],[132.9768421,34.1220081],[132.9770527,34.1218939],[132.9887187,34.1163303],[132.9893014,34.1160954],[132.9894396,34.1160603],[132.9895778,34.1160716],[132.9897259,34.1161327],[132.9899632,34.1163489],[132.9901173,34.1164958],[132.9902023,34.1165596],[132.9903033,34.1165895],[132.9904125,34.1165959]]]}}