{"type":"Feature","properties":{"id":"はやて海運;宮古フェリー_佐良浜～平良","name":"佐良浜～平良","operator":"はやて海運;宮古フェリー","category":"ferry","attribution":"© OpenStreetMap contributors"},"geometry":{"type":"MultiLineString","coordinates":[[[125.2143209,24.8383445],[125.2143137,24.8383659],[125.2147636,24.8384871],[125.2151159,24.838557],[125.215382,24.8384987],[125.2155931,24.8383904],[125.2157491,24.8382238],[125.2158867,24.8378241],[125.2163364,24.8364583],[125.216575,24.8360502],[125.2179974,24.8343846],[125.2482447,24.8146928],[125.2527755,24.8124868],[125.2559923,24.8120353],[125.2591714,24.8123511],[125.2633106,24.8142028],[125.264977,24.8147061],[125.2663664,24.8147435],[125.26751,24.8144237],[125.2697781,24.8123512],[125.2729936,24.8075241],[125.2736467,24.8069934],[125.2744671,24.8065933]]]}}