{"type":"Feature","properties":{"id":"びわ湖疏水船受付事務局_びわ湖疏水船","name":"びわ湖疏水船","operator":"びわ湖疏水船受付事務局","category":"ferry","attribution":"© OpenStreetMap contributors"},"geometry":{"type":"MultiLineString","coordinates":[[[135.8566361,35.0116614],[135.8558287,35.0112156],[135.8337055,34.9987657],[135.8329353,34.9983471],[135.832382,34.9980155],[135.8321654,34.9978745],[135.8319034,34.9976575],[135.8316963,34.9974429],[135.831473,34.9971152],[135.8312981,34.9968974],[135.8311354,34.9967324],[135.8307448,34.9964209],[135.8302293,34.9960134],[135.8295076,34.9954346],[135.8291652,34.9951603],[135.828855,34.9949798],[135.8285987,34.9948612],[135.8283688,34.9947737],[135.8281645,34.9947202],[135.8279527,34.9946753],[135.827616,34.9946404],[135.8273899,34.9946257],[135.8266474,34.9946365],[135.8263492,34.9946473]],[[135.8263492,34.9946473],[135.8262823,34.9946497],[135.8207671,34.9958074],[135.8206141,34.9958349],[135.8205197,34.9958739],[135.8204353,34.9959649],[135.8203451,34.9961812],[135.8202165,34.9963919],[135.8200194,34.9965849],[135.8197955,34.9967327],[135.819489,34.9968928],[135.8191081,34.9970078],[135.8189001,34.9970413],[135.8186294,34.9970536],[135.8184281,34.9970413],[135.8181742,34.9970105],[135.8180522,34.9969879],[135.817891,34.9969298],[135.817739,34.9968647],[135.8176262,34.9967895],[135.8175038,34.9966933],[135.8174074,34.9966136],[135.8173028,34.9964875],[135.8171861,34.9963015],[135.8171246,34.99615],[135.8170739,34.9960515],[135.8170129,34.9959441],[135.8169276,34.9958375],[135.8168953,34.9957967],[135.816776,34.9956949],[135.816601,34.9955688],[135.8163667,34.9954585],[135.8161239,34.9953828],[135.8159117,34.9953541],[135.815751,34.9953483],[135.8155693,34.9953593],[135.8152839,34.9954052],[135.815125,34.9954273],[135.8149433,34.9954243],[135.8147427,34.995399],[135.8145228,34.995338],[135.8142316,34.9952501],[135.8139682,34.9950884],[135.8137765,34.9949033],[135.8134755,34.9943953],[135.8132924,34.9940461],[135.8132099,34.9937776],[135.8131992,34.9936346],[135.8131864,34.9933521],[135.8131339,34.9931582],[135.8130016,34.9929903],[135.8129051,34.9929171],[135.8127612,34.9928285],[135.812567,34.9927725],[135.8124348,34.9927656],[135.8122282,34.9927677],[135.8120145,34.9928109],[135.8118269,34.9928744],[135.811694,34.9929454],[135.8115592,34.9930324],[135.8114582,34.9931178],[135.8112686,34.993319],[135.8110497,34.9935517],[135.8108451,34.9937962],[135.8106041,34.9941041],[135.8103761,34.9944019],[135.8103076,34.9944932],[135.8102588,34.9945807],[135.810223,34.9946928],[135.8102021,34.9948113],[135.8101702,34.995163],[135.8101363,34.9954208],[135.8100822,34.9955883],[135.8099617,34.9957655],[135.8098366,34.9958872],[135.8095663,34.9961098],[135.8094112,34.9962469],[135.8093004,34.9963558],[135.8091897,34.9964999],[135.8091245,34.9966018],[135.8090789,34.9967678],[135.8090568,34.9969082],[135.8090614,34.9970426],[135.8090516,34.9971499],[135.8090236,34.9973986],[135.8089513,34.9976297],[135.8088881,34.9977594],[135.8087923,34.9978864],[135.8086744,34.9980107],[135.8085167,34.9981303],[135.8083297,34.998228],[135.8081213,34.998308],[135.8079626,34.9983423],[135.8079258,34.9983502],[135.8075154,34.9984035],[135.80642,34.9985398],[135.8059339,34.9986018],[135.805618,34.9986382],[135.8053617,34.9986948],[135.805111,34.9988141],[135.804919,34.9989582],[135.8044376,34.9993006],[135.8037793,34.9997864],[135.8033073,35.0001358],[135.8031825,35.0001916],[135.8029432,35.0002668],[135.8027134,35.0002962],[135.802545,35.00028],[135.802336,35.0002381],[135.8021071,35.0001746],[135.8006983,34.9997825],[135.8002406,34.9996557],[135.8001096,34.9996259],[135.7999857,34.9995994],[135.7998237,34.9995825],[135.7996788,34.9995818],[135.7995567,34.9995943],[135.7994212,34.9996281],[135.7992915,34.9996711],[135.7991573,34.9997399],[135.7989442,34.9998759],[135.7987802,35.0000126],[135.7986243,35.0001578],[135.7983354,35.0004139],[135.7920614,35.0061266],[135.7917916,35.0063734],[135.7917246,35.0064225],[135.7916696,35.0064751]]]}}