{"type":"Feature","properties":{"id":"へぐら航路_way464501670","name":"way464501670","operator":"へぐら航路","category":"ferry","attribution":"© OpenStreetMap contributors"},"geometry":{"type":"MultiLineString","coordinates":[[[136.9202777,37.8494645],[136.9201237,37.8492059],[136.921678,37.8483025],[136.9221394,37.8476163],[136.9229119,37.8471672],[136.9231372,37.8464302],[136.9259588,37.8390252],[136.9316237,37.8143478],[136.9447558,37.7412163],[136.9437258,37.5803175],[136.9251864,37.4438792],[136.9188349,37.4118441],[136.9179337,37.4089466],[136.9145863,37.4059042],[136.9095223,37.4027678],[136.9056384,37.4016598],[136.9047157,37.4015235],[136.9036214,37.4020775],[136.9027309,37.4023417],[136.9023795,37.4023097],[136.9018324,37.4020647],[136.9015856,37.4014937],[136.9015497,37.4008317],[136.9017996,37.4008089]]]}}