{"type":"Feature","properties":{"id":"みつしま","name":"みつしま","operator":"","category":"ferry","attribution":"© OpenStreetMap contributors"},"geometry":{"type":"MultiLineString","coordinates":[[[129.0647797,33.2514534],[129.0648222,33.2518609],[129.0646702,33.2522365],[129.0644164,33.2526899],[129.0644275,33.2531382],[129.0646031,33.253793],[129.0650159,33.254263],[129.0660734,33.2551419],[129.0675118,33.2559386],[129.0695666,33.2566259],[129.0719576,33.2569695],[129.0915716,33.2529393],[129.0922871,33.2526335],[129.0927262,33.2525723],[129.0930596,33.2526335],[129.0933767,33.2528987],[129.0936531,33.2534903],[129.0939052,33.2539254],[129.0943199,33.254245],[129.094824,33.2544966],[129.0948972,33.2546462],[129.0948403,33.254755],[129.0946886,33.2548582]]]}}