{"type":"Feature","properties":{"id":"むつ湾フェリー株式会社_むつ湾フェリー","name":"むつ湾フェリー","operator":"むつ湾フェリー株式会社","category":"ferry","attribution":"© OpenStreetMap contributors"},"geometry":{"type":"MultiLineString","coordinates":[[[140.6466261,41.0492005],[140.6471711,41.0489982],[140.6474957,41.0488242],[140.647729,41.0486179],[140.6479382,41.0483368],[140.6482816,41.0475438],[140.6485712,41.0470988],[140.6490326,41.0468399],[140.6498908,41.04667],[140.6508993,41.0466295],[140.6522082,41.0469289],[140.6537532,41.047382],[140.6898879,41.0645981],[140.741558,41.0891848],[140.7982921,41.1160901],[140.8061885,41.1203577],[140.81048,41.1226207],[140.8148574,41.1259181],[140.8182048,41.1287628],[140.8210372,41.1319953],[140.8228397,41.1350336],[140.8240413,41.1380718],[140.8248031,41.1406816],[140.8251357,41.1412795],[140.8255327,41.1423137],[140.8260155,41.1437438],[140.8261335,41.1439781],[140.8267211,41.1447712]]]}}