{"type":"Feature","properties":{"id":"やまさ海運_三池～島原","name":"三池～島原","operator":"やまさ海運","category":"ferry","attribution":"© OpenStreetMap contributors"},"geometry":{"type":"MultiLineString","coordinates":[[[130.4162842,33.0136344],[130.4154297,33.0134683],[130.4133933,33.0124233],[130.4110334,33.0107942],[130.4093522,33.0100162],[130.4062451,33.0089405],[130.4017743,33.0072853],[130.3968303,33.0055256],[130.3941342,33.004335],[130.3916153,33.002436],[130.3888848,32.9994833],[130.3846205,32.9952637],[130.3815995,32.99119],[130.379047,32.9865751],[130.3777882,32.9814633],[130.3776028,32.9733937],[130.3779462,32.9659408],[130.3784182,32.9576831],[130.3788045,32.950577],[130.3792908,32.9433023],[130.3798201,32.9348264],[130.3915066,32.7736262],[130.3910032,32.7705567],[130.3898841,32.7690211],[130.3867295,32.7667974],[130.3826239,32.7651013],[130.3791621,32.7643916],[130.3770468,32.7642119],[130.3758722,32.764272],[130.3733806,32.7646305],[130.3727099,32.7647119],[130.372503,32.7650374],[130.3727081,32.7664497]]]}}