{"type":"Feature","properties":{"id":"エスパルスドリームフェリー_水上バス","name":"水上バス","operator":"エスパルスドリームフェリー","category":"ferry","attribution":"© OpenStreetMap contributors"},"geometry":{"type":"MultiLineString","coordinates":[[[138.4964562,35.0103251],[138.4970234,35.0104474],[138.4973985,35.010505],[138.4977501,35.010488],[138.4979296,35.0104394],[138.4981017,35.0103578],[138.5014741,35.0069265],[138.502255,35.006311],[138.5032716,35.0057257],[138.5041704,35.0051585],[138.5047745,35.0048145],[138.5052754,35.0046697],[138.5058169,35.0044615],[138.5062484,35.0041455]],[[138.4909837,35.0196185],[138.4913018,35.0197695],[138.4916475,35.0198949],[138.4920348,35.0199671],[138.4923682,35.0199988],[138.4926318,35.0199874],[138.4928673,35.0199128],[138.4932191,35.0197182],[138.4958877,35.0172748],[138.496451,35.0165839],[138.4966437,35.0161445],[138.4968104,35.0156453],[138.4969928,35.014775],[138.4971751,35.013606],[138.4972949,35.013077],[138.4974095,35.0125821],[138.4975553,35.012036],[138.4976074,35.0114984],[138.4974616,35.011059],[138.4971542,35.0106451],[138.4964562,35.0103251],[138.4960134,35.0101033],[138.4958069,35.0099188],[138.4955785,35.0095915],[138.4954017,35.0093607],[138.4952407,35.009244]]]}}