{"type":"Feature","properties":{"id":"オーシャン東九フェリー（東京―徳島―北九州）","name":"オーシャン東九フェリー（東京―徳島―北九州）","operator":"","category":"ferry","attribution":"© OpenStreetMap contributors"},"geometry":{"type":"MultiLineString","coordinates":[[[139.7967056,35.6165792],[139.796879,35.616185],[139.7968883,35.6161063],[139.796901,35.616083],[139.7971254,35.6159194],[139.7972838,35.6157908],[139.79755,35.615672],[139.798341,35.615707],[139.799053,35.615886],[139.799699,35.61616],[139.801841,35.61751],[139.803771,35.618587],[139.804565,35.618912],[139.805553,35.61911],[139.806502,35.619105],[139.807834,35.618831],[139.814243,35.616637],[139.820308,35.614662],[139.822188,35.613948],[139.823206,35.613462],[139.824454,35.612707],[139.825376,35.611792],[139.826066,35.610943],[139.827701,35.608698],[139.8627568,35.5604163],[139.8638811,35.5571628],[139.8638989,35.5540944],[139.8627219,35.5517639],[139.8602023,35.5404805],[139.7721898,35.4077302],[139.7296537,35.3249354],[139.7289303,35.3144774],[139.7684375,35.2594779],[139.7693572,35.2513431],[139.7196327,35.1347534],[138.9262146,34.4667394],[136.1190696,33.4704204],[136.097046,33.466138],[136.079031,33.462159],[136.066176,33.45916],[136.060063,33.457855],[136.049845,33.455484],[136.040307,33.453339],[136.028356,33.450799],[136.004979,33.445622],[135.986935,33.441891],[135.963679,33.438318],[135.94329,33.435684],[135.934847,33.434684],[135.92426,33.433525],[135.920005,33.432989],[135.9075,33.43167],[135.901077,33.430942],[135.873091,33.427432],[135.859213,33.425623],[135.851777,33.424758],[135.840759,33.423558],[135.831999,33.422486],[135.811981,33.419918],[135.805218,33.419118],[135.800811,33.418531],[135.788931,33.417063],[135.76959,33.414837],[135.760635,33.41394],[135.756248,33.413554],[135.754286,33.413486],[135.751831,33.413609],[135.731971,33.415603],[135.716107,33.417127],[135.702174,33.419409],[135.678887,33.422996],[135.665006,33.425057],[135.659741,33.425899],[135.655304,33.426664],[135.652994,33.427092],[135.649606,33.427813],[135.631682,33.431952],[135.627309,33.433036],[135.624995,33.433662],[135.615923,33.436347],[135.600774,33.441005],[135.598849,33.441634],[135.596587,33.44252],[135.594491,33.443509],[135.571652,33.454735],[135.567697,33.456572],[135.565876,33.45722],[135.550047,33.462041],[135.535936,33.466229],[135.482321,33.481802],[135.457323,33.488978],[135.455324,33.489583],[135.453486,33.490254],[135.451497,33.491143],[135.43723,33.497895],[135.420931,33.5055],[135.406899,33.512123],[135.401309,33.514699],[135.387441,33.52125],[135.379831,33.524731],[135.373019,33.527778],[135.371406,33.528584],[135.368253,33.530532],[135.358058,33.537269],[135.352039,33.541147],[135.345946,33.545169],[135.329386,33.556237],[135.317771,33.564102],[135.306136,33.571802],[135.302149,33.574376],[135.289453,33.582738],[135.285942,33.585],[135.274659,33.592088],[135.26244,33.599843],[135.217341,33.629006],[135.205549,33.636699],[135.199839,33.640463],[135.196347,33.642873],[135.184754,33.650684],[135.180899,33.653362],[135.179076,33.654665],[135.177226,33.65607],[135.17573,33.65728],[135.164557,33.666679],[135.16094,33.66962],[135.147605,33.678979],[135.13815,33.685707],[135.122662,33.696884],[134.6352023,34.0404605],[134.6300219,34.0435775],[134.6242349,34.0460443],[134.6179486,34.0475208],[134.6116266,34.0482584],[134.603319,34.0482357],[134.5965129,34.0528248],[134.595873,34.0538709]]]}}