{"type":"Feature","properties":{"id":"カメリアライン_부산_-_하카타_博多_-_釜山","name":"부산 - 하카타 博多 - 釜山","operator":"カメリアライン","category":"ferry","attribution":"© OpenStreetMap contributors"},"geometry":{"type":"MultiLineString","coordinates":[[[129.0492856,35.1167236],[129.0499501,35.1163453],[129.0504964,35.1160566],[129.0511456,35.1156093],[129.0520625,35.1148728],[129.0527778,35.1143075],[129.0539949,35.1134233],[129.1093879,35.0819013],[129.5487767,34.7308033],[130.2807769,33.6641244],[130.2969705,33.6519078],[130.3731194,33.6227245],[130.383146,33.6188812],[130.3989662,33.6068198],[130.3993766,33.6066918],[130.399796,33.6067866],[130.4001665,33.6071201],[130.4002412,33.6070691]]]}}