{"type":"Feature","properties":{"id":"クルーズ名古屋","name":"クルーズ名古屋","operator":"","category":"ferry","attribution":"© OpenStreetMap contributors"},"geometry":{"type":"MultiLineString","coordinates":[[[136.8841039,35.160262],[136.8839712,35.1600375],[136.8838678,35.1598437],[136.8839561,35.1592787],[136.8840699,35.1575591],[136.8840029,35.1571085],[136.8814296,35.1540031],[136.8788268,35.1512066],[136.8765434,35.1481336],[136.8758882,35.1474284],[136.8759455,35.1435751],[136.876057,35.1384873],[136.8762007,35.1342364],[136.8763978,35.1294051],[136.87641,35.1258863],[136.8765926,35.1210388],[136.8770198,35.1188776],[136.8770849,35.1188653],[136.8770238,35.1188419],[136.8770245,35.1185997],[136.8770039,35.1143637],[136.877225,35.1079829],[136.8776594,35.1077998],[136.8778872,35.1077415],[136.8807561,35.107808],[136.8820011,35.1076442],[136.882112,35.1077457],[136.8819713,35.1075466],[136.8807644,35.1077295],[136.8778771,35.1076916],[136.8772547,35.1076089],[136.8768485,35.1013405],[136.8767979,35.100194],[136.8766887,35.0969662],[136.8768156,35.0963517],[136.8768562,35.095456],[136.876828,35.0927212],[136.8759254,35.0896169],[136.8772476,35.0887024],[136.8787496,35.0888841],[136.8793384,35.0895823],[136.8800224,35.0895203],[136.8804105,35.0897083],[136.8803745,35.0897908]]]}}