{"type":"Feature","properties":{"id":"コスモライン_鹿児島～種子島","name":"鹿児島～種子島","operator":"コスモライン","category":"ferry","attribution":"© OpenStreetMap contributors"},"geometry":{"type":"MultiLineString","coordinates":[[[130.567686,31.5916521],[130.5685102,31.5916209],[130.5696881,31.5917145],[130.5706866,31.5918554],[130.5715576,31.5921931],[130.5722635,31.5926138],[130.5730813,31.5929465],[130.574015,31.5930089],[130.5753041,31.5926441],[130.5763502,31.592019],[130.5772328,31.59095],[130.5827642,31.5715547],[130.5877696,31.5539703],[130.6062424,31.4671207],[130.6177912,31.4312708],[130.6285303,31.4086111],[130.6548733,31.3611793],[130.7143413,31.2742585],[130.7189527,31.2575458],[130.7192649,31.2405783],[130.7173674,31.2285627],[130.7101056,31.2086556],[130.6976254,31.1864539],[130.6822271,31.1653309],[130.6177729,31.0909441],[130.6131693,31.0820509],[130.6111023,31.0726076],[130.6096285,31.0540022],[130.6103089,31.0368619],[130.6120076,31.0216269],[130.6162602,31.0048469],[130.6224472,30.9887478],[130.6354929,30.9708455],[130.6487502,30.9598237],[130.9810382,30.7476852],[130.9826867,30.746086],[130.9838491,30.7444548],[130.9842744,30.7436738],[130.9845221,30.7427993],[130.984793,30.7319714],[130.9849137,30.7300861],[130.9852828,30.7289624],[130.9858001,30.7283018],[130.9863617,30.7279715],[130.9870563,30.7278953],[130.9876918,30.7279842],[130.9882535,30.7283907],[130.9887412,30.7290641],[130.9893915,30.7302456],[130.9899531,30.7309697],[130.9906242,30.7315278]]]}}