{"type":"Feature","properties":{"id":"シーバス_seabass","name":"シーバス seabass","operator":"","category":"ferry","attribution":"© OpenStreetMap contributors"},"geometry":{"type":"MultiLineString","coordinates":[[[139.6450992,35.452463],[139.6462798,35.4542097],[139.6475067,35.4557988],[139.6481528,35.4570781],[139.6481416,35.4573412],[139.6478632,35.457686],[139.6473508,35.4580852],[139.6466602,35.4584663],[139.6459473,35.4586931],[139.6453792,35.4587838],[139.6444212,35.4588111],[139.6431514,35.4587566],[139.6423606,35.458684],[139.6387627,35.4580126]],[[139.6514609,35.4462338],[139.6521962,35.4470788],[139.652185,35.4476051],[139.6520068,35.4484309],[139.6517283,35.449302],[139.6515613,35.4500461],[139.6513942,35.4507538],[139.6513162,35.4514344],[139.651216,35.4521331],[139.6511491,35.4527954],[139.6510155,35.4534487],[139.6506256,35.4539659],[139.6500464,35.4543017],[139.6497011,35.4544287],[139.6493335,35.4543107],[139.6488545,35.4541383],[139.6481193,35.454093],[139.6472839,35.4541111],[139.6467159,35.4539222],[139.6461291,35.4535018],[139.6450992,35.452463]],[[139.6387627,35.4580126],[139.6393642,35.4582395],[139.6396427,35.4587294],[139.6396315,35.4591468],[139.6395143,35.4612161],[139.6393219,35.4633325],[139.6392546,35.4635744],[139.6390707,35.463842],[139.638821,35.4640507],[139.6384859,35.4642273],[139.6381049,35.464329],[139.6371785,35.4644092],[139.6361273,35.4645055],[139.6355492,35.4646126],[139.6349382,35.4647356],[139.6342483,35.4650299],[139.6338475,35.4652761],[139.6333548,35.4656507],[139.6331117,35.4659289],[139.6329803,35.46625],[139.6327766,35.4667904],[139.6326584,35.4670152],[139.632527,35.4671382],[139.6322839,35.467165],[139.6319225,35.4672506],[139.6315349,35.4672667],[139.631213,35.4671917],[139.6279621,35.465825],[139.6272052,35.4656004],[139.6270707,35.4654634],[139.6268419,35.4654415],[139.6266906,35.4655867],[139.6266536,35.4657264],[139.6267881,35.4658716],[139.6269924,35.4659936]]]}}