{"type":"Feature","properties":{"id":"シルバーフェリー（八戸－室蘭）","name":"シルバーフェリー（八戸－室蘭）","operator":"","category":"ferry","attribution":"© OpenStreetMap contributors"},"geometry":{"type":"MultiLineString","coordinates":[[[140.9765039,42.3271991],[140.9761646,42.3276981],[140.9759014,42.3282254],[140.9757443,42.3289536],[140.9757952,42.3316873],[140.9760669,42.3369786],[140.9762028,42.3430289],[140.9749291,42.344874],[140.966523,42.3494426],[140.9612756,42.3520029],[140.9572678,42.3527182],[140.9355647,42.3526304],[140.9259869,42.3522288],[140.9117899,42.3507729],[140.9038762,42.3489782],[140.8987306,42.3444222],[140.8969645,42.3391503],[140.8959286,42.3336645],[140.8959796,42.3249391],[140.8969306,42.3191131],[140.9001402,42.3104233],[140.9016176,42.3045331],[140.906933,42.2861809],[140.9104653,42.2756395],[141.531312,41.5472422],[141.5747584,41.4290313],[141.5316432,40.5631035],[141.5300214,40.5576784],[141.5276354,40.5550463],[141.5241201,40.5539754],[141.5163763,40.5540464],[141.5132007,40.5529302],[141.5057116,40.5487011],[141.5053253,40.5483334],[141.5053477,40.5481674]]]}}