{"type":"Feature","properties":{"id":"ジャンボフェリー株式会社_ジャンボフェリー（神戸－坂手－高松）","name":"ジャンボフェリー（神戸－坂手－高松）","operator":"ジャンボフェリー株式会社","category":"ferry","attribution":"© OpenStreetMap contributors"},"geometry":{"type":"MultiLineString","coordinates":[[[135.1979163,34.6827505],[135.1979839,34.6826165],[135.1980718,34.6825073],[135.1979846,34.6822338],[135.1981443,34.6820249],[135.1978746,34.681828],[135.197652,34.6814398],[135.1975394,34.679685],[135.1973648,34.6788051],[135.1885271,34.6527812],[135.1813817,34.6359709],[135.1796272,34.633854],[135.177691,34.6323516],[135.1748693,34.6309259],[135.0807147,34.5916479],[135.0763022,34.5907199],[135.0717866,34.5915305],[135.0093984,34.6269047],[134.9942922,34.6284409],[134.9789714,34.6263397],[134.9412729,34.6093199],[134.903612,34.5924948],[134.4239259,34.4322341],[134.3444584,34.4215559],[134.3396734,34.4213258],[134.3351242,34.4218569],[134.3319486,34.4228481],[134.3289445,34.4250606],[134.3153241,34.443211],[134.3144702,34.4465563],[134.3143844,34.4488035],[134.315071,34.4510861],[134.31638,34.4529351],[134.318397,34.4546602],[134.3197971,34.4554896],[134.3203779,34.4557523],[134.320695,34.4556803],[134.3209733,34.4557572],[134.3213481,34.4557074],[134.3213847,34.4556827]]]}}