{"type":"Feature","properties":{"id":"ジャンボフェリー株式会社_ジャンボフェリー_（神戸－高松）","name":"ジャンボフェリー （神戸－高松）","operator":"ジャンボフェリー株式会社","category":"ferry","attribution":"© OpenStreetMap contributors"},"geometry":{"type":"MultiLineString","coordinates":[[[135.1979163,34.6827505],[135.1980718,34.6825073],[135.198057,34.6822713],[135.1981443,34.6820249],[135.1979501,34.6817956],[135.1977631,34.6814258],[135.1978742,34.6798783],[135.1977753,34.6789849],[135.1888693,34.6527778],[135.1818556,34.6357531],[135.179786,34.6332927],[135.17797,34.6319548],[135.1750341,34.6305041],[135.0871792,34.5901223],[135.0821308,34.5887636],[135.0762583,34.5881148],[135.0704079,34.5891855],[135.0087412,34.6240837],[134.9945677,34.6257478],[134.9811925,34.6236011],[134.9047853,34.5898763],[134.3513812,34.4050216],[134.3424375,34.4033077],[134.229814,34.4004092],[134.2287852,34.4003999],[134.1421263,34.4054489],[134.1357882,34.4051486],[134.1291778,34.4042439],[134.1242655,34.4028938],[134.1195123,34.401305],[134.0902558,34.3888333],[134.0876799,34.3876352],[134.0843235,34.3856229],[134.0821714,34.3839615],[134.0803153,34.3814924],[134.0794008,34.3796284],[134.0741107,34.3623351],[134.0732662,34.3558147],[134.0739875,34.3541797]]]}}