{"type":"Feature","properties":{"id":"ディズニーシー・トランジット・スチーマーライン","name":"ディズニーシー・トランジット・スチーマーライン","operator":"","category":"ferry","attribution":"© OpenStreetMap contributors"},"geometry":{"type":"MultiLineString","coordinates":[[[139.8857837,35.6243216],[139.8858018,35.6241129],[139.8858292,35.624002],[139.8858496,35.6239309],[139.8858693,35.623889],[139.8858769,35.6238446],[139.8858299,35.6237535],[139.8857814,35.623719],[139.8857086,35.6237017],[139.8855934,35.6237165],[139.8854631,35.6237313],[139.8853281,35.6237547],[139.8851766,35.6238089],[139.8851023,35.6238249],[139.8849234,35.6238212],[139.8846308,35.6238249],[139.8844747,35.6238409],[139.8842989,35.6238804],[139.8832107,35.6241801],[139.8826504,35.6243425],[139.8825287,35.6243976],[139.8824401,35.6244469],[139.882354,35.6245267],[139.8822304,35.6246294],[139.882143,35.624717],[139.8820412,35.6248274],[139.8819029,35.6250196],[139.8818277,35.6251428],[139.8817683,35.6252641],[139.881725,35.6253622],[139.8817057,35.6254831],[139.8817105,35.6256098],[139.8817386,35.6257789],[139.8817403,35.6259166],[139.88175,35.626107],[139.881766,35.6263659],[139.8817955,35.6265841],[139.8818041,35.6268061],[139.8818102,35.6270004],[139.8817646,35.6271829],[139.8817793,35.6272689],[139.881806,35.6273557],[139.88183,35.6274338],[139.8818447,35.6274829],[139.8819041,35.6275391],[139.8819708,35.6276062],[139.8820581,35.6276604],[139.8821382,35.6277116],[139.8822037,35.6277373],[139.8822995,35.627754],[139.882405,35.6277461],[139.8825493,35.6277284],[139.8828388,35.6276716],[139.8830136,35.6276296],[139.8830828,35.6275957],[139.883184,35.6275348],[139.8832721,35.6274589],[139.8833717,35.6273636],[139.8834591,35.6272562],[139.8836677,35.6268671],[139.8837181,35.6267492],[139.883798,35.6266674],[139.8838868,35.6265928],[139.8839845,35.6265332],[139.8840896,35.6265037],[139.8842623,35.6263977],[139.8844565,35.6262963],[139.8846748,35.6262144],[139.8848154,35.6261633],[139.8852968,35.6261433],[139.8853784,35.6261667],[139.8854761,35.626204],[139.8858471,35.626438],[139.8859334,35.6264823],[139.8861211,35.6265748],[139.8861694,35.6265905],[139.8862682,35.6266171],[139.8864011,35.6266093],[139.8865119,35.6265708],[139.8866292,35.6264936],[139.8867113,35.6263786],[139.8867059,35.6262642],[139.8866297,35.6261224],[139.8864771,35.6260102],[139.8863153,35.625908],[139.8862121,35.6258313],[139.8861293,35.6257147],[139.8860941,35.6255376],[139.8861027,35.6253536],[139.8861487,35.6250428],[139.8861635,35.6248489],[139.8861549,35.6246321],[139.8860055,35.6238241],[139.8859319,35.6237351],[139.8858402,35.6236979],[139.8857086,35.6237017]]]}}