{"type":"Feature","properties":{"id":"ハートランドフェリー_江差_ー_奥尻島","name":"江差 ー 奥尻島","operator":"ハートランドフェリー","category":"ferry","attribution":"© OpenStreetMap contributors"},"geometry":{"type":"MultiLineString","coordinates":[[[140.1232704,41.8681231],[140.1217397,41.8702423],[140.121861,41.8720066],[140.1222527,41.873375],[140.1228718,41.8751367],[140.1222093,41.8762164],[140.1210477,41.8770341],[140.1135107,41.8814625],[140.0967259,41.8905953],[140.0823382,41.8979313],[140.067004,41.9052026],[140.0464774,41.9149172],[140.0349099,41.920243],[140.0280496,41.9234139],[140.02407,41.9251485],[140.0181911,41.9283688],[140.0052704,41.9352165],[139.9893315,41.9433706],[139.9849334,41.9455321],[139.837619,42.01792],[139.7892374,42.0413676],[139.7413576,42.0673138],[139.6256227,42.1282434],[139.5791581,42.1527614],[139.5381624,42.1765019],[139.529675,42.1812852],[139.5276449,42.1813729],[139.5260488,42.180929],[139.5251767,42.1802495],[139.5242047,42.1793444],[139.5209203,42.1774074],[139.5197365,42.1764574],[139.5192866,42.1757621],[139.5186984,42.1753261],[139.5180902,42.1751449],[139.5170514,42.1751445]]]}}