{"type":"Feature","properties":{"id":"ハートランドフェリー_稚内_ー_礼文島（香深）","name":"稚内 ー 礼文島（香深）","operator":"ハートランドフェリー","category":"ferry","attribution":"© OpenStreetMap contributors"},"geometry":{"type":"MultiLineString","coordinates":[[[141.0457477,45.2979081],[141.0463353,45.298038],[141.0464977,45.298031],[141.0471411,45.2973521],[141.0480677,45.2966897],[141.0481222,45.2966507],[141.0493788,45.2961645],[141.0524558,45.2963558],[141.0543422,45.2972694],[141.0553479,45.2980327],[141.1319411,45.3189089],[141.3422527,45.3711955],[141.5145608,45.4249692],[141.6328174,45.4658018],[141.6409305,45.4678899],[141.6487459,45.4677855],[141.6567846,45.4664282],[141.6650544,45.4628749],[141.6712245,45.4601115],[141.6814962,45.4506612],[141.6917937,45.4408672],[141.7015818,45.42994],[141.7060913,45.4247393],[141.7083169,45.4215082],[141.7083247,45.418442],[141.7070747,45.4171151],[141.7043613,45.4158097],[141.7002455,45.4145469],[141.6949407,45.4139691],[141.690398,45.4150178],[141.6862023,45.4157498],[141.6837741,45.4157532]]]}}