{"type":"Feature","properties":{"id":"ハートランドフェリー_利尻島（鴛泊）_ー_礼文島_（香深）","name":"利尻島（鴛泊） ー 礼文島 （香深）","operator":"ハートランドフェリー","category":"ferry","attribution":"© OpenStreetMap contributors"},"geometry":{"type":"MultiLineString","coordinates":[[[141.2287226,45.2419677],[141.2288915,45.24174],[141.2290298,45.24165],[141.2371038,45.2417841],[141.2401196,45.2429786],[141.2411249,45.2450577],[141.2401824,45.2485522],[141.2341195,45.2545455],[141.2268,45.2607593],[141.2103873,45.273714],[141.1973492,45.2791648],[141.1814734,45.2831043],[141.1442764,45.2895255],[141.0828373,45.2959058],[141.0592537,45.2986707],[141.0567611,45.2981312],[141.0543422,45.2972694],[141.0524558,45.2963558],[141.0524259,45.2963413],[141.0493788,45.2961645],[141.0481222,45.2966507],[141.0480677,45.2966897],[141.0471411,45.2973521],[141.0464977,45.298031],[141.0463353,45.298038],[141.0457477,45.2979081],[141.0457412,45.2979067]]]}}