{"type":"Feature","properties":{"id":"ハートランドフェリー_稚内_ー_利尻島_（鴛泊）","name":"稚内 ー 利尻島 （鴛泊）","operator":"ハートランドフェリー","category":"ferry","attribution":"© OpenStreetMap contributors"},"geometry":{"type":"MultiLineString","coordinates":[[[141.6819197,45.4162844],[141.6862371,45.4161507],[141.690343,45.4150344],[141.6948857,45.4139857],[141.7001905,45.4145635],[141.7043063,45.4158262],[141.7070197,45.4171316],[141.7082697,45.4184585],[141.7082697,45.4214972],[141.7060441,45.4247283],[141.7015929,45.4299276],[141.7015818,45.42994],[141.6917937,45.4408672],[141.6917679,45.440896],[141.6814962,45.4506612],[141.6712245,45.4601115],[141.6711722,45.4601349],[141.6650544,45.4628749],[141.6650466,45.4628784],[141.6567846,45.4664282],[141.6487459,45.4677855],[141.6409305,45.4678899],[141.6328174,45.4658018],[141.6088502,45.4525932],[141.5825756,45.4379191],[141.268909,45.2576179],[141.2421134,45.2432032],[141.2378952,45.2414482],[141.233458,45.2414205],[141.2289806,45.241487],[141.2288169,45.2415663],[141.2287226,45.2419677]]]}}