{"type":"Feature","properties":{"id":"バンカー・サプライ(呉中央－秋月)","name":"バンカー・サプライ(呉中央－秋月)","operator":"","category":"ferry","attribution":"© OpenStreetMap contributors"},"geometry":{"type":"MultiLineString","coordinates":[[[132.4926281,34.2293176],[132.4926192,34.2292859],[132.4926441,34.2292449],[132.4927217,34.229182],[132.4952102,34.2281458],[132.4960069,34.2279503],[132.4964423,34.2278745],[132.4969457,34.2278448],[132.497409,34.2278552],[132.4982182,34.227956],[132.5535202,34.2391473],[132.5538959,34.2392557],[132.5541623,34.2393703],[132.5544454,34.2395416],[132.5547437,34.2397928],[132.5550526,34.2401042],[132.555143,34.2401478],[132.5551996,34.2401478],[132.5552426,34.2401342]]]}}