{"type":"Feature","properties":{"id":"ファーストビーチ_宇品〜小用","name":"宇品〜小用","operator":"ファーストビーチ","category":"ferry","attribution":"© OpenStreetMap contributors"},"geometry":{"type":"MultiLineString","coordinates":[[[132.4930093,34.2476982],[132.493423,34.247663],[132.4937985,34.2476852],[132.4946836,34.2480178],[132.4959925,34.2488603],[132.4984602,34.2511128],[132.500327,34.2532589],[132.5018719,34.2555291],[132.5027088,34.258012],[132.5031809,34.2617718],[132.5029616,34.2651327],[132.5019314,34.2689579],[132.4996833,34.2730854],[132.4954776,34.2806388],[132.4935034,34.2836707],[132.4852208,34.2955309],[132.4833969,34.2971086],[132.4814228,34.2985267],[132.4800495,34.299094],[132.4783329,34.299094],[132.4768738,34.2986686],[132.4758438,34.2977468],[132.475243,34.2966832],[132.4748138,34.2951232],[132.474449,34.2918436],[132.4747186,34.2891666],[132.4750592,34.2852364],[132.4750941,34.2850491],[132.4751219,34.2848659],[132.4750674,34.285045],[132.4750287,34.2852353],[132.474521,34.2891503],[132.4723207,34.3093886],[132.4713693,34.3136394],[132.4703459,34.3166404],[132.4589953,34.3349744],[132.456763,34.33909],[132.4558074,34.3411136],[132.4549434,34.344366],[132.4543734,34.3466015],[132.4537243,34.3487353],[132.4536417,34.3494594],[132.4536683,34.3501762],[132.4538241,34.3505687],[132.4540188,34.3508874],[132.4543517,34.35116],[132.4547708,34.351335]]]}}