{"type":"Feature","properties":{"id":"フェリーくろしま","name":"フェリーくろしま","operator":"","category":"ferry","attribution":"© OpenStreetMap contributors"},"geometry":{"type":"MultiLineString","coordinates":[[[129.5272091,33.1451739],[129.5272428,33.1454434],[129.5274252,33.1457174],[129.5277631,33.1459644],[129.5280582,33.1462968],[129.5283907,33.1468582],[129.5285141,33.1471322],[129.5284875,33.1478249],[129.5284688,33.1481534],[129.5286182,33.1484975],[129.53015,33.150906],[129.5318029,33.1528318],[129.5349981,33.1541937],[129.5402491,33.154254],[129.5476527,33.1541085],[129.5576822,33.1528692],[129.5666072,33.1512782],[129.575694,33.1512835],[129.5843261,33.1526784],[129.5928316,33.1561928],[129.5959498,33.1600576],[129.5978166,33.1640812],[129.5971729,33.167045],[129.5954563,33.1700804],[129.5938274,33.1712662],[129.5934822,33.1711761],[129.5925578,33.170902]],[[129.5925578,33.170902],[129.5934822,33.1711761],[129.5938274,33.1712662],[129.5938163,33.1717701],[129.5942235,33.1720757],[129.61196,33.1773701],[129.6411286,33.1831125],[129.6457936,33.1845845],[129.6478583,33.1859916],[129.650286,33.1870032],[129.651152,33.1878718],[129.651152,33.1884879],[129.6507556,33.1891039],[129.650246,33.1903953],[129.650246,33.191118],[129.6504442,33.1917814],[129.6507556,33.1923263],[129.6515626,33.1927528],[129.6527093,33.1928832],[129.6540683,33.1928121],[129.6543394,33.1928766],[129.6544263,33.1929673]]]}}