{"type":"Feature","properties":{"id":"フェリーなんきゅう（山川・根占航路）","name":"フェリーなんきゅう（山川・根占航路）","operator":"","category":"ferry","attribution":"© OpenStreetMap contributors"},"geometry":{"type":"MultiLineString","coordinates":[[[130.6346519,31.2049164],[130.6345535,31.2049896],[130.6338092,31.2056041],[130.6334585,31.2060686],[130.6332774,31.2066009],[130.6333453,31.2072009],[130.6338319,31.2079267],[130.6347936,31.2096977],[130.6349634,31.2101622],[130.6370623,31.21173],[130.6384201,31.2119912],[130.6400155,31.2118848],[130.6430479,31.2111203],[130.6459219,31.2099493],[130.6474834,31.2095622],[130.6496785,31.2092816],[130.7419468,31.221141],[130.7503957,31.2211957],[130.7554523,31.2202104],[130.7560764,31.2194851],[130.7563164,31.2186367],[130.7568284,31.2182398],[130.7575165,31.2179388],[130.7588127,31.2178156],[130.7596288,31.2175693],[130.7602688,31.2172272],[130.7607809,31.2167756],[130.7613662,31.2164789],[130.7628555,31.215941],[130.7630727,31.2158661]]]}}