{"type":"Feature","properties":{"id":"フェリー度島","name":"フェリー度島","operator":"","category":"ferry","attribution":"© OpenStreetMap contributors"},"geometry":{"type":"MultiLineString","coordinates":[[[129.5153244,33.4305435],[129.5152593,33.4305902],[129.5150313,33.4304308],[129.514791,33.4303768],[129.5145865,33.4303299],[129.514437,33.4302382],[129.5143657,33.430053],[129.5144752,33.4297245],[129.514662,33.4292257],[129.5148862,33.4289606],[129.5152317,33.4288983],[129.5159229,33.4290308],[129.5196215,33.4297245],[129.5275316,33.4312774],[129.5314672,33.4323407],[129.5359549,33.433404],[129.538758,33.4343609],[129.5400321,33.4351289],[129.5406833,33.4360622],[129.5406125,33.4371136],[129.5401551,33.4382794],[129.5392263,33.4392159],[129.5385448,33.4396795],[129.5379829,33.4398754],[129.5374357,33.4399739],[129.5365881,33.4400455],[129.5359766,33.4401619],[129.5354401,33.4401977],[129.5350861,33.4402424],[129.5348822,33.440332],[129.5349812,33.4404597]],[[129.5349812,33.4404597],[129.5348822,33.440332],[129.5350861,33.4402424],[129.5354401,33.4401977],[129.5359766,33.4401619],[129.5365881,33.4400455],[129.5374357,33.4399739],[129.5379829,33.4398754],[129.5390074,33.4397668],[129.5403408,33.439509],[129.5427074,33.4388501],[129.5459099,33.4374922],[129.5496054,33.4356459],[129.5539247,33.4327387],[129.5579573,33.4295231],[129.5615381,33.4248499],[129.5640979,33.4197325],[129.5670119,33.4141464],[129.569203,33.4092056],[129.5706641,33.4054326],[129.5716141,33.4025899],[129.5719543,33.4004883],[129.5721194,33.3975792],[129.5717227,33.394027],[129.5705211,33.3921011],[129.5678282,33.3879714],[129.5666914,33.3844148],[129.565348,33.3802367],[129.5640047,33.3779932],[129.5626613,33.3764392],[129.5607264,33.3750601],[129.5596049,33.373856],[129.5591243,33.3729914],[129.5586683,33.3723842],[129.5580767,33.3719622],[129.5573743,33.3717152],[129.5566225,33.371602],[129.5563021,33.3716226],[129.5559254,33.3718521]],[[129.5153244,33.4305435],[129.5152593,33.4305902],[129.5150313,33.4304308],[129.514791,33.4303768],[129.5145865,33.4303299],[129.514437,33.4302382],[129.5143657,33.430053],[129.5144752,33.4297245],[129.514662,33.4292257],[129.5148862,33.4289606],[129.5152317,33.4288983],[129.5159229,33.4290308],[129.5196215,33.4297245],[129.5242155,33.429919],[129.5298723,33.4298778],[129.5344446,33.429487],[129.5374271,33.4289521],[129.547316,33.4266868],[129.5538207,33.4243117],[129.558683,33.42176],[129.5625045,33.4193305],[129.5670119,33.4141464],[129.569203,33.4092056],[129.5706641,33.4054326],[129.5716141,33.4025899],[129.5719543,33.4004883],[129.5721194,33.3975792],[129.5717227,33.394027],[129.5705211,33.3921011],[129.5678282,33.3879714],[129.5666914,33.3844148],[129.565348,33.3802367],[129.5640047,33.3779932],[129.5626613,33.3764392],[129.5607264,33.3750601],[129.5596049,33.373856],[129.5591243,33.3729914],[129.5586683,33.3723842],[129.5580767,33.3719622],[129.5573743,33.3717152],[129.5566225,33.371602],[129.5563021,33.3716226],[129.5559254,33.3718521]]]}}