{"type":"Feature","properties":{"id":"フェリーみしま","name":"フェリーみしま","operator":"","category":"ferry","attribution":"© OpenStreetMap contributors"},"geometry":{"type":"MultiLineString","coordinates":[[[129.6509851,33.7269914],[129.6509589,33.7270081],[129.6515631,33.7278686],[129.6515185,33.728113],[129.6509135,33.7283082],[129.650577,33.7284993],[129.6505979,33.728666],[129.6507964,33.7292768],[129.6513098,33.729604],[129.6523735,33.7303393],[129.6549011,33.7322952],[129.6579523,33.73609],[129.6588079,33.7374845],[129.661762,33.7415953],[129.6638532,33.7457075],[129.6647973,33.7464747],[129.6650763,33.7468315],[129.6649475,33.7472954],[129.6637994,33.7480494],[129.6630381,33.7484967],[129.6618673,33.7489066],[129.6613004,33.7491013],[129.6612549,33.749]],[[129.6509851,33.7269914],[129.6509589,33.7270081],[129.6515631,33.7278686],[129.6515185,33.728113],[129.6509135,33.7283082],[129.650577,33.7284993],[129.6505979,33.728666],[129.6507964,33.7292768],[129.6507997,33.7300735],[129.6503362,33.7311013],[129.6497182,33.7314935],[129.6491166,33.7316829],[129.6480595,33.731764],[129.6430485,33.7315901],[129.6377332,33.7314056],[129.6366925,33.7312704],[129.636042,33.7310743],[129.6355867,33.7308646],[129.6353265,33.7305401],[129.6351548,33.7301605],[129.635199,33.7293735],[129.6352269,33.7293742]],[[129.6352269,33.7293742],[129.635199,33.7293735],[129.6351548,33.7301605],[129.6353265,33.7305401],[129.6355867,33.7308646],[129.636042,33.7310743],[129.6366925,33.7312704],[129.6377332,33.7314056],[129.6430485,33.7315901],[129.6436597,33.7326062],[129.643767,33.734239],[129.6435631,33.7348457],[129.6430159,33.7355149],[129.642458,33.735961],[129.6416105,33.7361127],[129.6411384,33.7363446],[129.6410526,33.7366301],[129.6410526,33.7378703],[129.6410526,33.7382361],[129.6409238,33.7384859],[129.6406453,33.7386824],[129.6405847,33.7386147]],[[129.6405847,33.7386147],[129.6406453,33.7386824],[129.6409238,33.7384859],[129.6410526,33.7382361],[129.6410526,33.7366301],[129.6411384,33.7363446],[129.6416105,33.7361127],[129.642458,33.735961],[129.6446301,33.7357361],[129.6503778,33.7355624],[129.6544266,33.736104],[129.6588079,33.7374845],[129.661762,33.7415953],[129.6638532,33.7457075],[129.6647973,33.7464747],[129.6650763,33.7468315],[129.6649475,33.7472954],[129.6637994,33.7480494],[129.6630381,33.7484967],[129.6618673,33.7489066],[129.6613004,33.7491013],[129.6612549,33.749]]]}}