{"type":"Feature","properties":{"id":"フェリーなんきゅう_高速船_なんきゅう10号","name":"高速船 なんきゅう10号","operator":"フェリーなんきゅう","category":"ferry","attribution":"© OpenStreetMap contributors"},"geometry":{"type":"MultiLineString","coordinates":[[[130.7620242,31.2165972],[130.7620226,31.2165709],[130.7620132,31.2165566],[130.7619468,31.2165681],[130.7615532,31.2166518],[130.7608598,31.2166506],[130.7601517,31.2171048],[130.7579362,31.2180315],[130.7569545,31.2183573],[130.7543796,31.2190775],[130.751853,31.2195959],[130.742476,31.2206557],[130.7397294,31.2211144],[130.7354808,31.2214998],[130.730052,31.2222521],[130.7166409,31.2234448],[130.7096457,31.2238118],[130.6967926,31.2256101],[130.6893253,31.2264725],[130.6884026,31.2266193],[130.6871152,31.227133],[130.6859135,31.2278486],[130.6839824,31.2297569],[130.6822228,31.2317752],[130.6806564,31.232876],[130.678575,31.2337384],[130.676043,31.2344906],[130.6714082,31.2351695],[130.6688547,31.2355915],[130.6646061,31.2366373],[130.6635976,31.2370409],[130.6577772,31.2373298],[130.6569993,31.2376647],[130.6565273,31.2381646],[130.6560552,31.238504],[130.6553417,31.2402762],[130.6551285,31.2405135],[130.6547624,31.2407033],[130.6543205,31.2408369],[130.6537492,31.2408635],[130.6529671,31.2408244]]]}}