{"type":"Feature","properties":{"id":"ホーバードライブ_西大分-大分空港アクセス","name":"ホーバードライブ 西大分-大分空港アクセス","operator":"","category":"ferry","attribution":"© OpenStreetMap contributors"},"geometry":{"type":"MultiLineString","coordinates":[[[131.5930581,33.2493396],[131.5917921,33.2488854],[131.5908801,33.2486386],[131.5896571,33.2484681],[131.5882623,33.2492846],[131.5868997,33.2510073],[131.5854406,33.2576017],[131.5848827,33.2653888],[131.5785312,33.286629],[131.5770721,33.292871],[131.5855693,33.2999016],[131.6036796,33.3057122],[131.6153525,33.3113072],[131.6622161,33.3450848],[131.6994237,33.3767349],[131.7112255,33.3891338],[131.7268467,33.3965866],[131.7340993,33.4020324],[131.7354726,33.4164695],[131.7352581,33.4370283],[131.7337131,33.4555056],[131.7338741,33.4642236],[131.7341235,33.469804],[131.7341587,33.4706337]]]}}