{"type":"Feature","properties":{"id":"マルエーフェリー_神戸〜那覇","name":"神戸〜那覇","operator":"マルエーフェリー","category":"ferry","attribution":"© OpenStreetMap contributors"},"geometry":{"type":"MultiLineString","coordinates":[[[127.6770825,26.2390578],[127.6766962,26.2384004],[127.6762209,26.2356053],[127.6751645,26.232431],[127.6746363,26.231744],[127.6740818,26.2313413],[127.6734215,26.2310142],[127.672418,26.2308439],[127.6670835,26.2310097],[127.666212,26.2311755],[127.6651292,26.2315782],[127.6641257,26.2323836],[127.6624619,26.2353684],[127.6614773,26.2384692],[127.6612682,26.2416232],[127.6624935,26.2511511],[127.6634897,26.2534554],[127.6652047,26.2556171],[127.6711433,26.2605576],[127.6728163,26.262914],[127.6740518,26.2657325],[127.674843,26.2686005],[127.6858265,26.4353623],[127.6872182,26.4396695],[127.6891017,26.443691],[127.760803,26.597047],[127.7940123,26.6569547],[127.8075346,26.6759693],[127.8160855,26.6864526],[127.825233,26.6940924],[127.8943258,26.7422201],[128.2936696,27.0230063],[128.2993975,27.0261358],[128.3046688,27.0282398],[128.3106008,27.0297298],[128.3175369,27.0306996],[128.3244893,27.031112],[128.330942,27.030885],[128.3385154,27.0300612],[128.3450619,27.0288734],[128.3513389,27.027473],[128.3604811,27.0246875],[128.3796863,27.0205489],[128.3858692,27.0196692],[128.3913414,27.0196963],[128.395835,27.0203162],[128.3991705,27.0219213],[128.4007562,27.0233236],[128.4015135,27.0251278],[128.4017416,27.0269852],[128.4014314,27.0351101],[128.4012894,27.0358307],[128.4009696,27.0363658],[128.4012497,27.0358106],[128.4013315,27.035107],[128.4012656,27.0342583],[128.4011154,27.033525],[128.4007134,27.0330332],[128.3993767,27.0321488],[128.39773,27.0314844],[128.3956959,27.031191],[128.3924218,27.0313722],[128.3901649,27.0317864],[128.3879564,27.0328476],[128.3832682,27.0357639],[128.3802072,27.0384644],[128.3780762,27.0414323],[128.3765651,27.0444174],[128.3754512,27.0475059],[128.3748409,27.0506116],[128.3744922,27.0552873],[128.3746666,27.0595745],[128.375858,27.0644827],[128.3771269,27.0681227],[128.3815827,27.0746865],[128.3857576,27.0788522],[128.6285258,27.3036845],[128.6494342,27.3250697],[128.657661,27.3357125],[128.6654313,27.3488411],[128.6712946,27.3620402],[128.6749971,27.3735713],[128.6757681,27.3810118],[128.6754536,27.3851192],[128.6742668,27.3885869],[128.6721264,27.3915141],[128.670128,27.3936847],[128.6672978,27.395513],[128.666182,27.3967559],[128.665921,27.3974161],[128.6664571,27.3969038],[128.6679895,27.3963306],[128.6718806,27.3958261],[128.6771921,27.3959637],[128.6803428,27.3966975],[128.6862397,27.3984324],[128.6932644,27.4015584],[128.7412477,27.4289603],[128.7641887,27.4429755],[128.9002386,27.5611965],[128.9892162,27.6465218],[129.0112389,27.668578],[129.0305442,27.6923168],[129.0392867,27.7056248],[129.0425548,27.7169903],[129.0427341,27.7215924],[129.0413689,27.7268045],[129.0379767,27.7316258],[129.0311509,27.7376796],[129.0294345,27.7392518],[129.0288103,27.7396183],[129.0281561,27.7397936],[129.0273518,27.7397591],[129.0263975,27.7394616],[129.0255332,27.7389888],[129.024957,27.7384602],[129.0243081,27.7378156],[129.0247937,27.7385907],[129.0253648,27.7391501],[129.0262718,27.7396667],[129.027288,27.7399863],[129.0281782,27.7400309],[129.0289088,27.7398376],[129.0295723,27.7394808],[129.0302693,27.7393471],[129.0310083,27.7393917],[129.0343844,27.7401349],[129.0383903,27.7413391],[129.0440087,27.7452041],[129.0476283,27.7494331],[129.0503745,27.7545241],[129.0526839,27.7610789],[129.0538597,27.7679751],[129.0534737,28.2043206],[129.0577972,28.2357991],[129.0677295,28.2607675],[129.0807394,28.2784047],[129.0998873,28.2944989],[129.1159795,28.3033946],[129.288456,28.3714914],[129.4024699,28.4118773],[129.4696137,28.4342675],[129.477019,28.4362308],[129.4844099,28.4370138],[129.4889222,28.436809],[129.4942164,28.4355946],[129.4980694,28.4337019],[129.5026131,28.4289279],[129.5049852,28.4251192],[129.5057895,28.4210992],[129.5049187,28.4066175],[129.501834,28.3992551],[129.4959507,28.3895051],[129.4954145,28.3880785]],[[129.4954145,28.3880785],[129.4960037,28.3894786],[129.5019316,28.3992219],[129.5050224,28.4066116],[129.5059229,28.4211102],[129.5051601,28.425179],[129.5027995,28.4290022],[129.4982161,28.4338286],[129.4943015,28.435766],[129.4889292,28.4370046],[129.4844087,28.4372104],[129.4769709,28.4364735],[129.4694741,28.4345534],[129.4022901,28.4121895],[129.2882633,28.3719091],[129.1156718,28.3038843],[129.0994822,28.2948777],[129.0802828,28.2786638],[127.8544701,26.7167863],[127.8457281,26.708958],[127.8249049,26.6943284],[127.8156937,26.6866685],[127.8071248,26.6761506],[127.7935357,26.6571423],[127.760342,26.5971575],[127.686915,26.439689],[127.6855518,26.4353682],[127.6745653,26.2686115],[127.6738231,26.2657826],[127.6725241,26.262987],[127.6708726,26.2607072],[127.6650274,26.2558146],[127.6632459,26.2535513],[127.6622439,26.2512047],[127.6610748,26.2416265],[127.6612882,26.2383976],[127.6623088,26.23531],[127.6639789,26.2323139],[127.6649902,26.23149],[127.6661315,26.2310572],[127.6670407,26.2308741],[127.6723942,26.2307243],[127.6734519,26.230924],[127.6741385,26.2312736],[127.6747231,26.2316897],[127.6752705,26.2323805],[127.6763375,26.2356263],[127.6767642,26.2383476],[127.6770825,26.2390578]]]}}