{"type":"Feature","properties":{"id":"一真海運株式会社_情島通船(阿賀－情島)","name":"情島通船(阿賀－情島)","operator":"一真海運株式会社","category":"ferry","attribution":"© OpenStreetMap contributors"},"geometry":{"type":"MultiLineString","coordinates":[[[132.5958591,34.2302669],[132.5959411,34.2302858],[132.5960371,34.230294],[132.596145,34.2302853],[132.5962389,34.2302645],[132.5963378,34.2302203],[132.5964198,34.2301588],[132.5964891,34.2300643],[132.5973219,34.2286661],[132.5974798,34.2283434],[132.5976347,34.2279945],[132.5977257,34.2277078],[132.5988254,34.2221259],[132.5988602,34.221822],[132.5988678,34.2215241],[132.5988398,34.2212459],[132.5986669,34.2189567],[132.5985307,34.2182226],[132.5983486,34.2174696],[132.5980996,34.2167391],[132.5977506,34.2159259],[132.5696283,34.1622248],[132.5693514,34.1614631],[132.5692493,34.1609112],[132.5692094,34.1606174],[132.5692036,34.1603236],[132.5692496,34.1600684],[132.5693395,34.1598087],[132.5694633,34.1595771],[132.5696685,34.1593044],[132.5698244,34.1591466],[132.5700095,34.1590325]]]}}