{"type":"Feature","properties":{"id":"万博シャトル_堺旧港／夢洲桟橋（万博会場）","name":"万博シャトル 堺旧港／夢洲桟橋（万博会場）","operator":"","category":"ferry","attribution":"© OpenStreetMap contributors"},"geometry":{"type":"MultiLineString","coordinates":[[[135.4645242,34.5816106],[135.464476,34.5818133],[135.4645214,34.5820001],[135.4646575,34.5821656],[135.4647223,34.5821869],[135.4647547,34.5822456],[135.4646899,34.5823897],[135.464489,34.5825551],[135.4639315,34.5828113],[135.4631472,34.5830728],[135.4625638,34.5832329],[135.4618702,34.583409],[135.4615591,34.5835317],[135.4607294,34.5837292],[135.4605025,34.5837826],[135.4597311,34.5840654],[135.459219,34.5841508],[135.4582986,34.5842308],[135.4576763,34.5842522],[135.4570929,34.5842735],[135.4566975,34.5842896],[135.4561141,34.5843483],[135.4556085,34.584407],[135.4542019,34.5845991],[135.453463,34.5847378],[135.4524323,34.5848659],[135.45146,34.585026],[135.4503581,34.5852074],[135.4494895,34.5853302],[135.4483875,34.5854583],[135.4475578,34.5855543],[135.4465142,34.5857037],[135.4452049,34.5859065],[135.4445048,34.5860026],[135.4436038,34.58612],[135.4429556,34.5862374],[135.442262,34.5863868],[135.4416527,34.5865362],[135.4406804,34.5867977],[135.4398831,34.5870432],[135.4389951,34.5873314],[135.4381005,34.5876355],[135.4372968,34.587913],[135.4363763,34.5882332],[135.4355725,34.5885054],[135.4346132,34.5888576],[135.4332714,34.5893218],[135.43215,34.5897007],[135.431236,34.5900262],[135.4303091,34.5903624],[135.4294081,34.5907039],[135.4284358,34.5910988],[135.4274765,34.5915043],[135.4265884,34.5919152],[135.4255254,34.5923955],[135.4243391,34.5929291],[135.4235743,34.5932866],[135.4223232,34.5938789],[135.421487,34.5942791],[135.4207935,34.5946313],[135.420048,34.5950368],[135.4193026,34.5954423],[135.4187387,34.5957732],[135.4181229,34.5961467],[135.4174811,34.5965575],[135.4168718,34.5969844],[135.4162366,34.5974113],[135.4156013,34.5978435],[135.4150439,34.5982596],[135.4141105,34.598996],[135.413378,34.5995722],[135.4127428,34.6000578],[135.4116149,34.6009648],[135.4101953,34.6020959],[135.4089119,34.603211],[135.4077516,34.6042194],[135.4067728,34.6050944],[135.4058459,34.6058787],[135.4052236,34.6063642],[135.4045106,34.6069404],[135.4037846,34.6074793],[135.4031428,34.6079701],[135.4025659,34.6084129],[135.4020927,34.6087864],[135.4016973,34.6091598],[135.4011334,34.609688],[135.4006213,34.6102375],[135.400025,34.610947],[135.3996425,34.6114432],[135.3992018,34.61203],[135.3987999,34.6125635],[135.3982554,34.6132944],[135.3977044,34.6140199],[135.397309,34.6145],[135.3967386,34.6152522],[135.3963108,34.615903],[135.3956042,34.6168952],[135.3951505,34.617562],[135.3941976,34.6190664],[135.3934262,34.6202879],[135.3929401,34.6209867],[135.3922465,34.6219575],[135.3915789,34.622891],[135.3908399,34.6238405],[135.3899519,34.6249073],[135.3894592,34.6256594],[135.3889472,34.6262941],[135.3886295,34.6267582],[135.3884416,34.6271849],[135.3883508,34.6276063],[135.3883054,34.6281076],[135.3883703,34.6285877],[135.388461,34.6290357],[135.3885777,34.6293771],[135.3888694,34.6300545],[135.3894139,34.6309985],[135.3900102,34.6318679],[135.3911575,34.6333826],[135.3922206,34.63486],[135.3932123,34.6362946],[135.3940615,34.6374733],[135.3949042,34.6387052],[135.395319,34.6393452],[135.3964598,34.6409078],[135.3974646,34.6422784],[135.3982878,34.6434729],[135.3991175,34.6445661],[135.3999666,34.6458033],[135.4009973,34.6471258],[135.403279,34.6500107],[135.4049708,34.6522236],[135.4055931,34.6530074],[135.4058977,34.653434],[135.4060987,34.6538713],[135.4062153,34.6543618],[135.4062348,34.654767],[135.4061894,34.6551883],[135.4060727,34.6556308],[135.4058783,34.6560681],[135.4056449,34.6563667],[135.4053208,34.6566706],[135.4048995,34.6570118],[135.4041151,34.657529],[135.4035512,34.6578543],[135.4029095,34.6582275],[135.4023909,34.6584674],[135.4019048,34.6587074],[135.4014057,34.6588993],[135.400738,34.6591179],[135.400187,34.6593045],[135.3993379,34.6595498],[135.3987026,34.6596938],[135.3981063,34.6597951],[135.3978276,34.6598111],[135.3975683,34.6597684],[135.397309,34.6596618],[135.3970303,34.6594911],[135.3968747,34.6593259],[135.396583,34.6590273],[135.3964598,34.6588353],[135.3963821,34.6583608],[135.3963691,34.6580942],[135.3963172,34.6578116],[135.396434,34.6577391]]]}}