{"type":"Feature","properties":{"id":"三ツ島フェリー","name":"三ツ島フェリー","operator":"","category":"ferry","attribution":"© OpenStreetMap contributors"},"geometry":{"type":"MultiLineString","coordinates":[[[127.2848427,26.1907154],[127.2849905,26.1904532],[127.2854834,26.1900413],[127.2859619,26.1898555],[127.2862897,26.1896721],[127.286652,26.1894377],[127.2870178,26.1892991],[127.2874893,26.1892518],[127.2879523,26.1893588],[127.2923391,26.1906945],[127.2938003,26.1907151],[127.2954304,26.1904085],[127.2975118,26.189465],[127.3036272,26.1860954],[127.3343933,26.1672043],[127.3363245,26.1664725],[127.3384917,26.1661644],[127.34038,26.1662607],[127.3424614,26.1666843],[127.3447574,26.1672236],[127.3460416,26.1672836],[127.3467244,26.1671981],[127.3470024,26.1670342],[127.3475502,26.1666921],[127.3476773,26.1665496],[127.347709,26.1663785],[127.3477726,26.1661291],[127.3479495,26.1659989]]]}}