{"type":"Feature","properties":{"id":"三島村_鹿児島～三島","name":"鹿児島～三島","operator":"三島村","category":"ferry","attribution":"© OpenStreetMap contributors"},"geometry":{"type":"MultiLineString","coordinates":[[[130.5655134,31.5924724],[130.5658344,31.5925859],[130.5671572,31.5928493],[130.5681705,31.5929047],[130.5689776,31.5928547],[130.5739793,31.5924481],[130.5751261,31.5922394],[130.5761076,31.5917746],[130.5769692,31.5908404],[130.5822826,31.5714672],[130.5871479,31.5538849],[130.6055691,31.4669441],[130.6166595,31.4309077],[130.6270182,31.4079229],[130.6535679,31.3605729],[130.7128417,31.2737981],[130.7174308,31.2573476],[130.717576,31.2406638],[130.7158914,31.2288204],[130.7089645,31.2090968],[130.6967381,31.1869628],[130.6809986,31.166005],[130.6158299,31.0919187],[130.601183,31.0757333],[130.4293249,30.8373737],[130.42572,30.8316252],[130.4219435,30.824476],[130.4204146,30.8197402],[130.4202362,30.8190795],[130.4202108,30.8186484],[130.4203182,30.8180738],[130.4204951,30.8176348],[130.4205327,30.8169576],[130.4202644,30.8162942],[130.4197173,30.8158243],[130.4190003,30.8154343],[130.419669,30.815921],[130.4201411,30.8163219],[130.4203825,30.8169438],[130.4203629,30.8175905],[130.4202001,30.8180633],[130.419905,30.818828],[130.4197977,30.8195559],[130.4195948,30.8201473],[130.4187467,30.8212081],[130.4145621,30.8250656],[130.4100069,30.8286104],[130.4060587,30.8303793],[130.3997072,30.83119],[130.3949007,30.8309689],[130.3905234,30.8302319],[130.3863176,30.8283893],[130.3813395,30.8255886],[130.3752455,30.8205765],[130.3670916,30.8126892],[130.3458914,30.7871066],[130.3412565,30.7821662],[130.3373083,30.7795116],[130.3317293,30.7754558],[130.3259787,30.7721372],[130.3197989,30.7698511],[130.3128466,30.7676386],[130.3072676,30.7663111],[130.3008303,30.7654998],[130.2970472,30.7655274],[130.2924189,30.7657211],[130.2879557,30.7670486],[130.2847799,30.7688186],[130.2824625,30.772211],[130.278445,30.7773585],[130.2781875,30.7779669],[130.2781859,30.7785761],[130.2784343,30.7792113],[130.2790887,30.7796721],[130.2797526,30.7799055],[130.27904,30.7797697],[130.2783319,30.7792581],[130.2780637,30.7785944],[130.2780744,30.7779308],[130.2783319,30.7772579],[130.2818139,30.7722793],[130.2816422,30.7695507],[130.2806122,30.766822],[130.278209,30.7633556],[130.2737486,30.7609074],[130.268437,30.7595973],[130.2630297,30.759376],[130.2566782,30.7603348],[129.9723212,30.8429792],[129.9686432,30.843959],[129.9643517,30.8444564],[129.9608541,30.8442722],[129.958071,30.8434227],[129.9566763,30.842391],[129.9562621,30.841085],[129.9563598,30.8399085],[129.9568372,30.8392959],[129.9575561,30.8389044],[129.9581461,30.8385083],[129.9583715,30.8380891],[129.958468,30.8376101],[129.9583929,30.8371311],[129.9581461,30.8367027],[129.9577268,30.8362787],[129.958071,30.8367165],[129.9582963,30.8371495],[129.9583554,30.8376147],[129.9582427,30.8380615],[129.9580281,30.8384115],[129.9574219,30.838757],[129.9566441,30.8391577],[129.9560969,30.8398624],[129.9559081,30.8410389],[129.9560476,30.8438853],[129.9559403,30.8473856],[129.9549103,30.8510515],[129.9536443,30.8537595],[129.951241,30.856412],[129.9479795,30.8584751],[129.9443746,30.8600224],[129.9410272,30.8606855],[129.9369931,30.8612749],[129.9340749,30.8611276],[129.9231744,30.8592119],[129.9135614,30.85597],[129.90515,30.8514015],[129.9000001,30.8473488],[129.8971677,30.843959],[129.8949361,30.8399059],[129.8945928,30.835263],[129.8952794,30.832094],[129.896996,30.8292196],[129.8986268,30.8267137],[129.9011159,30.8258292],[129.9032388,30.8257907],[129.9060713,30.8263803],[129.9075948,30.8273201],[129.9081741,30.8282137],[129.9083029,30.8286744],[129.9081478,30.8292502],[129.9075143,30.8300793],[129.9070533,30.8303273],[129.9064709,30.8305538]]]}}