{"type":"Feature","properties":{"id":"三河大島定期航路","name":"三河大島定期航路","operator":"","category":"ferry","attribution":"© OpenStreetMap contributors"},"geometry":{"type":"MultiLineString","coordinates":[[[137.2361531,34.7902592],[137.2258733,34.8068297],[137.2240984,34.8105749],[137.2235942,34.8123191],[137.2239456,34.8139751],[137.2241279,34.8143098],[137.2244793,34.8148978],[137.224938,34.8152479],[137.2254074,34.8154263],[137.2290485,34.8158821]],[[137.2290485,34.8158821],[137.2253966,34.8154505],[137.2249246,34.8152743],[137.2244525,34.814922],[137.2240984,34.814323],[137.2239053,34.8139795],[137.2235512,34.8123235],[137.2240233,34.8105618],[137.2254441,34.8066623],[137.2321734,34.7894564]]]}}