{"type":"Feature","properties":{"id":"三江_-_衢山","name":"三江 - 衢山","operator":"","category":"ferry","attribution":"© OpenStreetMap contributors"},"geometry":{"type":"MultiLineString","coordinates":[[[122.1154272,30.1422142],[122.1159339,30.14265],[122.1163899,30.1436613],[122.1174574,30.1492279],[122.1178436,30.1521039],[122.1120071,30.1652766],[122.0921802,30.1876476],[122.0772456,30.1954374],[122.0626544,30.2151685],[122.0308111,30.2681116],[122.0230006,30.281454],[122.0205974,30.2899033],[122.0212411,30.3126164],[122.025318,30.3219152],[122.0550154,30.3506576],[122.192001,30.4119664],[122.2555159,30.4205523],[122.269678,30.4255851],[122.2736263,30.4318758],[122.2746992,30.434725],[122.2765815,30.4358946]]]}}