{"type":"Feature","properties":{"id":"上島町_上島町営(土生－弓削－豊島－高井神－魚島)","name":"上島町営(土生－弓削－豊島－高井神－魚島)","operator":"上島町","category":"ferry","attribution":"© OpenStreetMap contributors"},"geometry":{"type":"MultiLineString","coordinates":[[[133.3222006,34.1790033],[133.322183,34.1790405],[133.3221521,34.1790733],[133.3221166,34.1791007],[133.3220624,34.1791237],[133.3218887,34.1791965],[133.3215535,34.1793245],[133.3212121,34.1794767],[133.3204409,34.1798531],[133.3203034,34.1799557],[133.3202089,34.1800938],[133.3201793,34.1801758],[133.3201822,34.1802675],[133.3202129,34.1803745],[133.320516,34.1810357],[133.3205456,34.1810956],[133.3205656,34.1812042],[133.3205482,34.1813109],[133.3204278,34.1815337],[133.3201197,34.1818718],[133.3197347,34.1821565],[133.3189258,34.1825742],[133.3182753,34.1828968],[133.3176085,34.183179],[133.3169805,34.1834089],[133.3163688,34.1836049],[133.2766317,34.1937083],[133.2761082,34.1938142],[133.2757117,34.1938398],[133.2754457,34.1938094],[133.2752292,34.1937292],[133.2750449,34.1935892],[133.274896,34.1934492],[133.2747193,34.1933207],[133.274501,34.1932323],[133.274288,34.1932172],[133.2740773,34.193236],[133.2739566,34.1932848],[133.2737983,34.1933802],[133.2736454,34.1935133],[133.2734392,34.1937476]],[[133.2734392,34.1937476],[133.2736796,34.1935295],[133.2738829,34.1933715],[133.274074,34.1932747],[133.2742712,34.1932492],[133.2744967,34.1932875],[133.2746846,34.1933963],[133.2748001,34.1935296],[133.2748566,34.1936977],[133.274897,34.1939],[133.2749024,34.1940369],[133.2747871,34.1992584],[133.2747005,34.2000165],[133.266729,34.2309802],[133.2663544,34.23261],[133.2658671,34.2338504],[133.2651559,34.2349381],[133.2642898,34.2358256],[133.263236,34.2366749],[133.2621751,34.237249],[133.2609003,34.2375111],[133.2598144,34.237377],[133.2591631,34.2370385],[133.258714,34.2365582],[133.2584066,34.2360193],[133.2572543,34.2327974],[133.2570782,34.2324376],[133.2569022,34.2320778]],[[133.2003688,34.2586382],[133.2002294,34.2584714],[133.2001668,34.2583559],[133.2001221,34.2582186],[133.2000905,34.2580392],[133.1999509,34.254084],[133.199839,34.253544],[133.1997449,34.2531389],[133.1985139,34.2484258],[133.1984525,34.2476351],[133.1983061,34.2451007],[133.1980437,34.2409046],[133.1980866,34.2402455],[133.1982855,34.2396086],[133.1985694,34.2391573],[133.1994706,34.238226],[133.2005051,34.2374715],[133.2019463,34.2368086],[133.2028207,34.2365275],[133.2039046,34.2362872],[133.2058743,34.2359942],[133.2103711,34.2355563],[133.2501452,34.2341305],[133.2506926,34.2340397],[133.2512143,34.2338666],[133.2561734,34.2323171],[133.2566526,34.232163],[133.2569022,34.2320778]],[[133.1780053,34.2834658],[133.1778028,34.2833259],[133.177693,34.2832218],[133.1776137,34.283121],[133.1775792,34.283037],[133.1775687,34.2828809],[133.1775956,34.2827199],[133.1776442,34.2825871],[133.1777679,34.2824078],[133.1802969,34.2797565],[133.1806419,34.2794049],[133.1810233,34.2790919],[133.1890262,34.273773],[133.1892911,34.2735466],[133.1895017,34.2733203],[133.190032,34.272671],[133.1991737,34.2598078],[133.1993,34.2595842],[133.1995773,34.2589895],[133.1996886,34.2588281],[133.1998245,34.2587252],[133.1999977,34.2586519],[133.2001161,34.2586224],[133.2002222,34.2586093],[133.2003688,34.2586382]]]}}