{"type":"Feature","properties":{"id":"上島町_上島町営(土生－弓削－高井神－魚島)","name":"上島町営(土生－弓削－高井神－魚島)","operator":"上島町","category":"ferry","attribution":"© OpenStreetMap contributors"},"geometry":{"type":"MultiLineString","coordinates":[[[133.2003688,34.2586382],[133.2001867,34.2584801],[133.2000955,34.2583648],[133.2000249,34.258194],[133.1999685,34.2579878],[133.1999337,34.2576797],[133.1997721,34.2542033],[133.1997534,34.2539872],[133.1982763,34.2485853],[133.1981877,34.2481322],[133.1976988,34.2409877],[133.1976903,34.2401889],[133.1978125,34.2395368],[133.1981782,34.2388743],[133.1987119,34.2382968],[133.199518,34.2376513],[133.2008312,34.2368237],[133.2729937,34.2007874],[133.2732256,34.2006486],[133.2734514,34.2004742],[133.2738105,34.2001707],[133.2739965,34.1999783],[133.2741046,34.1998269],[133.2742501,34.1994778],[133.2743387,34.1991287],[133.2748035,34.1938857],[133.2747635,34.1936232],[133.274725,34.1935378],[133.2746618,34.1934678],[133.2745232,34.1933633],[133.2743814,34.1933148],[133.2742243,34.193297],[133.274101,34.1933199],[133.2740055,34.1933556],[133.2738576,34.1934397],[133.2734392,34.1937476]]]}}