{"type":"Feature","properties":{"id":"上天草市_湯島定期船","name":"湯島定期船","operator":"上天草市","category":"ferry","attribution":"© OpenStreetMap contributors"},"geometry":{"type":"MultiLineString","coordinates":[[[130.336667,32.5999344],[130.3366363,32.5990988],[130.3376019,32.5983757],[130.3400481,32.5978063],[130.3414214,32.5975351],[130.3473758,32.5949139],[130.3573321,32.58761],[130.3708076,32.5792207],[130.3880595,32.5748088],[130.3976726,32.5743025],[130.4108905,32.5770509],[130.4149568,32.5795823],[130.4160511,32.5796636],[130.4159707,32.580753],[130.4155899,32.581603]]]}}