{"type":"Feature","properties":{"id":"上村汽船_切串〜宇品","name":"切串〜宇品","operator":"上村汽船","category":"ferry","attribution":"© OpenStreetMap contributors"},"geometry":{"type":"MultiLineString","coordinates":[[[132.4751219,34.2848659],[132.4750406,34.2850408],[132.4749982,34.2852342],[132.4743235,34.2891339],[132.4720943,34.3094112],[132.4701777,34.3165473],[132.4619923,34.3279592],[132.4599538,34.3314855],[132.4582202,34.3350122],[132.4556375,34.3410719],[132.4548198,34.3443164],[132.4542774,34.3465924],[132.4535793,34.3487277],[132.4534121,34.3497183],[132.4535288,34.3505758],[132.4538232,34.3519657]]]}}