{"type":"Feature","properties":{"id":"东极庙子湖_-_黄兴岛","name":"东极庙子湖 - 黄兴岛","operator":"","category":"ferry","attribution":"© OpenStreetMap contributors"},"geometry":{"type":"MultiLineString","coordinates":[[[122.6840182,30.1917006],[122.68383,30.1917372],[122.6829649,30.1916028],[122.6819658,30.1911159],[122.6601648,30.1779838],[122.6506805,30.176741],[122.6432347,30.178633],[122.6346516,30.1860339],[122.6331711,30.192711],[122.6363683,30.1988775],[122.6380634,30.1994154],[122.6388773,30.1995982]]]}}