{"type":"Feature","properties":{"id":"中之郷_-_佐田浜","name":"中之郷 - 佐田浜","operator":"","category":"ferry","attribution":"© OpenStreetMap contributors"},"geometry":{"type":"MultiLineString","coordinates":[[[136.8455416,34.490089],[136.8455593,34.4900635],[136.8463622,34.4902999],[136.84673,34.491982],[136.8469419,34.4922346],[136.8470713,34.4923921],[136.8473607,34.4925597],[136.8476438,34.4925564],[136.8480211,34.4923383],[136.8483469,34.4915185],[136.848132,34.4899517],[136.8477768,34.4883822],[136.8478329,34.487674],[136.8492339,34.482947],[136.8494659,34.4818616],[136.8491424,34.4810611],[136.8474183,34.4784887],[136.8471395,34.4778154],[136.8468627,34.4775675],[136.846391,34.4774704]]]}}