{"type":"Feature","properties":{"id":"中島汽船株式会社_中島汽船西線_東線(高浜港寄港便)","name":"中島汽船西線/東線(高浜港寄港便)","operator":"中島汽船株式会社","category":"ferry","attribution":"© OpenStreetMap contributors"},"geometry":{"type":"MultiLineString","coordinates":[[[132.7094867,33.8657525],[132.7080238,33.8680661],[132.7077389,33.8685196],[132.7072396,33.8690319],[132.7065086,33.8695602],[132.6966829,33.875908],[132.6956748,33.8769172],[132.6951662,33.8777519],[132.6949498,33.8785502],[132.6949209,33.8791561],[132.6950466,33.8800031],[132.6953471,33.8807],[132.6959663,33.8815382],[132.6967847,33.8821964],[132.6975786,33.8826061],[132.6983414,33.8829321],[132.6992425,33.883155],[132.70004,33.8832758],[132.7008518,33.8833781]]]}}