{"type":"Feature","properties":{"id":"中島汽船株式会社_中島汽船東線","name":"中島汽船東線","operator":"中島汽船株式会社","category":"ferry","attribution":"© OpenStreetMap contributors"},"geometry":{"type":"MultiLineString","coordinates":[[[132.6658999,33.9560695],[132.6680639,33.9527758],[132.6701973,33.9503635],[132.6724871,33.9487658],[132.6744045,33.9481094],[132.6759357,33.9480047],[132.677762,33.948407],[132.6788395,33.9492059],[132.6796867,33.9501821],[132.6804983,33.9515559],[132.6808637,33.9529863],[132.6811355,33.9548872],[132.6812195,33.9570062],[132.6803487,33.9710682],[132.680446,33.9721877],[132.6808126,33.9731509],[132.6812607,33.9738184],[132.6818779,33.9742798],[132.6827577,33.9745219],[132.6834707,33.9744873],[132.684226,33.9742916],[132.6848735,33.9740905],[132.6855696,33.9739211],[132.6861864,33.9739163],[132.6868191,33.9740637],[132.6871897,33.9743443],[132.6880057,33.9753489]]]}}