{"type":"Feature","properties":{"id":"中島汽船東線","name":"中島汽船東線","operator":"","category":"ferry","attribution":"© OpenStreetMap contributors"},"geometry":{"type":"MultiLineString","coordinates":[[[132.6880057,33.9753489],[132.6871225,33.9744335],[132.6868147,33.974236],[132.6864871,33.9740919],[132.6861744,33.9740425],[132.6857376,33.9740301],[132.6852362,33.9740919],[132.682379,33.9750056],[132.6800811,33.9758172],[132.6776571,33.9764408],[132.6752349,33.9767376],[132.6609395,33.9770824],[132.6591053,33.9769565],[132.6362939,33.9733849],[132.6305625,33.9727367]]]}}