{"type":"Feature","properties":{"id":"中島汽船株式会社_中島汽船西線","name":"中島汽船西線","operator":"中島汽船株式会社","category":"ferry","attribution":"© OpenStreetMap contributors"},"geometry":{"type":"MultiLineString","coordinates":[[[132.7008518,33.8833781],[132.6991845,33.8832091],[132.6982947,33.8830631],[132.6971789,33.8827583],[132.6963101,33.882328],[132.6954117,33.8815828],[132.6948704,33.8807736],[132.694334,33.8795183],[132.6933333,33.8763651],[132.6927841,33.8753321],[132.691906,33.8739986],[132.6898871,33.8719231],[132.6881618,33.8709809],[132.6855983,33.8701837],[132.6691563,33.8672966],[132.6662313,33.8673561],[132.6636461,33.8678533],[132.661367,33.8687026],[132.6596962,33.8695382],[132.6577467,33.8714014],[132.6555991,33.8744598],[132.6541214,33.8781677],[132.6526437,33.8842091],[132.6512581,33.8896163],[132.6502671,33.891953],[132.6494459,33.8930794],[132.6483761,33.8939917],[132.6471173,33.8946425],[132.6457777,33.8950217],[132.6444925,33.8951583],[132.643233,33.8951815],[132.6420123,33.8950445],[132.6413463,33.8949032],[132.6407328,33.8946707],[132.6403108,33.8944976],[132.6400064,33.8943108]],[[132.6043453,33.9496926],[132.6054043,33.9494888],[132.6066529,33.9491944],[132.6079453,33.9487124],[132.608886,33.9481117],[132.6098074,33.9471906],[132.6375197,33.9054687],[132.6407262,33.900039],[132.6413425,33.8987854],[132.6418229,33.8974198],[132.6418481,33.8968132],[132.6417347,33.8962171],[132.6414953,33.8956627],[132.6410259,33.8951149],[132.6400064,33.8943108]],[[132.6043453,33.9496926],[132.606462,33.9491297],[132.6079367,33.9485055],[132.6089988,33.9476941],[132.6093836,33.9470366],[132.609592,33.9459402],[132.6094928,33.9449644],[132.6089433,33.9430441],[132.6077461,33.9414402],[132.6056168,33.9401456],[132.6030922,33.939285],[132.6000935,33.9389771],[132.5499798,33.9410889],[132.5482203,33.9409655],[132.5458021,33.940536],[132.5434736,33.9399629],[132.5414797,33.9391269],[132.5397853,33.9379788],[132.5379997,33.9362255],[132.53728,33.9351148],[132.5370664,33.9344195],[132.5369485,33.9337457]],[[132.5369485,33.9337457],[132.5369792,33.9345105],[132.5369172,33.9349062],[132.5164254,33.9830671]],[[132.5164254,33.9830671],[132.5166572,33.9826301],[132.5168806,33.9823872],[132.5172407,33.9821414],[132.5176072,33.981991],[132.5404185,33.9749182]],[[132.5404185,33.9749182],[132.5396643,33.9751031],[132.5386752,33.9752087],[132.5378222,33.9751873],[132.5340996,33.9746392],[132.5320738,33.9739561],[132.5298014,33.9724821],[132.5284684,33.9705184],[132.5280397,33.968391],[132.5287149,33.9658523],[132.5309687,33.962959],[132.5340265,33.9603635],[132.5374225,33.9586716],[132.5414007,33.9579704],[132.5448154,33.9584533],[132.5474118,33.9598973],[132.5499971,33.9623587],[132.5590585,33.9754285],[132.5606249,33.9795033],[132.5610646,33.9813434],[132.5609679,33.9825252],[132.5607232,33.9833523],[132.5603832,33.9841058],[132.5599933,33.9848432],[132.5594947,33.9855504],[132.558875,33.9860903],[132.5578447,33.9867595]],[[132.5578447,33.9867595],[132.5594912,33.9859039],[132.5601979,33.9856376],[132.5611378,33.9854206],[132.5618259,33.9853221],[132.563105,33.9852913],[132.6002566,33.9867652],[132.6014797,33.9867366],[132.6026116,33.9866017],[132.6032876,33.9864712],[132.6038092,33.9862606],[132.6043317,33.9859131],[132.6045464,33.9854781],[132.6046531,33.9845643]]]}}