{"type":"Feature","properties":{"id":"中島汽船西線","name":"中島汽船西線","operator":"","category":"ferry","attribution":"© OpenStreetMap contributors"},"geometry":{"type":"MultiLineString","coordinates":[[[132.5578447,33.9867595],[132.5596575,33.9856681],[132.5601791,33.98529],[132.5606358,33.984869],[132.5945088,33.9421036],[132.5964185,33.9405192],[132.5980493,33.9398784],[132.6001092,33.9394689],[132.601976,33.9394333],[132.6034352,33.9396825],[132.605538,33.9405904],[132.6069971,33.9415339],[132.6079627,33.94278],[132.6085635,33.9440261],[132.6089712,33.9454501],[132.6089069,33.9469276],[132.6085206,33.9477464],[132.6078983,33.9483516],[132.6071619,33.948746],[132.606329,33.9490888],[132.6043453,33.9496926]]]}}