{"type":"Feature","properties":{"id":"中島汽船株式会社_中島汽船東線(高浜港寄港便)","name":"中島汽船東線(高浜港寄港便)","operator":"中島汽船株式会社","category":"ferry","attribution":"© OpenStreetMap contributors"},"geometry":{"type":"MultiLineString","coordinates":[[[132.7008518,33.8833781],[132.7005049,33.8834433],[132.7000947,33.8835666],[132.6997294,33.883742],[132.699387,33.8840026],[132.6989296,33.8844165],[132.6984164,33.8851035],[132.698125,33.8856816],[132.6979039,33.8864742],[132.6977269,33.8880267],[132.6979267,33.8902523],[132.6985774,33.8934758],[132.7070532,33.9237167],[132.7071819,33.9248918],[132.7070532,33.926334],[132.7065811,33.9276337],[132.7060018,33.9285951],[132.7047143,33.9297702],[132.7030621,33.9309809],[132.7007017,33.9326366],[132.672442,33.9475723],[132.6692877,33.9500287],[132.6674852,33.9520934],[132.666863,33.9530901],[132.6666034,33.9537144],[132.6658999,33.9560695]]]}}