{"type":"Feature","properties":{"id":"中島汽船株式会社_中島汽船東線(松山観光港寄港便)","name":"中島汽船東線(松山観光港寄港便)","operator":"中島汽船株式会社","category":"ferry","attribution":"© OpenStreetMap contributors"},"geometry":{"type":"MultiLineString","coordinates":[[[132.7037372,33.8895066],[132.7038318,33.8897064],[132.7034263,33.8903879],[132.7029964,33.8913748],[132.7028928,33.892204],[132.7029139,33.8929641],[132.7030847,33.8943329],[132.7077865,33.9242744],[132.7075789,33.9264622],[132.7068364,33.9282575],[132.7049669,33.9305359],[132.7018183,33.9327397],[132.6972419,33.9353384],[132.6729582,33.9479726],[132.6698302,33.9502396],[132.6684802,33.9515709],[132.6674075,33.9529335],[132.6663869,33.9549313],[132.6658999,33.9560695]]]}}