{"type":"Feature","properties":{"id":"中洲クルーズ（福博であい橋～キャナルシティ～博多港）","name":"中洲クルーズ（福博であい橋～キャナルシティ～博多港）","operator":"","category":"ferry","attribution":"© OpenStreetMap contributors"},"geometry":{"type":"MultiLineString","coordinates":[[[130.4047778,33.5920991],[130.4048412,33.5922191],[130.4049357,33.5922648],[130.4049957,33.5922657],[130.405897,33.5918047],[130.4080475,33.5901417],[130.4087993,33.5894721],[130.4092511,33.5885016],[130.4093112,33.5884657],[130.4093913,33.5884657],[130.4094837,33.5885144],[130.409493,33.5886376],[130.4088706,33.589518],[130.4080664,33.5901776],[130.4059159,33.5918407],[130.4028009,33.5933986],[130.4011248,33.5950821],[130.400851,33.5957848],[130.3993594,33.600184],[130.3991222,33.6009693],[130.3981455,33.6024757],[130.3975816,33.6032199],[130.3966019,33.6041232],[130.3962722,33.6046389],[130.3961798,33.6049443],[130.396149,33.6053908],[130.3960658,33.6058502],[130.3959179,33.606176],[130.3956098,33.6063249],[130.395277,33.6063505],[130.3948457,33.6062428],[130.394553,33.6060118],[130.394439,33.6056757],[130.3945222,33.6052138],[130.3948364,33.604875],[130.3956221,33.6044542],[130.3964064,33.6040128],[130.3975221,33.6031788],[130.3980755,33.6024327],[130.3990297,33.6009616],[130.3991289,33.6004898],[130.4003618,33.5969964],[130.4010869,33.5950552],[130.4020436,33.5940655],[130.4027697,33.5933808],[130.4047218,33.5923908],[130.4048089,33.5923212],[130.4048075,33.5922315],[130.4047778,33.5920991],[130.4047376,33.5919944]]]}}