{"type":"Feature","properties":{"id":"丸銀釣センター・丸宮釣センター_高島航路（宮の浦～高島）","name":"高島航路（宮の浦～高島）","operator":"丸銀釣センター・丸宮釣センター","category":"ferry","attribution":"© OpenStreetMap contributors"},"geometry":{"type":"MultiLineString","coordinates":[[[129.3564589,33.1934644],[129.3562847,33.1932297],[129.3562203,33.1930493],[129.356156,33.1927353],[129.3555454,33.192243],[129.3552877,33.1920321],[129.3549796,33.1916664],[129.3543186,33.1899225],[129.3541841,33.1896553],[129.3539713,33.1893881],[129.3533537,33.1888521],[129.352884,33.1885829],[129.3521504,33.1883028],[129.3426975,33.186908],[129.3418681,33.1868248],[129.3416686,33.1868383],[129.3413436,33.1868868],[129.3403484,33.186811],[129.3400067,33.1866552],[129.3399472,33.1865993],[129.3398604,33.1865495],[129.3397437,33.1865219],[129.3396786,33.1865279],[129.3396367,33.1865528],[129.339603,33.1865885],[129.3396054,33.1867575]]]}}