{"type":"Feature","properties":{"id":"丹东_-_仁川_인천_-_단둥","name":"丹东 - 仁川 인천 - 단둥","operator":"","category":"ferry","attribution":"© OpenStreetMap contributors"},"geometry":{"type":"MultiLineString","coordinates":[[[124.1573386,39.8204799],[124.1602277,39.8136128],[124.161129,39.8100031],[124.1614721,39.8076131],[124.1587256,39.7855873],[124.1520308,39.7359704],[124.1207882,39.6405954],[123.7225314,38.5395748],[123.6950656,38.3739644],[123.7197849,38.2468109],[123.7664767,38.1431997],[123.8735934,37.9983293],[124.0740939,37.8683512],[124.2416354,37.7837423],[124.5217868,37.662083],[124.6755968,37.621847],[124.7757404,37.5978276],[124.874038,37.5805014],[125.2015679,37.5309659],[125.4329675,37.4977424],[125.7566141,37.4364303],[125.7813548,37.4311824],[125.825386,37.4219125],[125.8492469,37.4165613],[125.984559,37.3918115],[126.0004377,37.3899021],[126.1966466,37.372681],[126.3810968,37.3553196],[126.3949585,37.3543303],[126.4172101,37.3533751],[126.440041,37.3542621],[126.4545035,37.3567523],[126.4729142,37.3611867],[126.5151214,37.3802519],[126.5555262,37.4048351],[126.5624249,37.4119256],[126.5656543,37.4169533],[126.5740657,37.4247072],[126.5776276,37.4272803],[126.5802026,37.4284901],[126.5824127,37.4291973],[126.5847409,37.4297596],[126.588099,37.4301941],[126.5902984,37.4301344],[126.5924656,37.4296914],[126.594547,37.4288224],[126.6004561,37.4245783]]]}}