{"type":"Feature","properties":{"id":"久高海運_久高〜安座真","name":"久高〜安座真","operator":"久高海運","category":"ferry","attribution":"© OpenStreetMap contributors"},"geometry":{"type":"MultiLineString","coordinates":[[[127.885493,26.1541794],[127.8850559,26.1540941],[127.8843993,26.1541287],[127.8838199,26.1543791],[127.8833693,26.1548606],[127.8830903,26.1553422],[127.8829187,26.155842],[127.8827256,26.1562464],[127.8825539,26.1565353],[127.8817728,26.1570794],[127.8629804,26.1695636],[127.8411809,26.1829718],[127.8358838,26.1850438],[127.8320807,26.1858361],[127.8300479,26.1857216],[127.8282752,26.1852904],[127.8268858,26.184561],[127.8257032,26.1833284],[127.8252415,26.1826301],[127.8250699,26.1820716],[127.8250699,26.1814747],[127.8252415,26.1809933],[127.825661,26.1805745],[127.8262189,26.1803626],[127.8267221,26.1802616],[127.8270558,26.1801123],[127.8272103,26.1799005],[127.8269652,26.1795876]]]}}