{"type":"Feature","properties":{"id":"九十九島パールシーリゾート_九十九島遊覧船（パールクイーン・みらい）","name":"九十九島遊覧船（パールクイーン・みらい）","operator":"九十九島パールシーリゾート","category":"ferry","attribution":"© OpenStreetMap contributors"},"geometry":{"type":"MultiLineString","coordinates":[[[129.6789408,33.1624548],[129.6791454,33.1633088],[129.6791023,33.1635143],[129.6789861,33.1636586],[129.6785938,33.1637606],[129.6781852,33.1636312],[129.6777852,33.1632174],[129.6775559,33.1626675],[129.6768929,33.1593727],[129.6757986,33.1574146],[129.6744253,33.1569566],[129.6694744,33.1584089],[129.6681548,33.1583281],[129.6674193,33.1576751],[129.667157,33.1572593],[129.6665503,33.1559955],[129.6656705,33.1548907],[129.6639673,33.1534649],[129.6602203,33.1516032],[129.6590187,33.1509115],[129.6581341,33.1496513],[129.6571304,33.1467884],[129.6566905,33.1450817],[129.6565998,33.1437944],[129.6569051,33.1428628],[129.6582998,33.1402935],[129.6589757,33.1395838],[129.659797,33.1391503],[129.6606816,33.1391975],[129.6612883,33.1394648],[129.661658,33.1400689],[129.6623661,33.1429616],[129.6627153,33.1436776],[129.663042,33.1439677],[129.6637452,33.1439471],[129.6658529,33.1428538],[129.6684922,33.1406619],[129.6699143,33.1389707],[129.6713734,33.1385844],[129.673288,33.1384788],[129.6755792,33.1394288],[129.6762014,33.139357],[129.6770383,33.1387551],[129.6780087,33.1387214],[129.6779824,33.1389168],[129.6770109,33.138928],[129.6762658,33.1394468],[129.6755899,33.1395456],[129.675069,33.1393682],[129.673251,33.1385934],[129.6713461,33.1387124],[129.6699572,33.1391324],[129.6695436,33.1399971],[129.6698011,33.1409942],[129.6734978,33.1432733],[129.6744682,33.1445786],[129.6761312,33.1456566],[129.6764852,33.1462764],[129.6763838,33.1467408],[129.6750905,33.1476149],[129.6737445,33.1480164],[129.670992,33.1481808],[129.6691955,33.1483039],[129.6681441,33.1488608],[129.6676983,33.1497079],[129.6676125,33.1502917],[129.6679343,33.1513517],[129.6683206,33.1526272],[129.6682616,33.1530718],[129.6680953,33.1534266],[129.6669639,33.1541155],[129.6667815,33.1549958],[129.6672965,33.157394],[129.6681704,33.1581781],[129.6694315,33.1583011],[129.6744467,33.1568129],[129.6758307,33.1573248],[129.6769954,33.1592891],[129.6778081,33.1625161],[129.6781568,33.1629674],[129.6784757,33.1631156],[129.6787952,33.1632019],[129.6790253,33.1631112],[129.6789536,33.1626559],[129.6789408,33.1624548]]]}}