{"type":"Feature","properties":{"id":"九州商船_長崎～有川","name":"長崎～有川","operator":"九州商船","category":"ferry","attribution":"© OpenStreetMap contributors"},"geometry":{"type":"MultiLineString","coordinates":[[[129.1121266,32.9860176],[129.1076511,32.9872028],[129.1053784,32.9880489],[129.1050172,32.9886078],[129.1052289,32.9893285],[129.1057084,32.9909998],[129.1065552,32.9925352],[129.1085354,32.9943091],[129.1134563,32.9967327],[129.1309515,33.0050347],[129.1367127,33.0081759],[129.1418795,33.0104323],[129.1481699,33.0122165],[129.1546564,33.0134025],[129.163062,33.0127472],[129.1693404,33.0106786],[129.1748642,33.0085681],[129.179839,33.0059252],[129.1858461,33.0033042],[129.1920584,33.0007331],[129.1984961,32.998015],[129.2037653,32.995623],[129.2109578,32.9924471],[129.2133627,32.9914],[129.216844,32.9898808],[129.2196903,32.9887278],[129.2233477,32.9871238],[129.229129,32.9843288],[129.2347087,32.9807993],[129.2415047,32.976167],[129.2481679,32.9710554],[129.2543816,32.965861],[129.2614335,32.9594466],[129.267349,32.9543628],[129.2731786,32.9490523],[129.2790488,32.9438257],[129.2851943,32.9383574],[129.291718,32.9328677],[129.3015314,32.9248946],[129.3103247,32.9178013],[129.3188519,32.9122668],[129.327538,32.9060105],[129.3390116,32.8984822],[129.3524641,32.890419],[129.3650948,32.8836355],[129.37839,32.8766741],[129.3903061,32.8707029],[129.4027191,32.8642678],[129.4152933,32.8577431],[129.4281679,32.8510496],[129.4408995,32.8444517],[129.452458,32.8384664],[129.4650161,32.8323157],[129.4785514,32.8258579],[129.4896362,32.8205477],[129.5019907,32.8150254],[129.5157454,32.8093824],[129.5303223,32.8034629],[129.5457358,32.7975671],[129.5582294,32.7928447],[129.5721643,32.7874228],[129.7776896,32.7218314],[129.8082823,32.7123349],[129.8172663,32.7113467],[129.8382784,32.7122012],[129.847437,32.7190688],[129.863763,32.7388442],[129.8658122,32.7422333],[129.8681429,32.743477],[129.8692476,32.7443193]]]}}