{"type":"Feature","properties":{"id":"九州郵船_厳原～芦辺","name":"厳原～芦辺","operator":"九州郵船","category":"ferry","attribution":"© OpenStreetMap contributors"},"geometry":{"type":"MultiLineString","coordinates":[[[129.2918998,34.1969763],[129.2916289,34.1961569],[129.2915828,34.1953655],[129.2918798,34.1944048],[129.2929446,34.1932769],[129.2952359,34.1920015],[129.3024743,34.1888184],[129.3057215,34.186724],[129.3157494,34.1805112],[129.3260634,34.1742507],[129.3359196,34.168404],[129.34569,34.1619058],[129.3543875,34.1560819],[129.3636,34.1503404],[129.3725693,34.1447407],[129.3822253,34.1389984],[129.3914378,34.1334453],[129.400636,34.127726],[129.4103062,34.121651],[129.4188607,34.1163809],[129.4287741,34.110163],[129.4396031,34.1034709],[129.4493735,34.0976074],[129.458257,34.0926675],[129.4689715,34.0866256],[129.4798863,34.080678],[129.4900572,34.0748485],[129.4973479,34.0705758],[129.5060883,34.0651011],[129.5186339,34.0572321],[129.529048,34.0505239],[129.5376597,34.0450953],[129.5468579,34.0389789],[129.5562134,34.0327671],[129.5653544,34.0261044],[129.5752821,34.0192633],[129.5848094,34.0129908],[129.59478,34.0057099],[129.6037493,33.9990925],[129.6134053,33.9917155],[129.6239052,33.9835432],[129.6331177,33.9764258],[129.6413003,33.9702925],[129.6491395,33.9644436],[129.6576081,33.9581433],[129.6651326,33.9526139],[129.6700371,33.9491171],[129.6761056,33.9444978],[129.6826649,33.9392598],[129.6898163,33.9334639],[129.6972406,33.9271258],[129.7052086,33.9200868],[129.7121752,33.9139376],[129.7194135,33.9071231],[129.7255504,33.9011035],[129.7312153,33.8955348],[129.737624,33.8891226],[129.7440326,33.8827455],[129.7522438,33.8745626],[129.7597397,33.8664384],[129.7671354,33.8579452],[129.7738588,33.8500926],[129.7795379,33.8436294],[129.7832156,33.834751],[129.7837251,33.8279389],[129.7818941,33.8208561],[129.7767871,33.8149731],[129.7724956,33.8097791],[129.7701352,33.8075564],[129.7682184,33.8065698],[129.7659438,33.806451],[129.7637695,33.8066768],[129.7566169,33.8085311],[129.7545079,33.8103029]]]}}