{"type":"Feature","properties":{"id":"九州郵船_唐津～壱岐（印通寺港）","name":"唐津～壱岐（印通寺港）","operator":"九州郵船","category":"ferry","attribution":"© OpenStreetMap contributors"},"geometry":{"type":"MultiLineString","coordinates":[[[129.9629306,33.4695718],[129.9649397,33.4687525],[129.9675796,33.4683426],[129.9709316,33.4683163],[129.9737612,33.4694287],[129.9762743,33.4713686],[129.9778301,33.4740028],[129.9780876,33.4775108],[129.9779302,33.4808398],[129.977687,33.4845027],[129.9779302,33.4894658],[129.9779836,33.4936383],[129.9777935,33.4979563],[129.977936,33.5019707],[129.9778363,33.5063219],[129.9779854,33.5100207],[129.9782126,33.5135185],[129.9785572,33.5166327],[129.9788489,33.5200084],[129.979157,33.5229511],[129.9795194,33.5255375],[129.979841,33.528117],[129.980305,33.5317548],[129.9808386,33.5352997],[129.9810618,33.5386637],[129.9806922,33.5421043],[129.9796783,33.5447103],[129.9778001,33.5474959],[129.9754467,33.5497129],[129.9728633,33.5518211],[129.9700812,33.5543221],[129.9684393,33.5558526],[129.9619402,33.5622993],[129.9559321,33.5686168],[129.9492945,33.5748147],[129.9465349,33.5778212],[129.9442734,33.5802851],[129.9379506,33.5870899],[129.9325682,33.5927824],[129.9286187,33.5964913],[129.9245982,33.5999974],[129.9195867,33.6038806],[129.913924,33.6080388],[129.9074685,33.6124955],[129.9007959,33.6168497],[129.8977282,33.6191929],[129.8927146,33.6228251],[129.8881917,33.6262849],[129.8837992,33.6295339],[129.879031,33.6330827],[129.8763406,33.6350902],[129.8734628,33.6373851],[129.8709694,33.6395999],[129.8684962,33.6417642],[129.8658258,33.6440463],[129.8631722,33.6463637],[129.8602208,33.6488233],[129.856799,33.6516981],[129.8528699,33.6546971],[129.8486109,33.6573715],[129.8446133,33.6599525],[129.8409396,33.6624505],[129.8366059,33.6651195],[129.8314735,33.6681615],[129.8268112,33.6712641],[129.8211107,33.6752226],[129.8153065,33.6793145],[129.8103421,33.68299],[129.8057837,33.6866968],[129.8002342,33.6912828],[129.7959305,33.6951698],[129.7918251,33.6989074],[129.7866909,33.703218],[129.7793393,33.7088668],[129.772387,33.7141502],[129.7651915,33.7194928],[129.7585254,33.7252753],[129.7552433,33.727994],[129.753465,33.7309443],[129.7540272,33.7337475],[129.7547479,33.7350107],[129.7555213,33.7361134],[129.7556096,33.737007],[129.7554166,33.7378407],[129.7553107,33.7386795],[129.7553899,33.7395595],[129.7554333,33.7401617],[129.7556135,33.7407971],[129.7559249,33.7413746],[129.7559782,33.7414642]]]}}