{"type":"Feature","properties":{"id":"九州郵船_ビーナス","name":"ビーナス","operator":"九州郵船","category":"ferry","attribution":"© OpenStreetMap contributors"},"geometry":{"type":"MultiLineString","coordinates":[[[129.754346,33.8102434],[129.7563163,33.8084513],[129.7594727,33.807632],[129.7665082,33.8058249],[130.2240941,33.6804451],[130.315246,33.6444833],[130.3488702,33.6317101],[130.3829381,33.6186753],[130.3973008,33.6072209],[130.398934,33.6060814],[130.3990083,33.6059618],[130.399225,33.6050884],[130.3992757,33.6050166]]]}}