{"type":"Feature","properties":{"id":"今治市営さざなみ渡船(幸－津島)","name":"今治市営さざなみ渡船(幸－津島)","operator":"","category":"ferry","attribution":"© OpenStreetMap contributors"},"geometry":{"type":"MultiLineString","coordinates":[[[133.0397987,34.1502054],[133.0397225,34.1511342],[133.0396845,34.151252],[133.0396216,34.1513325],[133.0380771,34.1528748],[133.0346718,34.1564798],[133.0343762,34.1567169],[133.0251449,34.1612218],[133.0249234,34.1612984],[133.0246656,34.1613301],[133.0244202,34.1613126],[133.0241955,34.161265],[133.0061204,34.154291],[133.0060522,34.1542454],[133.0060088,34.1541961],[133.0059774,34.1541158],[133.0059617,34.1539936]]]}}