{"type":"Feature","properties":{"id":"伊江村_伊江～本部","name":"伊江～本部","operator":"伊江村","category":"ferry","attribution":"© OpenStreetMap contributors"},"geometry":{"type":"MultiLineString","coordinates":[[[127.8008095,26.7071195],[127.8008947,26.7066954],[127.802048,26.7054014],[127.8038934,26.7033312],[127.8040642,26.7026259],[127.8036565,26.6999901],[127.803796,26.6991562],[127.8050835,26.6976801],[127.8669548,26.6618129],[127.8700293,26.6606881],[127.872845,26.6588693],[127.8747971,26.6565736],[127.8768158,26.6506677],[127.8769904,26.6498766],[127.876997,26.6469121],[127.8767841,26.6426145],[127.8768922,26.6421655],[127.8771694,26.6417727],[127.8775777,26.6415348],[127.8795686,26.6412483],[127.8801271,26.6412519]]]}}