{"type":"Feature","properties":{"id":"伊豆諸島開発_八丈島～青ヶ島","name":"八丈島～青ヶ島","operator":"伊豆諸島開発","category":"ferry","attribution":"© OpenStreetMap contributors"},"geometry":{"type":"MultiLineString","coordinates":[[[139.8212331,33.1236155],[139.8307738,33.1297348],[139.8474249,33.1285848],[139.8658785,33.1201027],[139.893516,33.0924943],[139.8900828,33.0251626],[139.8584971,32.7495466],[139.8045954,32.5152082],[139.7992739,32.4693822],[139.7954974,32.4461344],[139.7856268,32.4346894],[139.7725806,32.432661],[139.7599635,32.4386736],[139.7565302,32.4450479],[139.758727,32.4466437],[139.7588535,32.4475749]]]}}