{"type":"Feature","properties":{"id":"伊豆諸島開発_父島～母島","name":"父島～母島","operator":"伊豆諸島開発","category":"ferry","attribution":"© OpenStreetMap contributors"},"geometry":{"type":"MultiLineString","coordinates":[[[142.1598606,26.6386837],[142.1603247,26.6383792],[142.1599063,26.6377943],[142.1595228,26.6371613],[142.1594262,26.6357995],[142.1593296,26.6340732],[142.157951,26.6321168],[142.1538526,26.6302562],[142.150076,26.628645],[142.1459347,26.6285682],[142.1416432,26.6295657],[142.1364933,26.6333252],[142.1304637,26.6403068],[142.1210223,26.6527346],[142.1077186,26.6735979],[142.0936423,26.711633],[142.0884925,26.7398444],[142.0864326,26.7950203],[142.0860892,26.9320775],[142.0893508,26.9721678],[142.0981055,27.0075028],[142.110036,27.0399981],[142.11775,27.0509392],[142.1239406,27.0581532],[142.1306783,27.0652806],[142.1384567,27.0718249],[142.1452051,27.0759326],[142.152887,27.0783305],[142.1595067,27.0793048],[142.1696347,27.0790756],[142.1744412,27.0786935],[142.1823376,27.0785406],[142.1872193,27.0791903],[142.190395,27.0804894],[142.1934098,27.0842244],[142.1949547,27.0877396],[142.1954912,27.0922003],[142.1962637,27.0938909],[142.1967223,27.0945261],[142.1970321,27.0949114],[142.1971407,27.0950466],[142.197032,27.0951549]]]}}