{"type":"Feature","properties":{"id":"佐渡汽船（直江津―小木）","name":"佐渡汽船（直江津―小木）","operator":"","category":"ferry","attribution":"© OpenStreetMap contributors"},"geometry":{"type":"MultiLineString","coordinates":[[[138.2516301,37.1835359],[138.2511842,37.1833906],[138.251285,37.183832],[138.25117,37.184039],[138.251185,37.184232],[138.251013,37.184965],[138.250797,37.185318],[138.250547,37.1856],[138.250252,37.18583],[138.25017,37.18623],[138.249895,37.1865],[138.248637,37.188351],[138.248616,37.188906],[138.249033,37.190101],[138.249571,37.191402],[138.250068,37.192383],[138.251033,37.194548],[138.251466,37.195275],[138.251798,37.196008],[138.25319,37.199367],[138.253418,37.200032],[138.253886,37.200899],[138.2549479,37.2025521],[138.255377,37.203372],[138.256162,37.2044195],[138.2745213,37.2220152],[138.2767105,37.2241679],[138.2788131,37.226538],[138.2801997,37.2283933],[138.2813423,37.2300505],[138.2827328,37.233147],[138.2834794,37.2366568],[138.283506,37.2472895],[138.2833002,37.2559522],[138.2832241,37.2596394],[138.283343,37.2630183],[138.2832809,37.2650467],[138.2832971,37.2677509],[138.2831806,37.2698037],[138.2831675,37.2719729],[138.2830977,37.2734403],[138.2830746,37.2758756],[138.282926,37.2785394],[138.2829998,37.2811762],[138.2828698,37.2830537],[138.2826695,37.2855904],[138.2824948,37.2885314],[138.2823516,37.2921675],[138.2823272,37.2957],[138.2822227,37.2985311],[138.2819822,37.3020872],[138.2818036,37.3061889],[138.2816181,37.3125253],[138.281554,37.3168841],[138.2813857,37.3228331],[138.2814112,37.3259909],[138.2814133,37.3317724],[138.281368,37.3377743],[138.2813939,37.3416912],[138.2813238,37.3453621],[138.2813118,37.3475671],[138.2814272,37.3520864],[138.2816303,37.3550261],[138.281791,37.3582221],[138.2818023,37.3607151],[138.2820041,37.3633621],[138.2820643,37.3656467],[138.2819433,37.3678455],[138.2819083,37.3695363],[138.2818841,37.3717331],[138.2818111,37.3739779],[138.2817643,37.3759979],[138.2817297,37.3781166],[138.2816321,37.3804822],[138.2815515,37.3821824],[138.2815303,37.3845835],[138.2815004,37.3863697],[138.2813906,37.3891713],[138.2814685,37.391275],[138.2814527,37.3931126],[138.2814026,37.3956011],[138.2813729,37.3978359],[138.2813798,37.4003849],[138.2813932,37.4023766],[138.2814318,37.4069456],[138.2812359,37.4108553],[138.281278,37.4123155],[138.281299,37.415459],[138.281271,37.416904],[138.281447,37.421406],[138.282057,37.424468],[138.282123,37.427698],[138.28238,37.42937],[138.282325,37.430588],[138.282374,37.432198],[138.282468,37.433828],[138.282575,37.438338],[138.282766,37.44151],[138.283115,37.442979],[138.283549,37.444226],[138.283625,37.447514],[138.283756,37.449154],[138.283776,37.450876],[138.28369,37.452469],[138.283684,37.454168],[138.283762,37.456051],[138.283695,37.45781],[138.283709,37.459266],[138.283862,37.460913],[138.283963,37.4643],[138.284078,37.465844],[138.284254,37.473892],[138.284465,37.477159],[138.284508,37.486226],[138.284766,37.493695],[138.284979,37.497247],[138.285057,37.500502],[138.285019,37.503707],[138.285143,37.507243],[138.285145,37.508945],[138.28547,37.515638],[138.285576,37.517087],[138.285771,37.518431],[138.286081,37.523928],[138.286343,37.530471],[138.286901,37.535978],[138.287316,37.543257],[138.287533,37.545721],[138.287557,37.553375],[138.287673,37.55465],[138.287611,37.5559],[138.287633,37.557228],[138.287729,37.558402],[138.287754,37.559546],[138.288053,37.563333],[138.287988,37.564551],[138.288141,37.56727],[138.288133,37.568573],[138.288248,37.571205],[138.288288,37.575326],[138.288392,37.576784],[138.288414,37.58057],[138.28848,37.581953],[138.288867,37.587024],[138.289144,37.589831],[138.289699,37.593997],[138.29002,37.595351],[138.290224,37.598139],[138.290379,37.599517],[138.290511,37.602469],[138.290636,37.603821],[138.290826,37.605144],[138.290903,37.606524],[138.291186,37.609349],[138.291707,37.613285],[138.291736,37.614748],[138.291899,37.616125],[138.291978,37.617413],[138.292165,37.618747],[138.292486,37.622722],[138.292571,37.625033],[138.29281,37.627611],[138.292867,37.629118],[138.292839,37.630317],[138.29331,37.636774],[138.293487,37.638056],[138.293592,37.63934],[138.293603,37.640471],[138.293748,37.641615],[138.294024,37.645582],[138.294395,37.648232],[138.294412,37.649603],[138.294497,37.650745],[138.294679,37.652139],[138.294696,37.653473],[138.295192,37.658589],[138.295399,37.660061],[138.295523,37.663758],[138.295641,37.664992],[138.295859,37.666292],[138.296122,37.668983],[138.296183,37.672912],[138.296323,37.676718],[138.296596,37.679675],[138.29668,37.681181],[138.296716,37.682319],[138.296617,37.684535],[138.296842,37.687901],[138.296803,37.689015],[138.296942,37.693756],[138.296944,37.69612],[138.297036,37.697235],[138.296987,37.698227],[138.297075,37.70213],[138.29698,37.703179],[138.297,37.704143],[138.297103,37.705279],[138.297067,37.706202],[138.297209,37.70813],[138.297355,37.714849],[138.297483,37.716419],[138.297741,37.722601],[138.297943,37.729552],[138.297919,37.731625],[138.298294,37.738249],[138.298279,37.739365],[138.298354,37.740462],[138.298453,37.744849],[138.298333,37.748329],[138.298035,37.752397],[138.298108,37.759444],[138.29802,37.762571],[138.298018,37.767534],[138.29779,37.772382],[138.297749,37.778474],[138.297571,37.782352],[138.297553,37.785067],[138.297812,37.790585],[138.298132,37.793319],[138.298533,37.794689],[138.298711,37.795927],[138.298786,37.798663],[138.298956,37.799815],[138.298995,37.80079],[138.298734,37.802058],[138.298641,37.803315],[138.298423,37.804489],[138.29836,37.806789],[138.298275,37.807178],[138.29818,37.809098],[138.297867,37.811393],[138.29786,37.812311],[138.297768,37.813214],[138.297422,37.813942],[138.296657,37.814762],[138.295816,37.815415],[138.294934,37.815766],[138.294079,37.816195],[138.293249,37.816528],[138.291903,37.816596],[138.290722,37.816403],[138.289788,37.816125],[138.288931,37.815812],[138.288067,37.815433],[138.2865868,37.8149819],[138.2858638,37.814959],[138.28471,37.815129],[138.283701,37.81541],[138.2818206,37.8159161],[138.2814858,37.8160126]]]}}