{"type":"Feature","properties":{"id":"佐田浜_-_神島","name":"佐田浜 - 神島","operator":"","category":"ferry","attribution":"© OpenStreetMap contributors"},"geometry":{"type":"MultiLineString","coordinates":[[[136.8455416,34.490089],[136.8455593,34.4900635],[136.8464558,34.4902536],[136.8468734,34.4919192],[136.8471919,34.4921759],[136.8480909,34.492631],[136.8554737,34.4938911],[136.8840704,34.504549],[136.912936,34.5151297],[136.9446118,34.5333599],[136.9569141,34.5459775],[136.9601701,34.547336],[136.9635607,34.5479131],[136.9665478,34.5480589],[136.9722066,34.5483577],[136.9750175,34.5484991],[136.9764981,34.5496037],[136.9774959,34.550019],[136.9792554,34.5505536],[136.9799533,34.5506905],[136.9802719,34.5507036],[136.9804003,34.550554],[136.9803105,34.5505303]]]}}