{"type":"Feature","properties":{"id":"佐田浜_-_菅島","name":"佐田浜 - 菅島","operator":"","category":"ferry","attribution":"© OpenStreetMap contributors"},"geometry":{"type":"MultiLineString","coordinates":[[[136.8455416,34.490089],[136.8455593,34.4900635],[136.846417,34.4902686],[136.8468352,34.4919593],[136.8471493,34.4922494],[136.8479807,34.4927446],[136.8497295,34.493001],[136.8556948,34.4937969],[136.8766911,34.5010298],[136.8799634,34.5011889],[136.8843408,34.5013039],[136.8897803,34.5008618],[136.8950374,34.4995797],[136.8957348,34.4994471],[136.8959494,34.4993056],[136.896282,34.4989784],[136.8967922,34.498875],[136.8987938,34.4993525]]]}}