{"type":"Feature","properties":{"id":"佐田浜_-_答志","name":"佐田浜 - 答志","operator":"","category":"ferry","attribution":"© OpenStreetMap contributors"},"geometry":{"type":"MultiLineString","coordinates":[[[136.9034937,34.530394],[136.9035966,34.5302925],[136.9039104,34.5305363],[136.9041912,34.5309428],[136.9042816,34.5316819],[136.9045713,34.5319647],[136.9049361,34.5320664],[136.905494,34.5316686],[136.9067815,34.5295606],[136.908453,34.52671],[136.908892,34.5254173],[136.9093497,34.5226547],[136.9086118,34.5199921],[136.9078272,34.5183992],[136.9057724,34.5163444],[136.8944617,34.510303],[136.8885121,34.5075245],[136.8843465,34.5053848],[136.8555233,34.4943545],[136.8502649,34.4934539],[136.8477711,34.4929535],[136.8471166,34.4925365],[136.8465488,34.4920079],[136.8463017,34.4903348],[136.8455593,34.4900635],[136.8455416,34.490089]]]}}