{"type":"Feature","properties":{"id":"佐田浜_-_坂手","name":"佐田浜 - 坂手","operator":"","category":"ferry","attribution":"© OpenStreetMap contributors"},"geometry":{"type":"MultiLineString","coordinates":[[[136.8580252,34.4832729],[136.8580665,34.4831952],[136.8582945,34.4826492],[136.8582636,34.4822377],[136.8579401,34.4818237],[136.8567632,34.4813971],[136.8554252,34.4813991],[136.8545362,34.4816228],[136.8483064,34.487159],[136.8480108,34.4877933],[136.8479143,34.488399],[136.8482898,34.490203],[136.8484507,34.4910121],[136.8479277,34.4922722],[136.8476192,34.4924513],[136.8473751,34.492438],[136.8471498,34.4923783],[136.846954,34.4921683],[136.8467791,34.4919583],[136.846392,34.4902829],[136.8455593,34.4900635],[136.8455416,34.490089]]]}}