{"type":"Feature","properties":{"id":"佐賀玄海漁業協同組合_高島航路（ニューたかしま）唐津～高島","name":"高島航路（ニューたかしま）唐津～高島","operator":"佐賀玄海漁業協同組合","category":"ferry","attribution":"© OpenStreetMap contributors"},"geometry":{"type":"MultiLineString","coordinates":[[[129.9766034,33.4505263],[129.9768233,33.4507165],[129.9777996,33.4508419],[129.9790442,33.4511015],[129.9801493,33.4523189],[129.9811256,33.4535631],[129.9819624,33.454691],[129.9822521,33.4558636],[129.9833678,33.4611626],[129.9856424,33.4694326],[129.9859965,33.4712001],[129.9863023,33.4721756],[129.9866402,33.4723814],[129.9871203,33.4726622],[129.9872518,33.4728328]]]}}