{"type":"Feature","properties":{"id":"保津川遊船企業組合_保津川下り","name":"保津川下り","operator":"保津川遊船企業組合","category":"ferry","attribution":"© OpenStreetMap contributors"},"geometry":{"type":"MultiLineString","coordinates":[[[135.5873242,35.0175867],[135.5874351,35.0175435],[135.5877428,35.0173984],[135.5882039,35.0171316],[135.5884485,35.0170277],[135.5889033,35.016893],[135.5892057,35.0168425],[135.5896422,35.0168658],[135.5899779,35.0170042],[135.5903969,35.0170724],[135.5909431,35.0170329],[135.5912941,35.0170293],[135.5920114,35.0171389],[135.5929393,35.0172377],[135.5937291,35.0173958],[135.5944025,35.0177246],[135.5953151,35.0182905],[135.5958218,35.0187271],[135.5965655,35.0190971],[135.5975417,35.0196199],[135.5978905,35.0197726],[135.5981164,35.0197834],[135.5987197,35.0196235],[135.598961,35.019469],[135.5993844,35.018975],[135.5999503,35.0183839],[135.6004264,35.0178881],[135.6010581,35.0172269],[135.6015846,35.0167095],[135.6019861,35.0162729],[135.6023568,35.0158202],[135.6028241,35.0156495],[135.6031005,35.0155974],[135.6038441,35.0155363],[135.6051055,35.0153818],[135.6063734,35.0152291],[135.6073035,35.0150998],[135.6077796,35.0151267],[135.6082644,35.0153046],[135.6085166,35.0155202],[135.6087119,35.0157897],[135.6091506,35.016237],[135.609642,35.0169251],[135.6100215,35.0172557],[135.6102036,35.0174838],[135.6105019,35.0179132],[135.6109714,35.018551],[135.6113794,35.0191205],[135.6116887,35.0193936],[135.6124038,35.0200349],[135.612884,35.0205618],[135.6132566,35.0208695],[135.6134169,35.0209811],[135.6135127,35.02108],[135.6137541,35.0213366],[135.6141351,35.0218028],[135.6146076,35.0223057],[135.6149875,35.0225742],[135.6153226,35.0227267],[135.6157953,35.0226762],[135.6162041,35.0225953],[135.6167524,35.0226492],[135.6171767,35.0226778],[135.6178334,35.0227999],[135.6180911,35.0229618],[135.6186394,35.0232727],[135.6191896,35.0235995],[135.6198715,35.0238534],[135.6204876,35.0239248],[135.6208983,35.0238232],[135.6210959,35.0237217],[135.6214059,35.0231807],[135.6216364,35.0227555],[135.6217294,35.0225017],[135.6220181,35.0221034],[135.6222564,35.0217972],[135.6224307,35.0214625],[135.6226206,35.0207565],[135.6227426,35.0203424],[135.6228356,35.0198458],[135.6228976,35.0193555],[135.6231262,35.0188526],[135.6234188,35.0185225],[135.6236745,35.018394],[135.6239554,35.0183179],[135.6242537,35.0181973],[135.6246625,35.0181243],[135.6250752,35.0181576],[135.6254646,35.018275],[135.6256777,35.0183686],[135.6257823,35.0184908],[135.6258482,35.0186622],[135.6259702,35.0190429],[135.6260148,35.0193619],[135.6261291,35.0197807],[135.6263112,35.0202773],[135.626286,35.0206914],[135.6262415,35.0210024],[135.6262453,35.0214292],[135.6262531,35.0219543],[135.62641,35.0224668],[135.626627,35.0231569],[135.6269311,35.0238074],[135.6271559,35.024396],[135.6272767,35.0245492],[135.6274271,35.0246673],[135.6275773,35.0247236],[135.6277409,35.0247513],[135.6278817,35.024738],[135.6280494,35.0247104],[135.628252,35.0246596],[135.6284946,35.0246022],[135.6288782,35.0246577],[135.6293683,35.0246752],[135.6298875,35.0246911],[135.6303273,35.024718],[135.630769,35.0246688],[135.6310654,35.02458],[135.631139,35.0244674],[135.6310712,35.0243151],[135.6309066,35.0241961],[135.6308174,35.0239644],[135.6308329,35.0236424],[135.630862,35.0232632],[135.6307554,35.0228269],[135.6308116,35.0225969],[135.6309492,35.0224112],[135.6310712,35.0221812],[135.6312185,35.0218623],[135.6312746,35.0214292],[135.6312359,35.0211007],[135.6309066,35.0205153],[135.6305714,35.0199933],[135.6301917,35.0195522],[135.6300173,35.0192936],[135.6299282,35.0189097],[135.62981,35.0185797],[135.6297799,35.0184203],[135.6297888,35.0183023],[135.6298298,35.0181907],[135.6299036,35.0180782],[135.6299712,35.0180055],[135.6300913,35.0179487],[135.6302141,35.0179167],[135.6303738,35.0178895],[135.6305977,35.0177818],[135.6307613,35.0176981],[135.630952,35.0176227],[135.631094,35.0175951],[135.6313291,35.0175862],[135.6315408,35.0175597],[135.6318073,35.017507],[135.6320478,35.0174881],[135.6324603,35.0174754],[135.6328807,35.0176182],[135.6335181,35.0178831],[135.633737,35.018037],[135.6339443,35.0182116],[135.63414,35.0183575],[135.6344267,35.0184131],[135.6349207,35.0184765],[135.6353876,35.0186812],[135.6357964,35.0189842],[135.6360521,35.0190699],[135.6364241,35.0191619],[135.6367534,35.0192349],[135.636984,35.0192286],[135.6373617,35.0193365],[135.6379313,35.0195665],[135.6383634,35.0197506],[135.6387218,35.0199187],[135.6389329,35.020106],[135.6391053,35.0203551],[135.6391945,35.020547],[135.6393688,35.0207707],[135.6395122,35.020996],[135.6395238,35.0213038],[135.6395858,35.0216354],[135.6396362,35.0219083],[135.6396672,35.0222177],[135.6397311,35.0226603],[135.639702,35.0228332],[135.6397234,35.023141],[135.6398318,35.0233267],[135.6399733,35.023471],[135.6401631,35.023598],[135.6404092,35.0236122],[135.640632,35.023682],[135.6407966,35.023755],[135.6409439,35.0237471],[135.6410989,35.0237011],[135.6412287,35.0237074],[135.6414728,35.0237566],[135.6417421,35.0237931],[135.6418835,35.023763],[135.6420947,35.0237534],[135.6423291,35.0238661],[135.6426197,35.0240295],[135.6429296,35.0243293],[135.6431815,35.0245451],[135.643631,35.0247386],[135.6438712,35.0248672],[135.6440746,35.0249163],[135.6446616,35.0253605],[135.645175,35.0256794],[135.645576,35.0259729],[135.6459461,35.0263331],[135.6466435,35.0268375],[135.6470833,35.0271326],[135.6475424,35.0273278],[135.6481604,35.0277053],[135.6489218,35.0283415],[135.6494372,35.0290157],[135.6499796,35.0296074],[135.6502935,35.0302341],[135.6505143,35.0303721],[135.6508282,35.0304911],[135.651049,35.0304958],[135.6513512,35.0304593],[135.6523741,35.0301151],[135.6525834,35.0300136],[135.6529166,35.0297994],[135.6530929,35.0295979],[135.6533021,35.0293869],[135.6532866,35.0290427],[135.6532053,35.0288396],[135.6532498,35.0286334],[135.6532692,35.0282907],[135.6533002,35.0280417],[135.6532808,35.0276339],[135.6532692,35.0273262],[135.6533254,35.0269026],[135.6534377,35.0265536],[135.6534726,35.026452],[135.6535172,35.0261728],[135.6535385,35.0259856],[135.6536392,35.0258],[135.6537865,35.0256826],[135.6540054,35.0255176],[135.6543464,35.0253764],[135.6546544,35.0251813],[135.6549334,35.025102],[135.6550806,35.0250147],[135.6552472,35.0248227],[135.6554041,35.0245784],[135.6555029,35.024204],[135.6554855,35.023755],[135.6555514,35.0231252],[135.6556192,35.0228856],[135.6556928,35.0223224],[135.6557374,35.0220892],[135.6557935,35.0218115],[135.655966,35.0214149],[135.6562236,35.0208913],[135.6564329,35.0207612],[135.6565239,35.0204629],[135.6565898,35.0201996],[135.6568707,35.0199505],[135.6571342,35.0193349],[135.6574848,35.0188224],[135.6580099,35.0182782],[135.6584283,35.0179736],[135.6589049,35.017707],[135.6593311,35.0176261],[135.6598251,35.017642],[135.6604335,35.0176467],[135.6606814,35.0176372],[135.6610263,35.0175309],[135.6616172,35.0173833],[135.66184,35.0173326],[135.6621654,35.0173119],[135.6623669,35.0173119],[135.6626478,35.017258],[135.6629307,35.0172755],[135.663353,35.0172279],[135.6638005,35.0171961],[135.6644767,35.0171438],[135.6648893,35.0170978],[135.6656488,35.0170422],[135.6660169,35.0169486],[135.6665748,35.0166836],[135.6671657,35.0164171],[135.66765,35.0162679],[135.6680995,35.0161204],[135.6684773,35.0158617],[135.6688531,35.0155984],[135.6691456,35.0152239],[135.6694847,35.0146955],[135.6699051,35.0141672],[135.6703877,35.0138565],[135.6714439,35.0134673]]]}}