{"type":"Feature","properties":{"id":"備後商船(尾道駅前－戸崎－歌－満越－福田－常石)","name":"備後商船(尾道駅前－戸崎－歌－満越－福田－常石)","operator":"","category":"ferry","attribution":"© OpenStreetMap contributors"},"geometry":{"type":"MultiLineString","coordinates":[[[133.2729101,34.3802465],[133.2734092,34.3807262],[133.2739298,34.3811173],[133.274656,34.3814709],[133.2755836,34.3817283],[133.2763395,34.3818264],[133.2938233,34.3815706],[133.2949489,34.3816126],[133.2962317,34.3817832],[133.2968166,34.3819449],[133.2972183,34.3821416],[133.297502,34.3823738],[133.2976279,34.3825942],[133.2976787,34.3828679],[133.29763,34.3830963],[133.2974519,34.3832866],[133.2971451,34.3834812],[133.2968426,34.3836402],[133.2966345,34.3838078],[133.2964989,34.3839938]],[[133.2729101,34.3802465],[133.2730225,34.3805249],[133.2730461,34.3807849],[133.2729885,34.3810751],[133.2728533,34.3814009],[133.2725736,34.3818792],[133.2721365,34.3824143],[133.2631888,34.3906154],[133.2626595,34.3912556],[133.2623513,34.3917571],[133.2620757,34.3923391],[133.2616336,34.3938032]],[[133.1932462,34.4031089],[133.1932914,34.4030635],[133.1933849,34.403],[133.1935246,34.4029463],[133.1936897,34.4029073],[133.1938265,34.4028843],[133.1940138,34.4028774],[133.1942012,34.402904],[133.1944098,34.4029762],[133.1946218,34.4030733],[133.1976484,34.4045124],[133.1984068,34.404842],[133.2082634,34.4087705],[133.2090333,34.4090274],[133.2134554,34.410159],[133.2140905,34.4102465],[133.2145628,34.410223],[133.2151111,34.4101176],[133.2156029,34.409939],[133.2181086,34.4087645],[133.2187207,34.4085377],[133.219406,34.4083378],[133.2200501,34.4081796],[133.2207959,34.4080751],[133.221359,34.408046],[133.2337515,34.4082928],[133.2346222,34.408248],[133.2354929,34.40815],[133.2363839,34.4079158],[133.2369028,34.4077048],[133.237375,34.4074398],[133.2378665,34.4071042],[133.2382552,34.40673],[133.2390813,34.4057855],[133.2394776,34.4052624],[133.2398089,34.4047393],[133.2409827,34.4024353],[133.2425903,34.3992799],[133.2427374,34.3990738],[133.2429156,34.3988794],[133.2431025,34.398749],[133.2433493,34.3986129]],[[133.2396295,34.3984857],[133.2397276,34.3985149],[133.2398001,34.3985264],[133.2399136,34.3985244],[133.240082,34.3985028],[133.2403,34.3984423],[133.2404878,34.3983563],[133.2407385,34.3981933],[133.2409166,34.3980256],[133.2410808,34.3977885],[133.2412567,34.3974376],[133.241399,34.3969595],[133.2416248,34.394992],[133.2420538,34.3912537],[133.2421655,34.3908477],[133.2424275,34.39037],[133.2429811,34.3896779],[133.2435623,34.389104],[133.2444054,34.3884892],[133.2456279,34.3878129],[133.2467905,34.387277],[133.2481563,34.3868081],[133.2495613,34.386505],[133.251174,34.3862743],[133.252559,34.3861777],[133.2538679,34.3861865],[133.2550695,34.3862485],[133.256196,34.3864521],[133.2571402,34.3868254],[133.2584578,34.3876159],[133.2593068,34.388448],[133.2600332,34.3892711],[133.2606145,34.390101],[133.2611232,34.3909933],[133.2614433,34.3917432],[133.2616548,34.3924748],[133.2617214,34.3929492],[133.261708,34.3933729],[133.2616336,34.3938032]]]}}