{"type":"Feature","properties":{"id":"八戸港観光遊覧船_はやぶさⅡ","name":"八戸港観光遊覧船 はやぶさⅡ","operator":"","category":"ferry","attribution":"© OpenStreetMap contributors"},"geometry":{"type":"MultiLineString","coordinates":[[[141.5573512,40.5357246],[141.557184,40.5363153],[141.5570508,40.5365567],[141.5567896,40.5366579],[141.5564771,40.5366852],[141.5561544,40.5366774],[141.555883,40.5365489],[141.5551402,40.5359416],[141.5549302,40.5358949],[141.5546946,40.5359261],[141.5545051,40.5360857],[141.5544436,40.5363387],[141.5544846,40.5367708],[141.5557726,40.5383876],[141.5558219,40.5386358],[141.5556802,40.5389449],[141.5547345,40.5400301],[141.5532754,40.5409596],[141.5513227,40.5416282],[141.5334914,40.5467156],[141.528363,40.5488189],[141.5242217,40.550808],[141.5207455,40.5519493],[141.5123127,40.5557643],[141.5046738,40.5576718],[141.5031288,40.5578185],[141.5024851,40.5576881],[141.5019915,40.5573131],[141.5019272,40.5569544],[141.5023134,40.5563186],[141.5078709,40.5518515],[141.5087293,40.5516396],[141.5100811,40.5518352],[141.5108106,40.5522754],[141.5136216,40.553596],[141.5144799,40.5537753],[141.5149949,40.5536938],[141.5158103,40.5533841],[141.5166471,40.552846],[141.5193079,40.5504494],[141.5208314,40.547808],[141.5210674,40.5462916],[141.5205095,40.5438947],[141.5199731,40.5404704],[141.5200374,40.5393942],[141.5205524,40.5383342],[141.5246294,40.5343388],[141.5270112,40.5327406],[141.5288136,40.5323329],[141.5306161,40.532235],[141.5490268,40.5341105],[141.550643,40.5345708],[141.552177,40.5350724],[141.5545394,40.5356889],[141.5554721,40.5359457],[141.555775,40.5361774],[141.5559618,40.5363903],[141.5561891,40.5365062],[141.5564764,40.5365416],[141.5567869,40.5364944],[141.55695,40.5363705],[141.5573512,40.5357246]]]}}