{"type":"Feature","properties":{"id":"公益財団法人東京都公園協会_東京水辺ライン_浅草～お台場～葛西","name":"東京水辺ライン　浅草～お台場～葛西","operator":"公益財団法人東京都公園協会","category":"ferry","attribution":"© OpenStreetMap contributors"},"geometry":{"type":"MultiLineString","coordinates":[[[139.8601137,35.6385613],[139.858697,35.6385215],[139.8560165,35.639264],[139.8519496,35.6412307],[139.8499142,35.6417012],[139.8473491,35.6420391],[139.8470003,35.6420019],[139.8467515,35.6418],[139.8454276,35.6338365],[139.8451781,35.6335156],[139.8447833,35.6333057],[139.8244201,35.6315915],[139.8240404,35.6314634],[139.823903,35.6311494],[139.824216,35.6281072],[139.8240908,35.6277635],[139.8237384,35.6275607],[139.798842,35.620531],[139.798505,35.6205235],[139.7981762,35.6206269],[139.7914945,35.628509],[139.7912924,35.6286209],[139.7910688,35.6286168],[139.7876495,35.6267759],[139.7875477,35.6267468],[139.7859335,35.6266769],[139.7858217,35.6266893],[139.7857557,35.6267344],[139.7771671,35.6368865],[139.7769696,35.6369965],[139.776665,35.63705],[139.7763416,35.6370264],[139.7735385,35.6366345],[139.77099,35.6357734],[139.7707577,35.6356505],[139.7706146,35.6354125],[139.7700382,35.6329442],[139.7700407,35.6328794],[139.770077,35.6328242],[139.7716836,35.6314662],[139.7722813,35.6292225],[139.7722742,35.6291145],[139.7716302,35.6314584],[139.7685216,35.6341299],[139.7681028,35.6343794],[139.7657388,35.6351584],[139.7655488,35.6352897],[139.7654436,35.6354901],[139.7642677,35.6496389],[139.7659617,35.6558816],[139.7662362,35.6565561],[139.7674373,35.657783],[139.7674631,35.6578347],[139.7675563,35.6591443],[139.7675167,35.6592057],[139.7674177,35.6591917],[139.7673247,35.6591475],[139.763102,35.6569816],[139.7630061,35.6569486],[139.7673803,35.6592318],[139.7674525,35.6592677],[139.7675244,35.6592702],[139.7675944,35.65921],[139.7675283,35.6579187],[139.7676118,35.6578487],[139.7677122,35.6578359],[139.7678626,35.6578968],[139.7739992,35.662222],[139.7780646,35.6645473],[139.778346,35.6647912],[139.7783672,35.6648415],[139.778369,35.6648962],[139.7783601,35.6649292],[139.7780707,35.665265],[139.7783991,35.6649709],[139.7784575,35.6649652],[139.77853,35.6649767],[139.7786026,35.6650054],[139.7798837,35.6661059],[139.7804358,35.6668478],[139.7820371,35.6704614],[139.7821888,35.6707478],[139.7824901,35.6709603],[139.7858614,35.6725473],[139.7860647,35.6726216],[139.7863635,35.67261],[139.7866704,35.6725407],[139.786955,35.672435],[139.787286,35.672095],[139.7883958,35.6692547],[139.7884508,35.6692122],[139.7885461,35.6691839],[139.7886976,35.6691555],[139.7888861,35.6691461],[139.7887056,35.6691708],[139.7885635,35.6692122],[139.7884951,35.6692405],[139.7884522,35.6692776],[139.7873619,35.6721012],[139.7872399,35.6724909],[139.7871993,35.6727452],[139.7872115,35.6730028],[139.7876745,35.6764402],[139.7879046,35.6771566],[139.789402,35.6797333],[139.7925542,35.6835114],[139.7927509,35.6839614],[139.793046,35.6848198],[139.7930782,35.6851291],[139.7929628,35.6858154],[139.7928558,35.6861439],[139.7920108,35.6876939],[139.7903378,35.6892829],[139.7891885,35.6913874],[139.7887892,35.6928081],[139.7889494,35.6947745],[139.7891653,35.6955045],[139.7905335,35.697265],[139.7905925,35.6972933],[139.7906998,35.6972879],[139.7907843,35.6972541],[139.7912711,35.6970526],[139.7908071,35.6972595],[139.790732,35.6973129],[139.7906958,35.6974033],[139.7907052,35.6974665],[139.7925082,35.699555],[139.7936709,35.7013396],[139.7964558,35.7069618],[139.7979109,35.7089535],[139.7998906,35.7111105],[139.7999617,35.7111473],[139.8000532,35.7111498],[139.8001416,35.7111275],[139.8005662,35.7109936],[139.8001609,35.7111341],[139.800102,35.7111746],[139.8000783,35.7112213],[139.8000912,35.7112981],[139.8011444,35.7124296],[139.8014204,35.7126537],[139.8014725,35.712748],[139.8014778,35.7128313],[139.8014548,35.7129204],[139.8013893,35.7129808],[139.8011923,35.7131522]]]}}