{"type":"Feature","properties":{"id":"六連島航路","name":"六連島航路","operator":"","category":"ferry","attribution":"© OpenStreetMap contributors"},"geometry":{"type":"MultiLineString","coordinates":[[[130.8674817,33.975516],[130.867711,33.9753798],[130.8679189,33.9746691],[130.8682408,33.9739217],[130.8697857,33.9734591],[130.9057702,33.9528324],[130.9073795,33.9523162],[130.9086241,33.9524586],[130.9098472,33.9536868],[130.9113707,33.9546123],[130.9130444,33.9545233],[130.9168638,33.9524942],[130.918044,33.9520493],[130.9195675,33.9519959]]]}}