{"type":"Feature","properties":{"id":"共同フェリー株式会社_共同フェリー（御所浦_-_与一ヶ浦_-_大道）","name":"共同フェリー（御所浦 - 与一ヶ浦 - 大道）","operator":"共同フェリー株式会社","category":"ferry","attribution":"© OpenStreetMap contributors"},"geometry":{"type":"MultiLineString","coordinates":[[[130.3703289,32.3887024],[130.3685043,32.3885545],[130.3681954,32.3884757],[130.3679895,32.3883372],[130.3678962,32.3881307],[130.3679123,32.3879106],[130.3680056,32.387753],[130.3688866,32.387208],[130.3688844,32.3862883],[130.3582113,32.3752704],[130.3522648,32.3732827],[130.3510268,32.3703716],[130.3508593,32.368903],[130.3511715,32.3703277],[130.3523444,32.3708677],[130.3540462,32.3705591],[130.3563412,32.367215],[130.3565282,32.3640926],[130.3450758,32.3517603],[130.3418899,32.3457352],[130.3351746,32.3417543],[130.3349172,32.341004],[130.3360112,32.3401668],[130.3360164,32.3387527],[130.3371825,32.3383303]]]}}