{"type":"Feature","properties":{"id":"共同フェリー株式会社_共同フェリー（御所浦_-_与一ヶ浦_-_棚底）","name":"共同フェリー（御所浦 - 与一ヶ浦 - 棚底）","operator":"共同フェリー株式会社","category":"ferry","attribution":"© OpenStreetMap contributors"},"geometry":{"type":"MultiLineString","coordinates":[[[130.3422359,32.4064284],[130.3423293,32.4057242],[130.3427256,32.4055961],[130.3431063,32.4054744],[130.3434167,32.4052373],[130.3435753,32.394667],[130.3462952,32.3926369],[130.3476227,32.3828203],[130.3522648,32.3732827],[130.3510268,32.3703716],[130.3508593,32.368903],[130.3511715,32.3703277],[130.3523444,32.3708677],[130.3540462,32.3705591],[130.3563412,32.367215],[130.3563812,32.3671568],[130.3565282,32.3640926],[130.3450758,32.3517603],[130.3418899,32.3457352],[130.3351746,32.3417543],[130.3349172,32.341004],[130.3360112,32.3401668],[130.3360164,32.3387527],[130.3371825,32.3383303]]]}}