{"type":"Feature","properties":{"id":"別府-来居_フェリー","name":"別府-来居 フェリー","operator":"","category":"ferry","attribution":"© OpenStreetMap contributors"},"geometry":{"type":"MultiLineString","coordinates":[[[133.0385186,36.0262409],[133.0377894,36.0278282],[133.0377369,36.0287556],[133.0380554,36.0295712],[133.0386771,36.0303084],[133.0584401,36.0464835],[133.062045,36.0589741],[133.0618733,36.0749314],[133.0596417,36.0876949],[133.0506128,36.1043415],[133.049879,36.1057866],[133.0485993,36.1069575],[133.0469151,36.1077245],[133.0450127,36.108003],[133.0411559,36.1080541]]]}}