{"type":"Feature","properties":{"id":"十島村_鹿児島～十島～名瀬","name":"鹿児島～十島～名瀬","operator":"十島村","category":"ferry","attribution":"© OpenStreetMap contributors"},"geometry":{"type":"MultiLineString","coordinates":[[[130.5655922,31.5911494],[130.5659732,31.5909989],[130.5671405,31.5908073],[130.5688468,31.5909032],[130.5698088,31.5910918],[130.5708114,31.5914214],[130.5723835,31.5922378],[130.5731778,31.5925471],[130.5739882,31.5925883],[130.5751706,31.5923406],[130.5761682,31.5918357],[130.5770351,31.5908678],[130.582379,31.5714847],[130.5872722,31.553902],[130.6057037,31.4669794],[130.6168859,31.4309803],[130.6273207,31.4080605],[130.6538289,31.3606942],[130.7131417,31.2738902],[130.7177352,31.2573872],[130.7179138,31.2406467],[130.7161866,31.2287689],[130.7091927,31.2090086],[130.6969156,31.186861],[130.6812443,31.1658702],[130.6162185,31.0917238],[130.599162,31.0687824],[130.5868818,31.0438037],[130.510705,30.8603229],[130.3649249,30.51761],[130.3345466,30.4590078],[130.2839631,30.3835466],[130.2380848,30.3308596],[130.1414128,30.2276076],[129.9639149,30.0542163],[129.9075885,30.005581],[129.9057003,30.0034254],[129.903812,30.0006752],[129.9031253,29.9986683],[129.9035545,29.9967356],[129.9068161,29.9947286],[129.9108302,29.9935505],[129.9115958,29.9936042],[129.9121751,29.9934881],[129.9125828,29.9931164],[129.9127169,29.992675],[129.9126257,29.9920571],[129.9127078,29.9916178],[129.9128025,29.9912414],[129.9126112,29.9915899],[129.9125077,29.992071],[129.9125721,29.9926518],[129.9124594,29.9930049],[129.9121054,29.9933673],[129.9115904,29.9934834],[129.910841,29.9934298],[129.9074169,29.9941339],[129.9050995,29.9939852],[129.9026962,29.9930932],[129.9005719,29.9916808],[129.893169,29.9822394],[129.8707672,29.9487786],[129.845533,29.9083875],[129.832036,29.8835897],[129.8272295,29.8739148],[129.8248262,29.865281],[129.8245687,29.8602195],[129.8247648,29.8570922],[129.8256231,29.8519558],[129.8275972,29.8469681],[129.8303438,29.8435435],[129.8339457,29.8399523],[129.8380441,29.8376629],[129.8420782,29.8366205],[129.8446346,29.8364148],[129.847225,29.8365321],[129.8480249,29.8367406],[129.8485614,29.8371687],[129.848671,29.8375465],[129.8485584,29.8380677],[129.8485852,29.8383515],[129.848789,29.8386447],[129.8491485,29.8387285],[129.849583,29.8386959],[129.8502106,29.8387052],[129.849583,29.8386214],[129.8491646,29.8386354],[129.8488749,29.8385377],[129.8487354,29.8383329],[129.84873,29.8380817],[129.8488105,29.8375744],[129.8476956,29.8303929],[129.837531,29.8238194],[129.5482063,29.6726121],[129.5454052,29.6716038],[129.541576,29.671046],[129.5379379,29.671697],[129.5350099,29.6728545],[129.5331507,29.6744978],[129.532099,29.6771555],[129.5317724,29.6782661],[129.531693,29.6789491],[129.5316463,29.6782674],[129.5319021,29.6770754],[129.5328676,29.6743994],[129.5343876,29.6721647],[129.5433654,29.6661179],[129.5970222,29.6401109],[129.6820404,29.6016412],[129.6929058,29.5976817],[129.7014031,29.5960398],[129.7073254,29.5958905],[129.7104153,29.5964876],[129.714106,29.5988758],[129.7166166,29.6017304],[129.7182474,29.6058815],[129.7181937,29.6077471],[129.717786,29.6097432],[129.7169492,29.6110491],[129.7161874,29.6116368],[129.7153613,29.6118979],[129.714444,29.6117627],[129.7137198,29.6113756],[129.7132424,29.610718],[129.7129151,29.6103122],[129.7124135,29.6101433],[129.71284,29.6104148],[129.7131458,29.6107926],[129.7136447,29.6114875],[129.7143903,29.6118839],[129.7153559,29.6120099],[129.7162518,29.611758],[129.7170672,29.6111331],[129.7179255,29.6097712],[129.7183761,29.6077937],[129.718419,29.6058162],[129.7168097,29.6016557],[129.7138271,29.5975698],[129.5771611,29.4744246],[129.5747384,29.4711028],[129.5737475,29.467349],[129.5745061,29.4637579],[129.5761166,29.4611819],[129.5794353,29.4588774],[129.5918537,29.4558236],[129.593404,29.4553892],[129.5941229,29.4549174],[129.5933504,29.4552817],[129.5917668,29.4557105],[129.5904375,29.4557675],[129.5886229,29.4555322],[129.5743485,29.4521184],[129.5712586,29.4514458],[129.5693703,29.4503247],[129.5661946,29.4480077],[129.5607872,29.4415798],[129.4868012,29.3364321],[129.3689337,29.2222047],[129.3651571,29.219433],[129.3600931,29.2166614],[129.3543425,29.2147137],[129.3481627,29.2125412],[129.3339148,29.210069],[129.3284216,29.2101439],[129.3259325,29.2111927],[129.3243232,29.2121666],[129.3230894,29.2136461],[129.3224111,29.2151314],[129.3221958,29.2163501],[129.3221072,29.2177683],[129.3219705,29.2185318],[129.321654,29.2195057],[129.3214702,29.2201696],[129.3214437,29.2210096],[129.3213375,29.2201611],[129.3215091,29.2194495],[129.3218287,29.2185198],[129.3217107,29.2177195],[129.3210133,29.2167597],[129.3184514,29.2149829],[129.240324,29.1785408],[129.2130522,29.1666444],[129.2103558,29.1655705],[129.2083653,29.1643056],[129.2071877,29.1627398],[129.2067262,29.1610372],[129.2066113,29.1595004],[129.2064356,29.1589994],[129.2061212,29.1584908],[129.2056426,29.1581302],[129.2042876,29.1574742],[129.2038586,29.1570477],[129.2043273,29.1574021],[129.2057005,29.1580639],[129.2062565,29.1584379],[129.2065552,29.1589695],[129.2067296,29.1595262],[129.2068774,29.1610362],[129.2073651,29.1627011],[129.2084891,29.1641758],[129.2104582,29.1654543],[129.2131095,29.166429],[129.2165249,29.1666148],[129.2287291,29.1649521],[129.241972,29.1628358],[129.2480308,29.1608706],[129.2516661,29.1584519],[129.2550417,29.1558819],[129.2575518,29.1524048],[129.2632972,29.1406412],[129.4217814,28.6575709],[129.5032579,28.4351225],[129.5057156,28.4253076],[129.5059896,28.4211157],[129.5050743,28.4066086],[129.5019804,28.3992053],[129.5018161,28.398353],[129.5019771,28.3975791],[129.5024062,28.3967392],[129.5036508,28.3951725],[129.5039083,28.3945779],[129.5040017,28.3940429],[129.5038627,28.3933013]]]}}