{"type":"Feature","properties":{"id":"千代田町_赤岩渡船","name":"赤岩渡船","operator":"千代田町","category":"ferry","attribution":"© OpenStreetMap contributors"},"geometry":{"type":"MultiLineString","coordinates":[[[139.4345654,36.2061196],[139.4344263,36.2060232],[139.4342017,36.2059323],[139.433953,36.2058857],[139.4336297,36.20587],[139.4330256,36.2059041],[139.4321999,36.2059258],[139.4315435,36.205916],[139.4310543,36.2058521],[139.4307146,36.2057896],[139.4303512,36.2056688],[139.4299459,36.205473],[139.4295761,36.2052427],[139.4292246,36.2049525]]]}}