{"type":"Feature","properties":{"id":"半升洞_-_普陀山","name":"半升洞 - 普陀山","operator":"","category":"ferry","attribution":"© OpenStreetMap contributors"},"geometry":{"type":"MultiLineString","coordinates":[[[122.3746546,29.9764889],[122.3699703,29.9750764],[122.3455054,29.96764],[122.3424072,29.9664066],[122.3397149,29.9654007],[122.3383039,29.9647189],[122.3357139,29.963615],[122.3344266,29.9628356],[122.3336727,29.9622566],[122.3321843,29.9607349],[122.3312469,29.9596415],[122.3290515,29.957054],[122.3243339,29.9478278],[122.3228115,29.9459269],[122.3219758,29.945096],[122.3206437,29.9445521],[122.3191472,29.9440119],[122.3171114,29.9433958]]]}}