{"type":"Feature","properties":{"id":"半升洞_-_六横大岙","name":"半升洞 - 六横大岙","operator":"","category":"ferry","attribution":"© OpenStreetMap contributors"},"geometry":{"type":"MultiLineString","coordinates":[[[122.1334236,29.771411],[122.1340871,29.7716975],[122.1344733,29.7726474],[122.134366,29.7780113],[122.1351813,29.7907497],[122.1358679,29.8077315],[122.1386145,29.827242],[122.1420477,29.8394528],[122.147541,29.8506199],[122.1641063,29.8606692],[122.2084807,29.8838161],[122.2381781,29.8957223],[122.2936247,29.9092639],[122.303152,29.9146205],[122.3145675,29.9308374],[122.3158549,29.9353002],[122.3171114,29.9433958]]]}}