{"type":"Feature","properties":{"id":"南国海運","name":"南国海運","operator":"","category":"ferry","attribution":"© OpenStreetMap contributors"},"geometry":{"type":"MultiLineString","coordinates":[[[130.1698078,32.0269127],[130.1698281,32.0273686],[130.170028,32.0277096],[130.170842,32.0279598],[130.1717446,32.0281098],[130.1734101,32.0279004],[130.1749633,32.0276004],[130.1770876,32.026709],[130.1783733,32.0262716],[130.1801439,32.0258405],[130.181131,32.0258769],[130.1838682,32.0265635],[130.1843924,32.0266814],[130.1852513,32.0269157],[130.1861892,32.0271082],[130.1871827,32.0272539],[130.1879363,32.0272539],[130.1884204,32.0273761],[130.1890424,32.027669],[130.1898335,32.0281462],[130.1905075,32.0289734]]]}}