{"type":"Feature","properties":{"id":"南海フェリー","name":"南海フェリー","operator":"","category":"ferry","attribution":"© OpenStreetMap contributors"},"geometry":{"type":"MultiLineString","coordinates":[[[134.5832992,34.0566076],[134.5836434,34.0563961],[134.5841479,34.0560421],[134.5846707,34.055295],[134.5854696,34.0543549],[134.5871973,34.053415],[134.5969052,34.0501073],[134.6033913,34.0483772],[134.61163,34.0484206],[134.6200603,34.0498665],[134.6321849,34.0545153],[134.6551519,34.062796],[134.6573818,34.0635349],[134.6729276,34.0689711],[134.7119752,34.0824117],[134.7458223,34.0934593],[135.1059899,34.2151576],[135.1122243,34.216655],[135.1187797,34.2165594],[135.1283118,34.2148947],[135.1337092,34.2148336],[135.1431023,34.2172244],[135.1438589,34.2175041],[135.1441039,34.217601]]]}}