{"type":"Feature","properties":{"id":"呉艦船めぐり","name":"呉艦船めぐり","operator":"","category":"ferry","attribution":"© OpenStreetMap contributors"},"geometry":{"type":"MultiLineString","coordinates":[[[132.5448802,34.2318147],[132.5453951,34.2322913],[132.5462446,34.2330787],[132.5476734,34.2340937],[132.5485639,34.2346596],[132.5487879,34.2348988],[132.5493965,34.2360202],[132.5498874,34.2364977],[132.5501981,34.2366668]],[[132.5501981,34.2366668],[132.5502257,34.2366691],[132.5505352,34.2366952],[132.5520461,34.2365586],[132.5531438,34.2363124],[132.5535524,34.2363374],[132.5536792,34.2364236],[132.5539058,34.2367383],[132.5541642,34.238027],[132.5544092,34.2387522],[132.5549602,34.2395374],[132.5551,34.2397366],[132.5554016,34.2400661]],[[132.5554016,34.2400661],[132.5553587,34.2401112],[132.5554085,34.2400702],[132.5555908,34.2398958],[132.5555349,34.2397065],[132.5549933,34.2395372],[132.5549602,34.2395374],[132.5542566,34.2395421],[132.5539234,34.2394897],[132.5521433,34.2380245],[132.5515816,34.2376289],[132.5506659,34.2371001],[132.5503989,34.2368854],[132.5502257,34.2366691],[132.550204,34.236642],[132.5501064,34.2360575],[132.5501546,34.2339057],[132.5503238,34.2329975],[132.5503419,34.2324009],[132.5506525,34.2313464],[132.5505816,34.2310194],[132.5504691,34.2309217],[132.5501876,34.2308692],[132.5500004,34.2309301],[132.5491014,34.2315068],[132.5488509,34.2317824],[132.5483474,34.2321145],[132.5479605,34.2325469],[132.547803,34.2326582],[132.5476094,34.2327446],[132.5469961,34.2328714],[132.5464307,34.2327247],[132.5453951,34.2322913],[132.5451967,34.2322083],[132.5445524,34.231781],[132.544383,34.2316126],[132.5442838,34.231398],[132.544255,34.231168],[132.5442133,34.2302045],[132.5442332,34.2294787],[132.5443354,34.2287808],[132.5445362,34.2280752],[132.5447515,34.2276212],[132.5449014,34.227413],[132.545276,34.2270991],[132.5454474,34.2269951],[132.5456262,34.2269658],[132.546002,34.227027],[132.5461842,34.2271664],[132.5462307,34.2272744],[132.5462112,34.227413],[132.5455543,34.2283989],[132.5455373,34.228557],[132.5460507,34.2293247],[132.5460079,34.2296045],[132.5458615,34.229849],[132.545621,34.2300832],[132.5444189,34.2307716],[132.5442999,34.2308903],[132.5442871,34.2310316],[132.5443022,34.2311772],[132.5443387,34.2313122],[132.5448802,34.2318147]]]}}