{"type":"Feature","properties":{"id":"周防大島町_周防大島町営渡船(伊保田－情島)","name":"周防大島町営渡船(伊保田－情島)","operator":"周防大島町","category":"ferry","attribution":"© OpenStreetMap contributors"},"geometry":{"type":"MultiLineString","coordinates":[[[132.4394813,33.9448311],[132.440013,33.9446445],[132.4406225,33.9445852],[132.441232,33.9446242],[132.4420532,33.944734],[132.4427634,33.9449113],[132.4440179,33.94533],[132.4598724,33.9510742],[132.4617999,33.9514586],[132.4635258,33.9516338],[132.4671899,33.9517349],[132.4784943,33.951701],[132.4796991,33.9519034],[132.480633,33.9522261],[132.4814849,33.9528733],[132.4819887,33.9537862],[132.4820953,33.9546166],[132.4818326,33.9562396],[132.481674,33.9570803],[132.481402,33.9579115],[132.4810937,33.958375],[132.4807481,33.9585876],[132.4802852,33.9586241],[132.4799929,33.9585457],[132.479748,33.9583422],[132.4796125,33.9582562],[132.4795081,33.9582463],[132.4794328,33.9582548],[132.479363,33.9583002]]]}}