{"type":"Feature","properties":{"id":"和具_-_答志","name":"和具 - 答志","operator":"","category":"ferry","attribution":"© OpenStreetMap contributors"},"geometry":{"type":"MultiLineString","coordinates":[[[136.9034937,34.530394],[136.9036055,34.5303411],[136.903852,34.5305442],[136.9040584,34.5308792],[136.9041228,34.5311567],[136.9041601,34.5317107],[136.9044964,34.5320338],[136.9049447,34.5321723],[136.9055424,34.5317107],[136.9067566,34.5297716],[136.9085312,34.5273247],[136.9093382,34.5249314],[136.909106,34.5227569],[136.9082708,34.5199342],[136.9076054,34.5184878],[136.9059796,34.5172738],[136.9025402,34.5154293],[136.9012447,34.5153305],[136.8998787,34.5157325],[136.8976415,34.5170497],[136.8952873,34.5197733],[136.8950164,34.5201761],[136.8946838,34.5207506],[136.8946731,34.5211749],[136.8949842,34.5215727],[136.8958318,34.5219617],[136.8966365,34.5220235],[136.8979346,34.5218556],[136.8980601,34.5219854],[136.8981592,34.5224286],[136.8979483,34.5224484]]]}}