{"type":"Feature","properties":{"id":"商船三井さんふらわあ_大洗〜苫小牧","name":"大洗〜苫小牧","operator":"商船三井さんふらわあ","category":"ferry","attribution":"© OpenStreetMap contributors"},"geometry":{"type":"MultiLineString","coordinates":[[[140.5751431,36.3087411],[140.575278,36.308601],[140.575397,36.307927],[140.575408,36.307528],[140.57521,36.306552],[140.575132,36.305741],[140.57521,36.305142],[140.575306,36.304822],[140.577776,36.300274],[140.579054,36.298198],[140.582343,36.292576],[140.584386,36.28926],[140.58524,36.288023],[140.586016,36.287086],[140.587073,36.286131],[140.588302,36.285216],[140.592247,36.282584],[140.599755,36.277769],[140.601378,36.276868],[140.602757,36.276274],[140.60432,36.275743],[140.605934,36.275334],[140.607583,36.275024],[140.609165,36.27484],[140.610869,36.274769],[140.612377,36.274758],[140.61842,36.274892],[140.620359,36.275009],[140.622649,36.27527],[140.624991,36.275809],[140.627344,36.276674],[140.629357,36.277654],[140.631192,36.278855],[140.633069,36.280415],[140.635798,36.282947],[140.641271,36.288239],[140.65037,36.297396],[140.654868,36.301813],[140.669161,36.315631],[140.684727,36.33045],[140.702613,36.347138],[140.716079,36.359324],[140.729251,36.371506],[140.738603,36.380031],[140.746845,36.387452],[140.753975,36.39414],[140.757417,36.397236],[140.75912,36.39906],[140.760272,36.400569],[140.761313,36.402233],[140.762352,36.404315],[140.765367,36.410853],[140.770001,36.420187],[140.774496,36.429565],[140.776304,36.433202],[140.785536,36.452552],[140.789036,36.45975],[140.791648,36.46531],[140.793235,36.468535],[140.800259,36.483357],[140.804266,36.492024],[140.808403,36.50054],[140.810638,36.505302],[140.816406,36.518253],[140.818022,36.521662],[140.820404,36.526242],[140.824347,36.533629],[140.830851,36.546266],[140.834668,36.55331],[140.836858,36.557465],[140.839161,36.561593],[140.841874,36.566649],[140.853069,36.587731],[140.856657,36.594327],[140.86161,36.603745],[140.862949,36.606179],[140.866722,36.613569],[140.868019,36.615957],[140.872437,36.62452],[140.877789,36.634683],[140.882261,36.643044],[140.887531,36.653271],[140.892749,36.662942],[140.897635,36.672161],[140.905744,36.68717],[140.912147,36.699184],[140.915218,36.704882],[140.917711,36.709314],[140.919621,36.71288],[140.925184,36.722831],[140.931843,36.734968],[140.940389,36.750115],[140.944238,36.757147],[140.947134,36.762142],[140.949427,36.766261],[140.953826,36.774368],[140.957694,36.781263],[140.959536,36.784677],[140.960505,36.786581],[140.962377,36.79052],[140.965969,36.798449],[140.973306,36.81421],[140.979791,36.827846],[140.985936,36.840481],[140.994224,36.859366],[140.998309,36.869046],[141.004121,36.882035],[141.02,36.918633],[141.027121,36.93483],[141.038599,36.961796],[141.040351,36.965565],[141.047699,36.980427],[141.056892,36.999405],[141.066571,37.019531],[141.067389,37.021329],[141.068168,37.023469],[141.068797,37.025855],[141.070988,37.036656],[141.076161,37.059886],[141.07666,37.061879],[141.077146,37.063564],[141.078422,37.067615],[141.079031,37.069374],[141.080474,37.073158],[141.08922,37.094864],[141.092245,37.102108],[141.096034,37.110976],[141.098545,37.117178],[141.101911,37.125274],[141.110115,37.144217],[141.115003,37.155046],[141.115982,37.157041],[141.121068,37.166873],[141.124041,37.172844],[141.127581,37.179735],[141.13507,37.193853],[141.140442,37.203655],[141.145301,37.212728],[141.1526,37.226089],[141.15659,37.233219],[141.167869,37.25401],[141.172368,37.262109],[141.175956,37.268722],[141.180176,37.276322],[141.185712,37.286121],[141.195316,37.302879],[141.196363,37.304632],[141.199939,37.310998],[141.203565,37.317155],[141.20433,37.318566],[141.210104,37.328593],[141.215084,37.337111],[141.219538,37.344987],[141.222246,37.349531],[141.230613,37.363917],[141.243112,37.385619],[141.259768,37.41547],[141.270412,37.434669],[141.275766,37.444508],[141.289774,37.469671],[141.299547,37.48762],[141.304235,37.496004],[141.305226,37.497969],[141.306737,37.501173],[141.310046,37.508501],[141.313155,37.515142],[141.319613,37.528722],[141.325285,37.540473],[141.329489,37.549371],[141.334641,37.55979],[141.336674,37.564027],[141.340642,37.571867],[141.343204,37.577301],[141.348579,37.588463],[141.356286,37.604366],[141.358555,37.608872],[141.360468,37.612834],[141.371864,37.637175],[141.383155,37.661549],[141.39223,37.681461],[141.395286,37.688338],[141.40103,37.700576],[141.40491,37.709216],[141.408715,37.717367],[141.415502,37.731659],[141.417053,37.735189],[141.418341,37.73847],[141.419132,37.740602],[141.421262,37.746751],[141.430312,37.77399],[141.433136,37.782325],[141.434818,37.787015],[141.438402,37.796506],[141.440861,37.803388],[141.446672,37.819313],[141.44921,37.826737],[141.451171,37.833004],[141.453921,37.841206],[141.456932,37.849608],[141.459389,37.856655],[141.462184,37.864361],[141.465981,37.875596],[141.475816,37.902835],[141.508091,37.997526],[141.511508,38.006506],[141.512437,38.008696],[141.514303,38.01265],[141.617149,38.208194],[141.619383,38.21328],[141.624877,38.227478],[141.630119,38.241563],[141.632103,38.246627],[141.9395571,39.0338287],[141.956124,39.074084],[141.9578,39.077454],[141.961452,39.084511],[141.965813,39.09265],[141.972256,39.104964],[141.975968,39.112219],[141.9819877,39.1252005],[142.107289,39.5244645],[141.6099898,42.6007902],[141.6151481,42.6123554],[141.6268788,42.6280531],[141.6326449,42.6368992],[141.633882,42.6371301]]]}}