{"type":"Feature","properties":{"id":"四国開発フェリー(株)_オレンジフェリー_関西航路（東予_～_大阪）","name":"オレンジフェリー 関西航路（東予 ～ 大阪）","operator":"四国開発フェリー(株)","category":"ferry","attribution":"© OpenStreetMap contributors"},"geometry":{"type":"MultiLineString","coordinates":[[[133.117891,33.9289028],[133.1180163,33.929068],[133.117851,33.9293249],[133.1179431,33.9297059],[133.1173575,33.9307336],[133.1172919,33.9312842],[133.1173428,33.9318535],[133.1176579,33.9330703],[133.1181286,33.9342796],[133.1184254,33.9360723],[133.1190196,33.9375351],[133.1335357,33.9575106],[133.139573,33.9650383],[133.1435086,33.968801],[133.1533909,33.9774535],[133.1608034,33.9843023],[133.3205605,34.1055539],[133.3755887,34.1453162],[133.4016939,34.1644495],[133.547724,34.2884581],[133.5496066,34.2898186],[133.5517189,34.290911],[133.6577824,34.3289339],[133.6723372,34.3336066],[133.6884254,34.3388832],[133.7215251,34.3498434],[133.7608105,34.3626125],[133.8021344,34.3764569],[133.8028854,34.3767226],[133.8038152,34.3768554],[133.8315868,34.3777645],[133.8356083,34.3781098],[133.838488,34.3787464],[133.9217496,34.4060279],[134.0158951,34.4274779],[134.0569016,34.4406549],[134.0598333,34.4412441],[134.063157,34.4413151],[134.1313518,34.4295344],[134.2245275,34.4013381],[134.2255142,34.4010348],[134.228339,34.4002589],[134.2297702,34.400021],[134.2314123,34.3998767],[134.3424695,34.402739],[134.351646,34.404529],[134.9051907,34.5891814],[134.9816267,34.6229566],[134.9946908,34.6252344],[135.0084523,34.6235364],[135.0701155,34.5887884],[135.0762208,34.5876212],[135.1122226,34.588696],[135.2272313,34.5942468],[135.3134978,34.5998004],[135.3251552,34.6030725],[135.3837069,34.6304253],[135.3856445,34.6309177],[135.3880871,34.6306888],[135.396384,34.6268861],[135.4219436,34.6205706],[135.4259133,34.6201065],[135.4300822,34.6199027],[135.4305823,34.6199029],[135.4308431,34.6197277],[135.4310212,34.6196887],[135.4311832,34.6197068],[135.431285,34.6197479],[135.4314654,34.6196043]]]}}