{"type":"Feature","properties":{"id":"团鸡山_-_摘箬山北岙","name":"团鸡山 - 摘箬山北岙","operator":"","category":"ferry","attribution":"© OpenStreetMap contributors"},"geometry":{"type":"MultiLineString","coordinates":[[[122.0903107,29.9702573],[122.0911503,29.9699552],[122.0939827,29.9664234],[122.0941758,29.9655311],[122.0939827,29.9640067],[122.0936394,29.9626497],[122.0928025,29.9612554],[122.0918798,29.9604189],[122.0896697,29.9597868],[122.0888757,29.9595823],[122.0843052,29.9586155],[122.081505,29.9573235],[122.0795691,29.9557071]]]}}