{"type":"Feature","properties":{"id":"团鸡山_-_摘箬山东岙","name":"团鸡山 - 摘箬山东岙","operator":"","category":"ferry","attribution":"© OpenStreetMap contributors"},"geometry":{"type":"MultiLineString","coordinates":[[[122.0903107,29.9702573],[122.0916974,29.9699366],[122.094326,29.9667766],[122.0946479,29.966033],[122.0947552,29.9651964],[122.0946264,29.963542],[122.0943689,29.962408],[122.0934677,29.9589502],[122.0932746,29.9566264],[122.0935535,29.9545999],[122.0947337,29.9464937],[122.0947632,29.9448831]]]}}