{"type":"Feature","properties":{"id":"国道九四フェリー株式会社_国道九四フェリー_(三崎－佐賀関)","name":"国道九四フェリー (三崎－佐賀関)","operator":"国道九四フェリー株式会社","category":"ferry","attribution":"© OpenStreetMap contributors"},"geometry":{"type":"MultiLineString","coordinates":[[[131.8652583,33.2499489],[131.865625,33.2502279],[131.8665223,33.2510078],[131.8666933,33.2512297],[131.866814,33.2515123],[131.8668355,33.2518128],[131.8668033,33.2520192],[131.8667282,33.2523063],[131.8665853,33.2526489],[131.8659505,33.2536011],[131.8653158,33.254659],[131.8638997,33.2567586],[131.8626953,33.2586629],[131.8622233,33.259672],[131.8621419,33.2600586],[131.8621094,33.2606283],[131.8622233,33.2613932],[131.8624675,33.2621094],[131.8639649,33.2651571],[131.8654297,33.2676676],[131.8658691,33.2682617],[131.8663412,33.2687296],[131.8670899,33.2692546],[131.867627,33.2695516],[131.869694,33.2706136],[131.9192545,33.2967651],[131.9224447,33.2983276],[131.9255154,33.2996762],[131.9280822,33.3006085],[132.0427265,33.3394295],[132.0486957,33.3424801],[132.0826823,33.3657878],[132.0838705,33.3665446],[132.0892578,33.3696615],[132.0945801,33.3726563],[132.1016927,33.376766],[132.1021973,33.3771077],[132.1128906,33.3833862],[132.1152181,33.38479],[132.1155274,33.385026],[132.1158529,33.3853923],[132.1163412,33.3862345],[132.1167969,33.3873657],[132.1169032,33.3882539],[132.1170212,33.3897767],[132.1170761,33.3899916],[132.1171569,33.3901167],[132.1172351,33.3902067]]]}}