{"type":"Feature","properties":{"id":"土庄-唐櫃(豊島)-家浦(豊島)-宇野高速艇","name":"土庄-唐櫃(豊島)-家浦(豊島)-宇野高速艇","operator":"","category":"ferry","attribution":"© OpenStreetMap contributors"},"geometry":{"type":"MultiLineString","coordinates":[[[134.1736469,34.4898388],[134.1733909,34.4899947],[134.1717858,34.4926413],[134.1592233,34.4994254],[134.1063967,34.4974555],[134.0961873,34.4923474],[134.0956679,34.4902602],[134.0957221,34.4917823],[134.0974494,34.4980956],[134.0839731,34.5077524],[134.0574815,34.5032446],[134.0564429,34.4946706],[134.0609824,34.4900759],[134.059926,34.4910012],[134.0385823,34.4916977],[134.0363346,34.4895069],[134.0277944,34.4813355],[134.0214859,34.4762059],[134.0179239,34.476029],[134.0113578,34.4782224],[134.0003715,34.4804157],[133.9972387,34.4802742],[133.9892135,34.47847],[133.9830766,34.4802035],[133.9626597,34.4846674],[133.9591098,34.488271],[133.9550201,34.4916234]]]}}