{"type":"Feature","properties":{"id":"土庄－高松航路","name":"土庄－高松航路","operator":"","category":"ferry","attribution":"© OpenStreetMap contributors"},"geometry":{"type":"MultiLineString","coordinates":[[[134.048933,34.3540415],[134.0500782,34.3548051],[134.0533324,34.3598535],[134.0539053,34.3614257],[134.0544985,34.3643882],[134.0743611,34.3907613],[134.100321,34.4331401],[134.116856,34.4559576],[134.1325642,34.4785871],[134.1439182,34.4937155],[134.1463984,34.496123],[134.1489889,34.497622],[134.1515242,34.4984397],[134.1544454,34.4985759],[134.1586343,34.4981217],[134.1626578,34.4971678],[134.1661852,34.4959413],[134.1676444,34.4950948],[134.1693204,34.4938325],[134.1709242,34.4924869],[134.1722679,34.4911055],[134.1724216,34.4906911],[134.1726713,34.4899289],[134.1727603,34.4896343],[134.1729376,34.4890475]]]}}