{"type":"Feature","properties":{"id":"土生商船株式会社_土生商船(三原－鷺－重井西－因島モール－立石－土生)","name":"土生商船(三原－鷺－重井西－因島モール－立石－土生)","operator":"土生商船株式会社","category":"ferry","attribution":"© OpenStreetMap contributors"},"geometry":{"type":"MultiLineString","coordinates":[[[133.1182909,34.3576383],[133.1183833,34.3578062],[133.1184187,34.3579346],[133.1184357,34.3580338],[133.1184852,34.3590359],[133.11851,34.3598187],[133.1184852,34.3603125],[133.1184109,34.3608258],[133.1182481,34.361378],[133.1180579,34.3618181],[133.1175431,34.3627588],[133.1169662,34.3636305],[133.0939466,34.3904271]],[[133.1182909,34.3576383],[133.118445,34.3578188],[133.118565,34.3579094],[133.1187052,34.3579715],[133.1188618,34.3580017],[133.1189858,34.3580084],[133.1192419,34.3579849],[133.1194953,34.3579407],[133.1198546,34.357812],[133.1202276,34.357627],[133.1207062,34.3573346],[133.1244691,34.3547209],[133.1249621,34.3543343],[133.1348098,34.3435546],[133.1352554,34.3430857],[133.1356172,34.3427567],[133.1359425,34.3425184],[133.1362658,34.34235],[133.1369626,34.3420902],[133.1388549,34.3413113],[133.1390602,34.3412294],[133.1391912,34.3411651],[133.139413,34.3410177]],[[133.139413,34.3410177],[133.1392157,34.341052],[133.1390908,34.341083],[133.138922,34.3411421],[133.1369224,34.3419109],[133.1365106,34.3419955],[133.1360935,34.3419968],[133.1356951,34.3419326],[133.1352969,34.3418074],[133.1348198,34.3415308],[133.1344728,34.3412208],[133.1340917,34.3407594],[133.1338046,34.3402787],[133.1330426,34.338632],[133.1304534,34.3320286],[133.1303144,34.3311499],[133.1303895,34.3302597],[133.1305883,34.3293301],[133.1309103,34.328543],[133.1314003,34.3277679],[133.1320204,34.3269928],[133.141305,34.3189735],[133.1419597,34.3182858],[133.1425167,34.3175309],[133.1510745,34.3032743],[133.1535949,34.298133],[133.1537455,34.2979],[133.1539678,34.297647],[133.1542022,34.2974384],[133.1544854,34.2972768],[133.1551162,34.2970354],[133.162902,34.2953477],[133.1631787,34.2953021],[133.1634055,34.2952889],[133.1635482,34.2953003],[133.1636661,34.2953267],[133.1637499,34.2953627],[133.163808,34.295393],[133.163845,34.2954232],[133.1638653,34.2954533],[133.1638751,34.2954766]],[[133.1638751,34.2954766],[133.163891,34.2953691],[133.1639247,34.2952941],[133.1639747,34.2952365],[133.1640542,34.2951854],[133.1641425,34.2951462],[133.1713627,34.2922828],[133.1717803,34.2920847],[133.1721308,34.2918822],[133.1724831,34.2916484],[133.1727812,34.2913837],[133.1729899,34.2911325],[133.173231,34.2907879],[133.1750257,34.2873642],[133.1751652,34.287043],[133.177897,34.2800528],[133.1779641,34.2797677],[133.1779985,34.2794872],[133.1779836,34.2792372],[133.1778789,34.2785868],[133.1778688,34.2782261]],[[133.1778688,34.2782261],[133.1779143,34.2785538],[133.1780231,34.2789984],[133.1780765,34.2793311],[133.1780889,34.2795932],[133.1780743,34.2797877],[133.1780462,34.2799535],[133.1773281,34.2825334],[133.1773096,34.2826981],[133.1773214,34.282857],[133.1773638,34.2830124],[133.1773988,34.2830973],[133.1774572,34.2831784],[133.1775553,34.2832787],[133.1776744,34.2833385],[133.1780053,34.2834658]]]}}