{"type":"Feature","properties":{"id":"坂手_-_菅島","name":"坂手 - 菅島","operator":"","category":"ferry","attribution":"© OpenStreetMap contributors"},"geometry":{"type":"MultiLineString","coordinates":[[[136.8987938,34.4993525],[136.8968009,34.4989411],[136.8964116,34.4990082],[136.8959869,34.4991103],[136.8956144,34.4994669],[136.8889085,34.4999036],[136.8858789,34.4996353],[136.8813063,34.4986553],[136.8780786,34.4973952],[136.8731237,34.4930082],[136.8676025,34.4869406],[136.865479,34.4839183],[136.8630917,34.4823726],[136.8605138,34.4811792],[136.8595051,34.4811562],[136.8589727,34.4814179],[136.8585431,34.4817644],[136.8583725,34.4822811],[136.8583887,34.4826463],[136.8581041,34.4832244],[136.8580252,34.4832729]]]}}