{"type":"Feature","properties":{"id":"坊勢輝汽船_男鹿航路","name":"坊勢輝汽船　男鹿航路","operator":"","category":"ferry","attribution":"© OpenStreetMap contributors"},"geometry":{"type":"MultiLineString","coordinates":[[[134.5700311,34.6732692],[134.5699622,34.6734482],[134.5684092,34.6736756],[134.5676323,34.6738077],[134.5661741,34.6740405],[134.5647584,34.6744713],[134.5634285,34.6749526],[134.5610869,34.6752262],[134.5593615,34.6749728],[134.5583519,34.6745208]],[[134.5676323,34.6738077],[134.5672736,34.6743242],[134.5663863,34.6768681],[134.5662111,34.6806826],[134.5673322,34.6869744]]]}}