{"type":"Feature","properties":{"id":"堀川遊覧船","name":"堀川遊覧船","operator":"","category":"ferry","attribution":"© OpenStreetMap contributors"},"geometry":{"type":"MultiLineString","coordinates":[[[133.0527431,35.4737806],[133.0528777,35.4757387],[133.0527965,35.4761152],[133.0521931,35.4762417],[133.0515121,35.4773607],[133.0510761,35.4778136],[133.0503143,35.478325],[133.0495885,35.4786352],[133.0490686,35.4786813],[133.0486877,35.4784842],[133.0484458,35.4780777],[133.0483059,35.4779693],[133.0480289,35.4779645],[133.0462582,35.4780735],[133.0457267,35.4781172],[133.0456147,35.4782566],[133.0456998,35.4780241],[133.0482545,35.4778718],[133.04841,35.4777941],[133.0484612,35.4776708],[133.0483921,35.4771123],[133.0483716,35.4767348],[133.0483668,35.4760816],[133.0488324,35.4748395],[133.0490413,35.4744648],[133.0490208,35.4744009],[133.0490227,35.4743086],[133.0490491,35.4742288],[133.0490495,35.4738725],[133.0491191,35.4737308],[133.0497643,35.4731942],[133.0497433,35.4728161],[133.049764,35.4723252],[133.0497496,35.4718458],[133.0496957,35.4710956],[133.0496605,35.4706068],[133.0496357,35.4702619],[133.0542119,35.4699795],[133.0543661,35.46993],[133.0545508,35.4699597],[133.0574854,35.4700376],[133.0575439,35.4712989],[133.0577471,35.47568],[133.056037,35.4758372],[133.0529717,35.476062],[133.0527431,35.4737806]]]}}