{"type":"Feature","properties":{"id":"塩竈市営汽船_浦戸しおさい海廊_石浜（桂島）_-_寒風沢","name":"浦戸しおさい海廊 石浜（桂島） - 寒風沢","operator":"塩竈市営汽船","category":"ferry","attribution":"© OpenStreetMap contributors"},"geometry":{"type":"MultiLineString","coordinates":[[[141.1027071,38.3332212],[141.102681,38.333232],[141.1027952,38.3334065],[141.1031414,38.3337039],[141.1033157,38.3338536],[141.1035794,38.3340335],[141.1039717,38.3340702],[141.1043266,38.3340262],[141.1046255,38.3337991],[141.1051766,38.3332276],[141.1056156,38.3327148],[141.1060452,38.3321067],[141.1072319,38.3306165],[141.1087011,38.3295184],[141.1093513,38.3291832],[141.1106894,38.3289738],[141.1118186,38.3291099],[141.1128019,38.3294087],[141.1133416,38.3301666],[141.1135048,38.331111],[141.1136248,38.3325919],[141.1139331,38.3337495],[141.1147643,38.334929],[141.1155862,38.3356983],[141.116212,38.3363356],[141.1163801,38.3367386],[141.1163988,38.3371781],[141.1166234,38.3376066],[141.1170917,38.3381672],[141.1172759,38.3383629],[141.117845,38.3385223],[141.1179371,38.3384707]]]}}