{"type":"Feature","properties":{"id":"塩竈市営汽船_浦戸しおさい海廊_塩釜港_-_桂島","name":"浦戸しおさい海廊 塩釜港 - 桂島","operator":"塩竈市営汽船","category":"ferry","attribution":"© OpenStreetMap contributors"},"geometry":{"type":"MultiLineString","coordinates":[[[141.0296696,38.3197387],[141.0297266,38.3200607],[141.0303151,38.320068],[141.0308194,38.320112],[141.0333692,38.3207202],[141.0336485,38.3207698],[141.0350598,38.3210206],[141.037759,38.3213431],[141.0443064,38.3212771],[141.0491331,38.3211498],[141.0513484,38.3216862],[141.0530553,38.3224834],[141.0552708,38.3243928],[141.0572118,38.3260966],[141.0595017,38.3279147],[141.0614038,38.3294917],[141.0663414,38.3333792],[141.0729937,38.337731],[141.0778878,38.3393281],[141.0821469,38.3396651],[141.0900485,38.3389325],[141.0921033,38.3386688],[141.0925329,38.3384929],[141.0926263,38.3381413],[141.0924395,38.3377896],[141.0924139,38.3377704],[141.0916176,38.3371743],[141.0910012,38.3368389]]]}}