{"type":"Feature","properties":{"id":"塩竈市営汽船_浦戸しおさい海廊_桂島_-_野々島","name":"浦戸しおさい海廊 桂島 - 野々島","operator":"塩竈市営汽船","category":"ferry","attribution":"© OpenStreetMap contributors"},"geometry":{"type":"MultiLineString","coordinates":[[[141.0910012,38.3368389],[141.0916176,38.3371743],[141.0924139,38.3377704],[141.0929942,38.3380167],[141.0938927,38.3381793],[141.0956896,38.3382558],[141.1000866,38.3384922],[141.1016315,38.3385006],[141.1023504,38.3383744],[141.1028546,38.3380041],[141.1033267,38.3375413],[141.1038095,38.3372215],[141.104067,38.3370616],[141.1043352,38.3370363],[141.1047322,38.3371878],[141.1054617,38.3379789],[141.105622,38.3379167]]]}}