{"type":"Feature","properties":{"id":"塩竈市営汽船_浦戸しおさい海廊_寒風沢_-_朴島","name":"浦戸しおさい海廊 寒風沢 - 朴島","operator":"塩竈市営汽船","category":"ferry","attribution":"© OpenStreetMap contributors"},"geometry":{"type":"MultiLineString","coordinates":[[[141.1242149,38.3486218],[141.1242149,38.348566],[141.1244243,38.3485082],[141.124652,38.3484444],[141.1248634,38.3480873],[141.1247008,38.346761],[141.1237251,38.3445801],[141.1221293,38.3425904],[141.1203405,38.341079],[141.119316,38.3401734],[141.1182671,38.3393826],[141.117751,38.3389074],[141.1172759,38.3383629],[141.117845,38.3385223],[141.1179371,38.3384707]]]}}