{"type":"Feature","properties":{"id":"墩头_-_蚂蚁岛","name":"墩头 - 蚂蚁岛","operator":"","category":"ferry","attribution":"© OpenStreetMap contributors"},"geometry":{"type":"MultiLineString","coordinates":[[[122.2719634,29.9434026],[122.2721565,29.9424218],[122.2727332,29.9415316],[122.2803426,29.9336406],[122.280997,29.9312929],[122.2818231,29.9223573],[122.2807073,29.9136533],[122.261374,29.8964105],[122.2414827,29.8845974],[122.2377061,29.8763366],[122.2396802,29.8712757],[122.2467184,29.8674426],[122.2515249,29.864242],[122.2560847,29.8638791],[122.2577316,29.8645909]]]}}