{"type":"Feature","properties":{"id":"墩头_-_普陀山","name":"墩头 - 普陀山","operator":"","category":"ferry","attribution":"© OpenStreetMap contributors"},"geometry":{"type":"MultiLineString","coordinates":[[[122.2719634,29.9434026],[122.2729289,29.9420964],[122.2763193,29.9390098],[122.2810614,29.9339427],[122.2855943,29.927913],[122.2887218,29.9249329],[122.2947621,29.9231011],[122.3042249,29.9222085],[122.3083448,29.9242914],[122.324717,29.9504354],[122.3309612,29.9599169],[122.3367977,29.9656054],[122.3547792,29.9712193],[122.3746546,29.9764889]]]}}