{"type":"Feature","properties":{"id":"墩头_-_虾峙栅棚","name":"墩头 - 虾峙栅棚","operator":"","category":"ferry","attribution":"© OpenStreetMap contributors"},"geometry":{"type":"MultiLineString","coordinates":[[[122.2719634,29.9434026],[122.272127,29.9424289],[122.272204,29.9422459],[122.2725682,29.9416079],[122.2801682,29.9336125],[122.2806181,29.9310272],[122.2810334,29.9209853],[122.2805073,29.915826],[122.2798428,29.9135222],[122.2747693,29.9085784],[122.2644492,29.9053385],[122.2356829,29.8983902],[122.1802545,29.8702203],[122.1608739,29.8598481],[122.1535786,29.8523083],[122.1499101,29.8474577],[122.1484981,29.8437113],[122.1477229,29.831463],[122.1455911,29.8158983],[122.1454803,29.8084993],[122.1491349,29.8005953],[122.1543677,29.7943966],[122.164667,29.7901919],[122.1767384,29.7864195],[122.1978078,29.7814935],[122.2120594,29.7808026],[122.2134666,29.7804911],[122.2151257,29.7789523],[122.2157057,29.7785729]]]}}