{"type":"Feature","properties":{"id":"墩头_-_六横大岙","name":"墩头 - 六横大岙","operator":"","category":"ferry","attribution":"© OpenStreetMap contributors"},"geometry":{"type":"MultiLineString","coordinates":[[[122.2719634,29.9434026],[122.2719097,29.942459],[122.2721886,29.9417153],[122.2730899,29.9408042],[122.274313,29.9396513],[122.2796344,29.9338126],[122.2800635,29.9203488],[122.2785186,29.9140253],[122.2739696,29.9094871],[122.2376632,29.8998147],[122.2013568,29.8852299],[122.1471976,29.8556819],[122.1429919,29.8470465],[122.1355247,29.8294758],[122.1342372,29.805795],[122.1346986,29.7745564],[122.1340442,29.772219],[122.1334236,29.771411]]]}}