{"type":"Feature","properties":{"id":"墩头_-_六横台门","name":"墩头 - 六横台门","operator":"","category":"ferry","attribution":"© OpenStreetMap contributors"},"geometry":{"type":"MultiLineString","coordinates":[[[122.2719634,29.9434026],[122.2720706,29.9424311],[122.2724676,29.9416316],[122.274431,29.9398466],[122.2799791,29.9335877],[122.2804927,29.9202743],[122.2794628,29.9135045],[122.2749996,29.9090034],[122.2618675,29.9053206],[122.237556,29.8988752],[122.1495151,29.8535975],[122.1463823,29.8509176],[122.138443,29.8331986],[122.1371126,29.8274653],[122.1382713,29.8041192],[122.1402883,29.7977139],[122.1773242,29.7452272],[122.1942329,29.7192903],[122.1987819,29.7128796],[122.1989536,29.7093759],[122.1992755,29.7057415],[122.1989,29.705024],[122.1984005,29.7043192]]]}}