{"type":"Feature","properties":{"id":"多良間海運_平良～多良間","name":"平良～多良間","operator":"多良間海運","category":"ferry","attribution":"© OpenStreetMap contributors"},"geometry":{"type":"MultiLineString","coordinates":[[[125.2744671,24.8065933],[125.2736075,24.8069538],[125.272945,24.8074916],[125.2697017,24.8122698],[125.2674616,24.8143262],[125.2663629,24.8146283],[125.265018,24.8145627],[125.2633935,24.8140779],[125.2355313,24.8016383],[125.2306842,24.7986982],[125.2041637,24.777814],[125.1284394,24.7148498],[125.0740444,24.6795845],[124.9957668,24.6486964],[124.9040996,24.6365263],[124.7422702,24.6317082],[124.7390472,24.6321572],[124.736832,24.6324144],[124.7347557,24.6334836],[124.7305393,24.6374989],[124.7268271,24.6432356],[124.7262477,24.6438207],[124.7253465,24.6442108],[124.7239625,24.644162],[124.722667,24.6442327],[124.721586,24.6443826]]]}}