{"type":"Feature","properties":{"id":"大三島ブルーライン株式会社_大三島ブルーライン_(今治－宗方－木江）","name":"大三島ブルーライン (今治－宗方－木江）","operator":"大三島ブルーライン株式会社","category":"ferry","attribution":"© OpenStreetMap contributors"},"geometry":{"type":"MultiLineString","coordinates":[[[132.9174343,34.233214],[132.9179352,34.2331798],[132.9184342,34.2330854],[132.9189722,34.2329075],[132.919324,34.2326937],[132.9195917,34.232449],[132.9203419,34.2315273],[132.9391269,34.2047535],[132.939826,34.2038248],[132.9401667,34.2034332],[132.940504,34.2031064],[132.9407742,34.2028955],[132.9411184,34.202756],[132.9413922,34.2027097],[132.9417926,34.2027003],[132.9422061,34.2027617],[132.9424557,34.20283],[132.9426481,34.2029244],[132.9428741,34.2031092]]]}}