{"type":"Feature","properties":{"id":"大三島フェリー株式会社_大三島フェリー(忠海-大久野島-盛)","name":"大三島フェリー(忠海-大久野島-盛)","operator":"大三島フェリー株式会社","category":"ferry","attribution":"© OpenStreetMap contributors"},"geometry":{"type":"MultiLineString","coordinates":[[[132.9991615,34.3085301],[132.9994092,34.3085671],[132.9996575,34.308577],[132.9999853,34.3085625],[133.0003473,34.3084773],[133.0009052,34.3082646],[133.0275238,34.2969623],[133.0283279,34.2965526],[133.0291645,34.295975],[133.0296939,34.2955058],[133.029934,34.2952455],[133.0301599,34.2949618],[133.0302993,34.2946862],[133.0303302,34.2944479],[133.0302727,34.2942711],[133.0301783,34.2941742],[133.0300432,34.294111],[133.0298205,34.294064],[133.0295823,34.294073],[133.0292613,34.2941225],[133.0288841,34.294154],[133.0285379,34.2941554],[133.0283203,34.2941202],[133.028125,34.2940428]],[[132.9991615,34.3085301],[132.9997504,34.3087111],[132.9999002,34.3087967],[133.0000216,34.3088881],[133.0001333,34.3089823],[133.0003132,34.3092466],[133.0004783,34.3095736],[133.0005687,34.3098282],[133.0006428,34.3100962],[133.0006959,34.310427],[133.0007167,34.3107578],[133.0006798,34.311389],[133.0004531,34.3123795],[132.99488,34.3348309],[132.994578,34.3357061],[132.9944721,34.3360155],[132.9943058,34.3363544],[132.9940939,34.3366379],[132.993933,34.3367863],[132.9938005,34.3368563]]]}}