{"type":"Feature","properties":{"id":"大三島ブルーライン(宗方－岡村)","name":"大三島ブルーライン(宗方－岡村)","operator":"","category":"ferry","attribution":"© OpenStreetMap contributors"},"geometry":{"type":"MultiLineString","coordinates":[[[132.9428741,34.2031092],[132.9426834,34.2028959],[132.9425005,34.202778],[132.9422704,34.2026813],[132.9419694,34.2025999],[132.9417261,34.2025674],[132.9414699,34.2025453],[132.9411825,34.2025543],[132.9409091,34.202637],[132.940638,34.2027593],[132.9401758,34.2031008],[132.9398067,34.2034912],[132.9384172,34.2054072],[132.9378331,34.2059772],[132.9369126,34.206558],[132.9357658,34.2069545],[132.9345769,34.2072151],[132.9333904,34.2073155],[132.9324828,34.2072828],[132.9264892,34.2060845],[132.9192634,34.2045536],[132.9178316,34.2039963],[132.9167751,34.2031117],[132.9158819,34.2019453],[132.9153171,34.200745],[132.9123355,34.1917946],[132.9118639,34.1907851],[132.9109097,34.1893657],[132.9096122,34.1880173],[132.9077897,34.186634],[132.9052766,34.1850754],[132.901607,34.1833777],[132.8986245,34.1825321],[132.8958357,34.1820432],[132.8930405,34.1818243],[132.8913657,34.1819299],[132.8862314,34.1828921],[132.8857551,34.1830401],[132.8854299,34.1831914],[132.8847794,34.1836387],[132.8845762,34.1838203],[132.8844601,34.183974],[132.8843421,34.184197]]]}}