{"type":"Feature","properties":{"id":"大津島巡航(徳山-大津島)","name":"大津島巡航(徳山-大津島)","operator":"","category":"ferry","attribution":"© OpenStreetMap contributors"},"geometry":{"type":"MultiLineString","coordinates":[[[131.7989341,34.049757],[131.796973,34.0487418],[131.7967009,34.0486755],[131.7963221,34.0486785],[131.79571,34.0486552],[131.7953895,34.0485856],[131.7949694,34.0484076],[131.786052,34.0426411],[131.7793315,34.0385773],[131.7670959,34.0306925],[131.7452884,34.0170482],[131.7427525,34.0156054],[131.7391008,34.0139608],[131.7361527,34.0132046],[131.7336508,34.0128254],[131.7303172,34.0126556],[131.7277135,34.012721],[131.7248477,34.0128702],[131.7131688,34.0171023],[131.7118277,34.0163553],[131.7107265,34.0165741]],[[131.7107265,34.0165741],[131.7118277,34.016213],[131.7130508,34.0169155],[131.7235693,34.0118013],[131.7238375,34.0111817],[131.7240969,34.010158],[131.7242466,34.0087851],[131.7242611,34.0074474],[131.7232352,33.9938895],[131.7229626,33.9931645],[131.722364,33.9925342],[131.7216123,33.992051],[131.7211971,33.9918313],[131.7209309,33.9916661],[131.7207482,33.9913712],[131.7207193,33.9911579],[131.7208251,33.9908616],[131.7209452,33.990713],[131.7209855,33.9905958],[131.7209764,33.9903886]]]}}