{"type":"Feature","properties":{"id":"大東海運_泊～南北大東","name":"泊～南北大東","operator":"大東海運","category":"ferry","attribution":"© OpenStreetMap contributors"},"geometry":{"type":"MultiLineString","coordinates":[[[131.2167885,25.8425412],[131.2166091,25.842921],[131.2162898,25.8431262],[131.2157944,25.8432701],[127.6838294,26.03591],[127.6524154,26.0422337],[127.6435886,26.044931],[127.6330177,26.0500993],[127.6245852,26.0560597],[127.6190464,26.0624412],[127.6134483,26.0709946],[127.6081268,26.0843316],[127.6029769,26.103371],[127.6018611,26.128341],[127.6114882,26.198377],[127.612508,26.2024148],[127.6145791,26.2067776],[127.618181,26.2112695],[127.6379102,26.2255444],[127.6400406,26.2260339],[127.642279,26.2261711],[127.6433251,26.2260055],[127.6506041,26.2221989],[127.6515529,26.221838],[127.6527966,26.2216709],[127.6547179,26.2217685],[127.6595029,26.2221982],[127.6645123,26.2233244],[127.6740394,26.2273543],[127.6748718,26.2276114],[127.6756916,26.2276272],[127.6764844,26.2274499],[127.6809219,26.2258625],[127.6812116,26.2256845],[127.681322,26.2254399],[127.6811404,26.2256291],[127.6808773,26.2257898],[127.6764562,26.2273657],[127.6756809,26.2275372],[127.6748844,26.2275149],[127.6740637,26.2272598],[127.6645633,26.2232031],[127.6595299,26.2220608],[127.6547287,26.2216133],[127.652783,26.2215044],[127.6514779,26.221671],[127.6504962,26.2220416],[127.643265,26.2258385],[127.6422795,26.2259605],[127.6400841,26.2258019],[127.6380019,26.2253224],[127.6183431,26.211116],[127.6147682,26.2066322],[127.6127151,26.202334],[127.6116999,26.1983285],[127.6021238,26.1282079],[127.6033338,26.103392],[127.6085113,26.084362],[127.6137872,26.0710146],[127.6193727,26.062664],[127.6247808,26.056257],[127.6332018,26.0503344],[127.6437547,26.0451662],[127.6525719,26.0425108],[127.6837951,26.0361634],[131.0446187,25.9743583],[131.2825521,25.9557514],[131.2831637,25.9556259],[131.2835821,25.9554234],[131.2837859,25.9552111],[131.2839147,25.9549217],[131.284139,25.954072],[131.2836834,25.95481],[131.2833791,25.955024],[131.2831544,25.9550924],[131.2828577,25.9551232],[131.2825369,25.9550503],[131.2821844,25.9548482],[131.2776327,25.9503109],[131.2114938,25.87661],[131.2081378,25.8687209],[131.2076581,25.8615623],[131.2082606,25.8572732],[131.2102759,25.8531516],[131.2135006,25.8494892],[131.2159827,25.8456759],[131.2162569,25.8448651],[131.2166157,25.8434308],[131.2168408,25.8426007],[131.2167885,25.8425412]]]}}