{"type":"Feature","properties":{"id":"大神海運_大神～島尻","name":"大神～島尻","operator":"大神海運","category":"ferry","attribution":"© OpenStreetMap contributors"},"geometry":{"type":"MultiLineString","coordinates":[[[125.3073869,24.9131348],[125.3073232,24.9129442],[125.3073212,24.9128164],[125.3073762,24.9126969],[125.3074609,24.9124248],[125.3074528,24.9122979],[125.3073785,24.9121611],[125.3069615,24.9119085],[125.3051233,24.9089752],[125.3006171,24.903409],[125.2973556,24.8991272],[125.2957248,24.8949231],[125.2991581,24.8834778],[125.2988576,24.8807136],[125.2982389,24.879266],[125.2972308,24.878977],[125.2971784,24.878908],[125.2971499,24.8788087],[125.2971404,24.8785758],[125.2970833,24.8784593],[125.296993,24.8783644],[125.2969454,24.8782393],[125.2969431,24.8780415]]]}}