{"type":"Feature","properties":{"id":"大生汽船_(駅前港寄港便)","name":"大生汽船 (駅前港寄港便)","operator":"","category":"ferry","attribution":"© OpenStreetMap contributors"},"geometry":{"type":"MultiLineString","coordinates":[[[134.2713132,34.72069],[134.2716268,34.7219092],[134.2721306,34.7229621],[134.2730806,34.7241807],[134.2738963,34.7250072],[134.2743189,34.725318],[134.2764921,34.7268307],[134.2770391,34.7274814],[134.2772497,34.7279258],[134.2773701,34.7283332],[134.2774463,34.7287578],[134.2774709,34.7291613],[134.2774133,34.7302176],[134.2770822,34.731823],[134.2764201,34.7334673],[134.2763498,34.7338397],[134.2763432,34.734023],[134.2763506,34.7341215]]]}}