{"type":"Feature","properties":{"id":"大生汽船_大生汽船(日生－鴻島－大多府－頭島)","name":"大生汽船(日生－鴻島－大多府－頭島)","operator":"大生汽船","category":"ferry","attribution":"© OpenStreetMap contributors"},"geometry":{"type":"MultiLineString","coordinates":[[[134.2692494,34.7311574],[134.2692239,34.7295155],[134.2692466,34.7284343],[134.2693373,34.7279078],[134.2703348,34.7251973],[134.2704337,34.7249286],[134.2711297,34.7231268],[134.2712704,34.7225024],[134.2713449,34.7219143],[134.2713132,34.72069],[134.2711678,34.7150729],[134.2714728,34.7134523],[134.2719242,34.711887],[134.2721243,34.7105092],[134.2720061,34.7092979],[134.2719946,34.7091797],[134.2716737,34.7081308],[134.2710152,34.7070316],[134.2697874,34.7058011],[134.268857,34.7051339],[134.2677827,34.7045614],[134.2650693,34.7036596],[134.2645706,34.7034505],[134.2643644,34.703283]],[[134.2643644,34.703283],[134.2645745,34.7033549],[134.264941,34.7034103],[134.2657754,34.7033672],[134.2669228,34.7031938],[134.2690257,34.7027175],[134.2708496,34.701959],[134.272707,34.700798],[134.2741511,34.6996371],[134.2779534,34.6957388],[134.2793962,34.6946163],[134.2815231,34.6935183],[134.2839805,34.6928651],[134.2879781,34.6920575],[134.2905871,34.6915142],[134.291797,34.6912327],[134.292872,34.6908797],[134.2936822,34.6904996],[134.2945779,34.6898067],[134.2972137,34.6863859],[134.2978928,34.6857454],[134.2991862,34.684383]],[[134.2991862,34.684383],[134.2974673,34.6862131],[134.2947687,34.6897971],[134.2942309,34.6903376],[134.2933481,34.69094],[134.2922586,34.6913724],[134.2839937,34.6935038],[134.2815443,34.6943744],[134.2801183,34.6953107],[134.2793287,34.6964508],[134.2791876,34.6975022],[134.2793783,34.6983418],[134.2800217,34.6990735],[134.2808558,34.699401],[134.2814767,34.6994033],[134.2818877,34.6993524],[134.2823857,34.699223],[134.2834496,34.6988166]]]}}