{"type":"Feature","properties":{"id":"大生汽船(日生－頭島ー大多府)","name":"大生汽船(日生－頭島ー大多府)","operator":"","category":"ferry","attribution":"© OpenStreetMap contributors"},"geometry":{"type":"MultiLineString","coordinates":[[[134.2808558,34.699401],[134.28003,34.69994],[134.2794323,34.7006004],[134.2788532,34.7013683],[134.2782554,34.7022129],[134.277639,34.7029654],[134.2769292,34.7038868],[134.276182,34.7047315],[134.2750051,34.7057604],[134.2745381,34.7060982],[134.273903,34.7067432],[134.2732118,34.7075263],[134.2725207,34.7084938],[134.2720061,34.7092979]]]}}