{"type":"Feature","properties":{"id":"大连_-_仁川_인천_-_다롄(대련)","name":"大连 - 仁川 인천 - 다롄(대련)","operator":"","category":"ferry","attribution":"© OpenStreetMap contributors"},"geometry":{"type":"MultiLineString","coordinates":[[[121.6583076,38.933052],[121.6572118,38.9336003],[121.656847,38.9340092],[121.6566324,38.9345183],[121.6567513,38.9351121],[121.6572812,38.9360612],[121.6576448,38.9365644],[121.6583288,38.9372067],[121.6591647,38.9376946],[121.6599479,38.9380034],[121.6608116,38.9381953],[121.6618684,38.9383205],[121.6629681,38.9383372],[121.6668342,38.9381955],[121.6733244,38.9379356],[121.6905382,38.9370506],[121.6988852,38.935949],[121.7035415,38.9351312],[121.7072537,38.9342966],[121.7101505,38.9333619],[121.7129829,38.9321601],[121.7166736,38.930324],[121.7199781,38.9285212],[121.7230895,38.9262176],[121.7261579,38.9234298],[121.7282608,38.9210259],[121.7305996,38.9177203],[121.7325523,38.914448],[121.7339041,38.9111087],[121.7352989,38.9064001],[121.737273,38.8980173],[121.7392471,38.8873788],[121.7399767,38.8819003],[121.7401698,38.8738487],[121.7401269,38.8664979],[121.7286899,38.7349077],[121.7257931,38.7052418],[121.7256429,38.6970195],[121.7258146,38.6896672],[121.7265227,38.6831015],[121.7281964,38.6753122],[121.7295697,38.6692142],[121.7313936,38.6628811],[121.7328742,38.6582064],[121.7343547,38.6537827],[121.7367365,38.6504312],[121.8733361,38.5108705],[121.9430306,38.4403498],[121.9669559,38.4158917],[122.1883991,38.1921078],[122.1918752,38.1885155],[122.1941927,38.1862218],[122.2050717,38.1771137],[122.2116377,38.1714458],[122.2153714,38.1681225],[122.2181394,38.1652039],[122.2203925,38.1628926],[122.222069,38.1611083],[122.2287982,38.1536457],[122.2810261,38.101083],[122.2845666,38.0977227],[122.2888582,38.0942441],[122.2945015,38.090343],[122.2995441,38.0873369],[122.3045437,38.0848204],[122.3150159,38.08057],[122.8764841,37.8841832],[123.274481,37.744587],[123.6552259,37.6099457],[124.0838,37.4593406],[124.0950867,37.455474],[124.1022321,37.4532256],[124.1098711,37.4510792],[124.116008,37.4495631],[124.1246768,37.4478085],[124.1370365,37.4455428],[124.1442892,37.4441458],[124.1515633,37.4430895],[124.1578933,37.4424592],[124.1634167,37.4421502],[124.3272874,37.4369674],[125.1259858,37.4119346],[125.8065915,37.3954173],[125.822556,37.3951104],[125.8710504,37.3944456],[125.8885813,37.3941046],[125.8925509,37.3939341],[125.8964562,37.3933545],[125.8998251,37.3924851],[125.9020781,37.3914622],[125.9044923,37.3901745],[125.9513988,37.3551486],[125.9664191,37.3450505],[125.9760322,37.338875],[125.9829201,37.3349169],[125.9887351,37.3319482],[125.9945287,37.329406],[126.0009445,37.3270513],[126.0064592,37.3253109],[126.01133,37.3242359],[126.1507191,37.3036033],[126.1712112,37.300548],[126.1804594,37.2994727],[126.1895146,37.2991313],[126.2127318,37.2993703],[126.2303271,37.2993191],[126.2376441,37.2995068],[126.2597397,37.3009679],[126.2726358,37.3016336],[126.2900165,37.3023334],[126.2953595,37.3025724],[126.3006381,37.3029308],[126.3047579,37.3034941],[126.3091782,37.3043133],[126.3557414,37.3140415],[126.4021972,37.3239561],[126.4347271,37.3309006],[126.4703683,37.3395335],[126.4935425,37.3441396],[126.5057734,37.346579],[126.5105799,37.3476025],[126.5139917,37.3488818],[126.5164164,37.3501441],[126.5182403,37.3514575],[126.5199355,37.353095],[126.5300249,37.3664949],[126.5375351,37.3768971],[126.5464829,37.3885595],[126.5511821,37.3949014],[126.5571688,37.4031178],[126.5651443,37.4148856],[126.5658096,37.4160494],[126.5664821,37.4171175],[126.567374,37.4180845],[126.5686056,37.419237],[126.5698089,37.4203669],[126.5773175,37.4262665],[126.5779029,37.4266776],[126.5784944,37.4270299],[126.5790798,37.427348],[126.5797762,37.4276367],[126.5807128,37.4279842],[126.5818097,37.4283414],[126.5831592,37.4286986],[126.5842498,37.4289775],[126.5852235,37.4291879],[126.5862156,37.4293445],[126.5872508,37.4294522],[126.5882799,37.4295256],[126.5892288,37.4295451],[126.5903247,37.4294886],[126.5911722,37.4293821],[126.5921754,37.4291563],[126.5929532,37.428922],[126.5935487,37.4286366],[126.5941495,37.4282873],[126.6004561,37.4245783]]]}}