{"type":"Feature","properties":{"id":"天保山渡船","name":"天保山渡船","operator":"","category":"ferry","attribution":"© OpenStreetMap contributors"},"geometry":{"type":"MultiLineString","coordinates":[[[135.4331371,34.6584917],[135.4334097,34.6588002],[135.4334142,34.6588604],[135.4333903,34.6589247],[135.4333237,34.6589668],[135.4332254,34.6589712],[135.4327943,34.6589504],[135.4317971,34.658812],[135.4316717,34.6587946],[135.4305396,34.6585915],[135.4301761,34.6584932],[135.4298797,34.6584145],[135.4296597,34.6584145],[135.4294541,34.6585011],[135.4293441,34.6586112],[135.4291624,34.6589338],[135.4291528,34.6591186],[135.4291528,34.6592681],[135.4291729,34.6593444]]]}}