{"type":"Feature","properties":{"id":"天津_-_仁川_인천_-_톈진","name":"天津 - 仁川 인천 - 톈진","operator":"","category":"ferry","attribution":"© OpenStreetMap contributors"},"geometry":{"type":"MultiLineString","coordinates":[[[126.6004561,37.4245783],[126.5943861,37.4285924],[126.5923476,37.4294784],[126.5901589,37.4298533],[126.588099,37.4298874],[126.5847945,37.4294784],[126.5824771,37.4289161],[126.5803742,37.4282516],[126.5779924,37.427178],[126.574409,37.4245538],[126.5687764,37.4197908],[126.5663087,37.4172174],[126.5630472,37.411295],[126.5574682,37.4060283],[126.5559983,37.4044687],[126.5502262,37.400693],[126.5339881,37.3905371],[126.5157544,37.3796978],[126.4995861,37.371044],[126.4870119,37.3651093],[126.4733648,37.359413],[126.4621639,37.3562406],[126.4497613,37.3531704],[126.4394187,37.3517718],[126.4191198,37.3511918],[126.4095282,37.3513112],[126.3922548,37.3524711],[126.3806462,37.3535627],[126.0505199,37.3835682],[125.8993719,37.3973009],[124.1958903,37.4463798],[124.1429328,37.4455621],[124.105339,37.4489011],[124.0773582,37.4588489],[122.3040103,38.0808655],[121.1242669,38.4525138],[120.8914941,38.5282937],[120.7864373,38.5717907],[120.5948632,38.6093596],[119.5051568,38.7198053],[119.249724,38.7390895],[118.5720055,38.7915571],[118.4030911,38.8191139],[118.2559775,38.8470613],[118.22937,38.8542803],[118.2230186,38.8570876],[118.1225108,38.9152792],[118.1091212,38.9208219],[118.0997657,38.9224914],[118.0057811,38.9378482],[117.882614,38.9558715],[117.8276181,38.9647479],[117.8253007,38.9652151],[117.8230262,38.9660826],[117.8202581,38.9675341],[117.818563,38.968802],[117.8174257,38.9702201],[117.815752,38.9723888],[117.8145933,38.9746242],[117.8144075,38.9756475]]]}}