{"type":"Feature","properties":{"id":"天長フェリー株式会社_天長フェリー（諸浦－中田）","name":"天長フェリー（諸浦－中田）","operator":"天長フェリー株式会社","category":"ferry","attribution":"© OpenStreetMap contributors"},"geometry":{"type":"MultiLineString","coordinates":[[[130.1847311,32.2548075],[130.1884603,32.2556038],[130.1973698,32.2639711],[130.1992777,32.2677117],[130.200042,32.2762692],[130.1985329,32.2839231],[130.1936142,32.290475],[130.1866893,32.2969422],[130.1702557,32.3086123],[130.1669826,32.3113567],[130.1654757,32.3129049],[130.1642881,32.3152389],[130.1638288,32.3170427],[130.1636439,32.3198453],[130.1646866,32.3298487]]]}}