{"type":"Feature","properties":{"id":"天長フェリー株式会社_天長フェリー（諸浦－片側）","name":"天長フェリー（諸浦－片側）","operator":"天長フェリー株式会社","category":"ferry","attribution":"© OpenStreetMap contributors"},"geometry":{"type":"MultiLineString","coordinates":[[[130.2155964,32.2783204],[130.2147195,32.2776026],[130.2143253,32.2775469],[130.2139359,32.2775901],[130.2134605,32.2777531],[130.2126335,32.2777092],[130.2118163,32.2774182],[130.2109251,32.2767],[130.1973698,32.2639711],[130.1884603,32.2556038],[130.1847311,32.2548075]]]}}