{"type":"Feature","properties":{"id":"太平洋フェリー（仙台―苫小牧）","name":"太平洋フェリー（仙台―苫小牧）","operator":"","category":"ferry","attribution":"© OpenStreetMap contributors"},"geometry":{"type":"MultiLineString","coordinates":[[[141.0055201,38.2735698],[141.0061419,38.2734171],[141.0064316,38.2733655],[141.0067615,38.2734276],[141.0068182,38.2731861],[141.008234,38.272741],[141.008577,38.272591],[141.009049,38.272398],[141.00965,38.272162],[141.01038,38.27184],[141.011496,38.27141],[141.01289,38.27096],[141.014457,38.270552],[141.015744,38.270338],[141.016774,38.27023],[141.018298,38.270059],[141.019757,38.26993],[141.02171,38.269737],[141.023555,38.269501],[141.025593,38.269351],[141.027911,38.269115],[141.030614,38.268986],[141.03334,38.268707],[141.035657,38.2686],[141.038275,38.268321],[141.041236,38.268085],[141.043339,38.267913],[141.04615,38.267741],[141.049433,38.267527],[141.053424,38.267226],[141.055613,38.266947],[141.058295,38.266754],[141.061728,38.26654],[141.065054,38.26611],[141.068487,38.26566],[141.071556,38.265252],[141.074753,38.264694],[141.077628,38.264158],[141.080847,38.263106],[141.083593,38.261905],[141.086533,38.260231],[141.091104,38.257377],[141.094902,38.254952],[141.095867,38.254159],[141.097112,38.253193],[141.101189,38.250425],[141.105051,38.248043],[141.107755,38.246584],[141.110265,38.245404],[141.113269,38.243794],[141.116145,38.242335],[141.119192,38.241198],[141.121659,38.240447],[141.125157,38.239417],[141.128697,38.238366],[141.132367,38.237228],[141.135821,38.236306],[141.138997,38.235598],[141.14243,38.234825],[141.145113,38.234181],[141.148653,38.233237],[141.152623,38.232379],[141.156592,38.231478],[141.161034,38.230298],[141.164489,38.229482],[141.167965,38.228624],[141.171463,38.22783],[141.175733,38.22665],[141.281326,38.200943],[141.284266,38.200171],[141.288042,38.199012],[141.291668,38.19824],[141.295724,38.197918],[141.301475,38.197875],[141.306238,38.198004],[141.309307,38.198218],[141.313469,38.198712],[141.316238,38.199141],[141.319671,38.199592],[141.323125,38.199999],[141.326945,38.200579],[141.384301,38.209355],[141.387413,38.209827],[141.389902,38.210149],[141.393313,38.210599],[141.396382,38.210814],[141.400502,38.2112],[141.405823,38.211157],[141.410694,38.210814],[141.413934,38.210514],[141.419964,38.210127],[141.423762,38.209891],[141.488028,38.207274],[141.492148,38.20708],[141.496697,38.206909],[141.500495,38.20678],[141.502898,38.206565],[141.503177,38.206565],[141.5145101,38.2072439],[141.5236967,38.2081188],[141.5873071,38.2224452],[141.5980249,38.226163],[141.604393,38.22916],[141.608319,38.23092],[141.612589,38.233023],[141.61613,38.235018],[141.619091,38.236628],[141.623168,38.239567],[141.625786,38.241692],[141.6311694,38.2467845],[141.9389559,39.0340065],[142.1050348,39.5244428],[141.764896,41.75369],[141.763973,41.759505],[141.763587,41.76178],[141.763372,41.763175],[141.763051,41.764956],[141.762343,41.768603],[141.762149,41.769805],[141.762021,41.770492],[141.761656,41.772573],[141.76127,41.77459],[141.761034,41.775877],[141.76054,41.77989],[141.759467,41.785619],[141.759145,41.787529],[141.758802,41.789417],[141.758308,41.792228],[141.757793,41.79491],[141.757343,41.797164],[141.756871,41.799867],[141.756377,41.802163],[141.755776,41.80521],[141.755347,41.807678],[141.754768,41.810167],[141.754339,41.813192],[141.753931,41.815531],[141.743031,41.868038],[141.742387,41.870849],[141.741829,41.873424],[141.741314,41.876042],[141.740756,41.878552],[141.740134,41.881449],[141.739619,41.883659],[141.739018,41.88647],[141.738396,41.88941],[141.737859,41.892478],[141.737409,41.894989],[141.736894,41.898015],[141.708398,42.050858],[141.707711,42.053969],[141.707196,42.056694],[141.706574,42.060063],[141.705201,42.066951],[141.691897,42.13686],[141.691232,42.140658],[141.690652,42.143598],[141.690095,42.146645],[141.686318,42.168188],[141.684365,42.17941],[141.684129,42.181771],[141.683893,42.184045],[141.683636,42.18662],[141.683056,42.189517],[141.68267,42.19192],[141.681297,42.198808],[141.681104,42.20016],[141.677327,42.223849],[141.676941,42.226682],[141.671705,42.264576],[141.610584,42.6007476],[141.6155865,42.6122879],[141.6272604,42.6278545],[141.6354875,42.637456],[141.6364583,42.6377671]]]}}