{"type":"Feature","properties":{"id":"太平洋フェリー（名古屋―仙台）","name":"太平洋フェリー（名古屋―仙台）","operator":"","category":"ferry","attribution":"© OpenStreetMap contributors"},"geometry":{"type":"MultiLineString","coordinates":[[[136.845832,35.059025],[136.845596,35.058725],[136.843836,35.05821],[136.842163,35.057652],[136.84094,35.057309],[136.837893,35.056322],[136.837056,35.055828],[136.836262,35.054905],[136.835017,35.052996],[136.834502,35.051794],[136.834459,35.0507],[136.834545,35.049434],[136.834846,35.048275],[136.83609,35.044692],[136.836476,35.043747],[136.839824,35.034349],[136.84051,35.032547],[136.84197,35.029414],[136.842549,35.027783],[136.84257,35.026023],[136.842399,35.0245],[136.841648,35.02244],[136.838622,35.015724],[136.838043,35.014308],[136.837485,35.013192],[136.836605,35.011904],[136.835768,35.010874],[136.832013,35.006561],[136.830533,35.004759],[136.829374,35.003192],[136.825383,34.998064],[136.823881,34.996004],[136.821435,34.992785],[136.816177,34.986026],[136.80886,34.975941],[136.8015,34.966242],[136.798604,34.962595],[136.788604,34.950364],[136.787531,34.948583],[136.785858,34.945214],[136.782875,34.938197],[136.781781,34.934227],[136.781244,34.932597],[136.780086,34.928627],[136.779506,34.926353],[136.779141,34.924464],[136.778948,34.922383],[136.778841,34.920087],[136.778798,34.91792],[136.778455,34.910753],[136.77794,34.895904],[136.777918,34.893415],[136.778004,34.89099],[136.778219,34.888673],[136.778648,34.886205],[136.779528,34.881763],[136.781159,34.872665],[136.788004,34.830716],[136.796694,34.756022],[136.796973,34.753168],[136.797316,34.75085],[136.797681,34.747846],[136.798153,34.744756],[136.798754,34.741988],[136.80002,34.737332],[136.800835,34.735014],[136.801694,34.733212],[136.80311,34.730444],[136.804569,34.728019],[136.806307,34.725595],[136.808024,34.72332],[136.811392,34.719393],[136.812873,34.717913],[136.814933,34.716046],[136.823967,34.707634],[136.827657,34.704309],[136.830189,34.702184],[136.832786,34.700103],[136.84036,34.694288],[136.843257,34.692142],[136.850939,34.686177],[136.853471,34.684267],[136.857269,34.681284],[136.982603,34.585326],[136.986444,34.582279],[137.008996,34.564619],[137.011721,34.562151],[137.014339,34.559898],[137.022386,34.553483],[137.024746,34.55168],[137.02745,34.549792],[137.028737,34.548955],[137.030411,34.548011],[137.031913,34.547238],[137.035775,34.545586],[137.040732,34.543827],[137.045624,34.542153],[137.048779,34.541316],[137.054873,34.539557],[137.05837,34.538677],[137.138729,34.521897],[137.144094,34.520867],[137.150552,34.519708],[137.157805,34.518292],[137.163148,34.517198],[137.168706,34.516146],[137.184627,34.513013],[137.192094,34.51164],[137.195764,34.510889],[137.204197,34.509451],[137.21602,34.507091],[137.220397,34.506447],[137.223466,34.506233],[137.226341,34.506276],[138.536761,34.483702],[138.54249,34.483831],[138.548305,34.484046],[138.57311,34.484797],[138.581607,34.484947],[138.583539,34.485075],[138.585813,34.485161],[138.588538,34.485354],[138.593495,34.485998],[138.599503,34.487093],[138.60667,34.488337],[138.608923,34.48868],[138.680742,34.501362],[138.686278,34.502242],[138.692586,34.5034],[138.695719,34.503894],[138.705955,34.505696],[138.710182,34.50634],[138.713744,34.50707],[138.716898,34.507563],[138.723142,34.508679],[138.726511,34.509108],[138.733506,34.509902],[138.741896,34.510481],[138.744943,34.510632],[138.767066,34.511168],[138.770027,34.511318],[138.828907,34.512777],[138.833456,34.512842],[138.839057,34.513056],[139.063268,34.529836],[139.068353,34.530759],[139.075713,34.532647],[139.081721,34.533935],[139.088974,34.535587],[139.095068,34.536896],[139.098072,34.537497],[139.106162,34.53932],[139.111505,34.540458],[139.118049,34.542046],[139.128907,34.544449],[139.137018,34.54608],[139.144356,34.54771],[139.147596,34.548376],[139.169676,34.553611],[139.182487,34.556444],[139.184439,34.556937],[139.186328,34.557302],[139.186778,34.557474],[139.191992,34.558675],[139.193988,34.559083],[139.194567,34.559104],[139.195511,34.559319],[139.197679,34.55992],[139.200833,34.560628],[139.203022,34.561186],[139.204845,34.561594],[139.209309,34.562473],[139.21448,34.56301],[139.221261,34.563353],[139.224544,34.563568],[139.23171,34.564104],[139.235745,34.56434],[139.244628,34.565005],[139.257009,34.565821],[139.272673,34.566915],[139.275291,34.567215],[139.27778,34.567645],[139.27999,34.568074],[139.289517,34.570241],[139.307134,34.574039],[139.320138,34.576914],[139.329772,34.579103],[139.336166,34.580476],[139.344299,34.582343],[139.353375,34.584317],[139.364533,34.586849],[139.372108,34.588501],[139.380112,34.590433],[139.385712,34.591656],[139.387364,34.591978],[139.393115,34.593308],[139.398286,34.594424],[139.404016,34.595776],[139.407191,34.596462],[139.418864,34.599123],[139.421547,34.599681],[139.42807,34.601161],[139.629386,34.656243],[139.636746,34.658067],[139.645886,34.660428],[139.650242,34.661436],[139.652538,34.662015],[139.656336,34.663088],[139.660778,34.664612],[139.674854,34.669204],[139.680412,34.670942],[139.690647,34.674053],[139.693201,34.67489],[139.702191,34.677658],[139.705303,34.678667],[139.708715,34.679868],[139.711719,34.681091],[139.716396,34.683044],[139.718156,34.683859],[139.731417,34.690554],[139.735708,34.692657],[139.738004,34.693902],[139.741609,34.695661],[139.745042,34.697421],[139.752832,34.701262],[139.759934,34.704695],[139.764891,34.707205],[139.767594,34.70845],[139.770491,34.709609],[139.776242,34.711518],[139.782143,34.713364],[139.794052,34.716969],[139.796712,34.717848],[139.801927,34.719479],[139.813814,34.723127],[139.817269,34.724114],[139.837418,34.730272],[139.847202,34.733169],[139.850743,34.734178],[139.856472,34.735959],[139.862652,34.73774],[139.865742,34.738705],[139.872115,34.740572],[139.878016,34.742396],[139.880977,34.743254],[139.887714,34.7454],[139.894924,34.747546],[139.90664,34.751151],[139.915352,34.753726],[139.921532,34.755657],[139.938076,34.760592],[139.95256,34.765141],[139.955628,34.76615],[139.961507,34.767866],[139.963224,34.768531],[139.967923,34.769948],[139.970584,34.770699],[139.987793,34.776084],[139.995325,34.778659],[140.000839,34.780462],[140.003436,34.781363],[140.009487,34.783187],[140.015667,34.785182],[140.018799,34.786255],[140.020473,34.786878],[140.025365,34.788916],[140.027855,34.790139],[140.033627,34.793358],[140.042939,34.7984],[140.055943,34.805739],[140.058539,34.807091],[140.06062,34.808314],[140.070427,34.813764],[140.07313,34.815202],[140.081413,34.819751],[140.087528,34.823248],[140.094287,34.827518],[140.100918,34.831617],[140.11332,34.839385],[140.133298,34.852002],[140.139091,34.855735],[140.144692,34.85919],[140.148254,34.861636],[140.166621,34.875648],[140.174196,34.881785],[140.178595,34.885433],[140.181062,34.887514],[140.183272,34.88951],[140.187221,34.892943],[140.191855,34.897213],[140.203142,34.90747],[140.205739,34.909894],[140.208335,34.912405],[140.216017,34.919486],[140.224128,34.926782],[140.226317,34.928863],[140.233955,34.935472],[140.236273,34.937725],[140.241745,34.943283],[140.254941,34.956393],[140.269296,34.970813],[140.275176,34.976671],[140.278308,34.979718],[140.284188,34.985704],[140.301397,35.002828],[140.313349,35.013535],[140.319507,35.018621],[140.325987,35.024242],[140.332575,35.029821],[140.339205,35.035615],[140.345728,35.041559],[140.353475,35.048339],[140.362358,35.055957],[140.364997,35.058339],[140.369997,35.062695],[140.372293,35.064626],[140.374632,35.066707],[140.379911,35.071042],[140.38491,35.07544],[140.387957,35.078316],[140.390897,35.080977],[140.400317,35.089302],[140.403621,35.091791],[140.414908,35.099731],[140.422053,35.104644],[140.425465,35.107048],[140.436215,35.114236],[140.442417,35.118549],[140.451622,35.125265],[140.457394,35.129364],[140.463531,35.133805],[140.465977,35.135372],[140.471449,35.139513],[140.475419,35.141208],[140.527883,35.186999],[140.535865,35.193629],[140.538783,35.19629],[140.543718,35.200624],[140.548353,35.20483],[140.549877,35.205903],[140.558589,35.211267],[140.565047,35.215087],[140.575969,35.220752],[140.579639,35.222812],[140.584767,35.226309],[140.589402,35.229871],[140.592685,35.232553],[140.595217,35.234528],[140.597577,35.236824],[140.607984,35.247853],[140.609422,35.249441],[140.616739,35.257123],[140.619378,35.259976],[140.622296,35.262959],[140.635815,35.277185],[140.640557,35.282013],[140.641608,35.283215],[140.646222,35.288064],[140.6515,35.293322],[140.65311,35.295017],[140.860219,35.513155],[140.872407,35.529656],[140.874639,35.532854],[140.879188,35.540214],[140.88187,35.54472],[140.89011,35.558131],[140.892685,35.562551],[140.895839,35.567679],[140.897427,35.570426],[140.900216,35.575018],[140.904272,35.58197],[140.908113,35.588601],[140.910108,35.592184],[140.916653,35.603063],[140.923755,35.614178],[140.927897,35.620401],[140.932725,35.627911],[140.932982,35.62819],[140.935235,35.632825],[140.939484,35.639026],[140.941029,35.64115],[140.942767,35.643661],[140.945535,35.647738],[140.947015,35.650077],[140.951264,35.6563],[140.955813,35.66323],[140.958624,35.667608],[140.961692,35.672028],[140.965984,35.67868],[140.96755,35.680997],[140.968945,35.683229],[140.97034,35.685246],[140.971584,35.687199],[140.973516,35.690031],[140.977614,35.696747],[140.979052,35.698636],[140.980296,35.701296],[140.981112,35.703764],[140.982077,35.707197],[140.982614,35.709965],[140.982807,35.71166],[140.982957,35.714085],[140.983472,35.718119],[140.984266,35.72578],[140.985017,35.731702],[140.985961,35.741787],[140.986326,35.746336],[140.987227,35.753975],[140.987485,35.75685],[140.987678,35.760005],[140.987935,35.762408],[140.988557,35.769811],[140.989266,35.775497],[140.990145,35.783329],[140.990789,35.790281],[140.992355,35.805302],[140.993278,35.813606],[140.993536,35.816481],[140.993707,35.81912],[140.994115,35.822103],[140.994587,35.827038],[140.995188,35.832081],[140.995703,35.837853],[140.99654,35.8462],[140.998793,35.866306],[140.999136,35.868967],[140.999415,35.871928],[141.000037,35.87697],[141.001475,35.889866],[141.002183,35.895617],[141.002719,35.900917],[141.002913,35.904136],[141.003213,35.907655],[141.004071,35.912912],[141.004801,35.918791],[141.00596,35.926816],[141.007118,35.934305],[141.007268,35.934927],[141.007397,35.935915],[141.007333,35.936472],[141.008534,35.943124],[141.010294,35.95499],[141.011388,35.962801],[141.013899,35.978808],[141.015551,35.99031],[141.017954,36.005244],[141.018512,36.009257],[141.021559,36.029234],[141.022031,36.032839],[141.023834,36.044812],[141.025357,36.055391],[141.025937,36.060541],[141.027246,36.069059],[141.027997,36.074488],[141.028555,36.077664],[141.029584,36.085131],[141.030679,36.094143],[141.031194,36.097341],[141.03394,36.117661],[141.034992,36.126351],[141.035185,36.129012],[141.036408,36.137595],[141.036966,36.142252],[141.037395,36.145234],[141.037953,36.150749],[141.038683,36.156285],[141.039348,36.161971],[141.040614,36.17388],[141.040936,36.176176],[141.041451,36.181304],[141.041815,36.183815],[141.042116,36.186497],[141.042953,36.195188],[141.053166,36.29267],[141.054068,36.301296],[141.054475,36.307368],[141.054969,36.312475],[141.055098,36.3149],[141.055527,36.320071],[141.055698,36.323311],[141.05602,36.326122],[141.056235,36.32874],[141.056471,36.331851],[141.056557,36.334705],[141.057243,36.342452],[141.057651,36.348417],[141.069753,36.531558],[141.070204,36.53615],[141.070998,36.547265],[141.071298,36.554883],[141.071127,36.55632],[141.071491,36.557307],[141.071749,36.559303],[141.077757,36.658845],[141.078658,36.67114],[141.078701,36.673179],[141.07883,36.675282],[141.079495,36.68247],[141.079753,36.686783],[141.079774,36.68925],[141.130714,37.125013],[141.130951,37.128553],[141.131508,37.135656],[141.13168,37.137008],[141.132453,37.146213],[141.13256,37.148788],[141.132903,37.153595],[141.133246,37.156727],[141.13404,37.166984],[141.134512,37.17164],[141.134813,37.175996],[141.135006,37.177563],[141.135736,37.189386],[141.135929,37.191145],[141.135993,37.193313],[141.135607,37.20387],[141.135371,37.207453],[141.135135,37.213612],[141.135092,37.216873],[141.134706,37.227645],[141.134598,37.234662],[141.134319,37.245176],[141.134319,37.251484],[141.134148,37.258265],[141.13404,37.269273],[141.133697,37.28086],[141.133719,37.286482],[141.133654,37.293885],[141.133525,37.298884],[141.13344,37.309613],[141.133525,37.314506],[141.133268,37.339718],[141.133246,37.345705],[141.133289,37.348645],[141.133182,37.355254],[141.133225,37.358601],[141.133161,37.361434],[141.133182,37.366197],[141.133139,37.368751],[141.133204,37.37375],[141.133096,37.382376],[141.133182,37.399199],[141.133053,37.411881],[141.133075,37.417288],[141.132753,37.483678],[141.132817,37.488849],[141.13301,37.494471],[141.133096,37.500372],[141.133311,37.503204],[141.133568,37.505887],[141.133761,37.508998],[141.134448,37.515306],[141.134706,37.51859],[141.135414,37.52537],[141.13713,37.543931],[141.137409,37.54627],[141.137688,37.550583],[141.137989,37.552793],[141.138203,37.555218],[141.137924,37.617939],[141.13786,37.619677],[141.137946,37.623174],[141.138074,37.62562],[141.138525,37.630169],[141.139512,37.639053],[141.139641,37.641263],[141.139598,37.643001],[141.139491,37.645619],[141.139062,37.650254],[141.123419,37.797711],[141.123076,37.801938],[141.122174,37.811272],[141.113205,37.891717],[141.112862,37.894592],[141.11181,37.906437],[141.111682,37.90884],[141.111703,37.911093],[141.111853,37.915964],[141.111896,37.922552],[141.112089,37.929268],[141.112132,37.933881],[141.112025,37.936177],[141.112025,37.938216],[141.112175,37.944953],[141.112154,37.947378],[141.113677,38.000722],[141.113699,38.002439],[141.113613,38.004112],[141.11372,38.00555],[141.11372,38.007567],[141.113613,38.010314],[141.113505,38.01203],[141.112433,38.024454],[141.112197,38.026557],[141.111188,38.037457],[141.110759,38.041363],[141.110652,38.042908],[141.110201,38.046641],[141.109858,38.050032],[141.109536,38.052413],[141.089687,38.218753],[141.0884,38.228302],[141.088057,38.230169],[141.087842,38.232358],[141.08752,38.234396],[141.087263,38.236799],[141.086898,38.239503],[141.085997,38.248515],[141.085696,38.250446],[141.084731,38.252828],[141.0834,38.255124],[141.082091,38.257012],[141.080718,38.258686],[141.078615,38.260553],[141.076362,38.262033],[141.073208,38.263428],[141.07044,38.264244],[141.065548,38.26493],[141.054325,38.266304],[141.049862,38.266733],[141.044154,38.267205],[141.039369,38.26772],[141.033211,38.268449],[141.009634,38.270392],[141.009012,38.270718],[141.0080197,38.2713115],[141.0071554,38.2723188],[141.0066329,38.2728917],[141.0067615,38.2734276],[141.006445,38.2733245],[141.0061258,38.2733771],[141.0055201,38.2735698]]]}}