{"type":"Feature","properties":{"id":"女川・金華山航路","name":"女川・金華山航路","operator":"","category":"ferry","attribution":"© OpenStreetMap contributors"},"geometry":{"type":"MultiLineString","coordinates":[[[141.4485778,38.4431628],[141.4536964,38.4427889],[141.4588605,38.441233],[141.4612865,38.4391561],[141.463762,38.4369502],[141.541229,38.4037305],[141.5482044,38.3958539],[141.5475521,38.3089982],[141.5417993,38.3008511]],[[141.5421922,38.2995642],[141.5451637,38.2974498],[141.5475864,38.2963892],[141.5509085,38.2949676]]]}}