{"type":"Feature","properties":{"id":"姫島村_姫島村営フェリー_(伊美－姫島)","name":"姫島村営フェリー (伊美－姫島)","operator":"姫島村","category":"ferry","attribution":"© OpenStreetMap contributors"},"geometry":{"type":"MultiLineString","coordinates":[[[131.6001413,33.6871865],[131.6006112,33.6875648],[131.6011075,33.6877868],[131.6016329,33.6879649],[131.6022068,33.6881008],[131.6025512,33.6882676],[131.6028257,33.6884732],[131.6030379,33.6887615],[131.603466,33.6894107],[131.6035867,33.6898997],[131.6041765,33.6917426],[131.6046767,33.6925681],[131.605677,33.6935436],[131.6440258,33.7144696],[131.6460609,33.7158043],[131.6464669,33.7161913],[131.6468867,33.7166671],[131.6472326,33.7172732],[131.6476124,33.7177923],[131.6479705,33.7182325],[131.6481572,33.718597],[131.6483482,33.7192911],[131.6484781,33.720439],[131.6486482,33.721787],[131.6485945,33.722032]]]}}