{"type":"Feature","properties":{"id":"威海_-_仁川_인천_-_웨이하이","name":"威海 - 仁川 인천 - 웨이하이","operator":"","category":"ferry","attribution":"© OpenStreetMap contributors"},"geometry":{"type":"MultiLineString","coordinates":[[[122.1210575,37.5066313],[122.1280328,37.5066687],[122.1300063,37.5066157],[122.1330902,37.5064041],[122.1354915,37.5060969],[122.1379181,37.5055413],[122.141244,37.5045062],[122.1438819,37.5033516],[122.1492442,37.5002905],[122.1525843,37.4982305],[122.1571116,37.4956463],[122.1628149,37.4927434],[122.166959,37.4909595],[122.171127,37.4896036],[122.1751651,37.4886659],[122.1784183,37.4881806],[122.1815139,37.4878797],[122.1853455,37.4876698],[122.843174,37.47712],[122.9417077,37.4748892],[122.9630581,37.4744805],[122.9800311,37.474225],[122.9952016,37.4739866],[123.0082908,37.473629],[123.0485669,37.4729138],[123.1580868,37.4698824],[123.1842223,37.4691671],[123.2204857,37.4684689],[123.6411634,37.4614689],[123.6557332,37.4610942],[123.8021818,37.4553371],[123.975946,37.4501075],[124.0301695,37.4463257],[124.1949216,37.4380118],[124.3357053,37.4324403],[124.5215932,37.4242271],[124.9313703,37.4110534],[125.1754728,37.4048663],[125.5579129,37.3986786],[125.620226,37.3968205],[125.7434788,37.3944339],[125.7653013,37.3942293],[125.7812229,37.3940929],[125.7944623,37.3939906],[125.8092251,37.3936838],[125.8240309,37.3931382],[125.8398667,37.393036],[125.8554879,37.3927632],[125.8806792,37.3922518],[125.896751,37.3918767],[125.9926716,37.32543],[126.1902511,37.2968144],[126.2387372,37.2989201],[126.2668208,37.3002641],[126.3023834,37.3006608],[126.3467847,37.3101862],[126.4661629,37.335839],[126.5055809,37.3445694],[126.5129197,37.3462114],[126.5166111,37.3476787],[126.5184507,37.3488087],[126.5204344,37.3502638],[126.5229173,37.3531458],[126.5303317,37.3632474],[126.5389576,37.3753041],[126.5451269,37.3841087],[126.5509891,37.3923054],[126.5583085,37.4028395],[126.5618521,37.4076719],[126.5668334,37.416665],[126.5671987,37.4171702],[126.5683015,37.4183601],[126.5698244,37.4197247],[126.5719752,37.421285],[126.5784762,37.4261619],[126.5796063,37.4268926],[126.5808165,37.4274644],[126.5817967,37.4278457],[126.5833969,37.4283222],[126.5855172,37.4288146],[126.5866274,37.4289258],[126.5876975,37.4289735],[126.5887777,37.4289735],[126.5899778,37.4288782],[126.591338,37.4286876],[126.5926182,37.4284016],[126.5937284,37.4280204],[126.5944385,37.4276709],[126.6004561,37.4245783]]]}}