{"type":"Feature","properties":{"id":"宁波峙头_-_桃花茅草屋","name":"宁波峙头 - 桃花茅草屋","operator":"","category":"ferry","attribution":"© OpenStreetMap contributors"},"geometry":{"type":"MultiLineString","coordinates":[[[122.2157057,29.7785729],[122.2151059,29.7794547],[122.2137272,29.7809819],[122.2102403,29.7818479],[122.1932029,29.783971],[122.1747493,29.788068],[122.1547507,29.7949209],[122.1410178,29.805944],[122.1077154,29.8329009],[122.0931242,29.8494288],[122.0918368,29.8565007],[122.0925665,29.8586966]],[[122.0925665,29.8586966],[122.0940684,29.8538953],[122.0965575,29.849131],[122.1017073,29.8440687],[122.1173285,29.8385594],[122.1310614,29.8378149],[122.209854,29.8521088],[122.2426413,29.854342],[122.2579191,29.8544909],[122.2734975,29.8517365],[122.278583,29.8487959],[122.2822523,29.8454459],[122.2836363,29.8445711],[122.2837845,29.8443979]]]}}