{"type":"Feature","properties":{"id":"宇品～似島","name":"宇品～似島","operator":"","category":"ferry","attribution":"© OpenStreetMap contributors"},"geometry":{"type":"MultiLineString","coordinates":[[[132.4540736,34.3519011],[132.453447,34.3505776],[132.4532874,34.3497161],[132.4534595,34.3487159],[132.4541787,34.3465764],[132.4545049,34.3446204]],[[132.4344822,34.326572],[132.434341,34.3264385],[132.4342113,34.3262971],[132.4318579,34.3235378],[132.431622,34.3232469],[132.4314029,34.3229471],[132.4312012,34.3226391],[132.4310173,34.3223237],[132.4308516,34.3220014],[132.4307044,34.321673],[132.4305761,34.3213393],[132.430467,34.321001],[132.4303773,34.3206588],[132.4303072,34.3203135],[132.4302569,34.3199658],[132.4302264,34.3196166],[132.430216,34.3192665],[132.4302254,34.3189165],[132.4302549,34.3185672],[132.4303042,34.3182194],[132.4303733,34.317874],[132.430462,34.3175316],[132.4305702,34.3171931],[132.4316238,34.3141839],[132.4316956,34.3140081],[132.4317857,34.3138381],[132.4318934,34.3136753],[132.432018,34.3135208],[132.4322647,34.3132421]],[[132.4545049,34.3446204],[132.4544864,34.3441256],[132.4544278,34.3436329],[132.4543294,34.3431445],[132.4541916,34.3426627],[132.454015,34.3421896],[132.4538005,34.3417273],[132.4535489,34.3412779],[132.4532614,34.3408434],[132.4529393,34.3404258],[132.4525841,34.3400269],[132.4521973,34.3396486],[132.4517807,34.3392925],[132.4513362,34.3389603],[132.4441461,34.3339368],[132.4436468,34.3336046],[132.443129,34.3332924],[132.4425937,34.333001],[132.4421804,34.3327781],[132.4417783,34.3325424],[132.4413876,34.3322941],[132.4397639,34.3312197],[132.4389765,34.3306665],[132.4382301,34.3300758],[132.4375273,34.3294497],[132.4344822,34.326572]]]}}