{"type":"Feature","properties":{"id":"宇品～似島(似島学園経由)","name":"宇品～似島(似島学園経由)","operator":"","category":"ferry","attribution":"© OpenStreetMap contributors"},"geometry":{"type":"MultiLineString","coordinates":[[[132.4344822,34.326572],[132.4346344,34.3266971],[132.438539,34.3296906],[132.4387206,34.3298186],[132.4389144,34.3299338],[132.4391191,34.3300353],[132.4393332,34.3301224],[132.4395831,34.3302136],[132.4398884,34.330315],[132.4402013,34.3303992],[132.4405204,34.3304657],[132.4408441,34.3305143],[132.4411711,34.3305447],[132.4414999,34.3305568],[132.4418289,34.3305505],[132.4421566,34.3305259],[132.4424816,34.3304831],[132.4428023,34.3304223],[132.4467365,34.3295592],[132.4470046,34.3294923],[132.4472666,34.3294108],[132.4475215,34.3293149],[132.4477679,34.3292051],[132.4480049,34.3290819],[132.4482314,34.3289458],[132.4484463,34.3287975],[132.4486486,34.3286376],[132.4488375,34.3284668],[132.4490121,34.328286],[132.4508089,34.3262912],[132.4510045,34.32606],[132.4511833,34.3258197],[132.4513446,34.3255711],[132.4514879,34.3253151],[132.4531134,34.3221693],[132.4532227,34.3219342],[132.4533108,34.3216932],[132.4533773,34.3214475],[132.4534218,34.3211985],[132.4537126,34.3190179],[132.4537332,34.3187823],[132.4537323,34.3185462],[132.4537099,34.3183108],[132.4536427,34.3178346],[132.4536156,34.3177142],[132.453569,34.3175979],[132.4535038,34.3174879],[132.4534212,34.3173863],[132.4533227,34.3172947],[132.4532101,34.3172151],[132.4530854,34.3171487],[132.4529511,34.3170969]],[[132.4529511,34.3170969],[132.4530917,34.3171418],[132.4533311,34.3172349],[132.4535523,34.3173551],[132.4537506,34.3174999],[132.4539222,34.3176664],[132.4540635,34.3178512],[132.4541717,34.3180507],[132.4542447,34.3182609],[132.454281,34.3184774],[132.4543703,34.3195838],[132.4543809,34.3197918],[132.454379,34.32],[132.4543648,34.3202079],[132.4532506,34.3315171],[132.453216,34.3320799],[132.4532229,34.3326434],[132.4532713,34.3332055],[132.4545305,34.3434324],[132.4545601,34.3438286],[132.4545515,34.3442255],[132.4545049,34.3446204]],[[132.4529511,34.3170969],[132.4509603,34.3164609],[132.4507814,34.3163953],[132.4506112,34.3163155],[132.4504512,34.3162224],[132.450303,34.3161169],[132.450168,34.3159999],[132.4500474,34.3158725],[132.449588,34.3153349],[132.4494744,34.3151849],[132.4493815,34.3150255],[132.4493105,34.3148586],[132.4492806,34.3147839],[132.4492445,34.314711],[132.4492021,34.3146405],[132.4487165,34.3138994],[132.4486313,34.3137866],[132.4485299,34.3136832],[132.448414,34.3135908],[132.4482853,34.3135109],[132.4481456,34.3134446],[132.4479972,34.313393],[132.4478423,34.3133568],[132.4476831,34.3133365],[132.4475221,34.3133326],[132.4473618,34.3133449],[132.4472045,34.3133734],[132.4470526,34.3134176],[132.4469084,34.3134769],[132.4467741,34.3135503],[132.4464712,34.3137671]]]}}