{"type":"Feature","properties":{"id":"宇野～直島(本村)","name":"宇野～直島(本村)","operator":"","category":"ferry","attribution":"© OpenStreetMap contributors"},"geometry":{"type":"MultiLineString","coordinates":[[[133.997897,34.4619356],[133.9978424,34.4622392],[133.9974937,34.4626815],[133.9963023,34.4642789],[133.9952188,34.4657574],[133.994565,34.4665583],[133.9934069,34.4676363],[133.993108,34.4680059],[133.9928838,34.4684988],[133.9908477,34.4748127],[133.9905115,34.4755673],[133.9900071,34.4763064],[133.989316,34.4769686],[133.9883259,34.4778155],[133.9621366,34.4843385],[133.9590079,34.4881604],[133.9550201,34.4916234]]]}}