{"type":"Feature","properties":{"id":"安栄観光;八重山観光フェリー_石垣～鳩間","name":"石垣～鳩間","operator":"安栄観光;八重山観光フェリー","category":"ferry","attribution":"© OpenStreetMap contributors"},"geometry":{"type":"MultiLineString","coordinates":[[[123.8205066,24.4678624],[123.8204302,24.4663035],[123.8204516,24.4651763],[123.8205321,24.4647069],[123.8212724,24.4631158],[123.8217284,24.4613963],[123.8238349,24.4587609],[123.8265814,24.4576085],[123.827311,24.4568077],[123.8280406,24.4535262],[123.8284483,24.4525691],[123.8315989,24.448818],[123.8348356,24.4472009],[123.8462161,24.4424615],[123.8598631,24.4404299],[123.9137648,24.4277707],[124.0250727,24.389099],[124.0798757,24.3658213],[124.1191837,24.3415038],[124.1307303,24.3347877],[124.1331764,24.3343575],[124.1363243,24.3339196],[124.1399816,24.3340147],[124.1459458,24.3352203],[124.1542666,24.3352927],[124.1546267,24.3354313],[124.1548446,24.335715],[124.1549245,24.3360635],[124.1549706,24.3361489],[124.1555104,24.3364757]]]}}