{"type":"Feature","properties":{"id":"安栄観光_way467677447","name":"way467677447","operator":"安栄観光","category":"ferry","attribution":"© OpenStreetMap contributors"},"geometry":{"type":"MultiLineString","coordinates":[[[123.7657696,24.0673131],[123.7655804,24.0674927],[123.7655594,24.0677213],[123.765609,24.0679305],[123.7657627,24.0681554],[123.7684489,24.0703071],[123.7686741,24.0708318],[123.7685584,24.0714049],[123.7674457,24.0731569],[123.7658364,24.0795176],[123.7705042,24.1068749],[123.7947943,24.1484693],[123.8399412,24.1963919],[123.8660161,24.2186823],[123.8895514,24.2353744],[123.9058415,24.2441196],[123.9210748,24.2506142],[123.9752447,24.2616823],[124.0393352,24.2792033],[124.0849542,24.288572],[124.1092014,24.3014799],[124.1143103,24.3108416],[124.1240072,24.3273894],[124.1270971,24.3304004],[124.1303871,24.3329406],[124.1316316,24.3334261],[124.1331026,24.3337024],[124.1363084,24.3335754],[124.1400182,24.3337359],[124.1459899,24.3349694],[124.1542879,24.3350955],[124.1549201,24.3352041],[124.1556002,24.3354754],[124.1559085,24.3359042],[124.155908,24.3362393],[124.1555104,24.3364757]]]}}