{"type":"Feature","properties":{"id":"安栄観光;八重山観光フェリー_石垣～小浜","name":"石垣～小浜","operator":"安栄観光;八重山観光フェリー","category":"ferry","attribution":"© OpenStreetMap contributors"},"geometry":{"type":"MultiLineString","coordinates":[[[123.9916745,24.3444369],[123.9927314,24.3445262],[123.9932382,24.3446689],[123.9942042,24.3454607],[123.9982982,24.3469879],[124.000237,24.3471155],[124.0079711,24.3464927],[124.0161395,24.346041],[124.0271258,24.3461583],[124.0328121,24.3417205],[124.0376186,24.3373217],[124.0480041,24.3196465],[124.0601062,24.30588],[124.0693759,24.3000132],[124.0777015,24.2963365],[124.0889453,24.2953195],[124.0983008,24.2964147],[124.1086006,24.3022426],[124.123621,24.3276436],[124.1266143,24.3305471],[124.1302022,24.3331967],[124.1315326,24.3336855],[124.1331131,24.333918],[124.1363148,24.3337131],[124.1400035,24.3338474],[124.1459723,24.3350697],[124.1542794,24.3351744],[124.1548028,24.335295],[124.1552979,24.3355712],[124.1555149,24.3359679],[124.1555414,24.3362039],[124.1555104,24.3364757]]]}}