{"type":"Feature","properties":{"id":"安栄観光_小浜～竹富","name":"小浜～竹富","operator":"安栄観光","category":"ferry","attribution":"© OpenStreetMap contributors"},"geometry":{"type":"MultiLineString","coordinates":[[[123.9916745,24.3444369],[123.9927253,24.3445516],[123.9932255,24.3446928],[123.9941762,24.3454968],[123.9982844,24.3470361],[124.0002236,24.3471766],[124.0079732,24.3465975],[124.0128106,24.3465804],[124.0206855,24.348027],[124.0524248,24.3534371],[124.0606645,24.3539845],[124.0851372,24.3489893],[124.1036123,24.3400355],[124.1054362,24.3385105],[124.106037,24.337318],[124.1060584,24.336184],[124.1055542,24.3352064],[124.1045779,24.3345026],[124.1034647,24.3342631],[124.1004741,24.3346712],[124.096896,24.3355877],[124.0948495,24.3366997],[124.0944364,24.3367241],[124.0941146,24.3366361],[124.0935676,24.3364623]]]}}