{"type":"Feature","properties":{"id":"安栄観光_大原港〜波照間島","name":"大原港〜波照間島","operator":"安栄観光","category":"ferry","attribution":"© OpenStreetMap contributors"},"geometry":{"type":"MultiLineString","coordinates":[[[123.8841042,24.2718945],[123.8843573,24.2719835],[123.8846065,24.2720238],[123.8848264,24.2719725],[123.8849686,24.2718356],[123.8850598,24.2716106],[123.8851832,24.2698477],[123.8852744,24.2695078],[123.8855238,24.2690016],[123.8896625,24.263292],[123.8913952,24.2606707],[123.8916956,24.2597121],[123.8919638,24.258103],[123.8922106,24.2574526],[123.8925968,24.2569195],[123.8943617,24.2554571],[123.8949786,24.2553544],[123.8955579,24.2554473],[123.8975213,24.2562128],[123.8982233,24.2562727],[123.898841,24.2562054],[123.899474,24.2558533],[123.9000185,24.2550756],[123.9003913,24.2542931],[123.901035,24.2482673],[123.9007346,24.245137],[123.8988893,24.2425152],[123.8892762,24.2360585],[123.8657506,24.2189367],[123.839658,24.1966652],[123.7944253,24.1486252],[123.7703068,24.1071092],[123.7656505,24.0795289],[123.767394,24.0731275],[123.7685312,24.0713643],[123.7686331,24.0708353],[123.7684132,24.0703455],[123.765731,24.0681904],[123.7655647,24.0679553],[123.7655057,24.0677153],[123.7655325,24.0674753],[123.7657696,24.0673131]]]}}