{"type":"Feature","properties":{"id":"安栄観光_小浜～大原","name":"小浜～大原","operator":"安栄観光","category":"ferry","attribution":"© OpenStreetMap contributors"},"geometry":{"type":"MultiLineString","coordinates":[[[123.8841042,24.2718945],[123.8843526,24.2720237],[123.8846107,24.2720705],[123.8848468,24.2720111],[123.8850086,24.2718595],[123.8851138,24.2716159],[123.8852482,24.2698536],[123.8853322,24.2695219],[123.8855867,24.2690248],[123.8897576,24.2633228],[123.8914778,24.2607086],[123.8917749,24.2597229],[123.8920252,24.2581204],[123.8922681,24.2574774],[123.8926511,24.2569629],[123.8943942,24.2555178],[123.8949828,24.2554109],[123.895544,24.2555113],[123.8975038,24.256262],[123.898228,24.2563267],[123.8988556,24.2562661],[123.8995315,24.2559009],[123.9006564,24.2547868],[123.9048836,24.2517985],[123.9088736,24.2508682],[123.9125536,24.2507508],[123.9751553,24.2618506],[123.9807738,24.2643368],[123.9848401,24.267437],[123.984771,24.2674912],[123.9907613,24.2789637],[123.9948209,24.2845023],[124.004035,24.2990592],[124.0097864,24.3135205],[124.0128763,24.3216549],[124.0179403,24.3311183],[124.0182642,24.3357056],[124.0169103,24.3399554],[124.0139726,24.3432129],[124.0105803,24.3453512],[124.007941,24.3463873],[124.0002504,24.3470544],[123.9983119,24.3469396],[123.9942322,24.3454245],[123.9932509,24.344645],[123.9927376,24.3445008],[123.9916745,24.3444369]]]}}