{"type":"Feature","properties":{"id":"安栄観光;八重山観光フェリー_石垣～上原","name":"石垣～上原","operator":"安栄観光;八重山観光フェリー","category":"ferry","attribution":"© OpenStreetMap contributors"},"geometry":{"type":"MultiLineString","coordinates":[[[124.1555104,24.3364757],[124.1551691,24.336168],[124.1551213,24.3360317],[124.1549957,24.3356671],[124.1546854,24.3353858],[124.1542708,24.3352533],[124.1459546,24.3351701],[124.1399889,24.3339589],[124.1363212,24.3338507],[124.1331324,24.3342628],[124.1306858,24.3347224],[124.1181026,24.3405531],[124.0794187,24.3645464],[124.0246284,24.3876769],[123.9141696,24.4260324],[123.8607047,24.4392834],[123.8448835,24.4398119],[123.8354687,24.4387839],[123.8268872,24.4379402],[123.8202233,24.431552],[123.8141009,24.4260414],[123.8089731,24.4180409],[123.8074922,24.4177526],[123.8048986,24.418033],[123.8020718,24.4179844],[123.8015123,24.418019],[123.8011668,24.4180515],[123.8007305,24.4182746],[123.8001905,24.4181811]]]}}