{"type":"Feature","properties":{"id":"安栄観光;八重山観光フェリー_石垣～竹富島","name":"石垣～竹富島","operator":"安栄観光;八重山観光フェリー","category":"ferry","attribution":"© OpenStreetMap contributors"},"geometry":{"type":"MultiLineString","coordinates":[[[124.1555104,24.3364757],[124.1553692,24.3361873],[124.1553181,24.3359998],[124.1551468,24.3356192],[124.1547441,24.3353404],[124.1542751,24.3352138],[124.1459634,24.3351199],[124.1399962,24.3339032],[124.136318,24.3337819],[124.1331184,24.3340258],[124.104339,24.3340696],[124.1004598,24.3346108],[124.0968926,24.3355434],[124.0948271,24.3366553],[124.0944522,24.3366665],[124.0941388,24.3365829],[124.0935676,24.3364623]]]}}