{"type":"Feature","properties":{"id":"安田産業汽船_長崎空港～ハウステンボス","name":"長崎空港～ハウステンボス","operator":"安田産業汽船","category":"ferry","attribution":"© OpenStreetMap contributors"},"geometry":{"type":"MultiLineString","coordinates":[[[129.9248918,32.9119768],[129.9250124,32.9120315],[129.9252069,32.9119516],[129.9263334,32.9108471],[129.9288654,32.9074064],[129.9320411,32.9026143],[129.9317836,32.9004885],[129.9292516,32.8995156],[129.9211835,32.8998759],[129.9138879,32.9016415],[129.9061632,32.9078748],[129.8967647,32.918827],[129.8917865,32.9257075],[129.8835897,32.9378101],[129.8774099,32.9479664],[129.8687839,32.9620824],[129.8620891,32.973172],[129.8507594,32.9914595],[129.8363399,33.0116146],[129.815998,33.0307576],[129.805355,33.0434214],[129.7966861,33.0547166],[129.792652,33.0643559],[129.789133,33.0760079],[129.788382,33.0769878],[129.788146,33.0784262],[129.7872662,33.0794421],[129.7872877,33.0803141],[129.7872394,33.0805882],[129.7872716,33.0812085],[129.7871643,33.0813299],[129.7869963,33.0813309]]]}}