{"type":"Feature","properties":{"id":"安田産業汽船_長与港～ボートレース大村","name":"長与港～ボートレース大村","operator":"安田産業汽船","category":"ferry","attribution":"© OpenStreetMap contributors"},"geometry":{"type":"MultiLineString","coordinates":[[[129.8636558,32.8469923],[129.8646367,32.8469672],[129.8656432,32.8471754],[129.8661843,32.8475578],[129.866331,32.8480804],[129.8661859,32.8488645],[129.865714,32.8495861],[129.86511,32.8504106],[129.8649778,32.8512907],[129.8650269,32.8525201],[129.8652521,32.8538664],[129.86562,32.8559287],[129.8660491,32.8578634],[129.8667215,32.8599302],[129.8675083,32.861985],[129.8684095,32.8641478],[129.8693965,32.8665389],[129.8702548,32.8687257],[129.8711131,32.8707803],[129.8721288,32.8730631],[129.8735164,32.8759345],[129.8747896,32.8782652],[129.8768209,32.88074],[129.8795102,32.8829625],[129.8834442,32.8847043],[129.8878644,32.8855212],[129.8947881,32.886218],[129.9008145,32.8864704],[129.9067186,32.8866059],[129.9134943,32.8867704],[129.9193705,32.8869013],[129.9273495,32.8871494],[129.9331199,32.8877361],[129.9376366,32.8883334],[129.9437019,32.8897837],[129.9483349,32.8912238],[129.9518312,32.8924325],[129.9533567,32.8930376],[129.953786,32.8935204],[129.953671,32.8940031],[129.953165,32.8943185],[129.9528047,32.8944923],[129.9522597,32.8950192],[129.9520829,32.8951901],[129.9518794,32.8952489],[129.9516964,32.8951956]]]}}