{"type":"Feature","properties":{"id":"定海_-_小盘峙","name":"定海 - 小盘峙","operator":"","category":"ferry","attribution":"© OpenStreetMap contributors"},"geometry":{"type":"MultiLineString","coordinates":[[[122.1022463,30.008467],[122.0994758,30.0055273],[122.0949268,30.0028143],[122.0900344,30.0001384],[122.0877599,29.9979828],[122.0868587,29.9948607],[122.0897769,29.9904377],[122.0918798,29.986795],[122.0914936,29.9861073],[122.0901632,29.9852896],[122.0889884,29.9847831],[122.0884412,29.9841976],[122.0880765,29.9834542],[122.0877171,29.9827479],[122.0869607,29.9822322],[122.085979,29.9820417],[122.0849544,29.9820881],[122.0841232,29.982005]]]}}