{"type":"Feature","properties":{"id":"定海_-_团鸡山","name":"定海 - 团鸡山","operator":"","category":"ferry","attribution":"© OpenStreetMap contributors"},"geometry":{"type":"MultiLineString","coordinates":[[[122.1022463,30.008467],[122.099905,30.00536],[122.0962143,30.0031488],[122.0910215,29.9997296],[122.0888328,29.9977226],[122.087996,29.994805],[122.0926952,29.9879101],[122.0941328,29.9862375],[122.0949697,29.9851595],[122.0955276,29.9841372],[122.0956993,29.9832451],[122.0957637,29.9811263],[122.0956993,29.9791747],[122.0955491,29.9783197],[122.0952487,29.977539],[122.0946264,29.9769628],[122.0937896,29.9765167],[122.0922875,29.9763123],[122.0913434,29.9758476],[122.0908713,29.9753829],[122.0903134,29.9742305],[122.0898413,29.9725018],[122.0903107,29.9702573]]]}}