{"type":"Feature","properties":{"id":"定海_-_庵基岗","name":"定海 - 庵基岗","operator":"","category":"ferry","attribution":"© OpenStreetMap contributors"},"geometry":{"type":"MultiLineString","coordinates":[[[122.1022463,30.008467],[122.0989608,30.0061777],[122.0900774,30.0018108],[122.0837259,30.0014764],[122.0739412,30.0028886],[122.0707655,30.0037062],[122.0663452,30.0022197],[122.0589637,29.9929652],[122.0561313,29.978264],[122.0577621,29.9669067],[122.0597362,29.9606606],[122.0597362,29.9564219],[122.0563888,29.9529267],[122.0539641,29.952276],[122.0519203,29.952341]]]}}