{"type":"Feature","properties":{"id":"宮崎カーフェリー株式会社_宮崎カーフェリー_(神戸－宮崎)","name":"宮崎カーフェリー (神戸－宮崎)","operator":"宮崎カーフェリー株式会社","category":"ferry","attribution":"© OpenStreetMap contributors"},"geometry":{"type":"MultiLineString","coordinates":[[[131.458531,31.9109465],[131.4586633,31.9112315],[131.4587849,31.9115426],[131.458831,31.9116299],[131.4588651,31.9117308],[131.4592025,31.9121308],[131.4595485,31.9124541],[131.4620805,31.9145761],[131.463561,31.91525],[131.4652991,31.9155597],[131.4705992,31.9156689],[131.4725947,31.9160696],[131.4745258,31.9168894],[131.4855766,31.9249397],[131.4870382,31.9258728],[132.2044257,32.2459227],[132.9001621,32.5542067],[133.6547876,32.8873915],[134.231101,33.1410387],[134.2570489,33.1588231],[134.5654518,33.4942153],[134.8764031,33.8310686],[134.8970025,33.8715564],[134.9797882,34.2678502],[134.982096,34.2963659],[134.9823826,34.2980335],[134.9828762,34.2998732],[135.0089751,34.3553083],[135.181108,34.6329603],[135.1823903,34.6356386],[135.1891396,34.6527594],[135.1998997,34.679576],[135.1999426,34.6800745],[135.1998997,34.680573],[135.1998246,34.680798],[135.1996449,34.6809876],[135.1994449,34.6812127],[135.1994652,34.6815589],[135.1993518,34.6818437]]]}}