{"type":"Feature","properties":{"id":"宮古フェリー_長山～平良","name":"長山～平良","operator":"宮古フェリー","category":"ferry","attribution":"© OpenStreetMap contributors"},"geometry":{"type":"MultiLineString","coordinates":[[[125.2015983,24.8042496],[125.2016795,24.8038047],[125.2017742,24.8034242],[125.2019229,24.8031849],[125.2051342,24.8005215],[125.2072705,24.7995886],[125.2161047,24.7958973],[125.2190827,24.7953585],[125.2217981,24.7955861],[125.2633521,24.8141403],[125.2649975,24.8146344],[125.2663647,24.8146859],[125.2674858,24.814375],[125.2697399,24.8123105],[125.2729693,24.8075078],[125.2736271,24.8069736],[125.2744671,24.8065933]]]}}