{"type":"Feature","properties":{"id":"宮浦_家浦","name":"宮浦>家浦","operator":"","category":"ferry","attribution":"© OpenStreetMap contributors"},"geometry":{"type":"MultiLineString","coordinates":[[[133.9739442,34.4567572],[133.9736135,34.4567029],[133.9725298,34.4564178],[133.9716103,34.456477],[133.9702367,34.4573253],[133.9694439,34.4577222],[133.9689626,34.4581074],[133.9680919,34.458977],[133.9670797,34.4602318],[133.9664285,34.461224],[133.9651872,34.4636226],[133.9635935,34.4671085],[133.9629268,34.469696],[133.9624883,34.472396],[133.9623596,34.4741118],[133.9625312,34.4759515],[133.9640333,34.4785517],[133.9657284,34.4795422],[133.9834525,34.4856445],[133.9883448,34.488209],[133.9939238,34.49187],[133.9993955,34.4958138],[134.003215,34.4986433],[134.0067126,34.5018795],[134.0102746,34.5050447],[134.0141798,34.5073788],[134.0195013,34.509536],[134.0225269,34.5100487],[134.0257884,34.5102432],[134.028814,34.5099426],[134.0307237,34.5102786],[134.0341784,34.5102963],[134.0381266,34.5096244],[134.0409161,34.5084751],[134.0423323,34.5075556],[134.0449287,34.5047971],[134.0474178,34.501738],[134.0508939,34.4980597],[134.0538551,34.495018],[134.0552284,34.4932495],[134.056666,34.4916932],[134.0583827,34.4906143],[134.0593912,34.4901014],[134.0610634,34.4896683]]]}}