{"type":"Feature","properties":{"id":"宮窪漁協_潮流体験船","name":"潮流体験船","operator":"宮窪漁協","category":"ferry","attribution":"© OpenStreetMap contributors"},"geometry":{"type":"MultiLineString","coordinates":[[[133.0875031,34.1701484],[133.0875237,34.1701575],[133.0875114,34.1703103],[133.0873956,34.17039],[133.0868021,34.1705524],[133.084785,34.1712128],[133.0840641,34.1715111],[133.0837722,34.1718661],[133.083695,34.1726189],[133.0836263,34.1755587],[133.0834375,34.1769292],[133.0827938,34.1797908],[133.0826221,34.1808488],[133.0825105,34.1810405],[133.0822273,34.181147],[133.0820299,34.1812535],[133.0819612,34.1813955],[133.082047,34.1815801],[133.0823646,34.1818357],[133.0826822,34.1821836],[133.0827337,34.18256],[133.0825363,34.1832558],[133.0821758,34.1836179],[133.0817466,34.183838],[133.0813089,34.1840084],[133.0810514,34.1840084],[133.0809226,34.1838948],[133.0808025,34.1836818],[133.0811716,34.1844912],[133.0816694,34.18589],[133.0820041,34.1872035],[133.0826822,34.1885879],[133.0839611,34.1905404],[133.0854202,34.1924857],[133.0864845,34.1937849],[133.0877033,34.1949492],[133.0881153,34.1956378],[133.0885959,34.1961489],[133.0887504,34.1963761],[133.0886217,34.1965181],[133.0883384,34.1965536],[133.0879608,34.1963974],[133.0872827,34.1957727],[133.0856948,34.1943173],[133.0842615,34.1930252],[133.0834976,34.1925425],[133.0826908,34.1923295],[133.0821939,34.1922282],[133.0816685,34.1922279],[133.0811472,34.1923556],[133.0794807,34.1929187],[133.0789743,34.1932453],[133.0785366,34.1937139],[133.077704,34.194793],[133.0772405,34.1955029],[133.0763565,34.1972564],[133.075996,34.1976043],[133.0754981,34.1977959],[133.0749574,34.1978243],[133.0741334,34.1976824],[133.0726829,34.1971357],[133.0714727,34.1964826],[133.0707088,34.1958579],[133.0703054,34.1952828],[133.0701766,34.1947646],[133.0701337,34.1940759],[133.0703226,34.1933944],[133.0706916,34.1927555],[133.0712924,34.1922017],[133.0742708,34.1899298],[133.0756097,34.1886589],[133.0766569,34.1873455],[133.0777297,34.1856983],[133.0786396,34.1838593],[133.0797983,34.18207],[133.0796009,34.1820416],[133.0795064,34.1817576],[133.0795494,34.1811541],[133.0796781,34.1805931],[133.0798841,34.1798689],[133.0804248,34.1791588],[133.080957,34.1778949],[133.0817552,34.1758996],[133.082768,34.1733574],[133.0833431,34.1722212],[133.0835784,34.1717366],[133.0838382,34.1714875],[133.0843473,34.1712341],[133.0849309,34.171085],[133.0860639,34.1707033],[133.0871955,34.1703889],[133.0875114,34.1703103]]]}}