{"type":"Feature","properties":{"id":"宿毛市営定期船航路","name":"宿毛市営定期船航路","operator":"","category":"ferry","attribution":"© OpenStreetMap contributors"},"geometry":{"type":"MultiLineString","coordinates":[[[132.550209,32.7148493],[132.5491644,32.7148343],[132.5479896,32.7174882],[132.5327466,32.717398],[132.5259156,32.7353524],[132.5226038,32.7460307],[132.5171946,32.7671976],[132.5138828,32.7798211],[132.5107918,32.7885451],[132.5079216,32.7947627],[132.5039475,32.7990313],[132.5001941,32.8007016],[132.4968019,32.800912],[132.4947672,32.8009739],[132.4944466,32.7991179]],[[132.5475265,32.7391826],[132.5467229,32.7387739],[132.5441077,32.7392703],[132.5398771,32.7389022],[132.5347252,32.7372607],[132.5312126,32.7349626],[132.529105,32.7323361],[132.5334332,32.7183367],[132.5482471,32.7178132],[132.5492395,32.7149517],[132.550209,32.7148493]],[[132.6976262,32.9206771],[132.6954071,32.9194076],[132.6873069,32.9189573],[132.6788364,32.9160302],[132.6599757,32.8923378],[132.6373385,32.8679514],[132.6242246,32.8544443],[132.5835557,32.8128608],[132.5624017,32.7923242],[132.5461654,32.7763116],[132.5383594,32.7685667],[132.5346126,32.7626592],[132.5332856,32.7579329],[132.5328172,32.7516964],[132.5343784,32.7459847],[132.5375008,32.7417171],[132.5396084,32.7404696],[132.5442472,32.739347],[132.5466746,32.7388506],[132.5475265,32.7391826]],[[132.4944466,32.7991179],[132.4946813,32.8010325],[132.5189293,32.8031561],[132.5396812,32.8067363],[132.5643479,32.8125097],[132.5958838,32.8369113],[132.6408459,32.880188],[132.6538626,32.8918796],[132.6783215,32.9166066],[132.687221,32.9190744],[132.6950745,32.9195427],[132.6976262,32.9206771]]]}}