{"type":"Feature","properties":{"id":"富士山清水港クルーズ_駿河湾フェリー","name":"駿河湾フェリー","operator":"富士山清水港クルーズ","category":"ferry","attribution":"© OpenStreetMap contributors"},"geometry":{"type":"MultiLineString","coordinates":[[[138.4916329,35.0217876],[138.4919985,35.0210626],[138.4929252,35.0201707],[138.4971951,35.016061],[138.4982215,35.0159932],[138.4994971,35.0161485],[138.5000997,35.0164838],[138.5018015,35.0185419],[138.5035117,35.0200826],[138.506868,35.0219033],[138.510267,35.0233213],[138.522703,35.0258949],[138.524774,35.0259692],[138.5261949,35.0256597],[138.5288855,35.0244466],[138.5597476,35.0108662],[138.766366,34.9192707],[138.7830404,34.9112422],[138.7858248,34.9093839],[138.7862203,34.9090377],[138.7864608,34.9086564],[138.7866532,34.9082839],[138.7866853,34.9079683],[138.7866372,34.9076264],[138.7864875,34.9072933],[138.7862257,34.9069909],[138.7857928,34.9065965],[138.7852449,34.906311],[138.7851816,34.9060384],[138.7852099,34.90594],[138.7852379,34.905915]]]}}