{"type":"Feature","properties":{"id":"対馬市営渡海船「うみさちひこ」","name":"対馬市営渡海船「うみさちひこ」","operator":"","category":"ferry","attribution":"© OpenStreetMap contributors"},"geometry":{"type":"MultiLineString","coordinates":[[[129.3119411,34.3839496],[129.3114753,34.3835519],[129.3106003,34.3834706],[129.3090844,34.3841317],[129.3081724,34.3841927],[129.3076425,34.384091],[129.3066565,34.3830434],[129.3067551,34.3819653],[129.3063854,34.3811007],[129.3057322,34.380643],[129.3041301,34.3800836],[129.3028607,34.3798598],[129.301468,34.3799005],[129.3000384,34.3806735],[129.2984609,34.381711],[129.2974257,34.3826569],[129.2966493,34.3837554],[129.295795,34.3846461]],[[129.295795,34.3846461],[129.2966493,34.3837554],[129.2974257,34.3826569],[129.2984609,34.381711],[129.3000384,34.3806735],[129.301468,34.3799005],[129.3018628,34.3793773],[129.3019487,34.3787221],[129.3016697,34.3775887],[129.2988373,34.3743123],[129.2973567,34.3727892],[129.2960478,34.3714077],[129.295447,34.3699377],[129.2945887,34.3681843],[129.2940093,34.3667319],[129.2937089,34.3649429],[129.2939021,34.3637031],[129.2946745,34.3628351],[129.295683,34.3622683],[129.2969705,34.3622683],[129.3003313,34.362785],[129.3022411,34.3630507]],[[129.3022411,34.3630507],[129.3003313,34.362785],[129.2996354,34.3624034],[129.2993026,34.3617523],[129.2991308,34.3607703],[129.299822,34.3595213],[129.3010735,34.3572544],[129.301746,34.3561287],[129.3023064,34.3549258],[129.3029602,34.3542319],[129.3036862,34.3540153],[129.3046089,34.3537673],[129.3053814,34.3537673],[129.3067332,34.3539799],[129.3083855,34.3550959],[129.3091703,34.3561191],[129.309606,34.3562876],[129.3100378,34.3562993],[129.3104283,34.3562661]],[[129.3104283,34.3562661],[129.3100378,34.3562993],[129.309606,34.3562876],[129.3091703,34.3561191],[129.3083855,34.3550959],[129.3067332,34.3539799],[129.3053814,34.3537673],[129.3046089,34.3537673],[129.3031792,34.3535587],[129.302075,34.3532198],[129.3007231,34.3525112],[129.2990494,34.3512711],[129.2983199,34.3496236],[129.2981697,34.3473914],[129.2986632,34.34523],[129.2994786,34.3426788],[129.3005729,34.3407122],[129.3018175,34.3398794],[129.303577,34.3393125],[129.3052292,34.3391176],[129.3069244,34.3393833],[129.30892,34.3402869],[129.3096066,34.3411905],[129.3098641,34.342537],[129.3098856,34.3435115],[129.3091527,34.3441811]],[[129.3091527,34.3441811],[129.3098856,34.3435115],[129.3098641,34.342537],[129.3096066,34.3411905],[129.30892,34.3402869],[129.3069244,34.3393833],[129.3052292,34.3391176],[129.303577,34.3393125],[129.3014812,34.3394219],[129.2986917,34.3392447],[129.2953443,34.3386777],[129.2925119,34.3379513],[129.2897653,34.3366224],[129.2864608,34.335896],[129.2833924,34.335896],[129.2796588,34.336587],[129.2775988,34.3391916],[129.2670417,34.3529041],[129.266069,34.3532043],[129.2658088,34.3537816],[129.2664593,34.3543925],[129.2679171,34.3550641],[129.2704355,34.3562243]]]}}