{"type":"Feature","properties":{"id":"対馬市_対馬市営渡海船「うみさちひこ」","name":"対馬市営渡海船「うみさちひこ」","operator":"対馬市","category":"ferry","attribution":"© OpenStreetMap contributors"},"geometry":{"type":"MultiLineString","coordinates":[[[129.2662219,34.3552209],[129.266508,34.3548892],[129.2664593,34.3543925],[129.2658088,34.3537816],[129.266069,34.3532043],[129.2670417,34.3529041],[129.2796588,34.336587],[129.2895803,34.3221662],[129.2916617,34.3213333],[129.2996654,34.3205181],[129.3035707,34.3190471],[129.3090639,34.3149178],[129.3135485,34.3088386],[129.3136558,34.306942],[129.3126688,34.3042833],[129.3079052,34.3019081],[129.3071112,34.3000646],[129.3077979,34.2975652],[129.3136773,34.2850138],[129.3142628,34.2846039],[129.3147016,34.2844957],[129.315091,34.2844957],[129.315183,34.2845454],[129.3151616,34.2847193]]]}}