{"type":"Feature","properties":{"id":"小笠原海運_東京～父島","name":"東京～父島","operator":"小笠原海運","category":"ferry","attribution":"© OpenStreetMap contributors"},"geometry":{"type":"MultiLineString","coordinates":[[[139.7634177,35.6534045],[139.7635237,35.6533308],[139.7643017,35.6219414],[139.7889658,35.5915231],[139.8385547,35.5433557],[139.845123,35.5323804],[139.846376,35.5206794],[139.7718086,35.4078856],[139.7289324,35.3252444],[139.7284879,35.3169183],[139.7690719,35.259482],[139.7698912,35.2513269],[139.72012,35.1346113],[139.7102065,34.9415651],[142.103176,27.141493],[142.1090125,27.1275911],[142.1164798,27.1160558],[142.1259212,27.1058182],[142.1379375,27.0944335],[142.1484946,27.0869449],[142.1585368,27.0819013],[142.1687507,27.0803729],[142.1745013,27.0799144],[142.1818828,27.079838],[142.1865176,27.0801436],[142.1901655,27.0806594],[142.1931696,27.0843467],[142.1947682,27.0878045],[142.1952617,27.092227],[142.19612,27.0938794],[142.1965384,27.0945289],[142.1969988,27.0949247],[142.197032,27.0951549]]]}}