{"type":"Feature","properties":{"id":"小菜园_-_花鸟","name":"小菜园 - 花鸟","operator":"","category":"ferry","attribution":"© OpenStreetMap contributors"},"geometry":{"type":"MultiLineString","coordinates":[[[122.4612881,30.7318307],[122.4613396,30.7317252],[122.461451,30.7316915],[122.4624699,30.7315858],[122.4658602,30.7313875],[122.4680489,30.7314244],[122.4777424,30.7331121],[122.4873179,30.7359755],[122.5506019,30.7694217],[122.6456594,30.8042984],[122.6504659,30.8063626],[122.6936388,30.8396784],[122.6947814,30.8409127],[122.6957202,30.84223],[122.696321,30.8435518],[122.6964605,30.8448645],[122.6958273,30.8483334]]]}}