{"type":"Feature","properties":{"id":"小菜园_-_嵊山箱子岙","name":"小菜园 - 嵊山箱子岙","operator":"","category":"ferry","attribution":"© OpenStreetMap contributors"},"geometry":{"type":"MultiLineString","coordinates":[[[122.4612881,30.7318307],[122.4614195,30.7317655],[122.462478,30.7316738],[122.4658549,30.7314152],[122.4680811,30.7312031],[122.4783968,30.730244],[122.4894476,30.7294094],[122.5269073,30.7284456],[122.6229357,30.7220542],[122.748184,30.7351964],[122.7780532,30.738885],[122.7877521,30.7381472],[122.7968073,30.7333518],[122.8004122,30.7290912],[122.8030944,30.7275049],[122.8044677,30.7267809],[122.8053501,30.72664]]]}}