{"type":"Feature","properties":{"id":"巌流島連絡船","name":"巌流島連絡船","operator":"","category":"ferry","attribution":"© OpenStreetMap contributors"},"geometry":{"type":"MultiLineString","coordinates":[[[130.9603787,33.9463322],[130.9603254,33.9463222],[130.9595573,33.9470496],[130.9568966,33.9481354],[130.954386,33.948616],[130.9515536,33.9487228],[130.9479487,33.9485448],[130.9453953,33.947993],[130.9280379,33.9369246],[130.9284596,33.935826]],[[130.9429054,33.9553721],[130.9428418,33.9552907],[130.9437216,33.9552907],[130.9464896,33.9545254],[130.9468544,33.9531015],[130.9460819,33.9519623],[130.9274371,33.9369246],[130.9284596,33.935826]]]}}