{"type":"Feature","properties":{"id":"川口汽船有限会社_小川島航路（そよかぜ）呼子～小川島","name":"小川島航路（そよかぜ）呼子～小川島","operator":"川口汽船有限会社","category":"ferry","attribution":"© OpenStreetMap contributors"},"geometry":{"type":"MultiLineString","coordinates":[[[129.8946113,33.539298],[129.8944525,33.539296],[129.8942485,33.5393272],[129.894022,33.5394511],[129.8938238,33.5396694],[129.8930865,33.5409585],[129.8927821,33.5413479],[129.8923716,33.541696],[129.8906516,33.5425983],[129.8899757,33.5428665],[129.8888305,33.5433829],[129.8882925,33.543961],[129.8880094,33.5447634],[129.887882,33.5458253],[129.887882,33.5471468],[129.8881793,33.5487278],[129.8886606,33.5495183],[129.8894251,33.5502262],[129.8902603,33.5507099],[129.8916477,33.5511346],[129.8929077,33.5514886],[129.8955567,33.5526525],[129.8961442,33.552912],[129.8986584,33.5545595],[129.8999244,33.5558291],[129.9008042,33.5569735],[129.9010831,33.5579927],[129.9005252,33.5714384],[129.8992292,33.5924018],[129.8989889,33.5927363],[129.8985996,33.5930429],[129.8980102,33.5931524],[129.8972567,33.5934527],[129.8970331,33.5935136],[129.896912,33.5936393],[129.896912,33.5941521],[129.8968666,33.5941635]]]}}