{"type":"Feature","properties":{"id":"市運航船","name":"市運航船","operator":"","category":"ferry","attribution":"© OpenStreetMap contributors"},"geometry":{"type":"MultiLineString","coordinates":[[[136.8661382,34.367944],[136.866229,34.3676953],[136.8661966,34.3674928],[136.8646415,34.3638881],[136.8648446,34.3640969],[136.8652197,34.3641757],[136.8655064,34.3641115],[136.8660019,34.3635914],[136.8684373,34.3599161],[136.8706246,34.3573185],[136.8720963,34.3564056],[136.8726248,34.356278],[136.873324,34.3562243],[136.8741615,34.3563519],[136.8751616,34.3571708],[136.8754381,34.3576675],[136.8760398,34.3585804],[136.8762186,34.3590032],[136.8761699,34.3594798],[136.87605,34.3598636],[136.875797,34.3602563]]]}}