{"type":"Feature","properties":{"id":"常滑フーズ_トリトンライン","name":"トリトンライン","operator":"常滑フーズ","category":"ferry","attribution":"© OpenStreetMap contributors"},"geometry":{"type":"MultiLineString","coordinates":[[[136.8481837,35.0463664],[136.8481654,35.0461042],[136.8489524,35.0445889],[136.8495277,35.0437882],[136.8503743,35.0430951],[136.8512127,35.0427855],[136.8522236,35.0428528],[136.8525771,35.0429201],[136.8535798,35.0434046],[136.8554456,35.044488],[136.856251,35.0450869],[136.8570894,35.0458204],[136.8578374,35.0466413],[136.8588401,35.0479198],[136.860262,35.049898],[136.8616429,35.0528452],[136.8621853,35.0538948],[136.8625223,35.0549175],[136.8639607,35.0587121],[136.864273,35.0596944],[136.8646264,35.060569],[136.8652429,35.0629977],[136.8656292,35.0640742],[136.8664265,35.0660251],[136.8684977,35.0692744],[136.8692292,35.0701556],[136.8701004,35.0710167],[136.8710457,35.0716355],[136.872221,35.0722544],[136.8734785,35.072732],[136.8745224,35.0729271],[136.8760923,35.073028],[136.8780238,35.0726984],[136.8795443,35.0723889],[136.8804675,35.071927],[136.8808471,35.0721939],[136.8807854,35.0729675],[136.8804649,35.0740437],[136.880243,35.0751334],[136.8800621,35.076351],[136.8799717,35.0776021],[136.880358,35.0785438],[136.8805142,35.0795527],[136.8804402,35.0811804],[136.880358,35.0830301],[136.8803252,35.0840121],[136.8801032,35.0859626],[136.8799142,35.0878256],[136.8795309,35.0894966],[136.8803681,35.089613],[136.8803745,35.0897908]]]}}