{"type":"Feature","properties":{"id":"平戸市営フェリー","name":"平戸市営フェリー","operator":"","category":"ferry","attribution":"© OpenStreetMap contributors"},"geometry":{"type":"MultiLineString","coordinates":[[[129.5288474,33.4832173],[129.5292335,33.4832263],[129.5273468,33.4823566],[129.5271644,33.4820792],[129.5271,33.4816766],[129.5271,33.4811933],[129.5271858,33.4808712],[129.527497,33.4802269],[129.5291434,33.4761091],[129.5300838,33.4744735],[129.5333497,33.4706229],[129.5395398,33.465673],[129.5465451,33.460324],[129.5521733,33.4550833],[129.5563153,33.4504594],[129.5605742,33.4442891],[129.5650929,33.4353324],[129.5682498,33.4267739],[129.570383,33.4192694],[129.5713355,33.4145125],[129.5722649,33.4085913],[129.5726523,33.4042978],[129.5726683,33.3989316],[129.5725256,33.3968693],[129.5717227,33.394027],[129.5705211,33.3921011],[129.5678282,33.3879714],[129.5666914,33.3844148],[129.565348,33.3802367],[129.5640047,33.3779932],[129.5626613,33.3764392],[129.5607264,33.3750601],[129.5596049,33.373856],[129.5591243,33.3729914],[129.5586683,33.3723842],[129.5580767,33.3719622],[129.5573743,33.3717152],[129.5566225,33.371602],[129.5563021,33.3716226],[129.5559254,33.3718521]]]}}