{"type":"Feature","properties":{"id":"平郡航路有限会社_平郡航路(柳井-平郡西-平郡東)","name":"平郡航路(柳井-平郡西-平郡東)","operator":"平郡航路有限会社","category":"ferry","attribution":"© OpenStreetMap contributors"},"geometry":{"type":"MultiLineString","coordinates":[[[132.133587,33.9563912],[132.1334477,33.955309],[132.1335451,33.9547874],[132.1338902,33.9542931],[132.1343876,33.9538549],[132.1351432,33.9534691],[132.1378176,33.9524243],[132.1385791,33.9520418],[132.1392461,33.9514919],[132.1397378,33.9507838],[132.1402235,33.9496649],[132.1675346,33.8688231],[132.1705726,33.848863],[132.1707478,33.8470629],[132.1706747,33.8440936],[132.170036,33.8373112],[132.1652155,33.806985],[132.1649963,33.8025007],[132.1655044,33.7997273],[132.1661967,33.7971376],[132.166926,33.7951684],[132.1676839,33.7936859],[132.1680942,33.7932017],[132.1689209,33.7925603],[132.1700575,33.7919438],[132.1710111,33.7915347],[132.1723226,33.7913411],[132.1737288,33.7914007],[132.1764608,33.7919835],[132.1835864,33.7945985],[132.1846743,33.7951225],[132.1975597,33.8020886],[132.1979794,33.8022432],[132.1983523,33.802297],[132.1986071,33.8023184],[132.1988863,33.8022614],[132.1991592,33.8021664],[132.1992887,33.8020793],[132.1994392,33.8018349]],[[132.1994392,33.8018349],[132.1991488,33.8020958],[132.1988522,33.8022121],[132.1986692,33.8022371],[132.1984619,33.8022174],[132.1982262,33.8021346],[132.1980673,33.8020436],[132.1979529,33.8018975],[132.1978845,33.8016692],[132.1970015,33.7975612],[132.1966222,33.7948371],[132.1972617,33.7848526],[132.198166,33.7804696],[132.199387,33.7774579],[132.2003263,33.7760865],[132.2014356,33.774912],[132.2038932,33.773083],[132.2054383,33.7723467],[132.2078863,33.7716468],[132.222448,33.7674085],[132.2322521,33.7650581],[132.234856,33.7645351],[132.2372481,33.7641518],[132.2516946,33.7624618],[132.2547205,33.7622919],[132.256847,33.7622668],[132.2583946,33.7623194],[132.2592838,33.7624242],[132.2602584,33.7626222],[132.2615509,33.7629641],[132.2626436,33.7633326],[132.2654467,33.7644613],[132.2690768,33.7661635],[132.2704534,33.7668658],[132.2716102,33.767584],[132.2725074,33.7682801],[132.2735585,33.7692141],[132.2745988,33.7704247],[132.2755168,33.7719654],[132.2763853,33.7747865],[132.2782094,33.7824878],[132.2782429,33.7829389],[132.2781813,33.7833767],[132.2780086,33.7839748],[132.277753,33.7844573],[132.2772529,33.7848942],[132.2764462,33.7852431],[132.2752634,33.7854849],[132.2743838,33.7856305],[132.2735184,33.7856236],[132.2727446,33.785478],[132.2687851,33.7843681],[132.2683023,33.7841335],[132.262664,33.7800246],[132.2625503,33.7798944],[132.2625029,33.7797746],[132.2624801,33.7796377],[132.2625009,33.7794973],[132.2625639,33.7793853],[132.2627692,33.7791895],[132.2629321,33.7790898],[132.26317,33.7790076]]]}}