{"type":"Feature","properties":{"id":"座間味村_泊～阿嘉〜座間味_クイーンざまみ","name":"泊～阿嘉〜座間味 クイーンざまみ","operator":"座間味村","category":"ferry","attribution":"© OpenStreetMap contributors"},"geometry":{"type":"MultiLineString","coordinates":[[[127.6823895,26.2261245],[127.6823012,26.2258152],[127.6814985,26.2259149],[127.6760012,26.2272872],[127.6732142,26.227941],[127.6719431,26.2280848],[127.6709601,26.2279964],[127.6696644,26.2276766],[127.6636281,26.2261605],[127.661786,26.2255005],[127.6559096,26.2232772],[127.6538368,26.22275],[127.6526287,26.2225916],[127.6518143,26.2226343],[127.6508385,26.2228635],[127.650103,26.2231419],[127.6491786,26.2236903],[127.6457708,26.2259474],[127.6433382,26.227056],[127.6414409,26.2277834],[127.6387293,26.2285409],[127.6261267,26.2299221],[127.6103679,26.2313587],[127.5889646,26.232706],[127.5748738,26.2335436],[127.5601659,26.2346661],[127.5520632,26.2355408],[127.545457,26.2366011],[127.5296135,26.2389889],[127.5172783,26.240696],[127.4992138,26.2426512],[127.4810575,26.2447618],[127.4690465,26.2466775],[127.460733,26.2485878],[127.455779,26.2493021],[127.4439937,26.2479413],[127.431332,26.2463668],[127.4210351,26.2447479],[127.4077472,26.2429264],[127.4062521,26.2429108],[127.4005637,26.2436448],[127.3904972,26.2443808],[127.3757487,26.2455294],[127.3716948,26.2457347],[127.3657062,26.2456705],[127.3626315,26.2448071],[127.3616404,26.2439987],[127.3608842,26.2427282],[127.3597334,26.2402907],[127.3560258,26.2345211],[127.3533515,26.2308892],[127.3521993,26.2297784],[127.3502634,26.2285903],[127.3452476,26.2254721],[127.3415949,26.2229825],[127.3366343,26.2196618],[127.3350913,26.2182845],[127.3332641,26.2159525],[127.3308401,26.2117342],[127.3288214,26.2074753],[127.3278608,26.2054894],[127.3272479,26.2043773],[127.3255105,26.2015319],[127.3246244,26.2004379],[127.323276,26.1989936],[127.3214195,26.1975247],[127.3186655,26.1956525],[127.3160192,26.1942355],[127.3141634,26.1936518],[127.3124043,26.193306],[127.3076688,26.1928295],[127.2995786,26.1918362],[127.2957685,26.191341],[127.2939143,26.1911144],[127.2923455,26.190887],[127.2910498,26.1906355],[127.2888754,26.18978],[127.2879839,26.1894262],[127.2875302,26.1893327]],[[127.6433382,26.227056],[127.6169517,26.2265771],[127.6113576,26.2266762],[127.6009507,26.2256945],[127.5888271,26.2243855],[127.576961,26.2231151],[127.5653329,26.2216781],[127.5538145,26.2201187],[127.5453906,26.2185079],[127.53647,26.2162287],[127.5284472,26.2131269],[127.523347,26.2109675],[127.5182277,26.2099564],[127.5145219,26.2094765],[127.5111027,26.2083283],[127.5070913,26.2062031],[127.5022585,26.2033067],[127.4888681,26.1944456],[127.4687156,26.1843325],[127.4490598,26.1759328],[127.4469777,26.1747842],[127.4440169,26.1714584],[127.4361661,26.1633321],[127.431658,26.1602975],[127.4276848,26.1585315],[127.4085829,26.1505415],[127.4006748,26.1479008],[127.3832348,26.1421222],[127.3697488,26.1385897],[127.3605035,26.1366176],[127.354761,26.1349946],[127.3453249,26.1318977],[127.3430378,26.1310001],[127.3407131,26.1307196],[127.3386759,26.1309552],[127.3371012,26.131505],[127.3354764,26.1325934],[127.3340516,26.1339511],[127.331352,26.137205],[127.3268027,26.1441837],[127.3218784,26.1516107],[127.3166917,26.1593626],[127.3125548,26.1657342],[127.3078101,26.172813],[127.3052403,26.176521],[127.302642,26.180146],[127.3018043,26.1813437],[127.2997384,26.1839494],[127.2983044,26.1858924],[127.2966771,26.188129],[127.2960905,26.1888462],[127.2953399,26.1895335],[127.2945588,26.1899589],[127.293562,26.190267],[127.2926685,26.1903734],[127.2919079,26.1903143],[127.2911397,26.1901547],[127.2903733,26.1899503],[127.289807,26.1897954],[127.2889008,26.1895769],[127.2881395,26.1893756],[127.2875302,26.1893327],[127.2872304,26.1893302],[127.2868847,26.1894119],[127.2864461,26.1896712],[127.2859481,26.189995],[127.2857875,26.1900137],[127.2855293,26.1899185],[127.2853223,26.189729],[127.2855186,26.1899262],[127.2857836,26.1900278],[127.2859538,26.1900067],[127.2865308,26.1896421],[127.2869117,26.1894341],[127.2872285,26.1893617],[127.2876541,26.1894235],[127.2879633,26.1894919],[127.2882345,26.1896054],[127.2886457,26.1897735],[127.2921727,26.1911256],[127.2939745,26.1917757],[127.2953464,26.1924681],[127.2962339,26.1931129],[127.2969742,26.1939762],[127.2974723,26.1949191],[127.2976974,26.1959767],[127.2982144,26.1997693],[127.2993667,26.207402],[127.3000537,26.2111313],[127.3002894,26.2127558],[127.3002699,26.2136548],[127.3001721,26.2145065],[127.2996117,26.2160591],[127.298729,26.21822],[127.2982716,26.2192802],[127.2979051,26.220288],[127.2978037,26.2210033],[127.2978582,26.2215814],[127.2980533,26.222065],[127.2983112,26.222438],[127.2986408,26.2227739],[127.2993129,26.2233158],[127.2998601,26.2237632],[127.3001517,26.2241461],[127.3003485,26.2246357],[127.3005166,26.2251816],[127.3009956,26.2262589],[127.3011994,26.2264907],[127.3013511,26.226452]]]}}