{"type":"Feature","properties":{"id":"弓場汽船株式会社_弓場汽船(須波－向田－沢)","name":"弓場汽船(須波－向田－沢)","operator":"弓場汽船株式会社","category":"ferry","attribution":"© OpenStreetMap contributors"},"geometry":{"type":"MultiLineString","coordinates":[[[133.0901434,34.3135902],[133.0903253,34.3144374],[133.0931415,34.3304832],[133.0933441,34.3310142],[133.0936656,34.3314908],[133.0942308,34.3318961],[133.0949908,34.3321011],[133.0957184,34.3321636],[133.0962899,34.3321217],[133.0967511,34.3319888],[133.0972937,34.3317373],[133.0977591,34.3312227],[133.0987799,34.3296079],[133.0989007,34.329507],[133.0990308,34.3294482],[133.0991617,34.3294132],[133.0992858,34.3294149],[133.0994436,34.3294586],[133.0992712,34.3294508],[133.0991385,34.3294868],[133.0990391,34.3295372],[133.0989327,34.3296409],[133.0859582,34.3555785],[133.0858688,34.3562249],[133.0856654,34.3568951],[133.0852087,34.3580475],[133.0846325,34.359302],[133.0845306,34.3594927],[133.084434,34.3596057],[133.0843482,34.359681],[133.0842838,34.3597142],[133.0840287,34.3597842]]]}}