{"type":"Feature","properties":{"id":"弓場汽船株式会社_弓場汽船(三原－沢－瀬戸田)","name":"弓場汽船(三原－沢－瀬戸田)","operator":"弓場汽船株式会社","category":"ferry","attribution":"© OpenStreetMap contributors"},"geometry":{"type":"MultiLineString","coordinates":[[[133.0901434,34.3135902],[133.0901555,34.31384],[133.0981614,34.3791304],[133.0985261,34.3829202],[133.0984618,34.3845139],[133.0981614,34.3869399],[133.0978399,34.3878151],[133.097346,34.3887107],[133.0966261,34.3895403],[133.0955926,34.3903347],[133.0946866,34.3909071],[133.0932851,34.3916665],[133.0839375,34.3957005],[133.0824995,34.3962746],[133.0819574,34.3965628],[133.081742,34.3967205],[133.0816606,34.3968379],[133.0816228,34.3970157],[133.0816196,34.3971832],[133.0816523,34.3974788]]]}}