{"type":"Feature","properties":{"id":"弓場汽船株式会社_弓場汽船ラビットライン(三原－須波－大久野島)","name":"弓場汽船ラビットライン(三原－須波－大久野島)","operator":"弓場汽船株式会社","category":"ferry","attribution":"© OpenStreetMap contributors"},"geometry":{"type":"MultiLineString","coordinates":[[[133.0840287,34.3597842],[133.0843243,34.359731],[133.0844039,34.3596955],[133.0844588,34.359655],[133.0845717,34.3595575],[133.084657,34.3594447],[133.0848906,34.3590415],[133.0849896,34.3589315],[133.0851073,34.3588716],[133.0852642,34.3588385],[133.0854163,34.3588246],[133.0857578,34.3588313],[133.086205,34.3588917],[133.0866603,34.3590394],[133.0870181,34.3592542],[133.0871807,34.3593616],[133.0875139,34.3597867],[133.0877717,34.3603196],[133.0960904,34.3761308],[133.0970237,34.3781254],[133.0975022,34.3796832],[133.0977426,34.3807928],[133.0979993,34.3824658],[133.098051,34.3836528],[133.0977211,34.3865968],[133.09752,34.3873162],[133.097123,34.3880422],[133.0970291,34.3882635],[133.0968789,34.3884273],[133.096608,34.3888456],[133.0962567,34.3892706],[133.0959348,34.3896314],[133.0956102,34.3899369],[133.0952964,34.3901848],[133.0948968,34.3904526],[133.0943147,34.3908067],[133.0937515,34.3911498],[133.0930058,34.391619],[133.092346,34.3919577],[133.0879364,34.3939231],[133.0824459,34.3962404],[133.0819438,34.3964949],[133.0817066,34.3966604],[133.0815732,34.396827],[133.0815075,34.3970138],[133.0815179,34.3971943],[133.081603,34.397373],[133.0816523,34.3974788]]]}}