{"type":"Feature","properties":{"id":"志摩マリンレジャー株式会社_賢島～間崎～和具航路","name":"賢島～間崎～和具航路","operator":"志摩マリンレジャー株式会社","category":"ferry","attribution":"© OpenStreetMap contributors"},"geometry":{"type":"MultiLineString","coordinates":[[[136.8119301,34.2632163],[136.8127334,34.2644432],[136.8133557,34.2650018],[136.8141496,34.2653831],[136.8145144,34.2660304],[136.8148363,34.2673781],[136.814804,34.2731057],[136.8138599,34.2762265],[136.8091312,34.2859204],[136.8090695,34.2864234],[136.8098085,34.2872256],[136.8086511,34.2862528],[136.8076908,34.286306],[136.8053412,34.2871392],[136.8049014,34.2883714],[136.8050998,34.290583],[136.8126798,34.2968098],[136.812787,34.2983431],[136.8121862,34.2997346],[136.8112367,34.3008425],[136.8111616,34.3014762],[136.8115854,34.3019592],[136.8175238,34.3038293],[136.8187147,34.3053758],[136.8189414,34.3071062],[136.8189119,34.3074208]]]}}