{"type":"Feature","properties":{"id":"折田汽船_鹿児島〜宮之浦","name":"鹿児島〜宮之浦","operator":"折田汽船","category":"ferry","attribution":"© OpenStreetMap contributors"},"geometry":{"type":"MultiLineString","coordinates":[[[130.5740898,30.4317008],[130.5743805,30.4313948],[130.5747994,30.4311454],[130.5754747,30.4310429],[130.5761978,30.431093],[130.5780808,30.4318758],[130.580191,30.4336691],[130.5843439,30.4407722],[130.5863529,30.446522],[130.5871157,30.4517872],[130.5880529,30.4564189],[130.5882919,30.6874166],[130.5883389,30.9895857],[130.5903275,31.0130746],[130.5934179,31.0306882],[130.6065929,31.0727494],[130.6173843,31.091139],[130.6819814,31.1654657],[130.6974479,31.1865557],[130.7098774,31.2087439],[130.7170722,31.2286142],[130.7189271,31.2405954],[130.7186484,31.2575062],[130.7140414,31.2741664],[130.6546122,31.361058],[130.6282279,31.4084735],[130.6175648,31.4311982],[130.6061078,31.4670854],[130.5876453,31.5539532],[130.5826679,31.5715372],[130.5771669,31.5909226],[130.5762895,31.5919579],[130.5752596,31.592543],[130.5740061,31.5928687],[130.5731079,31.5928236],[130.5723995,31.592565],[130.571622,31.5921199],[130.5707506,31.5917587],[130.569692,31.5915903],[130.5685674,31.5915517],[130.5677528,31.5916205],[130.567686,31.5916521]]]}}