{"type":"Feature","properties":{"id":"斎島汽船株式会社_斎島汽船(久比‐三角)","name":"斎島汽船(久比‐三角)","operator":"斎島汽船株式会社","category":"ferry","attribution":"© OpenStreetMap contributors"},"geometry":{"type":"MultiLineString","coordinates":[[[132.8189126,34.1906567],[132.8190321,34.1905977],[132.8190849,34.1905634],[132.8191285,34.1905279],[132.8192173,34.190424],[132.8192879,34.1902899],[132.8193729,34.1901532],[132.8195059,34.1900392],[132.8197324,34.1899139],[132.8200545,34.1898102],[132.8278936,34.1878946],[132.8284421,34.1877904],[132.8288445,34.1877517],[132.8293031,34.1877594],[132.8302146,34.1879757],[132.8306563,34.1880645],[132.8309533,34.188078],[132.8311415,34.1880767],[132.8313531,34.1880406],[132.8315023,34.1879968],[132.8316454,34.1879376]]]}}