{"type":"Feature","properties":{"id":"斎島汽船株式会社_斎島汽船(久比‐立花‐豊島‐大浜‐斎島)","name":"斎島汽船(久比‐立花‐豊島‐大浜‐斎島)","operator":"斎島汽船株式会社","category":"ferry","attribution":"© OpenStreetMap contributors"},"geometry":{"type":"MultiLineString","coordinates":[[[132.8061955,34.1640279],[132.8052612,34.1644935],[132.8049041,34.1646016],[132.8044832,34.1646989],[132.8036989,34.1647709],[132.8029309,34.1647359],[132.8019033,34.1645442],[132.8011942,34.1642613],[132.800633,34.1639274],[132.7998108,34.1633276],[132.7992743,34.1625493],[132.7989899,34.1616164],[132.7984213,34.1586222],[132.7935719,34.1214775],[132.7934068,34.1206215],[132.7933404,34.1199574],[132.7933375,34.1198548],[132.7933708,34.1197723],[132.7934299,34.1197148],[132.7935178,34.1196499],[132.7936031,34.1196117]],[[132.8316454,34.1879376],[132.8314963,34.1879718],[132.8312645,34.1880054],[132.8309743,34.1880245],[132.8307265,34.1880171],[132.830408,34.1879439],[132.8293781,34.1877068],[132.8290127,34.1876658],[132.828634,34.18766],[132.8282083,34.1877127],[132.8238211,34.1884551],[132.8230362,34.1885601],[132.8224661,34.188602],[132.8219192,34.1885562],[132.8214359,34.1884474],[132.8208084,34.1882025],[132.8189411,34.1873509],[132.817371,34.186511],[132.8159403,34.1855713],[132.8066183,34.1787157],[132.8065018,34.1786082],[132.8063991,34.1784696],[132.8063553,34.1783781],[132.806324,34.1782258],[132.806332,34.1780617],[132.8064094,34.1779091],[132.8065092,34.1778122],[132.8067015,34.1776848],[132.8070074,34.1774911]],[[132.8070074,34.1774911],[132.8066776,34.1775515],[132.7983503,34.178977]],[[132.7983503,34.178977],[132.7988275,34.1788412],[132.7992156,34.1787336],[132.7995142,34.1785924],[132.7997658,34.1784343],[132.799989,34.1781888],[132.8001052,34.1779802],[132.8011371,34.1754602],[132.8012504,34.1750133],[132.8013571,34.1743828],[132.8018432,34.1672836],[132.8019139,34.1669278],[132.8020979,34.1666071],[132.8026117,34.1660001],[132.8031807,34.1655775],[132.8038315,34.1651962],[132.8044371,34.1649052],[132.8052487,34.1645266],[132.8059893,34.1641474],[132.8061955,34.1640279]]]}}