{"type":"Feature","properties":{"id":"新屋敷商事_鹿児島〜種子・屋久","name":"鹿児島〜種子・屋久","operator":"新屋敷商事","category":"ferry","attribution":"© OpenStreetMap contributors"},"geometry":{"type":"MultiLineString","coordinates":[[[130.5162867,31.4824073],[130.5164261,31.4822586],[130.5166783,31.4821694],[130.5369021,31.4794199],[130.5394341,31.4794565],[130.5429532,31.4811767],[130.5443265,31.4816159],[130.5578019,31.4805911],[130.565355,31.4793467],[130.5717923,31.4770775],[130.5782296,31.4742959],[130.5847527,31.4704892],[130.5923058,31.4639005],[130.602863,31.4522592],[130.6098153,31.4433992],[130.6180175,31.4313434],[130.628709,31.4086588],[130.6550591,31.3612331],[130.7146256,31.274343],[130.7192604,31.2575424],[130.7195823,31.2405186],[130.7176725,31.2284643],[130.7104199,31.2084989],[130.69791,31.1862164],[130.682482,31.1651037],[130.618066,31.0907129],[130.6135814,31.0818924],[130.6116287,31.0725748],[130.6100623,31.0540288],[130.6106631,31.0368581],[130.6123797,31.0216703],[130.6166498,31.0049352],[130.6227438,30.9888961],[130.6357901,30.9710513],[130.649008,30.9601037],[130.9811728,30.7477843],[130.9828035,30.7461614],[130.9839837,30.7445016],[130.9843914,30.7437086],[130.9846382,30.7428142],[130.9848796,30.7319696],[130.9851424,30.7301159],[130.9853999,30.7293412],[130.9858934,30.7286772],[130.9866874,30.7282714],[130.9875028,30.7280869],[130.9885542,30.7281976],[130.9897344,30.7285296],[130.9914081,30.729249],[130.9919016,30.7296363],[130.9922449,30.7299868],[130.9925998,30.7301083],[130.9922884,30.7299191],[130.9919558,30.7295779],[130.9914515,30.7291906],[130.9897457,30.7284528],[130.9877769,30.7278533],[130.9870581,30.727798],[130.986008,30.7279224],[130.9853285,30.7280273],[130.9849048,30.7284001],[130.984649,30.728975],[130.9844706,30.7300283],[130.9844468,30.7319788],[130.9840577,30.7427396],[130.9838064,30.7435344],[130.983257,30.7442488],[130.9821681,30.7450466],[130.9809089,30.7454901],[130.9793274,30.7457476],[130.9778467,30.7457152],[130.9755264,30.7451707],[130.9734347,30.7443844],[130.9345984,30.7237343],[130.642068,30.5008393],[130.6226605,30.4838372],[130.6058377,30.4665275],[130.5912464,30.4491407],[130.5847823,30.4404924],[130.5803367,30.4335559],[130.5781671,30.4317586],[130.5757357,30.4307611],[130.5749764,30.4307256],[130.5742406,30.430878],[130.5735947,30.4312441],[130.5731677,30.4317383],[130.5729638,30.4320621]]]}}