{"type":"Feature","properties":{"id":"新日本海フェリー（敦賀―苫小牧東）","name":"新日本海フェリー（敦賀―苫小牧東）","operator":"","category":"ferry","attribution":"© OpenStreetMap contributors"},"geometry":{"type":"MultiLineString","coordinates":[[[136.0733414,35.678374],[136.0714872,35.6774911],[136.0708546,35.6773502],[136.0562844,35.6771601],[136.0551859,35.6772434],[136.0541887,35.6776268],[136.0534129,35.6782639],[136.052952,35.6790781],[136.0528556,35.679912],[136.0495789,35.7671961],[135.9505602,35.8845416],[135.945499,35.896593],[135.944512,35.899265],[135.936458,35.919631],[135.9198603,35.9898731],[135.9788353,36.1560996],[136.124189,36.431114],[136.124893,36.432156],[136.127609,36.437276],[136.128498,36.438427],[136.129453,36.439828],[136.130695,36.441931],[136.131519,36.443],[136.13238,36.444881],[136.133729,36.447293],[136.134569,36.448466],[136.135977,36.450998],[136.174775,36.514594],[136.176385,36.51742],[136.176966,36.518262],[136.177383,36.5192],[136.177899,36.519956],[136.178458,36.520934],[136.179376,36.522085],[136.180044,36.523364],[136.180711,36.524483],[136.21196,36.574609],[136.212561,36.5758],[136.214639,36.579385],[136.215483,36.580539],[136.216486,36.582466],[136.217037,36.583329],[136.217297,36.583643],[136.218159,36.585292],[136.218806,36.586395],[136.219412,36.587225],[136.220035,36.58833],[136.222625,36.592546],[136.223638,36.593923],[136.224537,36.595335],[136.225189,36.596196],[136.226238,36.59782],[136.226998,36.598874],[136.291409,36.701759],[136.29258,36.703678],[136.293152,36.704836],[136.293591,36.705872],[136.294292,36.706969],[136.294867,36.708087],[136.295376,36.709243],[136.295842,36.710551],[136.296708,36.711626],[136.297501,36.712789],[136.298785,36.715019],[136.335406,36.777232],[136.336272,36.778336],[136.337209,36.779671],[136.339312,36.783605],[136.339895,36.78478],[136.340354,36.785875],[136.34167,36.788178],[136.342306,36.789468],[136.371999,36.842601],[136.372814,36.843911],[136.37375,36.845764],[136.374646,36.847102],[136.375111,36.848217],[136.375698,36.849096],[136.376783,36.851476],[136.377825,36.85295],[136.378313,36.854083],[136.378855,36.854864],[136.379407,36.855815],[136.380183,36.856894],[136.383293,36.862143],[136.384069,36.863223],[136.38495,36.86458],[136.385795,36.865646],[136.386288,36.866711],[136.387289,36.86817],[136.387797,36.869142],[136.388625,36.870249],[136.389416,36.871617],[136.389897,36.872728],[136.390643,36.873861],[136.391516,36.874983],[136.392182,36.875982],[136.393261,36.878176],[136.410214,36.909603],[136.410606,36.910864],[136.411297,36.912193],[136.41266,36.91419],[136.413198,36.915286],[136.413543,36.916284],[136.414223,36.917422],[136.415568,36.919175],[136.444251,36.970372],[136.444941,36.971872],[136.445546,36.972992],[136.4694,37.014606],[136.469708,37.01546],[136.470443,37.016438],[136.470935,37.017494],[136.470977,37.017866],[136.472005,37.019426],[136.474069,37.022778],[136.474006,37.023059],[136.474918,37.024714],[136.658466,37.375685],[136.659134,37.377183],[136.664416,37.386595],[136.66518,37.388038],[136.667999,37.393724],[136.668806,37.395221],[136.672111,37.400969],[136.676692,37.409116],[136.677458,37.410584],[136.679889,37.414714],[136.682781,37.420648],[136.686143,37.426895],[136.686794,37.428313],[136.689201,37.43222],[136.690001,37.433614],[136.691524,37.436505],[136.692321,37.43789],[136.693009,37.438929],[136.694704,37.441868],[136.696056,37.444394],[136.69806,37.448361],[136.698757,37.449532],[136.700525,37.452791],[136.701209,37.454198],[136.705785,37.4623],[136.70717,37.465011],[136.710162,37.470122],[136.710827,37.471342],[136.711373,37.472482],[136.71218,37.473747],[136.713687,37.476411],[136.714501,37.477687],[136.716459,37.481648],[136.717813,37.484017],[136.721903,37.48972],[136.728061,37.49932],[136.730584,37.50295],[136.733355,37.50669],[136.736551,37.511542],[136.738404,37.513968],[136.741002,37.517745],[136.742706,37.519938],[136.74637,37.525175],[136.747857,37.527393],[136.748575,37.528582],[136.749372,37.529642],[136.751776,37.533226],[136.753517,37.535532],[136.754796,37.537092],[136.756463,37.539553],[136.758292,37.541997],[136.75922,37.543333],[136.760013,37.54431],[136.763023,37.548518],[137.005043,37.832621],[137.006233,37.834176],[137.010356,37.838929],[137.013715,37.84289],[137.014781,37.84422],[137.018666,37.848499],[137.019836,37.84992],[137.022571,37.852991],[137.023563,37.854357],[137.02604,37.857261],[137.03006,37.861707],[137.042111,37.875243],[137.04281,37.876325],[137.043728,37.877569],[137.047104,37.881487],[137.052525,37.886895],[137.052973,37.887233],[137.054242,37.889153],[137.056645,37.891598],[137.089202,37.928937],[137.090124,37.930378],[137.091495,37.931799],[137.093265,37.933769],[137.095482,37.935991],[137.097386,37.937681],[137.099933,37.940648],[137.101971,37.942896],[137.10287,37.944093],[137.104337,37.945821],[137.847056,38.736243],[137.848446,38.737721],[137.849667,38.73919],[137.852259,38.742108],[137.853592,38.743727],[137.859682,38.750577],[137.862777,38.753543],[137.864498,38.755526],[137.86688,38.757919],[137.869686,38.761115],[137.872378,38.763254],[137.873148,38.764365],[137.874152,38.765431],[137.875413,38.766502],[137.875529,38.766945],[137.876517,38.768192],[137.87679,38.768359],[137.877322,38.768985],[137.877558,38.769661],[137.878265,38.771021],[137.878823,38.7718],[137.879593,38.772658],[137.880998,38.774561],[137.882066,38.775727],[137.884578,38.778654],[137.884923,38.778933],[137.885728,38.779908],[137.886948,38.781559],[137.887997,38.782637],[137.888388,38.783186],[137.889487,38.784415],[137.892592,38.788232],[137.894598,38.790305],[137.896338,38.791946],[137.897099,38.792856],[137.897973,38.793659],[137.89892,38.794802],[137.898999,38.795027],[137.899975,38.796375],[137.902138,38.798868],[137.903638,38.80051],[137.907642,38.805267],[137.909657,38.807435],[137.911614,38.80989],[137.912727,38.811202],[137.914168,38.813051],[137.915022,38.813956],[137.915424,38.814494],[137.917309,38.816554],[137.918242,38.817396],[137.920123,38.819365],[137.920584,38.819752],[137.921343,38.820516],[137.924305,38.823872],[137.924997,38.824824],[137.926622,38.826538],[137.927684,38.827738],[137.928454,38.828784],[137.931038,38.831405],[137.932696,38.833382],[137.933206,38.833844],[137.934066,38.834916],[137.936827,38.837885],[137.939051,38.840371],[137.943166,38.844765],[137.944269,38.845857],[137.945692,38.847375],[137.946618,38.84824],[137.947134,38.848897],[137.948095,38.849904],[137.948691,38.850668],[137.950635,38.852864],[137.953123,38.85546],[137.954764,38.857093],[137.956158,38.858608],[137.95748,38.860203],[137.958472,38.861174],[137.960924,38.863963],[137.962419,38.865863],[137.963441,38.866875],[137.965304,38.868902],[137.966212,38.870066],[137.969286,38.873438],[137.971402,38.875858],[137.973243,38.877829],[137.974442,38.879251],[137.977064,38.882114],[137.980518,38.88599],[137.982239,38.888041],[137.983016,38.888885],[137.984366,38.890133],[137.985607,38.891443],[137.986265,38.892191],[137.988729,38.89543],[137.989663,38.896498],[137.991456,38.898355],[137.992482,38.899307],[137.994518,38.901371],[137.996215,38.903301],[137.997987,38.905196],[137.998722,38.906088],[138.00081,38.908235],[138.004406,38.912181],[138.005398,38.913176],[138.010159,38.918499],[138.011352,38.919726],[138.01209,38.920585],[138.016121,38.924757],[138.017999,38.927027],[138.020101,38.929255],[138.022548,38.931641],[138.027598,38.936872],[138.029921,38.939104],[138.035532,38.944726],[138.037146,38.946375],[138.340052,39.252668],[138.340892,39.253363],[138.341672,39.254151],[138.344911,39.256719],[138.346879,39.258482],[138.349619,39.261214],[138.351835,39.263124],[138.355112,39.26606],[138.356113,39.267073],[138.358069,39.268897],[138.360473,39.271009],[138.361376,39.271884],[138.362705,39.273069],[138.366299,39.275919],[138.368393,39.277832],[138.371371,39.280911],[138.373759,39.28323],[138.375503,39.285147],[138.376413,39.286014],[138.377643,39.287328],[138.380539,39.290487],[138.381845,39.291592],[138.382985,39.29284],[138.386881,39.296852],[138.387922,39.297792],[138.392043,39.301764],[138.395119,39.30488],[138.397609,39.307114],[138.404132,39.3135],[138.409631,39.318551],[138.413215,39.322076],[138.41416,39.323087],[138.415693,39.324202],[138.418095,39.32648],[138.423924,39.331362],[138.426371,39.333614],[138.428927,39.335679],[138.432465,39.339052],[138.43741,39.343521],[138.43875,39.344891],[138.441143,39.347017],[138.443295,39.349044],[138.44478,39.350336],[138.448185,39.353764],[138.452905,39.358148],[138.454052,39.359278],[138.45622,39.361282],[138.457423,39.362324],[138.459726,39.364522],[138.462287,39.366835],[138.465948,39.370286],[138.468032,39.37218],[138.46929,39.373439],[139.475975,40.39976],[139.477129,40.401272],[139.478196,40.402338],[139.47956,40.403833],[139.4837,40.407868],[139.485603,40.409967],[139.486604,40.41116],[139.490212,40.415038],[139.493042,40.417914],[139.495032,40.420089],[139.497454,40.422589],[139.498475,40.423557],[139.500795,40.425607],[139.501869,40.426755],[139.504388,40.429126],[139.506626,40.431404],[139.508792,40.433771],[139.510858,40.435767],[139.513868,40.439039],[139.516242,40.441343],[139.519945,40.445291],[139.520601,40.445874],[139.521671,40.447026],[139.526157,40.451516],[139.529405,40.454891],[139.530429,40.455848],[139.532699,40.45813],[139.533911,40.459164],[139.536059,40.461461],[139.539123,40.464513],[139.5396234,40.4650756],[140.327462,41.3419889],[140.882375,41.63568],[141.0639021,41.684574],[141.2229076,41.7733766],[141.4116489,42.0071501],[141.768196,42.581059],[141.8022993,42.5951757],[141.8044753,42.596712],[141.8097192,42.6039199],[141.8163009,42.6094862],[141.8186544,42.6097345]]]}}