{"type":"Feature","properties":{"id":"新日本海フェリー_新潟－秋田","name":"新日本海フェリー 新潟－秋田","operator":"","category":"ferry","attribution":"© OpenStreetMap contributors"},"geometry":{"type":"MultiLineString","coordinates":[[[139.068916,37.9380752],[139.0686053,37.9381215],[139.0679884,37.9382725],[139.0669819,37.9388734],[139.0661581,37.9397157],[139.0655783,37.9403413],[139.0655783,37.9411535],[139.065708,37.9431748],[139.0663335,37.9463631],[139.0669133,37.9486429],[139.0676227,37.9516144],[139.0685762,37.955085],[139.0697738,37.9568894],[139.0706129,37.9580682],[139.0727183,37.9610093],[139.0753119,37.9645636],[139.0773105,37.9674563],[139.0786835,37.9696091],[139.0800871,37.972207],[139.0804533,37.9729827],[139.0820475,37.9767108],[139.0831918,37.9791761],[139.0848318,37.9825312],[139.0863269,37.9855794],[139.0877534,37.9886035],[139.0891646,37.9917357],[139.0981582,38.0120767],[139.117137,38.0529339],[139.1426455,38.1086552],[139.1798708,38.1863058],[139.2194152,38.2693358],[139.2611565,38.3520796],[139.2941102,38.415223],[139.2950866,38.4179006],[139.3190085,38.4920687],[139.3207172,38.497227],[139.3229141,38.5004747],[139.3287725,38.5113628],[139.3490329,38.5457356],[139.3717343,38.583145],[139.3749076,38.5882968],[139.3807661,38.6008886],[139.4129874,38.6641955],[139.4442323,38.7249709],[139.4708394,38.7797958],[139.5020843,38.8507391],[139.5147776,38.8741177],[139.5614009,38.9677453],[139.576047,38.9998123],[139.6090006,39.0640923],[139.6197411,39.0898637],[139.6580649,39.1735558],[139.6758843,39.2057185],[139.7261691,39.2990962],[139.7679104,39.3765014],[139.8101399,39.4630558],[139.856275,39.5566546],[139.8967958,39.6373458],[139.9343874,39.7160652],[139.9546478,39.7607394],[139.9595298,39.7689954],[139.9629169,39.7734746],[139.966792,39.778024],[139.9720097,39.7832297],[139.9761289,39.7864185],[139.9804922,39.7888335],[139.9833604,39.7901465],[139.985893,39.7906389],[139.988517,39.7906623],[139.9906224,39.7904982],[139.9941924,39.7895369],[140.0013934,39.7878019],[140.0063975,39.7860199],[140.00774,39.7852696],[140.0095708,39.78398],[140.0117372,39.7820338],[140.0158259,39.7774143],[140.0189687,39.7736856],[140.0221725,39.7709652],[140.0239117,39.7696753],[140.0297396,39.7662277],[140.0326078,39.7646563],[140.0363304,39.7628268],[140.0401444,39.7613726],[140.0443552,39.7603874],[140.0471623,39.7598245],[140.0494508,39.7593085],[140.0514341,39.7586751],[140.0527919,39.7577545],[140.0536921,39.7570625],[140.0539057,39.7568983],[140.0557313,39.755928],[140.0580684,39.7547796],[140.0585458,39.7549101],[140.0586267,39.75502]]]}}