{"type":"Feature","properties":{"id":"新日本海フェリー_敦賀－新潟","name":"新日本海フェリー 敦賀－新潟","operator":"","category":"ferry","attribution":"© OpenStreetMap contributors"},"geometry":{"type":"MultiLineString","coordinates":[[[136.0724303,35.6782473],[136.0714038,35.6775621],[136.0708097,35.6774498],[136.0563469,35.677359],[136.0552719,35.6774617],[136.0543129,35.6778507],[136.0536845,35.6783909],[136.0533204,35.6790728],[136.0532018,35.6798972],[136.0497973,35.7672204],[135.9508731,35.8846453],[135.9368076,35.9197601],[135.920184,35.9898684],[135.9792961,36.1559513],[136.0123321,36.2054846],[136.0364788,36.2593111],[136.0420694,36.2725462],[136.0589602,36.3038028],[136.0741857,36.3323638],[136.0801332,36.3435745],[136.0865564,36.353155],[136.0961913,36.3678109],[136.1074915,36.3841877],[136.1142716,36.3941462],[136.1214085,36.4047736],[136.141392,36.4348287],[136.1540006,36.4559752],[136.176601,36.4928004],[136.199915,36.5297036],[136.2269165,36.571557],[136.2582001,36.6166338],[136.2733067,36.6376352],[136.2767562,36.6425983],[136.2788973,36.6459387],[136.3037577,36.6924982],[136.3295696,36.7411265],[136.354549,36.7878189],[136.3813125,36.8397188],[136.4017718,36.8818794],[136.4216363,36.9247775],[136.4453072,36.9724982],[136.4650528,37.0145855],[136.4764719,37.0402254],[136.4905079,37.082465],[136.5016891,37.1156706],[136.5059713,37.1233532],[136.5141788,37.1437416],[136.5286906,37.1718023],[136.5568815,37.2165262],[136.5849535,37.2624542],[136.6019633,37.2843194],[136.6220657,37.3092057],[136.6393133,37.330679],[136.6600105,37.3554555],[136.6633411,37.3592374],[136.6675043,37.3624519],[136.7255515,37.4023382],[136.7590952,37.4259575],[136.7662321,37.4310582],[136.7717038,37.4338919],[136.7778891,37.4361587],[136.8125033,37.4476806],[136.8580609,37.4625998],[136.9208661,37.4838404],[136.9987778,37.5098873],[137.0526618,37.5277185],[137.1027394,37.5428103],[137.1315251,37.551864],[137.164355,37.5616709],[137.2209749,37.5789241],[137.2536859,37.5888217],[137.2748588,37.5952308],[137.2816389,37.5970215],[137.2860401,37.597964],[137.2936528,37.5987179],[137.3271965,37.6029588],[137.3970197,37.6127589],[137.4790946,37.6249131],[137.5586716,37.6367827],[137.6345612,37.6481795],[137.6993885,37.6586328],[137.780155,37.6711561],[137.8407001,37.6802883],[137.9017211,37.6890428],[137.9746369,37.699114],[138.0267367,37.7061724],[138.0661089,37.7113481],[138.0901366,37.7149239],[138.0967977,37.7161471],[138.1050052,37.7168999],[138.1343857,37.7177467],[138.1647177,37.719064],[138.1908866,37.7204754],[138.2088479,37.7212281],[138.2171743,37.7216985],[138.2231218,37.7226394],[138.2370388,37.7248034],[138.2729615,37.7319534],[138.3105494,37.7397612],[138.3194706,37.7414543],[138.3254181,37.7431474],[138.3394541,37.7471919],[138.3624113,37.7533993],[138.3870338,37.7603585],[138.414511,37.7691036],[138.4384198,37.7777536],[138.4644697,37.7872487],[138.5022955,37.8007841],[138.5379803,37.8140351],[138.564506,37.824747],[138.5950759,37.8367725],[138.6383734,37.8537739],[138.665137,37.8641044],[138.6726308,37.8659825],[138.6882131,37.8718043],[138.7159283,37.8824139],[138.7297264,37.8874834],[138.7485204,37.8935852],[138.7978843,37.9095412],[138.8578347,37.9295283],[138.8956605,37.9425685],[138.9447865,37.9597332],[138.9778544,37.971174],[139.0225793,37.9859882],[139.0317384,37.9884257],[139.0431575,37.9907693],[139.0507702,37.9913318],[139.0614757,37.9908631],[139.0671852,37.9902068],[139.0704862,37.9893162],[139.0739357,37.9875818],[139.0776529,37.9847224],[139.0796155,37.9829646],[139.0809834,37.9811129],[139.0817863,37.9795424],[139.0827082,37.975956],[139.0823216,37.9736822],[139.0813105,37.9714318],[139.0796453,37.9694392],[139.0780097,37.9675637],[139.0734599,37.9631561],[139.0712891,37.9607178],[139.0694156,37.9576229],[139.0681667,37.9559581],[139.067899,37.9545747],[139.0633195,37.9398715],[139.0644792,37.9396135],[139.0680117,37.9382138],[139.0686267,37.9380974],[139.068916,37.9380752]]]}}