{"type":"Feature","properties":{"id":"旅客船「しおかぜ」","name":"旅客船「しおかぜ」","operator":"","category":"ferry","attribution":"© OpenStreetMap contributors"},"geometry":{"type":"MultiLineString","coordinates":[[[130.4834175,33.8534483],[130.4834846,33.8539766],[130.4838041,33.8540831],[130.48528,33.8541938],[130.4854962,33.8547473],[130.4837286,33.8580729],[130.4797804,33.8660732],[130.475446,33.8723446],[130.4691803,33.8789006],[130.4661548,33.8805395],[130.4577863,33.8841735],[130.4474437,33.8894818],[130.4354274,33.8952706],[130.4348051,33.8958227],[130.4347108,33.8959922],[130.4347336,33.8964597],[130.434898,33.8966189]]]}}