{"type":"Feature","properties":{"id":"普陀山_-_葫芦岛","name":"普陀山 - 葫芦岛","operator":"","category":"ferry","attribution":"© OpenStreetMap contributors"},"geometry":{"type":"MultiLineString","coordinates":[[[122.3746546,29.9764889],[122.3747671,29.9757268],[122.3752391,29.9745929],[122.3785007,29.9729851],[122.3826313,29.9716096],[122.3837798,29.9715506],[122.3871802,29.9718141],[122.3932314,29.9732082],[122.3977589,29.9763123],[122.4118995,29.988765],[122.4188518,30.0024055],[122.4195814,30.008649],[122.4201393,30.0170474],[122.4169635,30.0276744],[122.4178219,30.0304424],[122.4201822,30.0328017],[122.4220705,30.034102],[122.4224929,30.0342971]]]}}