{"type":"Feature","properties":{"id":"普陀山短姑_-_珞珈山","name":"普陀山短姑 - 珞珈山","operator":"","category":"ferry","attribution":"© OpenStreetMap contributors"},"geometry":{"type":"MultiLineString","coordinates":[[[122.3786575,29.974991],[122.3786348,29.9747695],[122.3787743,29.9744582],[122.3798177,29.9727246],[122.3809965,29.9716521],[122.3818227,29.9711547],[122.3827386,29.9709218],[122.3843423,29.9708704],[122.3988962,29.9715167],[122.4306535,29.9710705],[122.4374985,29.9714237],[122.4392581,29.9717025],[122.4409425,29.9718884],[122.4413757,29.9718094]]]}}