{"type":"Feature","properties":{"id":"有限会社郵正丸_馬渡島航路（ゆうしょう）名護屋～馬渡島","name":"馬渡島航路（ゆうしょう）名護屋～馬渡島","operator":"有限会社郵正丸","category":"ferry","attribution":"© OpenStreetMap contributors"},"geometry":{"type":"MultiLineString","coordinates":[[[129.8793272,33.5327577],[129.8793572,33.5327797],[129.8797685,33.5328837],[129.8800304,33.5330121],[129.8802091,33.5331251],[129.8803324,33.5332128],[129.8804259,33.5332975],[129.8805255,33.533406],[129.8805946,33.5334975],[129.8806352,33.5335805],[129.8806576,33.5336889],[129.8804108,33.5346027],[129.8804002,33.5349803],[129.8806727,33.5365498],[129.880701,33.5369893],[129.8805913,33.5374171],[129.8792853,33.5414762],[129.8790437,33.5418251],[129.8787641,33.5420316],[129.8783394,33.5422587],[129.8779926,33.5423561],[129.8776458,33.5424121],[129.877168,33.5424387],[129.8761345,33.5424003],[129.8750975,33.5422322],[129.8716396,33.5421565],[129.8706782,33.5421565],[129.8701747,33.5421918],[129.8688998,33.5424175],[129.8675736,33.5431259],[129.8670552,33.5445739],[129.867034,33.5472116],[129.86753,33.5492514],[129.8681236,33.5502543],[129.8684976,33.5512165],[129.8683431,33.5523888],[129.8680992,33.5527547],[129.867774,33.553019],[129.8523891,33.5603984],[129.8517024,33.5606844],[129.8509085,33.5609348],[129.8498571,33.5611136],[129.7649928,33.5651219],[129.7645964,33.5651999],[129.7644177,33.5654181],[129.7643438,33.5657056],[129.7644362,33.5659239],[129.7647197,33.566119],[129.7652804,33.5663731],[129.7653698,33.5664377],[129.7654098,33.5664903],[129.765436,33.5665622],[129.7654468,33.5666379],[129.7654376,33.5666982],[129.7652989,33.5669524]]]}}