{"type":"Feature","properties":{"id":"有限会社青函フェリー_青函フェリー","name":"青函フェリー","operator":"有限会社青函フェリー","category":"ferry","attribution":"© OpenStreetMap contributors"},"geometry":{"type":"MultiLineString","coordinates":[[[140.7171763,40.844382],[140.7195288,40.8456544],[140.7226187,40.8473588],[140.7240349,40.8489981],[140.7251078,40.8514977],[140.7264167,40.8528611],[140.7290774,40.8545328],[140.7420593,40.8606837],[140.7551056,40.8687163],[140.7590967,40.8761476],[140.7606631,40.8832374],[140.7614141,40.9444184],[140.7597404,40.9800177],[140.7543546,41.0151768],[140.7441836,41.0812659],[140.7386476,41.1920151],[140.7349568,41.2503284],[140.730794,41.3103626],[140.7288629,41.3822246],[140.7213098,41.4621925],[140.7142502,41.5697763],[140.7122975,41.5804189],[140.6986719,41.6393629],[140.6828147,41.7013451],[140.6767422,41.7208875],[140.6727296,41.7398635],[140.6725579,41.7548803],[140.6794244,41.7733502],[140.6826475,41.7796233],[140.6863045,41.787393],[140.6912154,41.7955103],[140.692932,41.7962941],[140.6975025,41.7968301],[140.6995439,41.7968959],[140.7002735,41.7967999],[140.7020872,41.7964381],[140.704418,41.7960714],[140.7068587,41.7956388],[140.7101632,41.7948869],[140.7131673,41.794071],[140.7161338,41.794019],[140.7166243,41.7940604],[140.7170856,41.7941244],[140.7187225,41.7947641]]]}}