{"type":"Feature","properties":{"id":"有限会社郵正丸_馬渡島航路（ゆうしょう）呼子～名護屋","name":"馬渡島航路（ゆうしょう）呼子～名護屋","operator":"有限会社郵正丸","category":"ferry","attribution":"© OpenStreetMap contributors"},"geometry":{"type":"MultiLineString","coordinates":[[[129.8933049,33.5417057],[129.8930442,33.5416284],[129.892973,33.5416233],[129.8928856,33.5416385],[129.892786,33.5416656],[129.8926945,33.5417012],[129.8926356,33.5417385],[129.8925746,33.5417859],[129.8924242,33.5418944],[129.8908013,33.5427698],[129.8891529,33.5434991],[129.8886532,33.5440256],[129.8885116,33.544294],[129.888363,33.5445772],[129.8881365,33.5447689],[129.88791,33.5448928],[129.887641,33.5449489],[129.8872128,33.5449754],[129.8870033,33.5449501],[129.8856373,33.5446214],[129.8854259,33.5445502],[129.8852799,33.5444826],[129.8850207,33.5442724],[129.8848829,33.5441946],[129.8802475,33.5430987],[129.8798759,33.5429585],[129.879614,33.5427638],[129.8794441,33.542457],[129.8793592,33.5420322],[129.879345,33.5415012],[129.8806314,33.5374347],[129.8807547,33.5370072],[129.8807454,33.5365829],[129.8806753,33.5360846],[129.8804605,33.5349908],[129.8804652,33.5346249],[129.8807021,33.5336965],[129.8806867,33.5335758],[129.8805932,33.5334262],[129.8804886,33.5333122],[129.8803572,33.5331847],[129.8802123,33.5330863],[129.8800433,33.5329813],[129.8797751,33.5328672],[129.8793272,33.5327577]]]}}