{"type":"Feature","properties":{"id":"有限会社加唐島汽船_加唐島航路（かから丸）呼子～加唐島","name":"加唐島航路（かから丸）呼子～加唐島","operator":"有限会社加唐島汽船","category":"ferry","attribution":"© OpenStreetMap contributors"},"geometry":{"type":"MultiLineString","coordinates":[[[129.893367,33.5415909],[129.8931558,33.5415215],[129.8930861,33.5415058],[129.8930123,33.5415003],[129.8929265,33.541517],[129.8928192,33.5415517],[129.8926918,33.5416064],[129.8925142,33.541773],[129.8923739,33.5418724],[129.8907282,33.5427338],[129.8890647,33.5434565],[129.8885268,33.5440258],[129.8882543,33.5445744],[129.8880844,33.5447367],[129.887957,33.5458487],[129.8879786,33.5471434],[129.8882743,33.5486687],[129.8887673,33.5494801],[129.8894821,33.5501272],[129.8903756,33.5506202],[129.8929267,33.5513649],[129.8961933,33.5527897],[129.8977951,33.5538535],[129.8987464,33.554504],[129.8994782,33.5551884],[129.8996491,33.5554405],[129.8997138,33.5556845],[129.8997168,33.5559232],[129.8943903,33.5640681],[129.8863222,33.5732937],[129.8711946,33.5840914],[129.869714,33.5843774],[129.864135,33.5844489],[129.8611973,33.5847493],[129.8609371,33.5848916],[129.8608639,33.5850372],[129.8608151,33.5853454],[129.8608029,33.5864461],[129.8607785,33.5866087],[129.8604294,33.5873103],[129.860357,33.5873809],[129.8602792,33.5874155],[129.8601853,33.5874468],[129.8600432,33.5874714],[129.8595845,33.5875239],[129.8594531,33.5875674],[129.859382,33.58763],[129.8593378,33.5877194],[129.8593351,33.5878121],[129.8593646,33.5879138],[129.8594048,33.5880087],[129.859441,33.5880601]]]}}