{"type":"Feature","properties":{"id":"有限会社マルト汽船_マルト汽船(三原－小佐木－向田－沢－瀬戸田)","name":"マルト汽船(三原－小佐木－向田－沢－瀬戸田)","operator":"有限会社マルト汽船","category":"ferry","attribution":"© OpenStreetMap contributors"},"geometry":{"type":"MultiLineString","coordinates":[[[133.0816523,34.3974788],[133.0814617,34.3972198],[133.0813953,34.3970227],[133.0813953,34.3968295],[133.0814445,34.396677],[133.0815729,34.3965025],[133.0818899,34.3962911],[133.0821717,34.3961475],[133.0853706,34.3947406],[133.0903866,34.3924171],[133.0916749,34.3917395],[133.0925102,34.3910152],[133.0952462,34.3877219],[133.1093326,34.3696892],[133.1101974,34.3681837],[133.1106382,34.3668409],[133.1106471,34.3656809],[133.1103726,34.3645718],[133.1100583,34.3637785],[133.1096396,34.3632199],[133.1091569,34.3628304],[133.108615,34.3625688],[133.1082027,34.3624976],[133.1077213,34.3625171],[133.1069028,34.3626586]],[[133.0901434,34.3135902],[133.0928619,34.3306471],[133.0930693,34.3312391],[133.0934866,34.3318427],[133.093945,34.3321314],[133.0946183,34.3323431],[133.0953137,34.3324551],[133.0960132,34.3324338],[133.0965612,34.3323695],[133.0970972,34.3321805],[133.0975288,34.3318587],[133.0978869,34.3313995],[133.0981924,34.330847],[133.0987599,34.3297791],[133.0988778,34.3296021],[133.099007,34.3295044],[133.0991267,34.3294617],[133.0992281,34.3294402],[133.0993309,34.3294386],[133.0994436,34.3294586]],[[133.0994436,34.3294586],[133.0992906,34.3294715],[133.0992093,34.329495],[133.0991473,34.3295193],[133.0991015,34.3295495],[133.0990497,34.3295974],[133.098991,34.3296631],[133.0947281,34.3402638],[133.094629,34.3408247],[133.0946172,34.3413621],[133.0946409,34.3417046],[133.0947478,34.3421833],[133.0949198,34.342635],[133.0953311,34.3435679],[133.1019805,34.3569593],[133.1022778,34.3573784],[133.1026039,34.357692],[133.1029674,34.3579826],[133.1072926,34.3608546],[133.1075172,34.3610953],[133.1076476,34.3613239],[133.1077492,34.3616572],[133.107773,34.3619029],[133.1076933,34.3621187],[133.1075144,34.3622936],[133.1072279,34.3625112],[133.1070898,34.3625901],[133.1069028,34.3626586]]]}}