{"type":"Feature","properties":{"id":"木口汽船_椛島航路","name":"椛島航路","operator":"木口汽船","category":"ferry","attribution":"© OpenStreetMap contributors"},"geometry":{"type":"MultiLineString","coordinates":[[[128.8524194,32.697763],[128.8553571,32.7017067],[128.873242,32.7205472],[128.9578842,32.75552],[128.9902854,32.7703702],[128.9914548,32.7698425],[128.9915277,32.7692786]],[[128.9688621,32.7544288],[128.9685197,32.7554],[128.9691258,32.7558963],[128.9699734,32.7574504],[128.9715398,32.7607707],[128.9902854,32.7703116],[128.9914226,32.7698109],[128.9915277,32.7692786]],[[128.8524194,32.697763],[128.8554377,32.7016691],[128.8738695,32.7200638],[128.958056,32.7552131],[128.964609,32.7560316],[128.9684123,32.7553143],[128.9688621,32.7544288]]]}}