{"type":"Feature","properties":{"id":"李柱山_-_大洋山","name":"李柱山 - 大洋山","operator":"","category":"ferry","attribution":"© OpenStreetMap contributors"},"geometry":{"type":"MultiLineString","coordinates":[[[122.0879638,30.5948181],[122.0895217,30.5960674],[122.0907233,30.596289],[122.1227381,30.5941834],[122.1244119,30.5941834],[122.127416,30.5945898],[122.1290853,30.5948594],[122.1316863,30.5954918],[122.1422432,30.5991888],[122.4108026,30.7365586],[122.414551,30.7400497],[122.4164086,30.7417259],[122.4185756,30.7438529],[122.4195944,30.7446016],[122.4214441,30.7450116]]]}}