{"type":"Feature","properties":{"id":"東京都観光汽船株式会社_水上バス_浜離宮～浅草","name":"水上バス　浜離宮～浅草","operator":"東京都観光汽船株式会社","category":"ferry","attribution":"© OpenStreetMap contributors"},"geometry":{"type":"MultiLineString","coordinates":[[[139.7672897,35.6601987],[139.7674648,35.6602849],[139.7675092,35.6602934],[139.7675518,35.6602934],[139.7675845,35.6602858],[139.7679609,35.66003],[139.7679984,35.6599935],[139.7680118,35.6599325],[139.7680065,35.6598328],[139.7679649,35.6597489],[139.7677354,35.6595299],[139.767702,35.6594229],[139.767683,35.6593309],[139.7676094,35.6581759],[139.7676456,35.6581149],[139.7677368,35.6580675],[139.7678226,35.6580632],[139.7679168,35.6580799],[139.7738718,35.6623567],[139.7779555,35.6646352],[139.7798036,35.6662282],[139.7803266,35.6669211],[139.7819413,35.6704599],[139.7821252,35.6707854],[139.7824518,35.6710182],[139.7858101,35.6725876],[139.7861768,35.6728328],[139.7863924,35.6731032],[139.7866882,35.6743646],[139.7877851,35.6772053],[139.7879638,35.6774982],[139.7893348,35.6798082],[139.7895875,35.6801385],[139.7924652,35.6836047],[139.7926377,35.6839901],[139.7929335,35.684891],[139.7929766,35.6851463],[139.7928565,35.6858169],[139.7927733,35.6861097],[139.791889,35.6876563],[139.7917103,35.6878465],[139.7902253,35.6892528],[139.7900466,35.6894956],[139.7889805,35.6912547],[139.7888388,35.6916701],[139.7886169,35.6927486],[139.7886231,35.6930038],[139.7887772,35.6945177],[139.788885,35.6950857],[139.7890637,35.6955661],[139.7905611,35.6974678],[139.7910571,35.6980358],[139.7920184,35.6990967],[139.7924467,35.6995996],[139.7935589,35.7013285],[139.7956972,35.7056469],[139.7963781,35.7070229],[139.7966893,35.7074357],[139.7978354,35.7089869],[139.7980943,35.7094297],[139.79835,35.7098425],[139.7991819,35.7108357],[139.7992064,35.7108963],[139.7992087,35.7109608],[139.7991947,35.711011],[139.799162,35.7110537],[139.7990765,35.7110975]]]}}