{"type":"Feature","properties":{"id":"東京九州フェリー_東京九州フェリー_(_新門司_-_横須賀_)","name":"東京九州フェリー ( 新門司 - 横須賀 )","operator":"東京九州フェリー","category":"ferry","attribution":"© OpenStreetMap contributors"},"geometry":{"type":"MultiLineString","coordinates":[[[130.9939927,33.8761856],[130.9939545,33.8758828],[130.994016,33.8754485],[130.9939894,33.8753683],[130.9940212,33.8752814],[130.9934556,33.8743172],[130.9933913,33.873667],[130.9934771,33.8728742],[130.9940779,33.8720546],[130.9953761,33.8713687],[130.9974146,33.8709055],[130.9996462,33.8707719],[131.0013908,33.8709514],[131.0033858,33.8714881],[131.0343937,33.8894762],[131.0364938,33.8898759],[131.0392438,33.8897805],[131.1971097,33.863583],[131.6744341,33.7771099],[131.6788244,33.7756897],[131.7304096,33.7491773],[131.7552339,33.7216394],[131.9932536,33.3269944],[132.1417367,33.1423961],[132.47689,32.7014336],[132.4806789,32.6985245],[132.5083687,32.6854752],[132.5108042,32.6845701],[132.5130578,32.684117],[132.5172167,32.6835705],[132.6201358,32.6693927],[132.6221187,32.669222],[132.6244968,32.6692784],[133.032231,32.6986173],[133.0357826,32.6992977],[136.1192422,33.4699523],[138.9258832,34.4670232],[139.7190907,35.1349171],[139.7685012,35.2513692],[139.7674304,35.2594712],[139.746166,35.2881911],[139.7407818,35.2921692],[139.7265801,35.295847],[139.713555,35.2969568],[139.7016262,35.2945773],[139.6953367,35.2918022],[139.6836384,35.2849635],[139.6809245,35.2836135],[139.6787282,35.2838254]]]}}