{"type":"Feature","properties":{"id":"東京都観光汽船株式会社_水上バス_お台場～豊洲","name":"水上バス　お台場～豊洲","operator":"東京都観光汽船株式会社","category":"ferry","attribution":"© OpenStreetMap contributors"},"geometry":{"type":"MultiLineString","coordinates":[[[139.7913652,35.6550281],[139.791342,35.6549785],[139.7908233,35.6547219],[139.7722036,35.6426288],[139.7720172,35.6424502],[139.7719699,35.6422237],[139.7706127,35.6358538],[139.7699813,35.632975],[139.7699732,35.6329121],[139.7699958,35.6328256],[139.7722818,35.6308652],[139.7724659,35.6306538],[139.7725623,35.6304387],[139.7726685,35.6302856],[139.7727879,35.6301705],[139.7733031,35.6295145],[139.7732994,35.6294897]]]}}