{"type":"Feature","properties":{"id":"東京都観光汽船株式会社_水上バス_豊洲～浅草","name":"水上バス　豊洲～浅草","operator":"東京都観光汽船株式会社","category":"ferry","attribution":"© OpenStreetMap contributors"},"geometry":{"type":"MultiLineString","coordinates":[[[139.7913652,35.6550281],[139.7913293,35.6549854],[139.7908162,35.6547352],[139.7907831,35.6547306],[139.7906885,35.6547382],[139.7905811,35.6547714],[139.7904767,35.6548353],[139.7903693,35.654951],[139.7890262,35.6570359],[139.788061,35.6640234],[139.7882133,35.6661531],[139.7877101,35.6692313],[139.7864742,35.6728675],[139.7864362,35.6730794],[139.7867441,35.6743574],[139.7878289,35.6771835],[139.7893666,35.6797853],[139.7924918,35.6835499],[139.7926869,35.6839827],[139.7929897,35.6848371],[139.7930298,35.6851524],[139.7929127,35.6858231],[139.7928172,35.6861434],[139.7919514,35.6876725],[139.7902599,35.689299],[139.7890583,35.6912684],[139.7889104,35.6916713],[139.7886886,35.6927498],[139.7888241,35.6945089],[139.788934,35.6950694],[139.7891141,35.6955381],[139.7906148,35.6974494],[139.792487,35.6995849],[139.7936125,35.7013123],[139.7957466,35.7056261],[139.7964226,35.7069941],[139.7978595,35.7089397],[139.7983828,35.709826],[139.7991945,35.710829],[139.7992238,35.7108934],[139.7992261,35.7109616],[139.7992091,35.7110166],[139.7991737,35.7110629],[139.7990985,35.7110906],[139.7990765,35.7110975]]]}}