{"type":"Feature","properties":{"id":"東京都観光汽船株式会社_水上バス_お台場～日の出桟橋","name":"水上バス　お台場～日の出桟橋","operator":"東京都観光汽船株式会社","category":"ferry","attribution":"© OpenStreetMap contributors"},"geometry":{"type":"MultiLineString","coordinates":[[[139.7732994,35.6294897],[139.7732962,35.629507],[139.7727655,35.630164],[139.7726464,35.6302772],[139.7725405,35.6304352],[139.7724479,35.6306445],[139.7722645,35.6308561],[139.768467,35.6340864],[139.768058,35.6343393],[139.7656831,35.6351098],[139.76547,35.635268],[139.7653666,35.6354735],[139.7642043,35.6493964],[139.7641562,35.6496424],[139.7640915,35.6498202],[139.7639837,35.6499178],[139.7639097,35.6499554],[139.763784,35.6500109],[139.7615349,35.650596],[139.7614213,35.6506477]]]}}