{"type":"Feature","properties":{"id":"東海汽船_熱海‐大島（岡田）","name":"熱海‐大島（岡田）","operator":"東海汽船","category":"ferry","attribution":"© OpenStreetMap contributors"},"geometry":{"type":"MultiLineString","coordinates":[[[139.3905818,34.790507],[139.3904373,34.790398],[139.3901759,34.7903752],[139.3896769,34.7904824],[139.3886565,34.7909008],[139.3827927,34.7951184],[139.3707764,34.8047741],[139.3554985,34.8142526],[139.3416226,34.821851],[139.2711085,34.8606071],[139.2710281,34.8606509],[139.2709639,34.8607316],[139.2635309,34.8712793],[139.1547547,35.0272022],[139.1481886,35.0349449],[139.135171,35.0495263],[139.0815694,35.0960076],[139.0813614,35.0961008],[139.0811578,35.096037],[139.0764747,35.0922009],[139.076425,35.0921391],[139.0764205,35.0920558],[139.0769713,35.0896727]]]}}