{"type":"Feature","properties":{"id":"東聯航運股份有限公司_基隆_-_石垣_石垣_-_基隆","name":"基隆 - 石垣 石垣 - 基隆","operator":"東聯航運股份有限公司","category":"ferry","attribution":"© OpenStreetMap contributors"},"geometry":{"type":"MultiLineString","coordinates":[[[124.136281,24.333382],[124.1385555,24.33347],[124.1400361,24.3335678],[124.1460255,24.3348704],[124.1464077,24.3349565],[124.1465297,24.3350079],[124.1469254,24.3351979],[124.1477501,24.3356207],[124.148469,24.3361974],[124.1488552,24.3365884],[124.1490912,24.3369404],[124.1491342,24.3371505],[124.149161,24.3374487],[124.149138,24.3375859]],[[124.136281,24.333382],[124.1369569,24.3333038],[124.1375577,24.3331083],[124.1381049,24.3327857],[124.138459,24.3325316],[124.1387594,24.3321014],[124.1390383,24.3309576],[124.1393924,24.3290416],[124.1394675,24.328758],[124.1396499,24.328455],[124.1398269,24.3283035],[124.1401219,24.3282008],[124.1404545,24.328147],[124.1408408,24.3281568],[124.1410439,24.3281818]],[[121.743569,25.1346884],[121.7447208,25.1363815],[121.744939,25.1366646],[121.7452627,25.1370609],[121.7455968,25.1373473],[121.74706,25.1383378],[121.753262,25.1418899],[121.7542753,25.1424937],[121.7548487,25.1429112],[121.7551866,25.1433129],[121.7554771,25.1437706],[121.7556756,25.1441902],[121.7558826,25.1446671],[121.7560346,25.1452376],[121.7561251,25.1457069],[121.7562174,25.1464486],[121.7562936,25.1471934],[121.7564247,25.150747],[121.7564247,25.1514927],[121.756376,25.15227],[121.7563273,25.1529802],[121.7562189,25.1537418],[121.7560933,25.1544188],[121.7557797,25.1554511],[121.7548033,25.158759],[121.7538222,25.1623737],[121.7533636,25.1641732],[121.7483425,25.1849142],[121.7475795,25.1913697],[121.7479926,25.1971557],[121.749308,25.2013903],[121.7529354,25.206877],[121.7576968,25.2115412],[121.7661876,25.2171235],[121.7729306,25.2199052],[121.7826575,25.2223298],[121.7954961,25.2235911],[121.8104119,25.2247776],[121.8907471,25.2320999],[121.9075069,25.2337992],[121.9246688,25.2352146],[121.9390896,25.2362986],[121.9543276,25.2370996],[121.9677662,25.2372412],[121.9758747,25.2364574],[121.9844044,25.2341114],[122.000061,25.2235053],[122.0566828,25.1396805],[122.0800656,25.1263792],[122.0937535,25.1183759],[122.1336358,25.0930618],[123.7445041,24.6170598],[123.9453503,24.4999584],[123.9817427,24.4634009],[124.0149593,24.4306229],[124.0341853,24.4087793],[124.0815425,24.3683254],[124.129157,24.3347409],[124.1295648,24.3344867],[124.1302299,24.3342814],[124.1315281,24.3338904],[124.1322577,24.3336949],[124.1331053,24.3334798],[124.136281,24.333382]]]}}