{"type":"Feature","properties":{"id":"柳津観洸船","name":"柳津観洸船","operator":"","category":"ferry","attribution":"© OpenStreetMap contributors"},"geometry":{"type":"MultiLineString","coordinates":[[[139.7235873,37.5299593],[139.7235283,37.5300954],[139.7234908,37.5301741],[139.723413,37.5302699],[139.7233593,37.530323],[139.7232923,37.5303624],[139.7232172,37.530389],[139.7231662,37.5304145],[139.7231179,37.5304464],[139.7230831,37.5304953],[139.723071,37.5305528],[139.723067,37.5306155],[139.723075,37.530674],[139.7230911,37.530724],[139.7231153,37.5307676],[139.7231743,37.5308527],[139.7233701,37.5310271],[139.7234344,37.531076],[139.7235498,37.5312079],[139.7236919,37.5313951],[139.7237885,37.5315525],[139.7238609,37.5316609],[139.7238985,37.5317907],[139.7239172,37.5319162],[139.7239226,37.53208],[139.7239172,37.5321736],[139.7238797,37.5322927],[139.7238314,37.5324012],[139.7237214,37.5325819],[139.7235551,37.5327883],[139.7233915,37.5329563],[139.7232601,37.5330478],[139.7231622,37.5331297],[139.7229624,37.5332817],[139.7227263,37.5334476],[139.7216588,37.5341942],[139.7212458,37.5345388],[139.7209722,37.5347727],[139.720704,37.5350535],[139.7203767,37.5354406],[139.7201997,37.5357171],[139.7200817,37.5359936],[139.7200012,37.5363296],[139.719969,37.5365891],[139.7199905,37.5369932],[139.7200334,37.5373718],[139.7201192,37.5377802],[139.7202802,37.5382056],[139.7204465,37.5386564],[139.7206289,37.539035],[139.7209829,37.5395029],[139.7212082,37.5397752],[139.7213745,37.5399623],[139.7216427,37.540243],[139.7219485,37.5406897],[139.7225815,37.5418084],[139.7232252,37.5430844],[139.7233754,37.5434204],[139.7234881,37.5437479],[139.7235417,37.5439712],[139.7236007,37.5442115],[139.7236222,37.5443817],[139.7236866,37.5447198],[139.7237805,37.5450516],[139.7239843,37.5455471],[139.7242042,37.5459596],[139.7246066,37.5465657],[139.7254863,37.5476609],[139.7258243,37.548116],[139.7259745,37.5482968],[139.7260925,37.5484456],[139.7262159,37.5485711],[139.7263151,37.5486604],[139.7267657,37.5490028],[139.7270098,37.5492197],[139.7272539,37.5494217],[139.7275597,37.5496322],[139.7278601,37.5497896],[139.7281283,37.5499066],[139.7283697,37.5499916],[139.7286218,37.5500894],[139.7288391,37.5501596],[139.7293246,37.5502468],[139.729853,37.550334],[139.7304082,37.5504105],[139.7308964,37.5504446],[139.7310868,37.5504488],[139.7312504,37.5504446],[139.7313791,37.5504339],[139.7315025,37.5504042],[139.7316071,37.5503606],[139.7316943,37.5503191],[139.7317788,37.5502702],[139.7322053,37.5500469],[139.7325352,37.5498789],[139.7327068,37.5498066],[139.7329295,37.5497258],[139.7333506,37.5495684],[139.7340211,37.5492899],[139.7343618,37.5491112],[139.7345281,37.5490496],[139.7347239,37.5489858],[139.7348835,37.5489252],[139.7349545,37.5488858],[139.7350363,37.5488475],[139.7350793,37.5488157],[139.7351181,37.5487965],[139.7351403,37.5487901],[139.7351705,37.5487848],[139.7351946,37.5487816],[139.7352295,37.5487806],[139.7352603,37.5487827],[139.7352898,37.5487859],[139.735318,37.5487933],[139.7353368,37.5488034],[139.7353488,37.5488157],[139.7353582,37.54883],[139.7353663,37.5488486],[139.7353709,37.5488656],[139.735373,37.548888],[139.7353736,37.5489023],[139.7353703,37.5489188],[139.7353636,37.5489395],[139.7353542,37.5489603],[139.7353408,37.5489805],[139.73532,37.549006],[139.7352932,37.5490342],[139.7352603,37.5490645],[139.7351892,37.549116],[139.7350994,37.5491729],[139.7349049,37.549258],[139.7347239,37.5493324],[139.7344047,37.54946],[139.7339594,37.5496514],[139.7332513,37.5500044],[139.7328034,37.5502],[139.7326291,37.5502659],[139.7323716,37.5503638],[139.7321221,37.5504403],[139.7318512,37.5504977],[139.7315803,37.550536],[139.7312665,37.5505658],[139.7310331,37.5505679],[139.7307891,37.550553],[139.730545,37.5505233],[139.7300112,37.5504403],[139.7297135,37.5503978],[139.7289947,37.5502851],[139.7286889,37.5502128],[139.7283939,37.5501298],[139.7281069,37.5500171],[139.7278199,37.5498938],[139.7276562,37.5497981],[139.7274846,37.5497109],[139.7273317,37.5496152],[139.7271466,37.5494961],[139.7270259,37.5493941],[139.7268221,37.5492027],[139.7265136,37.5489518],[139.7262642,37.548737],[139.7258887,37.5483818],[139.7255373,37.5479672],[139.7254005,37.547797],[139.725076,37.5473951],[139.7246522,37.5468337],[139.7244725,37.5465806],[139.7242311,37.5462],[139.7240701,37.5459256],[139.723936,37.5456874],[139.7238287,37.5454301],[139.723708,37.5451494],[139.7236463,37.5449155],[139.7235578,37.5445178],[139.7235122,37.5443306],[139.7234747,37.5441499],[139.7234264,37.5439351],[139.7233647,37.5437607],[139.7232521,37.543497],[139.7231716,37.5433162],[139.7230348,37.543112],[139.722898,37.5429398],[139.7226754,37.5426612],[139.7224098,37.5423847],[139.7219244,37.5417935],[139.7216266,37.541383],[139.7212887,37.5408428],[139.720999,37.5403281],[139.7207415,37.5398092],[139.7205752,37.5394731],[139.720425,37.539203],[139.7203016,37.5389032],[139.7201997,37.5386352],[139.7201192,37.5383714],[139.7200495,37.5381673],[139.7199744,37.537912],[139.7198671,37.537576],[139.7198188,37.5372868],[139.719792,37.5371336],[139.7197813,37.5369805],[139.7197813,37.5368231],[139.7197893,37.5366529],[139.7198188,37.5363935],[139.7198778,37.5361127],[139.7199047,37.5359851],[139.7199556,37.5358383],[139.7200307,37.5356639],[139.7201219,37.5355087],[139.7202131,37.5353768],[139.7203311,37.535247],[139.7204813,37.5350748],[139.7206503,37.534894],[139.7208193,37.5347281],[139.7209346,37.5346196],[139.7214335,37.5341985],[139.7217366,37.5339645],[139.7220799,37.5337327],[139.7224769,37.5334625],[139.7227505,37.5332668],[139.7230187,37.5330456],[139.723193,37.5328946],[139.723303,37.5327946],[139.7234049,37.5326819],[139.7234961,37.5325586],[139.7235632,37.5324203],[139.7236088,37.5323118],[139.723649,37.5321948],[139.7236705,37.5320566],[139.7236812,37.5319545],[139.7236705,37.531846],[139.7236168,37.5317205],[139.7235337,37.5315397],[139.723472,37.5314185],[139.7234049,37.53131],[139.7233111,37.5311994],[139.7231501,37.531042],[139.7230697,37.5309803],[139.7229463,37.5308973],[139.7228055,37.5308431],[139.7226338,37.5307963],[139.722438,37.5307591],[139.7222462,37.5307144],[139.7221403,37.5306942],[139.7220477,37.5306676],[139.7219592,37.5306272],[139.7218627,37.5305761],[139.721805,37.5305357],[139.7217339,37.5304677],[139.7216991,37.5304102],[139.7216669,37.5303358],[139.7216535,37.5302911],[139.7216454,37.5302262],[139.7216468,37.5301731],[139.7216548,37.5301146],[139.7216709,37.5300444],[139.7217017,37.5299742],[139.7217876,37.5298593],[139.7218868,37.52977],[139.7220343,37.5296828],[139.7221819,37.5296317],[139.7223964,37.5295977],[139.72256,37.5295998],[139.7227317,37.5296275],[139.7232091,37.529787],[139.7235873,37.5299593]]]}}