{"type":"Feature","properties":{"id":"株式会社小田急箱根_箱根海賊船","name":"箱根海賊船","operator":"株式会社小田急箱根","category":"ferry","attribution":"© OpenStreetMap contributors"},"geometry":{"type":"MultiLineString","coordinates":[[[138.994387,35.23685],[138.9941955,35.2366287],[138.9938642,35.234727],[138.993761,35.233929],[138.9936996,35.2331282],[138.9936802,35.2323259],[138.99371,35.2293275],[138.9937661,35.2284952],[138.9938721,35.2276661],[138.9940277,35.2268423],[138.9942326,35.2260256],[138.9950937,35.223624],[138.9953526,35.2229923],[138.9956513,35.2223723],[138.995989,35.2217659],[139.0031828,35.2104787],[139.0041881,35.2089846],[139.0052808,35.207532],[139.0064582,35.2061242],[139.0077176,35.2047647],[139.0090559,35.2034564],[139.024096,35.1903289]],[[139.024096,35.1903289],[139.0218826,35.1925922],[139.0216284,35.1928412],[139.0214029,35.1931082],[139.0212082,35.1933908],[139.0210458,35.1936868],[139.020917,35.1939936],[139.020823,35.1943087],[139.0207646,35.1946295],[139.0207421,35.1949533],[139.0207559,35.1952775],[139.0208057,35.1955992],[139.0208912,35.195916],[139.0210117,35.196225],[139.0211661,35.1965238],[139.0213532,35.1968098],[139.0215714,35.1970807],[139.0218189,35.1973343],[139.0220936,35.1975683],[139.0235953,35.1987609],[139.0239393,35.1990001],[139.0242966,35.199226],[139.0246663,35.199438],[139.0250478,35.1996358],[139.02544,35.1998188],[139.0258423,35.1999867],[139.0262536,35.2001392],[139.0266732,35.2002759],[139.0271002,35.2003964],[139.0275335,35.2005006],[139.0279723,35.2005883],[139.028378,35.2006723],[139.0299725,35.2009549]],[[139.0299725,35.2009549],[139.0295014,35.2009204],[139.0218437,35.2006671],[139.0210236,35.2006469],[139.0202034,35.2006608],[139.0193851,35.2007088],[139.0185708,35.2007907],[139.0177627,35.2009064],[139.0169628,35.2010555],[139.0161733,35.2012376],[139.0153961,35.2014524],[139.0146333,35.2016991],[139.0138868,35.2019773],[139.0131586,35.2022861],[139.0124506,35.2026248],[139.0117646,35.2029925],[139.0111023,35.2033882],[139.0104656,35.2038109],[139.009856,35.2042596],[139.0092751,35.204733],[139.0087244,35.2052299],[139.0082054,35.205749],[139.0077194,35.2062891],[139.0072676,35.2068486],[139.0067696,35.2075126],[138.9968455,35.2214672],[138.9963574,35.2222843],[138.9958177,35.2233754],[138.995359,35.224491],[138.9949828,35.225627],[138.9946906,35.2267793],[138.9944832,35.2279438],[138.9943615,35.2291164],[138.994326,35.2302927],[138.9943081,35.2366506],[138.994387,35.23685]]]}}