{"type":"Feature","properties":{"id":"株式会社向島汽船_向島航路（向島丸）星賀～向島","name":"向島航路（向島丸）星賀～向島","operator":"株式会社向島汽船","category":"ferry","attribution":"© OpenStreetMap contributors"},"geometry":{"type":"MultiLineString","coordinates":[[[129.7898237,33.4496295],[129.7863156,33.4466059],[129.7856514,33.4463987],[129.7849178,33.446345],[129.7843773,33.4464094],[129.7834121,33.4466886],[129.7829101,33.4471396],[129.7808372,33.4537369],[129.7806226,33.4550389],[129.7806617,33.4562758],[129.7800764,33.4784718],[129.7793478,33.4878841],[129.7792205,33.4882877],[129.7788947,33.488621],[129.778634,33.4887445],[129.7774629,33.4890718],[129.7772827,33.4892141],[129.7771476,33.4892677],[129.7767904,33.4891819]]]}}