{"type":"Feature","properties":{"id":"株式会社商船三井さんふらわあ_さんふらわあ_(大阪－別府)","name":"さんふらわあ (大阪－別府)","operator":"株式会社商船三井さんふらわあ","category":"ferry","attribution":"© OpenStreetMap contributors"},"geometry":{"type":"MultiLineString","coordinates":[[[135.4111535,34.6363793],[135.4108554,34.6360912],[135.4104744,34.6358865],[135.4102224,34.6356399],[135.4098053,34.6354004],[135.4101392,34.634396],[135.4101044,34.6339406],[135.4099019,34.6334572],[135.4019151,34.6275285],[135.3999174,34.6270106],[135.3981364,34.626887],[135.3965543,34.6271602],[135.388207,34.6310822],[135.3857482,34.6313065],[135.3835953,34.6308307],[135.3472528,34.6139652],[135.3250066,34.6036398],[135.313475,34.6003728],[135.2271984,34.5950468],[135.1121501,34.5894418],[135.0762532,34.5886408],[135.0706577,34.5896606],[135.0088243,34.6247113],[134.9944105,34.6262829],[134.9808932,34.62412],[134.9045297,34.5905165],[134.3510935,34.4054539],[134.3423361,34.4038011],[134.2298475,34.4010151],[134.2274193,34.4012534],[134.2247108,34.4019162],[134.1317061,34.43007],[134.0630779,34.4418454],[134.0597894,34.4418501],[134.0567096,34.4412316],[134.0155813,34.4280097],[133.9215875,34.4065696],[133.8382013,34.3793655],[133.835362,34.3787212],[133.8315888,34.3784136],[133.803196,34.3775088],[133.6576117,34.3295004],[133.5404128,34.2876827],[133.253647,34.20807],[133.041342,34.0919739],[133.0366089,34.0903525],[133.0311649,34.0896919],[133.0245527,34.0901219],[133.0187825,34.0917375],[133.013496,34.0952246],[133.0004732,34.1078906],[132.9990702,34.1102309],[132.9983605,34.1129838],[132.9981172,34.1152524],[132.99719,34.1290986],[132.9966821,34.1313394],[132.9955998,34.1330418],[132.9935874,34.1348856],[132.9487002,34.1592811],[132.9458173,34.1607536],[132.9418507,34.1614858],[132.9383753,34.1615234],[132.9165261,34.1613202],[132.9106183,34.1606988],[132.9048007,34.1586951],[132.9001449,34.1556719],[132.7071309,33.9576909],[132.7041941,33.955119],[132.7000597,33.9522183],[132.6278231,33.9082796],[132.6231664,33.9050868],[132.5459763,33.8312501],[132.5411427,33.8280182],[131.7621446,33.3679453],[131.7444849,33.3592087],[131.7253063,33.3527474],[131.5130418,33.3147705],[131.5109963,33.3142248],[131.5094483,33.3136024],[131.5084182,33.3127725],[131.5075913,33.3117494],[131.504963,33.3073009],[131.5043123,33.3061718],[131.5044004,33.3058331],[131.5043221,33.3054246],[131.5044165,33.3050687],[131.5043319,33.3046787]]]}}