{"type":"Feature","properties":{"id":"株式会社商船三井さんふらわあ_さんふらわあ_(神戸－大分)","name":"さんふらわあ (神戸－大分)","operator":"株式会社商船三井さんふらわあ","category":"ferry","attribution":"© OpenStreetMap contributors"},"geometry":{"type":"MultiLineString","coordinates":[[[135.2813933,34.6974133],[135.2817325,34.6973061],[135.282155,34.6973719],[135.282511,34.6973202],[135.2925883,34.6997945],[135.2942705,34.6999543],[135.2965772,34.6997249],[135.2986908,34.6990016],[135.2998924,34.6978196],[135.3008997,34.6961497],[135.301376,34.6944238],[135.3048115,34.6771703],[135.3051935,34.674366],[135.3044013,34.6541496],[135.3035633,34.6499086],[135.3020329,34.647016],[135.2991239,34.6437605],[135.2426453,34.5998815],[135.240578,34.5980969],[135.2344031,34.5939701],[135.2301764,34.5919544],[135.2258613,34.5911007],[135.1121599,34.5856687],[135.0761871,34.5856851],[135.0689381,34.5870435],[135.0075477,34.6212984],[134.9953115,34.6227905],[134.9833978,34.6204077],[134.9063826,34.5864202],[134.3532076,34.4022307],[134.3432146,34.4001708],[134.2313784,34.397829],[134.2293234,34.3980045],[134.2276877,34.3982159],[134.2235095,34.3992133],[134.1299794,34.4275362],[134.0631963,34.4390503],[134.0604236,34.4389908],[134.0575661,34.4384242],[134.0163984,34.4251294],[133.9226241,34.4036093],[133.8462451,34.3786133],[133.8441825,34.3777203],[133.8423419,34.3766569],[133.8167775,34.3595943],[133.8158611,34.3590867],[133.6780064,34.2964348],[133.6743021,34.2953296],[133.6697976,34.2948959],[133.5672584,34.2901485],[133.5649538,34.289896],[133.5627348,34.2894658],[133.2547617,34.2065673],[133.0423039,34.0903763],[133.036926,34.0888337],[133.0312601,34.0881461],[133.023963,34.0884927],[133.0176165,34.090312],[132.9878068,34.1086244],[132.9854786,34.1107475],[132.9845452,34.1124264],[132.984041,34.1138743],[132.9841268,34.1162548],[132.9847024,34.118165],[132.9889548,34.1297994],[132.9891801,34.1313979],[132.9890513,34.1327301],[132.9883218,34.1346749],[132.9861116,34.1366108],[132.9472801,34.1577525],[132.9454172,34.1586932],[132.9431641,34.159359],[132.940439,34.1596076],[132.9164593,34.1591042],[132.9109454,34.1584268],[132.9061067,34.1567933],[132.9019056,34.1542552],[132.7086208,33.9564641],[132.7054024,33.9536039],[132.7011957,33.95063],[132.6294886,33.9063652],[132.6247591,33.9030889],[132.5483641,33.8297057],[132.5434667,33.826389],[131.7441913,33.3536223],[131.5926397,33.2655909],[131.5897104,33.2631642],[131.587758,33.260652],[131.5865779,33.2575838],[131.5862775,33.2548743],[131.5863418,33.2529902],[131.5865108,33.2511374],[131.5868169,33.2503046],[131.5879096,33.2483481],[131.588713,33.2464496],[131.5888028,33.2463798],[131.5888121,33.2463014],[131.5891401,33.2460629]]]}}