{"type":"Feature","properties":{"id":"株式会社シークルーズ_天草宝島ライン_三角_-_松島(前島)","name":"天草宝島ライン 三角 - 松島(前島)","operator":"株式会社シークルーズ","category":"ferry","attribution":"© OpenStreetMap contributors"},"geometry":{"type":"MultiLineString","coordinates":[[[130.4717793,32.6067477],[130.471745,32.6067118],[130.4729705,32.6056557],[130.457531,32.5759139],[130.4592508,32.566997],[130.456388,32.5603492],[130.4542797,32.5481717],[130.4355225,32.5414529],[130.4256861,32.5288227],[130.4260619,32.5280441],[130.4260112,32.5280195]]]}}