{"type":"Feature","properties":{"id":"株式会社ごごしま_ごごしま(高浜－由良)","name":"ごごしま(高浜－由良)","operator":"株式会社ごごしま","category":"ferry","attribution":"© OpenStreetMap contributors"},"geometry":{"type":"MultiLineString","coordinates":[[[132.6817936,33.9024355],[132.6818229,33.9019624],[132.681886,33.9007315],[132.6819677,33.900218],[132.6822089,33.8996071],[132.6826472,33.8990036],[132.6834977,33.8981584],[132.6990285,33.8840783],[132.6994764,33.8837393],[132.6997869,33.8835664],[132.7000573,33.8834898],[132.7003846,33.8834133],[132.7008518,33.8833781]]]}}