{"type":"Feature","properties":{"id":"株式会社キャプテンライン_キャプテンライン","name":"キャプテンライン","operator":"株式会社キャプテンライン","category":"ferry","attribution":"© OpenStreetMap contributors"},"geometry":{"type":"MultiLineString","coordinates":[[[135.4281018,34.6537322],[135.4278738,34.6536232],[135.4278411,34.6536209],[135.4278145,34.6536339],[135.4277965,34.6536704],[135.4277674,34.6537677],[135.4277594,34.6541617],[135.4277197,34.6543611],[135.4276989,34.6545121],[135.427678,34.6546071],[135.4276828,34.6546702],[135.4276903,34.6548719],[135.4277102,34.6549895],[135.427731,34.6550829],[135.4277812,34.6551903],[135.4278285,34.6552682],[135.4279166,34.6553842],[135.4279885,34.6554652],[135.4280898,34.6555797],[135.4281589,34.6556568],[135.4283776,34.6558693],[135.42853,34.6559924],[135.428654,34.6560866],[135.4288414,34.6562158],[135.4290392,34.6563497],[135.4291755,34.656437],[135.4292683,34.6565078],[135.4294027,34.6566012],[135.4296053,34.6567336],[135.4299527,34.6569586],[135.430123,34.6570684],[135.4303313,34.6572171],[135.430496,34.6573394],[135.4306295,34.6574305],[135.4308415,34.6575706],[135.4311652,34.6578229],[135.4313877,34.6579965],[135.4316442,34.6582185],[135.4319944,34.6584847],[135.4323305,34.6587129],[135.4325198,34.6588413],[135.432836,34.6590391],[135.4331919,34.6592299],[135.433543,34.659409],[135.4338166,34.6595328],[135.4342776,34.6597601],[135.4346998,34.6599719],[135.435067,34.6601767],[135.4354239,34.6603939],[135.4358338,34.6606539],[135.4363165,34.6609739],[135.437353,34.6617027],[135.4376219,34.6619332],[135.4378263,34.6621667],[135.43808,34.6625124],[135.4383905,34.6630014],[135.4385457,34.6632785],[135.4386707,34.6635433],[135.4387313,34.6637986],[135.4387616,34.6639917],[135.4387502,34.6641505],[135.4387683,34.6643909],[135.4386798,34.664585],[135.4384834,34.6647651],[135.4384014,34.6649243]]]}}