{"type":"Feature","properties":{"id":"株式会社商船三井さんふらわあ_さんふらわあ_(大阪－志布志)","name":"さんふらわあ (大阪－志布志)","operator":"株式会社商船三井さんふらわあ","category":"ferry","attribution":"© OpenStreetMap contributors"},"geometry":{"type":"MultiLineString","coordinates":[[[135.4088913,34.6347365],[135.4086909,34.6344857],[135.4082944,34.634303],[135.4079935,34.6340112],[135.4075474,34.6337606],[135.4077226,34.6331947],[135.4076958,34.63274],[135.4075134,34.6323693],[135.4014194,34.6278934],[135.3995097,34.6272755],[135.398072,34.6272666],[135.3966558,34.6274962],[135.3883081,34.6315152],[135.3857982,34.6317778],[135.3834915,34.6312305],[135.3819465,34.6306037],[135.0140978,34.3589154],[135.0111149,34.3549337],[134.984855,34.2995506],[134.9844539,34.298024],[134.9841683,34.2962434],[134.9820301,34.2678523],[134.8992988,33.8711819],[134.8781845,33.8300702],[134.2586802,33.1574933],[134.2335318,33.1385575],[133.2264084,32.5111719],[131.3578604,31.3461605],[131.3475608,31.3398195],[131.3389777,31.3368138],[131.3343,31.3358791],[131.3297938,31.3355309],[131.3245153,31.3360074],[131.3200733,31.3367591],[131.0883026,31.4236377],[131.0862063,31.425221],[131.0850262,31.4267955],[131.0840606,31.4286265],[131.08361,31.4309152],[131.0836315,31.4332404],[131.084597,31.4361515],[131.0869789,31.4398314],[131.094017,31.4475934],[131.1012375,31.4561144],[131.1015379,31.4570753],[131.1015916,31.4578807],[131.1012268,31.4590339],[131.1004436,31.4599216],[131.0992661,31.4605668],[131.0989536,31.4606491],[131.0989335,31.4609031],[131.0988362,31.4609835],[131.0986385,31.4616695],[131.0984163,31.4620971]]]}}