{"type":"Feature","properties":{"id":"桃花茅草屋_-_普陀山","name":"桃花茅草屋 - 普陀山","operator":"","category":"ferry","attribution":"© OpenStreetMap contributors"},"geometry":{"type":"MultiLineString","coordinates":[[[122.2837845,29.8443979],[122.2820941,29.8454645],[122.2761691,29.8522203],[122.2744417,29.8601853],[122.2741842,29.8838904],[122.2748279,29.8905692],[122.2768878,29.895127],[122.2924876,29.9097102],[122.2980022,29.9151412],[122.3073577,29.9224316],[122.328043,29.9559757],[122.3364329,29.9662003],[122.3380852,29.9668137],[122.3401451,29.9674643],[122.3683834,29.9752342],[122.3746546,29.9764889]]]}}