{"type":"Feature","properties":{"id":"桧原湖遊覧船_島めぐり","name":"桧原湖遊覧船 島めぐり","operator":"","category":"ferry","attribution":"© OpenStreetMap contributors"},"geometry":{"type":"MultiLineString","coordinates":[[[140.063261,37.6531118],[140.0628493,37.6532024],[140.0626727,37.6532388],[140.062484,37.6532886],[140.06238,37.653325],[140.0623316,37.6534246],[140.062288,37.6535855],[140.0620411,37.6543722],[140.0617913,37.6550385],[140.0616305,37.6554151],[140.0612781,37.655946],[140.0609463,37.6563604],[140.060457,37.6569536],[140.0599509,37.6575289],[140.0597283,37.6577856],[140.0596412,37.6580691],[140.0596025,37.6583449],[140.0596412,37.6588007],[140.0595928,37.6591378],[140.0594815,37.6594174],[140.0592445,37.6598426],[140.0589299,37.6603406],[140.0585235,37.6608653],[140.0578364,37.6616199],[140.0574735,37.6619608],[140.0571155,37.6622596],[140.0567381,37.6626043],[140.0564961,37.6629452],[140.0562832,37.6632976],[140.0562337,37.6635875],[140.0562597,37.6638394],[140.0562644,37.6640125],[140.056549,37.6645173],[140.0569459,37.6650535],[140.0572915,37.6655871],[140.0575994,37.6660339],[140.0578457,37.6664537],[140.0580784,37.6666975],[140.0583692,37.6668546],[140.0586395,37.6669412],[140.0589919,37.6670983],[140.0592519,37.6672094],[140.0595188,37.6673556],[140.0598028,37.6675614],[140.0600594,37.667816],[140.0601791,37.6680191],[140.0602613,37.6683062],[140.0602373,37.6685716],[140.0602065,37.6688045],[140.0601347,37.6690456],[140.0600525,37.6693678],[140.059991,37.6697443],[140.0599294,37.6700774],[140.0597896,37.6717445],[140.0597558,37.672813],[140.0597606,37.6739696],[140.0597993,37.6752717],[140.0597606,37.6764283],[140.0596735,37.6777303],[140.0596251,37.680411],[140.0596155,37.681713],[140.0594686,37.6845597],[140.0594493,37.6863212],[140.0593138,37.6874086],[140.0588493,37.6881744],[140.0581525,37.6887258],[140.0575719,37.6889249],[140.0569332,37.6889862],[140.0564106,37.6889402],[140.0561252,37.6887603],[140.0556026,37.6883391],[140.0553849,37.6879791],[140.0548816,37.686796],[140.0543784,37.6856855],[140.0538172,37.684016],[140.0535172,37.6825302],[140.0532752,37.6815806],[140.0530623,37.6800335],[140.0527817,37.6785553],[140.0527043,37.6774217],[140.0528688,37.6764261],[140.0530333,37.6756601],[140.0534494,37.674358],[140.053972,37.6729487],[140.0544655,37.6713861],[140.0549687,37.6700992],[140.0554526,37.6691647],[140.0558881,37.6678702],[140.0561784,37.6668131],[140.056401,37.6661619],[140.0563719,37.6655491],[140.0563042,37.6647294],[140.0561687,37.6629905],[140.056155,37.662082],[140.0561357,37.6614768],[140.0561599,37.6608027],[140.0562034,37.6604426],[140.0563195,37.6602664],[140.0567707,37.6595695],[140.0573278,37.6587471],[140.0576289,37.6582162],[140.0579984,37.6576094],[140.0583679,37.6567318],[140.0585869,37.6562443],[140.0588127,37.6558163],[140.0590043,37.6554696],[140.0593396,37.6550958],[140.0596817,37.6547436],[140.0599623,37.6545432],[140.0607423,37.6540773],[140.061673,37.6536439],[140.0621759,37.6533784],[140.0623846,37.6532836],[140.0626241,37.6532051],[140.0628773,37.6531563],[140.0630773,37.6531336],[140.063261,37.6531118]]]}}