{"type":"Feature","properties":{"id":"梅湾_-_小南岙","name":"梅湾 - 小南岙","operator":"","category":"ferry","attribution":"© OpenStreetMap contributors"},"geometry":{"type":"MultiLineString","coordinates":[[[122.028628,29.9592291],[122.0274854,29.9595637],[122.0263052,29.95948],[122.0253825,29.959164],[122.0233869,29.9575466],[122.0222604,29.9559757],[122.0217454,29.9551019],[122.0210159,29.9528988],[122.0206618,29.9486691],[122.0206404,29.9469772],[122.0213485,29.9419198],[122.0219064,29.9405624],[122.0231724,29.9387588],[122.0268202,29.9371969],[122.0282149,29.9371039],[122.0290947,29.9381266],[122.0291376,29.9386193],[122.0288908,29.9388797],[122.0280647,29.9390284],[122.0275712,29.9388936]]]}}