{"type":"Feature","properties":{"id":"民宿_象岩亭_送迎船_ぞういわ丸","name":"民宿　象岩亭　送迎船　ぞういわ丸","operator":"","category":"ferry","attribution":"© OpenStreetMap contributors"},"geometry":{"type":"MultiLineString","coordinates":[[[133.7925504,34.4386729],[133.7921139,34.4383759],[133.7914058,34.4382344],[133.791084,34.4377388],[133.7899038,34.4355267],[133.7872216,34.4339693],[133.7803551,34.4332437],[133.7671157,34.4290492],[133.7647776,34.4276631],[133.7642846,34.427719],[133.7642045,34.4278969],[133.7640465,34.427888]]]}}