{"type":"Feature","properties":{"id":"気仙沼ベイクルーズ","name":"気仙沼ベイクルーズ","operator":"","category":"ferry","attribution":"© OpenStreetMap contributors"},"geometry":{"type":"MultiLineString","coordinates":[[[141.575919,38.9057096],[141.5760905,38.9057665],[141.5763823,38.9058438],[141.5766018,38.9058628],[141.5770124,38.9058691],[141.5791671,38.9054104],[141.5800453,38.9052124],[141.5806145,38.9047568],[141.5814113,38.9039343],[141.5863549,38.8942272],[141.5873306,38.8936577],[141.5924206,38.8917085],[141.5939492,38.8911642],[141.5947298,38.8906579],[141.5954778,38.8894302],[141.5959494,38.8861265],[141.5955754,38.8844049],[141.5944859,38.8819745],[141.5942094,38.8808984],[141.5945834,38.8799996],[141.5958031,38.87943],[141.5983562,38.8787717],[141.6032022,38.878202],[141.6070075,38.8780628],[141.6081296,38.8781894],[141.6126504,38.8788856],[141.6154149,38.8792527],[141.6171874,38.8798477],[141.6185697,38.8806326],[141.6195942,38.8815441],[141.6202121,38.8827213],[141.6205862,38.8836328],[141.6211879,38.8856075],[141.6223587,38.8868227],[141.6242451,38.887367],[141.625855,38.8871897],[141.6282618,38.8861898],[141.6290261,38.8850632],[141.6303108,38.8843923],[141.6318882,38.8842024],[141.6332054,38.8843037],[141.6345389,38.8850252],[141.6351568,38.8860252],[141.635108,38.8872024],[141.6346202,38.8881644],[141.6332054,38.8890125],[141.6307011,38.88962],[141.6279365,38.8898352],[141.6242126,38.8895821],[141.621692,38.8887846],[141.6203748,38.8883796],[141.6189762,38.8874935],[141.6181469,38.8866201],[141.6177729,38.8855062],[141.617659,38.8845948],[141.6176428,38.8837087],[141.6173826,38.8829872],[141.6165857,38.8815441],[141.6154962,38.8808605],[141.6132195,38.8801516],[141.6075116,38.8791262],[141.6053,38.8789616],[141.6037226,38.8790629],[141.6004214,38.8798477],[141.5987627,38.8803035],[141.5976407,38.8810377],[141.5973642,38.8819238],[141.5974618,38.8832657],[141.5980472,38.8853037],[141.598161,38.8874049],[141.5979659,38.8891644],[141.5972992,38.8911136],[141.5960958,38.8922021],[141.5945021,38.8929489],[141.5905993,38.8938222],[141.5893308,38.8938602],[141.5878673,38.8942019],[141.5871355,38.8947462],[141.5845336,38.9036938],[141.5836506,38.90486],[141.5811829,38.9056745],[141.5787772,38.9060922],[141.577232,38.9063766],[141.5766466,38.906364],[141.5757465,38.9059422],[141.575919,38.9057096]],[[141.6126582,38.8650878],[141.6126175,38.8651274],[141.6124508,38.8651828],[141.6116777,38.8653366],[141.6081876,38.8658044],[141.6057213,38.8661732],[141.6039517,38.8668125],[141.6022812,38.8676833],[141.6010495,38.8694468],[141.5998179,38.8709569],[141.599195,38.872544],[141.599195,38.8737564],[141.5997471,38.8749797],[141.6009363,38.8763684],[141.6024652,38.8775256],[141.6038384,38.8779444],[141.6070379,38.8782861],[141.6124599,38.8790575],[141.615263,38.8794763],[141.6168485,38.8799171],[141.618519,38.880942],[141.6193401,38.8816914],[141.6202886,38.8837081],[141.6208407,38.8855704],[141.6221573,38.8869258],[141.6242384,38.887565],[141.6258947,38.8874327],[141.6284571,38.8864079],[141.6293206,38.8852288],[141.6303541,38.8846668],[141.6317415,38.8844464],[141.633058,38.8845786],[141.6341906,38.8851407],[141.6347852,38.8860443],[141.6347427,38.8871242],[141.6342897,38.8880388],[141.6330156,38.8888101],[141.6307222,38.8893611],[141.6279474,38.8896255],[141.6243091,38.8894162],[141.6204443,38.888171],[141.6190994,38.8873556],[141.618335,38.8865512],[141.6179669,38.8852509],[141.6179811,38.8838073],[141.6167919,38.8815151],[141.6158292,38.8807436],[141.6136208,38.8800163],[141.607505,38.8789363],[141.6045463,38.8786718],[141.6015733,38.8779113],[141.5990959,38.8767211],[141.5978992,38.8750286],[141.597234,38.8733914],[141.5976954,38.8712782],[141.5989185,38.8693486],[141.6008819,38.8672185],[141.6028989,38.866333],[141.6055382,38.8656563],[141.6116,38.8649797],[141.6126504,38.8649591],[141.6126562,38.8649992]]]}}