{"type":"Feature","properties":{"id":"水納海運_水納～渡久地","name":"水納～渡久地","operator":"水納海運","category":"ferry","attribution":"© OpenStreetMap contributors"},"geometry":{"type":"MultiLineString","coordinates":[[[127.8181613,26.6504708],[127.8182164,26.6504888],[127.8183397,26.6505296],[127.8184578,26.6506471],[127.8188145,26.6512656],[127.8198445,26.6525601],[127.8209227,26.6532265],[127.8225535,26.6539169],[127.849676,26.6611273],[127.8700071,26.6659021],[127.8721958,26.6661802],[127.8743094,26.6661322],[127.8764981,26.6657295],[127.8795773,26.6649625],[127.8818196,26.6641859],[127.8893941,26.6604082],[127.8897817,26.6601326],[127.8899252,26.6596855],[127.8899641,26.6592373],[127.8899352,26.6592346]]]}}