{"type":"Feature","properties":{"id":"江田島汽船株式会社_三高〜宇品","name":"三高〜宇品","operator":"江田島汽船株式会社","category":"ferry","attribution":"© OpenStreetMap contributors"},"geometry":{"type":"MultiLineString","coordinates":[[[132.4535639,34.3520304],[132.4528547,34.3499655],[132.4527784,34.3497103],[132.4527209,34.3494517],[132.4526823,34.3491908],[132.4526628,34.3489284],[132.4526624,34.3486655],[132.4526813,34.3484031],[132.4527192,34.3481421],[132.4527761,34.3478835],[132.4528518,34.3476281],[132.452946,34.347377],[132.4530583,34.347131],[132.4540363,34.3451699],[132.4541212,34.3449761],[132.4541855,34.3447769],[132.4542286,34.3445739],[132.4542503,34.3443686],[132.4542503,34.3441624],[132.4542286,34.3439571],[132.4541855,34.3437541],[132.4541212,34.3435549],[132.4540363,34.343361],[132.4539313,34.343174],[132.4538071,34.3429952],[132.4527265,34.3415829],[132.452396,34.3411673],[132.4520488,34.340761],[132.4516854,34.3403646],[132.4513061,34.3399784],[132.4509113,34.3396029],[132.4505016,34.3392386],[132.4500773,34.3388858],[132.4496389,34.3385449],[132.449187,34.3382163],[132.448722,34.3379004],[132.4482444,34.3375975],[132.4477548,34.337308],[132.4472538,34.3370322],[132.4408366,34.3336244],[132.4402368,34.3332966],[132.4396478,34.3329557],[132.4390699,34.3326021],[132.4385036,34.3322359],[132.4379492,34.3318574],[132.4374072,34.3314669],[132.436878,34.3310646],[132.4363618,34.3306509],[132.4358591,34.3302261],[132.4353703,34.3297903],[132.4348956,34.329344],[132.4344355,34.3288875],[132.4339902,34.328421],[132.415228,34.3082227],[132.4148479,34.3077995],[132.4144845,34.3073664],[132.4141381,34.306924],[132.4138091,34.3064726],[132.4134977,34.3060127],[132.4132044,34.3055447],[132.4129295,34.3050693],[132.4126731,34.3045868],[132.4124357,34.3040977],[132.4122173,34.3036026],[132.4120184,34.303102],[132.4118389,34.3025963],[132.4116792,34.3020861],[132.4115394,34.301572],[132.4114197,34.3010544],[132.4113201,34.300534],[132.4112409,34.3000111],[132.4111819,34.2994864],[132.4108038,34.2950735],[132.4106328,34.2931547],[132.4104816,34.2912349],[132.4103501,34.289314],[132.4102384,34.2873923],[132.4101464,34.2854699],[132.4100741,34.2835469],[132.4100215,34.2816234],[132.4099888,34.2796997],[132.4099758,34.2777758],[132.4099486,34.2754303],[132.4099102,34.2741485],[132.4097946,34.2728698],[132.409602,34.2715974],[132.4091701,34.2697077],[132.4088458,34.2685743],[132.4086521,34.2675467],[132.4076624,34.2599512]]]}}