{"type":"Feature","properties":{"id":"江田島市_中町〜宇品","name":"中町〜宇品","operator":"江田島市","category":"ferry","attribution":"© OpenStreetMap contributors"},"geometry":{"type":"MultiLineString","coordinates":[[[132.4547708,34.351335],[132.4544324,34.3510825],[132.4541514,34.3508013],[132.4539915,34.3505328],[132.4538549,34.350167],[132.4538462,34.3494629],[132.4539387,34.3487632],[132.4545735,34.3466402],[132.4546701,34.3460556],[132.4546767,34.3443123],[132.4495095,34.3039242],[132.4489087,34.3015135],[132.4477929,34.2995282],[132.4461621,34.2975428],[132.4440164,34.2956283],[132.4369782,34.29031],[132.4349183,34.2886081],[132.4332875,34.287048],[132.4314851,34.2845659],[132.4297685,34.2816582],[132.428481,34.279176],[132.4275369,34.2767646],[132.4269361,34.2737857],[132.4266786,34.271587],[132.4268502,34.2682533],[132.4277944,34.2627914],[132.4303693,34.2530017],[132.4314851,34.2488158],[132.4324292,34.2464923],[132.4352187,34.2403904],[132.4356908,34.2392196],[132.4359697,34.2384213],[132.4359912,34.2381952],[132.4359644,34.2380045],[132.4358544,34.2377628],[132.4356801,34.2376031],[132.4352885,34.2374324],[132.4351556,34.2372684],[132.4353447,34.2373637],[132.4357524,34.2374723],[132.4360233,34.2375189],[132.4362915,34.2375255],[132.4365704,34.2374745],[132.4370291,34.2372173],[132.4374314,34.2368736],[132.4378686,34.2365011],[132.4382468,34.2360753],[132.4395343,34.234532],[132.4425383,34.2301856],[132.4438687,34.2274002],[132.4447136,34.2246657],[132.4447552,34.2245356],[132.4447604,34.2246702],[132.4448221,34.2248144],[132.4449282,34.2249518],[132.4450876,34.2250827],[132.4461819,34.2256682],[132.4468364,34.2259255],[132.4491002,34.2266085],[132.4493362,34.2267549],[132.4493765,34.2268547],[132.449415,34.2269356],[132.449347,34.2268547],[132.4493121,34.2267882],[132.4491994,34.2267039],[132.4489902,34.2266662],[132.4474265,34.2270077],[132.4463965,34.2274158],[132.4455597,34.2278416],[132.4441649,34.228702],[132.4426951,34.2303076],[132.4396695,34.2346362],[132.4383606,34.2361796],[132.4379744,34.2365832],[132.4375066,34.2369889],[132.4370936,34.2372838],[132.4366118,34.2375278],[132.4362996,34.2375854],[132.4360003,34.2375766],[132.4357267,34.2375367],[132.4353136,34.2373947],[132.4351556,34.2372684]]]}}