{"type":"Feature","properties":{"id":"沈家湾_-_枸杞干斜","name":"沈家湾 - 枸杞干斜","operator":"","category":"ferry","attribution":"© OpenStreetMap contributors"},"geometry":{"type":"MultiLineString","coordinates":[[[122.7535917,30.7118221],[122.7438477,30.7157289],[122.7428972,30.7159292],[122.7418347,30.7160009],[122.7387896,30.7158485],[122.4722744,30.6898199],[122.4689403,30.6888548],[122.4645258,30.6868508],[122.4430022,30.6727534],[122.4377014,30.6694674],[122.4311936,30.6662137],[122.429212,30.665598],[122.3876951,30.661098],[122.371559,30.6579971],[122.3464964,30.6479551],[122.327442,30.6364352],[122.2895048,30.6206299],[122.2443295,30.6168022],[122.2229003,30.6159026],[122.17844,30.6077031],[122.1673248,30.6021995],[122.1447747,30.5976427],[122.1424234,30.5971472],[122.1405882,30.5971899],[122.1386458,30.5975465],[122.1363293,30.5984955],[122.1322206,30.6007881]]]}}