{"type":"Feature","properties":{"id":"沖島通船","name":"沖島通船","operator":"","category":"ferry","attribution":"© OpenStreetMap contributors"},"geometry":{"type":"MultiLineString","coordinates":[[[136.0568519,35.2003379],[136.0568271,35.2003906],[136.0581384,35.2008013],[136.0591826,35.2011375],[136.0596051,35.2011885],[136.0613325,35.2013126],[136.0642592,35.2013096],[136.0679978,35.2006294],[136.0725071,35.19917],[136.0801467,35.19691],[136.084449,35.1956],[136.0880975,35.1944398],[136.0893836,35.1941047],[136.0906064,35.1938989],[136.0918636,35.1937908],[136.0925436,35.1937732],[136.0928876,35.193767],[136.0928954,35.1938057]]]}}