{"type":"Feature","properties":{"id":"沼島汽船","name":"沼島汽船","operator":"","category":"ferry","attribution":"© OpenStreetMap contributors"},"geometry":{"type":"MultiLineString","coordinates":[[[134.802016,34.2012218],[134.8021941,34.2011042],[134.8022723,34.2010941],[134.8023511,34.201097],[134.8024706,34.2011185],[134.80286,34.2014325],[134.8030368,34.2015023],[134.8031872,34.2015292],[134.8033458,34.2015057],[134.8035187,34.2014187],[134.8052339,34.1978201],[134.8088557,34.190285],[134.8122728,34.1827168],[134.8161265,34.1733885],[134.8166058,34.171672],[134.816891,34.1704247],[134.8169661,34.1701982],[134.8171453,34.1701117],[134.8175043,34.1700688],[134.8176716,34.1700916],[134.8178169,34.1701594],[134.8179413,34.1702258],[134.8185735,34.1709222],[134.818638,34.1708877]]]}}