{"type":"Feature","properties":{"id":"津軽海峡フェリー株式会社_津軽海峡ロード","name":"津軽海峡ロード","operator":"津軽海峡フェリー株式会社","category":"ferry","attribution":"© OpenStreetMap contributors"},"geometry":{"type":"MultiLineString","coordinates":[[[140.7160103,40.8456174],[140.7164329,40.845836],[140.719264,40.846632],[140.720851,40.847232],[140.7219639,40.8476825],[140.7233231,40.8492558],[140.7244021,40.8517695],[140.7258414,40.8532688],[140.7286178,40.8550132],[140.741603,40.8611656],[140.7544563,40.8690793],[140.7583394,40.8763095],[140.7598815,40.8832892],[140.7606318,40.9444107],[140.7589598,40.9799732],[140.7535776,41.0151088],[140.7434031,41.0812208],[140.7378661,41.19199],[140.7341756,41.2502991],[140.7300122,41.3103414],[140.7280813,41.3821979],[140.720529,41.4621574],[140.7134706,41.569722],[140.7115244,41.5803293],[140.6979023,41.6392582],[140.6820493,41.7012243],[140.6759739,41.7207759],[140.6719479,41.7398153],[140.6717748,41.7549573],[140.6786806,41.7735329],[140.6819095,41.7798164],[140.685574,41.7876022],[140.6905804,41.7957411],[140.6926124,41.796669],[140.6973758,41.7972421],[140.6994994,41.7973105],[140.7011425,41.7976878],[140.7032347,41.7985436],[140.7097896,41.8053322],[140.7102573,41.8059772],[140.7112903,41.8072686]]]}}