{"type":"Feature","properties":{"id":"津軽海峡フェリー株式会社_ノスタルジック航路","name":"ノスタルジック航路","operator":"津軽海峡フェリー株式会社","category":"ferry","attribution":"© OpenStreetMap contributors"},"geometry":{"type":"MultiLineString","coordinates":[[[140.8980346,41.5261366],[140.8984178,41.5267336],[140.8989125,41.5269975],[140.8992217,41.5273173],[140.8995026,41.5278649],[140.8996385,41.5283988],[140.8993914,41.5294159],[140.8982593,41.5309877],[140.8970859,41.5320818],[140.8963037,41.5326981],[140.6845023,41.7279633],[140.6737171,41.7398698],[140.6735466,41.7547831],[140.6803476,41.7730864],[140.6835757,41.7793692],[140.6872279,41.7871287],[140.6918006,41.7952062],[140.6931185,41.7958081],[140.6974453,41.7962971],[140.6993828,41.7963595],[140.701046,41.796776],[140.7090187,41.8071182],[140.7097648,41.8078834]]]}}