{"type":"Feature","properties":{"id":"浦戸しおさい海廊_野々島_-_石浜（桂島）","name":"浦戸しおさい海廊 野々島 - 石浜（桂島）","operator":"","category":"ferry","attribution":"© OpenStreetMap contributors"},"geometry":{"type":"MultiLineString","coordinates":[[[141.105622,38.3379167],[141.1054617,38.3379789],[141.1047322,38.3371878],[141.1043352,38.3370363],[141.1037525,38.3367652],[141.1031275,38.3364113],[141.1026715,38.335638],[141.1025976,38.3352706],[141.1025729,38.3348163],[141.1030043,38.3342169],[141.1031414,38.3337039],[141.1027952,38.3334065],[141.102681,38.333232],[141.1027071,38.3332212]]]}}