{"type":"Feature","properties":{"id":"淡島渡船","name":"淡島渡船","operator":"","category":"ferry","attribution":"© OpenStreetMap contributors"},"geometry":{"type":"MultiLineString","coordinates":[[[138.8929267,35.0328184],[138.8928636,35.0327879],[138.8927902,35.0327653],[138.8927144,35.032759],[138.8926311,35.0327668],[138.8925534,35.0327825],[138.892472,35.0328228],[138.8921979,35.0331039],[138.8919294,35.0334629],[138.8917317,35.0337986],[138.8914867,35.0341413],[138.8913122,35.0343561],[138.8911017,35.0345271],[138.8908178,35.0346988],[138.8905152,35.0348163],[138.8901306,35.0349195],[138.8897864,35.034985],[138.8894365,35.0350312],[138.8890744,35.0350893],[138.8885665,35.0351546],[138.8880301,35.0352163],[138.8878466,35.0352315],[138.887745,35.035236],[138.8877002,35.0352279],[138.8876467,35.0352065],[138.8876119,35.0351803]]]}}