{"type":"Feature","properties":{"id":"淡路ジェノバライン","name":"淡路ジェノバライン","operator":"","category":"ferry","attribution":"© OpenStreetMap contributors"},"geometry":{"type":"MultiLineString","coordinates":[[[135.019912,34.5909807],[135.0193137,34.591548],[135.0189894,34.5917587],[135.0185341,34.5921707],[135.0180474,34.5929749],[135.0173667,34.595285],[135.0062656,34.614491],[134.9975214,34.6311685],[134.9946926,34.6359917],[134.9911199,34.6413],[134.9907732,34.6419911],[134.9906528,34.6422665],[134.9904752,34.6425447],[134.990349,34.6427511],[134.990195,34.6430214],[134.9900602,34.6434274],[134.9900755,34.6439367],[134.990204,34.6442671],[134.990387,34.6445111],[134.990564,34.6447847],[134.9905855,34.6449553]]]}}