{"type":"Feature","properties":{"id":"深日洲本ライナー","name":"深日洲本ライナー","operator":"","category":"ferry","attribution":"© OpenStreetMap contributors"},"geometry":{"type":"MultiLineString","coordinates":[[[135.1418024,34.3187497],[135.1417828,34.3187821],[135.1415011,34.3188352],[135.1414457,34.318902],[135.1414387,34.3190218],[135.1415333,34.3191809],[135.1419678,34.3197612],[135.1420322,34.3203638],[135.1412061,34.3215002],[135.1400688,34.3227761],[135.138953,34.3240875],[135.1375583,34.3256292],[135.1362064,34.326976],[135.1345756,34.3282696],[135.1324943,34.3294568],[135.1307347,34.3305732],[135.1285246,34.3322034],[135.1266578,34.3331956],[135.1245978,34.3336563],[135.0573539,34.337596],[135.0171188,34.3396577],[134.9658275,34.3422882],[134.9193922,34.3446759],[134.911787,34.3453669],[134.9083952,34.345925],[134.9063138,34.3465184],[134.9047474,34.3469968],[134.9040179,34.3472271],[134.9033527,34.3473688],[134.902945,34.3473511],[134.90243,34.3470676],[134.902151,34.3466956],[134.9018292,34.3463236],[134.9014215,34.3460578],[134.9009763,34.3458365],[134.9006296,34.3456591],[134.9003602,34.3456002],[134.9001194,34.3455671],[134.8999263,34.3456125],[134.8998181,34.3456714]]]}}