{"type":"Feature","properties":{"id":"瀬戸内町_瀬相〜古仁屋〜生間","name":"瀬相〜古仁屋〜生間","operator":"瀬戸内町","category":"ferry","attribution":"© OpenStreetMap contributors"},"geometry":{"type":"MultiLineString","coordinates":[[[129.2459112,28.1255539],[129.2463586,28.1254376],[129.2471072,28.1255324],[129.2483646,28.1262104],[129.2496431,28.1270114],[129.2510448,28.128105],[129.2522924,28.1293835],[129.2532628,28.1305695],[129.2542332,28.1317864],[129.2552499,28.1330033],[129.2569006,28.1344846],[129.2592419,28.1361173],[129.2623226,28.1382122],[129.2646639,28.1400298],[129.2672208,28.1417857],[129.2686379,28.1426791],[129.2703631,28.1433569],[129.2720882,28.1438806],[129.2743063,28.1443119],[129.2986388,28.1435425],[129.3024075,28.1439464],[129.3042914,28.1443362],[129.3058329,28.1448241],[129.3070135,28.1452996],[129.307634,28.1456695],[129.3079526,28.1457492],[129.3082817,28.1457527],[129.3086902,28.1456875]],[[129.3086902,28.1456875],[129.308282,28.1457371],[129.3079604,28.1457315],[129.307644,28.1456442],[129.3070577,28.1452654],[129.306323,28.1446287],[129.3058147,28.14372],[129.305676,28.1428728],[129.3058917,28.1418562],[129.3066772,28.140131],[129.3082176,28.1369271],[129.3094498,28.1342778],[129.3107745,28.1310431],[129.3123456,28.1272847],[129.3139784,28.1230026],[129.3158268,28.119121],[129.3174595,28.1155166],[129.3193387,28.1120971],[129.3200781,28.1106184],[129.3204329,28.1098256],[129.320681,28.1090423],[129.3208766,28.1083076],[129.3209026,28.1071483],[129.3207002,28.1062368],[129.3204992,28.1055586],[129.3203741,28.1050639],[129.3202936,28.1045544],[129.3203458,28.1038599],[129.3204715,28.1029844],[129.3205426,28.1026549]]]}}