{"type":"Feature","properties":{"id":"瀬戸内シーライン株式会社_瀬戸内シーライン(宇品－小用)","name":"瀬戸内シーライン(宇品－小用)","operator":"瀬戸内シーライン株式会社","category":"ferry","attribution":"© OpenStreetMap contributors"},"geometry":{"type":"MultiLineString","coordinates":[[[132.4930093,34.2476982],[132.4934066,34.2476222],[132.4938235,34.2476205],[132.4947522,34.2479288],[132.4960758,34.2487636],[132.4985335,34.2509107],[132.5004475,34.2530372],[132.5019925,34.2553429],[132.5029366,34.2579677],[132.503595,34.2620005],[132.5034132,34.2651413],[132.5024353,34.2690944],[132.5016063,34.2711792],[132.4956646,34.2807399],[132.4936862,34.2838179],[132.4569516,34.339162],[132.4559772,34.3411553],[132.4551061,34.3443244],[132.4544748,34.3466243],[132.4538189,34.3487514],[132.4537412,34.34946],[132.4537666,34.350175],[132.453911,34.3505567],[132.4540811,34.3508387],[132.4543947,34.3511243],[132.4547708,34.351335]]]}}