{"type":"Feature","properties":{"id":"瀬戸内シーライン_瀬戸内シーライン(呉中央ー小用)","name":"瀬戸内シーライン(呉中央ー小用)","operator":"瀬戸内シーライン","category":"ferry","attribution":"© OpenStreetMap contributors"},"geometry":{"type":"MultiLineString","coordinates":[[[132.4930093,34.2476982],[132.4932613,34.2475495],[132.4934835,34.2474802],[132.4941774,34.2473446],[132.5002066,34.2465362],[132.5013298,34.2463393],[132.5025777,34.2459991],[132.5039593,34.2455413],[132.5048217,34.2452211],[132.506131,34.2446612],[132.5075485,34.2439725],[132.5157491,34.2397491],[132.5170298,34.2391912],[132.5190188,34.238561],[132.5208115,34.238136],[132.5222547,34.2379113],[132.5238309,34.2378576],[132.534278,34.2381606],[132.5526223,34.2392125],[132.5532922,34.2392909],[132.5537011,34.2393812],[132.5541446,34.2395481],[132.5545017,34.2397533],[132.5548152,34.2400225],[132.5550411,34.240246],[132.5552078,34.2403942]]]}}