{"type":"Feature","properties":{"id":"瀬戸内クルージング(尾道駅前－十四日元町－鞆)・不定期","name":"瀬戸内クルージング(尾道駅前－十四日元町－鞆)・不定期","operator":"","category":"ferry","attribution":"© OpenStreetMap contributors"},"geometry":{"type":"MultiLineString","coordinates":[[[133.1932462,34.4031089],[133.1933126,34.4030637],[133.1934142,34.4030115],[133.1935683,34.4029645],[133.1937485,34.4029264],[133.193881,34.4029162],[133.1941106,34.4029353],[133.19426,34.4029696],[133.1944402,34.4030332],[133.1976661,34.404577],[133.2038518,34.4072326],[133.2040988,34.4073791],[133.2042035,34.4074836],[133.2043083,34.4076485],[133.2043422,34.4077502],[133.2043637,34.4078519],[133.2043672,34.4079839],[133.20436,34.4080645],[133.2043383,34.4081596]],[[133.2043383,34.4081596],[133.2043982,34.408068],[133.2044687,34.4080042],[133.2045768,34.4079305],[133.2047169,34.4078656],[133.2049193,34.4078053],[133.2051268,34.4077695],[133.2053099,34.4077606],[133.2054635,34.4077797],[133.2055766,34.4078123],[133.2073985,34.408557],[133.20818,34.4088463],[133.2091993,34.4091734],[133.2113051,34.4097398],[133.2134109,34.4102771],[133.2139296,34.4103444],[133.2143975,34.4103598],[133.2148342,34.4103171],[133.2152727,34.4102003],[133.215851,34.4099768],[133.2180472,34.4089222],[133.2186666,34.4086814],[133.219286,34.4085076],[133.220015,34.4083324],[133.2204716,34.4082489],[133.2209281,34.4081923],[133.221728,34.4081631],[133.2332159,34.4084354],[133.2341219,34.40842],[133.2350559,34.408343],[133.2355182,34.4082852],[133.2359712,34.4081965],[133.2364149,34.4080694],[133.2368305,34.4079191],[133.2372024,34.4077495],[133.2375497,34.4075647],[133.2379411,34.4072831],[133.2383017,34.4069964],[133.2390067,34.4062932],[133.2397259,34.4053507],[133.2412551,34.4024796],[133.241517,34.4017203],[133.2416551,34.4012035],[133.2417719,34.4006165],[133.2420477,34.3948501],[133.2423404,34.3914441],[133.2425193,34.3908134],[133.2428697,34.3902022],[133.2436542,34.3893698],[133.2444575,34.3887763],[133.2459145,34.3879747],[133.2466852,34.387614],[133.2477957,34.3872123],[133.2491191,34.3868487],[133.2503884,34.3866336],[133.2520135,34.386464],[133.2615768,34.3863201],[133.2626182,34.3862406],[133.263635,34.3861001],[133.3220752,34.375582],[133.3230578,34.3754719],[133.3241615,34.375382],[133.3408616,34.3746414],[133.3417521,34.3745086],[133.3429216,34.3742518],[133.3436329,34.3739002],[133.3442734,34.3734902],[133.344795,34.3730119],[133.3452175,34.3724984],[133.3454173,34.3719375],[133.3455179,34.3713649],[133.3454997,34.3708042],[133.3454106,34.3702669],[133.3452068,34.3696562],[133.3450029,34.3691156],[133.3435867,34.3660337],[133.343495,34.3656127],[133.343509,34.3649835],[133.3436091,34.3646824],[133.3437584,34.3644219],[133.3440956,34.3641118],[133.344445,34.3638728],[133.3450598,34.3636411],[133.3457823,34.3634982],[133.3467169,34.3634311],[133.3598222,34.3629408],[133.3604429,34.3629513],[133.3610415,34.3629985],[133.3616787,34.3631035],[133.3739273,34.366146],[133.3747704,34.3663396],[133.3755442,34.3665998],[133.3765088,34.3670259],[133.3774392,34.3676271],[133.3783605,34.3684046],[133.3792449,34.369294],[133.3839243,34.3755407],[133.3842495,34.3761631],[133.3844744,34.3768442],[133.3845759,34.3776247],[133.3845447,34.3782559],[133.384324,34.3788122],[133.3839324,34.3791977],[133.3833613,34.3794932],[133.3829412,34.3796234],[133.3823686,34.3797069],[133.3821516,34.3797092],[133.3818729,34.3796861],[133.3813649,34.3796065],[133.3810171,34.3796247],[133.3807736,34.3796719],[133.3805584,34.3797599],[133.3804179,34.3798875],[133.3803058,34.3800443],[133.3802751,34.3801711],[133.3802656,34.3803097],[133.3802983,34.3804475],[133.3803632,34.380572],[133.3804724,34.3807004],[133.3806138,34.3808265],[133.3808583,34.3809571],[133.3817799,34.3813596]]]}}