{"type":"Feature","properties":{"id":"瀬戸内クルージング・マルト汽船・弓場汽船","name":"瀬戸内クルージング・マルト汽船・弓場汽船","operator":"","category":"ferry","attribution":"© OpenStreetMap contributors"},"geometry":{"type":"MultiLineString","coordinates":[[[133.083899,34.3049203],[133.0838419,34.3049348],[133.0838036,34.3049537],[133.0837566,34.3049872],[133.0837174,34.3050385],[133.0836938,34.3050841],[133.0836783,34.3051485],[133.0833672,34.3069087],[133.0833374,34.3073917],[133.0833279,34.3078478],[133.0833782,34.3082851],[133.0834408,34.3085127],[133.0835571,34.3087314],[133.0837896,34.3090358],[133.0840806,34.3093405],[133.0844788,34.3096541],[133.0861331,34.3108325],[133.0864079,34.3110294],[133.0866755,34.3112438],[133.0869914,34.3115148],[133.0873529,34.311907],[133.0876864,34.3123301],[133.0883957,34.3134053],[133.0885782,34.3135923],[133.0888619,34.3137718],[133.0891169,34.3138577],[133.0894016,34.3138778],[133.0896179,34.3138506],[133.0898503,34.3137857],[133.0899915,34.3137144],[133.0901434,34.3135902]]]}}