{"type":"Feature","properties":{"id":"瀬戸内シーライン株式会社_瀬戸内シーライン(宇品－プリンスホテル前－小用_宮島)","name":"瀬戸内シーライン(宇品－プリンスホテル前－小用/宮島)","operator":"瀬戸内シーライン株式会社","category":"ferry","attribution":"© OpenStreetMap contributors"},"geometry":{"type":"MultiLineString","coordinates":[[[132.4547708,34.351335],[132.4544701,34.3510406],[132.4542216,34.3507639],[132.454072,34.3505089],[132.4539432,34.350159],[132.4539513,34.3494659],[132.4540586,34.348775],[132.4553923,34.3443325],[132.4562496,34.3422877],[132.4572225,34.340764],[132.4582707,34.3399993],[132.4596667,34.3393154],[132.4610842,34.3389238],[132.4613222,34.338858],[132.4629951,34.3386612],[132.4642651,34.338803],[132.4655582,34.3390979],[132.4666242,34.3394452],[132.4673905,34.339956],[132.4679019,34.3407058],[132.4680682,34.3412151],[132.4680894,34.341685],[132.4679593,34.3420823],[132.4676308,34.3424051],[132.4672702,34.3426194],[132.4667939,34.3427869],[132.4659948,34.3428377],[132.4656685,34.3428537],[132.4653291,34.34287]]]}}