{"type":"Feature","properties":{"id":"瀬戸内シーライン株式会社_瀬戸内シーライン(宇品－プリンスホテル前－小用)","name":"瀬戸内シーライン(宇品－プリンスホテル前－小用)","operator":"瀬戸内シーライン株式会社","category":"ferry","attribution":"© OpenStreetMap contributors"},"geometry":{"type":"MultiLineString","coordinates":[[[132.4653291,34.34287],[132.465652,34.3429203],[132.4658867,34.3429109],[132.4664423,34.3428173],[132.4669442,34.3427213],[132.4673769,34.3425207],[132.4677892,34.3421704],[132.4681478,34.3417175],[132.5021847,34.2710885],[132.5033158,34.2677598],[132.5039536,34.2651191],[132.5040556,34.2620661],[132.5031973,34.257863],[132.5021888,34.2552382],[132.5006438,34.2528793],[132.4986912,34.2507509],[132.4961592,34.2486669],[132.4948207,34.2478399],[132.4938362,34.2475574],[132.4934071,34.2475752],[132.4930093,34.2476982]]]}}