{"type":"Feature","properties":{"id":"瀬戸内クルージング(尾道駅前－尾道新浜－重井東－須ノ上－沢－瀬戸田)","name":"瀬戸内クルージング(尾道駅前－尾道新浜－重井東－須ノ上－沢－瀬戸田)","operator":"","category":"ferry","attribution":"© OpenStreetMap contributors"},"geometry":{"type":"MultiLineString","coordinates":[[[133.0901434,34.3135902],[133.0903542,34.3139282],[133.0905973,34.314211],[133.0908672,34.3144273],[133.0913351,34.3147383],[133.0918449,34.3149967],[133.0923228,34.3151967],[133.0928673,34.3153648],[133.0934443,34.3154927],[133.0942484,34.3156075],[133.0950155,34.3156612],[133.1108682,34.3154292],[133.1117611,34.3155178],[133.1124902,34.3157168],[133.1131301,34.3159651],[133.1137297,34.3162781],[133.1144117,34.3167245],[133.115166,34.3172311],[133.1196718,34.3205855],[133.1203891,34.3212741],[133.1209106,34.3219179],[133.1267566,34.331094],[133.1270702,34.331709],[133.1273152,34.3323475],[133.1276402,34.3333115],[133.1278644,34.3341701],[133.1279653,34.3347031],[133.1281402,34.3360765],[133.1281112,34.336315],[133.1280261,34.3364841],[133.1278756,34.3366214],[133.1276784,34.3367201],[133.1274404,34.3367796],[133.1272119,34.3367928],[133.1269996,34.3367724]],[[133.1269996,34.3367724],[133.1272677,34.3368601],[133.1274038,34.3369292],[133.1275523,34.337016],[133.1277304,34.3371421],[133.1279395,34.3373378],[133.1282021,34.3376374],[133.1331297,34.3444444],[133.1337225,34.3451412],[133.1344655,34.3458557],[133.1353399,34.3464962],[133.1362465,34.3471101],[133.1370566,34.3475381],[133.1414384,34.3494742],[133.1426467,34.3501319],[133.1460795,34.3524192],[133.1463661,34.3525813],[133.1466703,34.3527133],[133.1470175,34.3527966],[133.1474855,34.3528269],[133.1477267,34.352815],[133.1479925,34.3527725],[133.1481509,34.35273],[133.1485038,34.3526152]],[[133.1485038,34.3526152],[133.1473307,34.3531846],[133.1468143,34.3534697],[133.1461691,34.354056],[133.1458443,34.35452],[133.1455946,34.3550903],[133.1454952,34.3556252],[133.1454868,34.3562405],[133.1455866,34.3567369],[133.149473,34.3660297],[133.1498116,34.3670421],[133.1499814,34.3679496],[133.1503279,34.3831308],[133.1504165,34.3837709],[133.1506497,34.3845934],[133.1509678,34.3852992],[133.1518496,34.3867321],[133.1526808,34.3877407],[133.1533487,34.3884018],[133.1545262,34.3893667],[133.1587445,34.3918549],[133.1593597,34.3921586],[133.1602494,34.3925265],[133.161213,34.3928334],[133.175547,34.3963471],[133.1760244,34.3965573],[133.1763197,34.3967315],[133.1766149,34.396959],[133.1769028,34.3972723],[133.1771381,34.3976124],[133.177278,34.3979116],[133.1773686,34.3982159],[133.1774301,34.3985417],[133.1774516,34.3988014]],[[133.1774516,34.3988014],[133.1775592,34.3986061],[133.1776949,34.3984224],[133.1778767,34.3982622],[133.1781044,34.3981282],[133.1783732,34.39804],[133.1786527,34.397996],[133.178918,34.3980045],[133.179329,34.3980645],[133.1883327,34.4002099],[133.1888704,34.4003916],[133.1894474,34.4006409],[133.1923895,34.4021284],[133.1925256,34.4022065],[133.1926895,34.4023227],[133.1927733,34.4024337],[133.1928361,34.4025846],[133.1928647,34.4026902],[133.1928687,34.4027755],[133.1928443,34.4029055]]]}}