{"type":"Feature","properties":{"id":"烟台_-_仁川_인천_-_옌타이","name":"烟台 - 仁川 인천 - 옌타이","operator":"","category":"ferry","attribution":"© OpenStreetMap contributors"},"geometry":{"type":"MultiLineString","coordinates":[[[121.3857206,37.5492073],[121.3862511,37.5488753],[121.3869163,37.5487551],[121.3875454,37.5487421],[121.3885366,37.54881],[121.3890425,37.5489088],[121.3899093,37.5492221],[121.390889,37.5495141],[121.3923115,37.5498647],[121.3937643,37.5501266],[121.3955131,37.5502712],[121.4017466,37.5501775],[121.4032724,37.5502072],[121.4048365,37.5503307],[121.4061669,37.5505008],[121.407626,37.55079],[121.4092186,37.5513208],[121.410565,37.5519603],[121.4120248,37.5528824],[121.4136985,37.5539542],[121.4460934,37.5759005],[121.449621,37.5781635],[121.4523206,37.5796758],[121.4558199,37.5814222],[121.4604,37.5832889],[121.4642576,37.5845917],[121.4707115,37.5863705],[121.4757326,37.5876117],[121.5224426,37.5988578],[121.5326196,37.6009943],[121.5397925,37.6023827],[121.5481402,37.6039629],[121.55705,37.6053789],[121.5655133,37.6064078],[121.5738541,37.6070724],[121.5841583,37.6075372],[121.5917591,37.6076163],[122.6211936,37.5571352],[122.6302065,37.556071],[122.6422653,37.5531064],[122.6714264,37.545622],[122.7105257,37.5356297],[122.7314186,37.5305112],[122.7676401,37.5212837],[122.7909042,37.5153344],[122.8192388,37.5081861],[122.8541755,37.4992553],[122.8871196,37.490898],[122.9313134,37.4798967],[122.9723443,37.4705753],[123.008332,37.4628534],[123.0388184,37.4561987],[123.0701145,37.4496028],[123.1015289,37.4429821],[123.1511374,37.4326829],[123.1929152,37.4239123],[123.2407467,37.4136299],[123.2980385,37.4015074],[123.3683702,37.3869048],[123.4540719,37.368671],[123.5401389,37.3507798],[123.6082683,37.335992],[123.661099,37.3248107],[123.7447764,37.3065493],[123.9814888,37.2565386],[124.3813331,37.1716908],[124.787194,37.085184],[124.8517929,37.0712816],[124.8764575,37.0658948],[124.9139868,37.0579205],[124.9701957,37.0459727],[125.0404632,37.0310028],[125.0912759,37.0201646],[125.2800224,36.9798717],[125.3544788,36.9642017],[125.4949535,36.934193],[125.5384609,36.9247948],[125.5902216,36.9132972],[125.6993445,36.8906855],[125.7520366,36.8812409],[125.7635777,36.8802013],[125.7805046,36.8792475],[125.7945674,36.8795662],[125.8093434,36.8816565],[125.8271247,36.8875478],[125.8570623,36.9024435],[125.8934739,36.9193768],[125.9365474,36.939973],[125.9834501,36.9621415],[126.0239704,36.9814335],[126.0887952,37.0124639],[126.1283358,37.0312369],[126.1369282,37.0351254],[126.1485929,37.040762],[126.1527836,37.0432099],[126.1551627,37.0448484],[126.1564591,37.0461637],[126.1572501,37.047251],[126.1579313,37.0484611],[126.1587662,37.0510741],[126.1595792,37.0534414],[126.1606558,37.0574746],[126.1625014,37.065961],[126.1663686,37.0837722],[126.1799037,37.1478301],[126.1864075,37.1682835],[126.1957996,37.1927636],[126.1975697,37.1961879],[126.1992396,37.1986032],[126.20214,37.2025936],[126.204425,37.2048163],[126.2115671,37.2112616],[126.2556869,37.254378],[126.2571592,37.2557085],[126.2595103,37.2588914],[126.2606529,37.2612872],[126.2611143,37.2634732],[126.2626398,37.2734275],[126.2640303,37.284359],[126.2649575,37.2869106],[126.2664595,37.2889934],[126.2683692,37.2909054],[126.2712446,37.2930222],[126.274592,37.2948658],[126.2774888,37.2961802],[126.283454,37.2976823],[126.2954929,37.3002347],[126.2992641,37.3011464],[126.3020614,37.301671],[126.4667198,37.3371067],[126.4999559,37.3444296],[126.5100633,37.3465258],[126.5125462,37.3472944],[126.5144139,37.348028],[126.5175779,37.3494603],[126.5191292,37.3505826],[126.5324737,37.3669082],[126.55665,37.4006831],[126.5582517,37.4033472],[126.5602051,37.4057829],[126.561041,37.4070273],[126.5626777,37.4094168],[126.5665993,37.4167754],[126.567152,37.4174654],[126.5711351,37.4211738],[126.5793163,37.4270356],[126.5801943,37.4274955],[126.5811366,37.4278616],[126.5827968,37.428354],[126.5848971,37.4288623],[126.5865974,37.4291164],[126.5883176,37.4292435],[126.5901179,37.4292276],[126.591148,37.4290926],[126.5919981,37.4289099],[126.5931083,37.4285128],[126.5938984,37.428211],[126.5952786,37.4274644],[126.6004561,37.4245783]]]}}