{"type":"Feature","properties":{"id":"牛島海運","name":"牛島海運","operator":"","category":"ferry","attribution":"© OpenStreetMap contributors"},"geometry":{"type":"MultiLineString","coordinates":[[[131.9740632,33.927499],[131.9741243,33.9274238],[131.9741436,33.9273451],[131.9741204,33.9271741],[131.9740575,33.9269627],[131.9738639,33.9267271],[131.9736642,33.9265599],[131.9734045,33.9264863],[131.9732174,33.9263636],[131.973056,33.9262095],[131.9730106,33.9260632],[131.9730169,33.9258846],[131.9731267,33.925755],[131.9736844,33.925279],[131.9738284,33.9252022],[131.9741183,33.9251555],[131.9762605,33.925161],[131.9776226,33.9251327],[131.9779247,33.9250886],[131.9781385,33.9250372],[131.9782957,33.924942],[131.9785574,33.9247432],[131.9797272,33.923217],[131.985722,33.9144107],[132.0058647,33.8789714],[132.0063464,33.8780641],[132.0066966,33.8770591],[132.0070827,33.8756611],[132.0074289,33.8743115],[132.0075356,33.8734726],[132.0084414,33.866196],[132.0085114,33.8643946],[132.0083999,33.8622451],[132.0082795,33.8615351],[132.0079059,33.8604814],[132.0076963,33.8599086],[132.0069054,33.8593953]]]}}