{"type":"Feature","properties":{"id":"琵琶湖汽船_竹生島クルーズ","name":"竹生島クルーズ","operator":"琵琶湖汽船","category":"ferry","attribution":"© OpenStreetMap contributors"},"geometry":{"type":"MultiLineString","coordinates":[[[136.1434507,35.4200558],[136.1434103,35.420042],[136.1433178,35.4199872],[136.1431078,35.4196823],[136.1427007,35.4190556],[136.1408811,35.418255],[136.1370684,35.4170122],[136.1296065,35.4149703],[136.0635664,35.4001246],[136.0479683,35.3978642],[136.0433101,35.397444],[136.0387763,35.3972271],[136.0367134,35.3971661],[136.0359101,35.3971438],[136.0358177,35.3971433],[136.0357876,35.3970788]]]}}