{"type":"Feature","properties":{"id":"田中輸送有限会社_way1036709555","name":"way1036709555","operator":"田中輸送有限会社","category":"ferry","attribution":"© OpenStreetMap contributors"},"geometry":{"type":"MultiLineString","coordinates":[[[132.3413975,33.3858098],[132.3414017,33.3858911],[132.3414484,33.3860413],[132.3415231,33.3861816],[132.3417473,33.3863805],[132.3421045,33.3865423],[132.3425458,33.3866145],[132.3438277,33.3869603],[132.3458825,33.3878805],[132.3476481,33.388982],[132.3494115,33.3913712],[132.3511727,33.3946865],[132.3705958,33.4320496],[132.3741024,33.4385693],[132.3773924,33.442859],[132.3817479,33.44623],[132.3869192,33.4490157],[132.4065049,33.4535838],[132.4113415,33.4581502],[132.4157612,33.46008],[132.4175808,33.4598757],[132.4177669,33.4597505],[132.4177771,33.4597628]]]}}