{"type":"Feature","properties":{"id":"田子倉湖遊覧船","name":"田子倉湖遊覧船","operator":"","category":"ferry","attribution":"© OpenStreetMap contributors"},"geometry":{"type":"MultiLineString","coordinates":[[[139.2848774,37.3110084],[139.2850217,37.3108254],[139.2851378,37.3107097],[139.2852214,37.3106346],[139.284885,37.3105155],[139.284694,37.3104473],[139.2846039,37.3104258],[139.2845225,37.3104258],[139.2844183,37.3104327],[139.2842805,37.3104525],[139.2841915,37.3104801],[139.2840732,37.3105285],[139.283918,37.3105803],[139.2838019,37.3106476],[139.2837487,37.3107028],[139.2835534,37.310872],[139.283472,37.3109376],[139.2833412,37.3110395],[139.2832392,37.311099],[139.2831578,37.3111353],[139.2828344,37.3111853],[139.2827378,37.3111888],[139.2821778,37.311232],[139.2814312,37.3112993],[139.2812239,37.3113217],[139.281073,37.3113183],[139.2808668,37.3112829],[139.2805597,37.311257],[139.2805022,37.311244],[139.2802678,37.3111569],[139.2800572,37.3110852],[139.2798554,37.311068],[139.2794647,37.3110576],[139.2793236,37.3110472],[139.2792411,37.3110265],[139.27873,37.3108901],[139.2785184,37.3108384],[139.2781689,37.3107443],[139.2778846,37.3106977],[139.2777684,37.310664],[139.2774885,37.3106001],[139.2773354,37.3105621],[139.2771488,37.3104767],[139.277025,37.3104232],[139.2768243,37.3103463],[139.2766246,37.3102946],[139.2762697,37.3101357],[139.2759875,37.3099976],[139.2758334,37.3098785],[139.2754601,37.3096541],[139.2752886,37.3095039],[139.2750694,37.3092898],[139.2746635,37.3090084],[139.274262,37.3087322],[139.2740189,37.3084784],[139.2738757,37.3082972],[139.2736868,37.3081021],[139.2733981,37.307743],[139.2728664,37.3071215],[139.2725929,37.3067986],[139.2723715,37.3065086],[139.2721219,37.3061961],[139.2718679,37.3060097],[139.2716943,37.3058163],[139.2715489,37.3056229],[139.2713166,37.3054503],[139.271054,37.3053225],[139.2708652,37.3052328],[139.2705309,37.3051136],[139.2701185,37.3049686],[139.2698559,37.3049151],[139.2694326,37.3048788],[139.2691418,37.3049116],[139.2687706,37.3049669],[139.2684906,37.3050342],[139.2680696,37.305162],[139.2677679,37.3053329],[139.2675769,37.3054589],[139.2673728,37.3056834],[139.2670212,37.3059734],[139.266802,37.3061063],[139.2665046,37.3061875],[139.2662811,37.3062496],[139.2660553,37.3062721],[139.2656842,37.3062876],[139.2653347,37.3062704],[139.2648181,37.3062341],[139.2644188,37.3060856],[139.2641192,37.3058681],[139.2638132,37.3057576],[139.2636048,37.3056454],[139.2634312,37.3054417],[139.2632293,37.3051361],[139.263034,37.3048236],[139.2628604,37.3044714],[139.2627301,37.3041278],[139.2625782,37.3038257],[139.2624284,37.3035788],[139.262207,37.3033302],[139.2620594,37.303047],[139.2620117,37.3028934],[139.2618988,37.3024169],[139.2618901,37.3021751],[139.2619661,37.3017573],[139.2620356,37.3015519],[139.2621463,37.3014224],[139.2622352,37.3013585],[139.2626932,37.3010719],[139.2629949,37.3009666],[139.2634529,37.3008768],[139.2639934,37.3007663],[139.264536,37.3006454],[139.2651047,37.300566],[139.2656929,37.3005297],[139.2662615,37.3004883],[139.2669387,37.300452],[139.2675334,37.3004883],[139.2680218,37.3005487],[139.2684277,37.3006385],[139.2688488,37.300692],[139.2693936,37.3008146],[139.2696367,37.3008422],[139.2699188,37.3008958],[139.2703399,37.3010287],[139.2708326,37.3012411],[139.2712884,37.3014707],[139.2718549,37.3017072],[139.2722239,37.301835],[139.2725668,37.3019455],[139.2733612,37.3021061],[139.2738518,37.3022304],[139.2742121,37.3022925],[139.2746093,37.3023029],[139.2749045,37.3022736],[139.2750564,37.3022252],[139.2752387,37.3021251],[139.2753646,37.3020077],[139.2754471,37.3018713],[139.27551,37.3017297],[139.275662,37.3014276],[139.2759072,37.3007991],[139.2759745,37.3004831],[139.2762393,37.2998218],[139.2763435,37.2996526],[139.2764216,37.2995473],[139.2765497,37.299442],[139.2766973,37.2993678],[139.2769426,37.2992849],[139.2771661,37.2992659],[139.277394,37.2992728],[139.277559,37.2992935],[139.2778564,37.2993712],[139.2782232,37.2995024],[139.2786182,37.299701],[139.2789134,37.299884],[139.2790892,37.3000411],[139.2793041,37.3003864],[139.2794755,37.3006402],[139.279634,37.3010287],[139.2796731,37.3013032],[139.2796969,37.3014327],[139.2797034,37.3017262],[139.2796969,37.3022494],[139.2796883,37.3026154],[139.27966,37.3028796],[139.2795754,37.3032732],[139.2795407,37.303546],[139.2795841,37.3037497],[139.2795689,37.3039379],[139.2795233,37.3041261],[139.2795081,37.3043091],[139.279558,37.304518],[139.2796318,37.3046958],[139.2797295,37.3048581],[139.2798467,37.3050066],[139.2800638,37.3052207],[139.2803134,37.3054296],[139.280704,37.3057628],[139.2809732,37.3060373],[139.281238,37.3062479],[139.2815679,37.3064585],[139.2818479,37.3066122],[139.2821778,37.3067693],[139.2824448,37.3068832],[139.2826705,37.3069385],[139.2828854,37.3069523],[139.2834476,37.3069851],[139.2840792,37.3069989],[139.2844134,37.307049],[139.2848844,37.307137],[139.2852947,37.3072492],[139.2856289,37.3073614],[139.2860674,37.3075306],[139.286432,37.307781],[139.2868379,37.3080416],[139.2874738,37.308399],[139.2877604,37.3086045],[139.2878732,37.308746],[139.28801,37.3090395],[139.2881272,37.3094072],[139.2880946,37.3094849],[139.2879796,37.3096765],[139.2877821,37.3098561],[139.2876062,37.3100477],[139.2871939,37.3104068],[139.2869811,37.3105397],[139.2867771,37.3106485],[139.2861129,37.3108832],[139.2858655,37.3109834],[139.2855247,37.3110835],[139.2853923,37.3111266],[139.285108,37.3111042],[139.2848774,37.3110084]]]}}