{"type":"Feature","properties":{"id":"皮口港一西沟港","name":"皮口港一西沟港","operator":"","category":"ferry","attribution":"© OpenStreetMap contributors"},"geometry":{"type":"MultiLineString","coordinates":[[[122.3581314,39.3660965],[122.3610833,39.3598686],[122.4251625,39.3256528],[122.4762594,39.2909869],[122.4934369,39.279436],[122.5123657,39.2732466],[122.5675763,39.2409637],[122.5935401,39.236759],[122.6124872,39.2421935],[122.6309837,39.2473118],[122.6527819,39.2482363],[122.6630151,39.247605],[122.6648612,39.2464063],[122.6653439,39.2451164],[122.6658202,39.2408137]]]}}