{"type":"Feature","properties":{"id":"盛運汽船_しおかぜ","name":"しおかぜ","operator":"盛運汽船","category":"ferry","attribution":"© OpenStreetMap contributors"},"geometry":{"type":"MultiLineString","coordinates":[[[132.5574397,33.2210869],[132.5574276,33.2210359],[132.5573015,33.2209821],[132.5557673,33.2208149],[132.5550806,33.2208284],[132.5543779,33.2209181],[132.5537932,33.2210438],[132.5529742,33.2213778],[132.5517869,33.2221388],[132.5439908,33.2273082],[132.5422991,33.2283503],[132.5410674,33.2286108],[132.5402251,33.2286108],[132.5393899,33.2284687],[132.5386537,33.2280957],[132.537776,33.2272845],[132.5370965,33.2262365],[132.5367355,33.2252832],[132.5358577,33.2236726],[132.5348668,33.2226067],[132.5338192,33.2217185],[132.5322832,33.2209309],[132.5303508,33.2202144],[132.5245252,33.217982],[132.5221115,33.2169871],[132.5211984,33.2167029],[132.5202216,33.2165548],[132.5182184,33.2167029],[132.5148491,33.2172062],[132.5128904,33.2174738],[132.5092424,33.2172779],[132.5068885,33.2168036],[132.5047194,33.2161953],[132.4990133,33.2144012],[132.4916311,33.2122669],[132.4872683,33.2111224],[132.485013,33.2107408],[132.4819936,33.2107718],[132.4792699,33.211277],[132.4767928,33.212071],[132.4752769,33.2125968],[132.4725779,33.214494],[132.4691518,33.2172367],[132.4657626,33.220505],[132.4633594,33.2225773],[132.4599826,33.2254537],[132.4556321,33.2283815],[132.4536972,33.229598],[132.4513556,33.2303196],[132.4479911,33.2311649],[132.4447129,33.2318968],[132.4028106,33.232103],[132.3981398,33.2321339],[132.3909301,33.2312886],[132.3886748,33.230835],[132.3822046,33.2289073],[132.3714702,33.2254537],[132.3591706,33.2214226],[132.3449981,33.2167749],[132.341759,33.2155842],[132.3311093,33.2105475],[132.3253673,33.2078511],[132.3031681,33.1967089],[132.2913569,33.1907676],[132.2784333,33.1843056],[132.2715952,33.180431],[132.268258,33.1779254],[132.2680609,33.1772795],[132.267876,33.1764646],[132.2679092,33.1757397],[132.2683015,33.1749266],[132.2686694,33.1743373],[132.2688194,33.1744008]],[[132.2688194,33.1744008],[132.2686694,33.1743373],[132.2683015,33.1749266],[132.2679092,33.1757397],[132.2679466,33.1764432],[132.2681521,33.177225],[132.2683949,33.177694],[132.2699593,33.178651],[132.2716606,33.1795136],[132.2743599,33.1804036],[132.2850914,33.1825258],[132.2893938,33.1831419],[132.292731,33.1831145],[132.2957084,33.1826079],[132.2974261,33.1810882],[132.2985876,33.1783361],[132.2989475,33.1753786],[132.298653,33.1739272],[132.2978841,33.1720649],[132.2969844,33.1710927],[132.29651,33.1708189],[132.2959538,33.1706272],[132.2948577,33.1704902],[132.2939154,33.1705311],[132.2924923,33.1711495]],[[132.2924923,33.1711495],[132.2939154,33.1705311],[132.294915,33.1700488],[132.2971152,33.1693263],[132.2995364,33.1689018],[132.3028082,33.1686827],[132.3075032,33.1691483],[132.3097771,33.1692578],[132.3121492,33.1692715],[132.3132452,33.1687101],[132.3141941,33.1679296],[132.3150447,33.166122],[132.3149466,33.1633968],[132.3145212,33.1597815],[132.3139101,33.157935],[132.3132937,33.1572235],[132.3125372,33.156551],[132.3112296,33.1554329],[132.3103423,33.1544398],[132.3095577,33.1537048],[132.3080353,33.152915],[132.3070684,33.1523024],[132.3067555,33.1519466],[132.306687,33.151803]],[[132.306687,33.151803],[132.3067555,33.1519466],[132.3070684,33.1523024],[132.3080353,33.152915],[132.3095577,33.1537048],[132.3103423,33.1544398],[132.3112296,33.1554329],[132.3126342,33.1564896],[132.3136963,33.1574686],[132.3140933,33.1580614],[132.3153482,33.1590032],[132.317524,33.1605644],[132.3238712,33.1646454],[132.3308075,33.1710129],[132.3328001,33.172769],[132.3353357,33.1740561],[132.338673,33.1750283],[132.348243,33.1765619],[132.3511713,33.1773834],[132.3565043,33.179314],[132.3599233,33.1813677],[132.3640458,33.1853656],[132.3682991,33.1908007],[132.3712669,33.1945643],[132.3755193,33.1987188],[132.3797286,33.2029092],[132.3840026,33.2061964],[132.3868019,33.2085484],[132.3901059,33.2107766],[132.3936093,33.212683],[132.3988928,33.2141366],[132.4082617,33.2161459],[132.414658,33.2171176],[132.4173496,33.2172939],[132.4286145,33.217282],[132.451033,33.2174799],[132.4552209,33.2174115],[132.4614537,33.2169188],[132.4667868,33.2158787],[132.470266,33.2146047],[132.4740243,33.2128596],[132.4755464,33.2120421],[132.4797933,33.2106271],[132.4824805,33.2103126],[132.4857126,33.2105485],[132.4946386,33.2128596],[132.5029069,33.2154065],[132.5068344,33.2165856],[132.5094088,33.2170887],[132.5123215,33.2172301],[132.5151778,33.2173559],[132.5180708,33.2169866],[132.5192569,33.2168771],[132.5205329,33.2168087],[132.5218743,33.2170071],[132.5322214,33.2210102],[132.5336364,33.2217355],[132.5347652,33.2227687],[132.5356977,33.2239183],[132.5364338,33.2254099],[132.5369819,33.2264636],[132.5378407,33.2276336],[132.5388222,33.2283863],[132.5394766,33.2286805],[132.5403845,33.228831],[132.5411289,33.228831],[132.5421186,33.2285915],[132.5426911,33.2283315],[132.547558,33.2250336],[132.5514963,33.222411],[132.552985,33.2214872],[132.5538254,33.2211201],[132.5544155,33.2209989],[132.5552255,33.2209181],[132.5558934,33.2209024],[132.5573578,33.2210427],[132.5574397,33.2210869]]]}}