{"type":"Feature","properties":{"id":"石崎汽船・瀬戸内海汽船_石崎汽船・瀬戸内海汽船スーパージェット(広島－呉－松山)","name":"石崎汽船・瀬戸内海汽船スーパージェット(広島－呉－松山)","operator":"石崎汽船・瀬戸内海汽船","category":"ferry","attribution":"© OpenStreetMap contributors"},"geometry":{"type":"MultiLineString","coordinates":[[[132.7039361,33.8890848],[132.703602,33.8892533],[132.7033202,33.8895611],[132.7031541,33.8899294],[132.7030988,33.8903873],[132.7032182,33.8924833],[132.7033059,33.8934726],[132.7034711,33.8944642],[132.7106994,33.9298768],[132.7113713,33.9343368],[132.7114468,33.9380158],[132.7103561,33.9455072],[132.7066653,33.9625585],[132.7011722,33.9785743],[132.691645,33.9968643],[132.6721614,34.0306583],[132.6644195,34.0432001],[132.6493156,34.067663],[132.630276,34.0984903],[132.6191373,34.1160797],[132.604268,34.1395544],[132.5895923,34.162717],[132.5879796,34.1646949],[132.5677913,34.1860085],[132.564964,34.1880854],[132.5615015,34.1899506],[132.5585972,34.190829],[132.5552402,34.1913305],[132.5516603,34.1915183],[132.541714,34.1905958],[132.5382409,34.1903571],[132.5365617,34.1906018],[132.5361786,34.1910694],[132.5364406,34.1919505],[132.5367545,34.1929358],[132.5370144,34.1938422],[132.5374072,34.1946346],[132.5376218,34.195664],[132.5388386,34.1983478],[132.5391714,34.1997503],[132.5392955,34.2010593],[132.539162,34.2033663],[132.5384372,34.2051765],[132.536994,34.2070802],[132.52885,34.2157479],[132.5275156,34.21805],[132.5268711,34.2205138],[132.5269114,34.2226776],[132.5272642,34.2243346],[132.5282253,34.2262636],[132.5299721,34.2281244],[132.5323579,34.2296314],[132.5495922,34.2369839],[132.5544982,34.2391226],[132.5547179,34.2392685],[132.5548678,34.2394529],[132.5550219,34.2398075]],[[132.5550219,34.2398075],[132.5548335,34.2394445],[132.5546945,34.2393009],[132.5543868,34.2391573],[132.5539157,34.2390569],[132.5302549,34.2362409],[132.5269206,34.2360912],[132.5247682,34.2361469],[132.5225261,34.2364552],[132.521558,34.2366683],[132.5205704,34.2369991],[132.5195245,34.2375346],[132.518647,34.2382629],[132.5172594,34.239977],[132.5156062,34.2442089],[132.5046304,34.276571],[132.5008388,34.2837934],[132.4895839,34.2986078],[132.4575164,34.3394225],[132.4563205,34.341419],[132.4552492,34.3443285],[132.4549276,34.3456215],[132.4547774,34.3473488],[132.4547774,34.3485358],[132.4549121,34.3496575],[132.4551422,34.350768],[132.4550927,34.3512603]]]}}