{"type":"Feature","properties":{"id":"石崎汽船・瀬戸内海汽船_石崎汽船・瀬戸内海汽船クルーズフェリー(広島－呉－松山)","name":"石崎汽船・瀬戸内海汽船クルーズフェリー(広島－呉－松山)","operator":"石崎汽船・瀬戸内海汽船","category":"ferry","attribution":"© OpenStreetMap contributors"},"geometry":{"type":"MultiLineString","coordinates":[[[132.4577169,34.3514579],[132.4569969,34.3496024],[132.4558576,34.3473514],[132.4555946,34.3464829],[132.4554444,34.3458006],[132.4554256,34.3450871],[132.4555383,34.3444978],[132.4564739,34.34234],[132.4577591,34.339999],[132.5017582,34.2844187],[132.5057279,34.2766528],[132.5163065,34.2443229],[132.5177955,34.2401985],[132.5185797,34.2389403],[132.5190963,34.2383157],[132.5196582,34.2376964],[132.5204883,34.2369676],[132.5216076,34.236302],[132.5237055,34.2355665],[132.5254149,34.2352553],[132.527175,34.2351869],[132.5287949,34.2352229],[132.5326787,34.2355777],[132.5514007,34.2380003],[132.5530158,34.2383436],[132.5547341,34.239005],[132.5554384,34.2395011],[132.5559893,34.2398999]],[[132.5559893,34.2398999],[132.5548835,34.2389803],[132.5535655,34.2382908],[132.5328058,34.2293571],[132.5304591,34.2278538],[132.5288407,34.2260483],[132.5279626,34.2242868],[132.5276075,34.2226437],[132.5275193,34.2204821],[132.5280377,34.2182748],[132.5293389,34.2159979],[132.5373641,34.2073385],[132.5387175,34.2052643],[132.5393707,34.2034364],[132.5395524,34.2010976],[132.5393756,34.19968],[132.5390154,34.1983128],[132.537711,34.1956478],[132.5375026,34.1947938],[132.5373785,34.1939768],[132.5374783,34.1931988],[132.5376912,34.1924495],[132.5382815,34.1917453],[132.5388605,34.1913038],[132.5400725,34.1910034],[132.5415255,34.1908974],[132.5517906,34.1917151],[132.555389,34.1915736],[132.5586203,34.1911225],[132.561582,34.1902782],[132.565224,34.1882751],[132.5680843,34.1860863],[132.5882157,34.1649564],[132.5899487,34.1628533],[132.6595354,34.0530516],[132.6652216,34.0434332],[132.6928377,33.9971567],[132.7023005,33.9786533],[132.7074933,33.9626552],[132.711184,33.9455862],[132.7122783,33.9380918],[132.7122354,33.9344423],[132.7114844,33.9297778],[132.7043003,33.8961082],[132.7042065,33.8951166],[132.7042504,33.8942118],[132.704973,33.8901418],[132.7050073,33.8898803],[132.705014,33.8896276],[132.7049915,33.8894075]]]}}