{"type":"Feature","properties":{"id":"神戸-関西ベイ・シャトル","name":"神戸-関西ベイ・シャトル","operator":"","category":"ferry","attribution":"© OpenStreetMap contributors"},"geometry":{"type":"MultiLineString","coordinates":[[[135.2542587,34.4443902],[135.254321,34.4443868],[135.254383,34.444489],[135.2545734,34.4447248],[135.2549082,34.4449933],[135.2554639,34.4451229],[135.2561076,34.4451141],[135.2570089,34.4449371],[135.2578017,34.4447887],[135.2587265,34.4446259],[135.2596997,34.4448955],[135.2617832,34.4462368],[135.2633711,34.4479002],[135.2647873,34.4510852],[135.2649063,34.4544445],[135.2489913,34.6335178],[135.2482252,34.6362597],[135.2458456,34.6384665],[135.2442286,34.6399496],[135.2423447,34.6414694],[135.2395487,34.6429243],[135.236108,34.644408],[135.2338045,34.6448942],[135.2322596,34.6449094],[135.2307339,34.6446576],[135.2293606,34.6437044],[135.2286118,34.6424227],[135.2285259,34.6411517],[135.228519,34.6408317],[135.2285699,34.6403029],[135.2286217,34.640305]]]}}