{"type":"Feature","properties":{"id":"神新汽船_下田港_-_利島","name":"下田港 - 利島","operator":"神新汽船","category":"ferry","attribution":"© OpenStreetMap contributors"},"geometry":{"type":"MultiLineString","coordinates":[[[139.2803684,34.5338826],[139.2777637,34.5376261],[138.972224,34.6297224],[138.9594089,34.6356364],[138.9550744,34.639132],[138.9533793,34.6409857],[138.9504396,34.6446046],[138.9490019,34.6485588],[138.9491521,34.6506771],[138.9511691,34.6582494],[138.9530574,34.6659092],[138.9562331,34.6688564],[138.9564263,34.6697741],[138.9556752,34.6706918],[138.9514052,34.67078],[138.9492403,34.6701936]]]}}