{"type":"Feature","properties":{"id":"神新汽船_下田港_-_神津島","name":"下田港 - 神津島","operator":"神新汽船","category":"ferry","attribution":"© OpenStreetMap contributors"},"geometry":{"type":"MultiLineString","coordinates":[[[139.1280564,34.2092358],[139.1233706,34.2106177],[139.1045737,34.2300883],[139.0637183,34.3166194],[139.0414023,34.4373299],[138.9469886,34.6474481],[138.9508071,34.6580985],[138.9527821,34.6661576],[138.9558136,34.6688837],[138.9560522,34.6697426],[138.9554669,34.6704527],[138.9514947,34.6705343],[138.9492403,34.6701936]]]}}