{"type":"Feature","properties":{"id":"神谷観光_平敷屋〜津堅","name":"平敷屋〜津堅","operator":"神谷観光","category":"ferry","attribution":"© OpenStreetMap contributors"},"geometry":{"type":"MultiLineString","coordinates":[[[127.9227065,26.3071897],[127.9226059,26.3075845],[127.9226164,26.3078118],[127.9227362,26.3080827],[127.9228484,26.3083017],[127.9230464,26.308536],[127.9234558,26.308861],[127.9238052,26.3089628],[127.9242577,26.3088128],[127.9284344,26.3044186],[127.9305173,26.3012041],[127.9314615,26.295587],[127.9312898,26.2929707],[127.9307748,26.2911239],[127.9260541,26.276733],[127.9248525,26.2718073],[127.9238225,26.2645724],[127.9239942,26.2596463],[127.9247667,26.2554897],[127.9259683,26.2522566],[127.9274274,26.2495624],[127.9289724,26.2476379],[127.9308606,26.2460213],[127.9326524,26.2448762],[127.9331673,26.2444528],[127.9335053,26.2441929],[127.9338325,26.2440775],[127.9341973,26.244063],[127.9345567,26.2441208],[127.9349161,26.2442411],[127.9350412,26.2443371],[127.9353416,26.2446137]]]}}