{"type":"Feature","properties":{"id":"福岡市港湾空港局総務部客船事務所_福岡市営渡船玄界島航路","name":"福岡市営渡船玄界島航路","operator":"福岡市港湾空港局総務部客船事務所","category":"ferry","attribution":"© OpenStreetMap contributors"},"geometry":{"type":"MultiLineString","coordinates":[[[130.3995962,33.6042247],[130.3996155,33.6043236],[130.4000251,33.6048948],[130.3997856,33.6051569],[130.3992479,33.6061939],[130.387466,33.6148721],[130.3859593,33.6181768],[130.3821802,33.6201051],[130.373571,33.6234747],[130.2749347,33.6548521],[130.2359972,33.6800174],[130.2370281,33.6806325],[130.2361407,33.6813709],[130.2351794,33.6808581],[130.2346988,33.6812273],[130.2353512,33.681981],[130.2353583,33.6822667],[130.235293,33.6822713]]]}}