{"type":"Feature","properties":{"id":"福岡市営渡船志賀島航路","name":"福岡市営渡船志賀島航路","operator":"","category":"ferry","attribution":"© OpenStreetMap contributors"},"geometry":{"type":"MultiLineString","coordinates":[[[130.3137582,33.6616912],[130.3132978,33.6610808],[130.3134097,33.6602883],[130.3138459,33.659417],[130.3162721,33.6581304],[130.3193793,33.6550181],[130.322229,33.6527305],[130.3278068,33.6498448],[130.3329566,33.647643],[130.3365788,33.645988],[130.34817,33.6430929],[130.3550611,33.6411609],[130.356677,33.64062],[130.3580705,33.6404919],[130.3600369,33.6405559],[130.3615672,33.6409332],[130.3630548,33.6415239],[130.3640808,33.6421432],[130.364893,33.6429047],[130.3654145,33.6438086],[130.3655,33.644677],[130.365423,33.6454527],[130.3653204,33.6463424],[130.3650554,33.6471039],[130.3646365,33.6479153],[130.3641577,33.6484206],[130.3634481,33.6487835],[130.3625077,33.648997],[130.3600198,33.6492642]],[[130.3600198,33.6492642],[130.3625248,33.6490321],[130.3634903,33.6488332],[130.3645573,33.6484163],[130.3655228,33.6479504],[130.3711708,33.6279574],[130.3737343,33.6237122],[130.3821857,33.6204705],[130.38625,33.6183897],[130.3877203,33.6150839],[130.3993078,33.606251],[130.3998003,33.6052338],[130.4004894,33.6046492],[130.3999737,33.6042225],[130.3996657,33.6041554]]]}}