{"type":"Feature","properties":{"id":"秦皇岛_-_仁川_인천_-_친황다오","name":"秦皇岛 - 仁川 인천 - 친황다오","operator":"","category":"ferry","attribution":"© OpenStreetMap contributors"},"geometry":{"type":"MultiLineString","coordinates":[[[119.5881353,39.9067582],[119.5881512,39.9065303],[119.5881758,39.9063081],[119.5882251,39.9060694],[119.5883176,39.9058449],[119.5884347,39.905644],[119.5886781,39.9054549],[119.5889492,39.9053107],[119.5893802,39.9051396],[119.5947661,39.9032796],[119.6070828,39.9008927],[120.5814162,38.6247949],[120.5867807,38.6206709],[120.5924455,38.6177705],[120.7923993,38.5824007],[120.905153,38.5333774],[121.7130582,38.2891995],[122.2306434,38.1085817],[124.5066799,37.3090272],[125.8484496,36.9890612],[125.9308099,36.9778372],[125.9499348,36.9764638],[125.9712083,36.9762922],[125.9939862,36.9785238],[126.0133259,36.9816137],[126.0271861,36.9853041],[126.031269,36.9863983],[126.0352444,36.98775],[126.1164173,37.0262741],[126.1592869,37.0469009],[126.3098075,37.1172406],[126.3115064,37.1181723],[126.3132255,37.119436],[126.3149983,37.1210638],[126.3185276,37.1251286],[126.3251862,37.1328367],[126.3315504,37.1411184],[126.339776,37.153014],[126.3439069,37.1586879],[126.3465436,37.1615597],[126.3489247,37.1627857],[126.3542779,37.1649917],[126.3613091,37.1678632],[126.3735216,37.173286],[126.4006839,37.1934924],[126.4047269,37.1964329],[126.4072098,37.1993208],[126.4088577,37.2009835],[126.4128128,37.2068638],[126.4143144,37.2112483],[126.4153616,37.2141435],[126.4163284,37.2171532],[126.4168557,37.2210726],[126.4172072,37.234649],[126.4175588,37.2433254],[126.4196072,37.2560973],[126.4202834,37.2613047],[126.4225686,37.2698382],[126.4272267,37.2809583],[126.4303415,37.2867125],[126.4370704,37.2976002],[126.4429157,37.3031682],[126.4520781,37.3121968],[126.4614122,37.319825],[126.481282,37.3342772],[126.4887499,37.3377914],[126.494325,37.3401813],[126.5072069,37.3434514],[126.5144578,37.3452681],[126.5184568,37.346945],[126.5208256,37.3487203],[126.5277732,37.3579488],[126.5388473,37.3731769],[126.5594738,37.4036843],[126.5670874,37.4159599],[126.5682686,37.4176383],[126.5705474,37.4197781],[126.5767991,37.4244165],[126.5790978,37.4259049],[126.5809738,37.4269496],[126.5828233,37.4277017],[126.5856501,37.4284673],[126.5877276,37.4286132],[126.5892604,37.4286077],[126.5910841,37.4284093],[126.5922811,37.4281563],[126.5936252,37.4277259],[126.5950971,37.4271321],[126.5971562,37.4261477],[126.6004561,37.4245783]]]}}