{"type":"Feature","properties":{"id":"竹屿_-_沈家湾","name":"竹屿 - 沈家湾","operator":"","category":"ferry","attribution":"© OpenStreetMap contributors"},"geometry":{"type":"MultiLineString","coordinates":[[[122.1322206,30.6007881],[122.1346235,30.5978775],[122.1387004,30.5849478],[122.1445369,30.5748244],[122.1553516,30.5550179],[122.1940609,30.4619918],[122.2362896,30.3530279],[122.2599792,30.3042062],[122.2634124,30.2917561],[122.2635841,30.2868646],[122.2602367,30.2816023],[122.2354316,30.2639602],[122.2313975,30.2515792],[122.2293376,30.2466857],[122.2279108,30.2439329]]]}}