{"type":"Feature","properties":{"id":"竹屿_-_普陀山","name":"竹屿 - 普陀山","operator":"","category":"ferry","attribution":"© OpenStreetMap contributors"},"geometry":{"type":"MultiLineString","coordinates":[[[122.2279108,30.2439329],[122.2339725,30.2432007],[122.2383498,30.2393449],[122.261009,30.2089381],[122.3197175,30.1273991],[122.3533627,30.0738481],[122.3588559,30.0542372],[122.3521612,30.015301],[122.3521612,30.0045983],[122.358856,29.9867579],[122.3627185,29.9807732],[122.3683404,29.9773904],[122.3746546,29.9764889]]]}}