{"type":"Feature","properties":{"id":"竹屿_-_衢山","name":"竹屿 - 衢山","operator":"","category":"ferry","attribution":"© OpenStreetMap contributors"},"geometry":{"type":"MultiLineString","coordinates":[[[122.2279108,30.2439329],[122.2298849,30.245008],[122.2319119,30.2476574],[122.2336182,30.2517927],[122.2389459,30.263297],[122.2597834,30.2771564],[122.2636672,30.2803251],[122.2654911,30.2816407],[122.2666927,30.285606],[122.2672292,30.2947961],[122.2757908,30.4123932],[122.2757479,30.4168529],[122.2755762,30.4257161],[122.2756991,30.4349491],[122.2765815,30.4358946]]]}}