{"type":"Feature","properties":{"id":"竹屿_-_李柱山","name":"竹屿 - 李柱山","operator":"","category":"ferry","attribution":"© OpenStreetMap contributors"},"geometry":{"type":"MultiLineString","coordinates":[[[122.4214441,30.7450116],[122.4206156,30.7438583],[122.4195426,30.7425027],[122.4181259,30.7408999],[122.4092386,30.7310142],[122.3418616,30.649432],[122.2857283,30.5832484],[122.2424696,30.5326939],[122.2294234,30.5088857],[122.2237585,30.4600681],[122.2294232,30.4001223],[122.2567175,30.3244342],[122.2648716,30.2920155],[122.2648716,30.2862717],[122.2616529,30.2807498],[122.2534561,30.2754872],[122.2371482,30.263886],[122.2352599,30.2597345],[122.2314834,30.2486134],[122.2302817,30.2462408],[122.2289943,30.2448597],[122.2279108,30.2439329]]]}}