{"type":"Feature","properties":{"id":"竹芝-久里浜","name":"竹芝-久里浜","operator":"","category":"ferry","attribution":"© OpenStreetMap contributors"},"geometry":{"type":"MultiLineString","coordinates":[[[139.7151894,35.2206091],[139.7150322,35.2218025],[139.7159925,35.2232047],[139.718012,35.2239628],[139.7314762,35.2219752],[139.7619741,35.2353181],[139.7687924,35.2513603],[139.7677691,35.2594734],[139.7261865,35.3162887],[139.727092,35.3260744],[139.770642,35.4082615],[139.8442203,35.521013],[139.842956,35.5318801],[139.8368758,35.5430955],[139.788058,35.5908791],[139.7638122,35.6216913],[139.7633358,35.6533164],[139.7634177,35.6534045]]]}}