{"type":"Feature","properties":{"id":"箱根遊船株式会社_芦ノ湖遊覧船","name":"芦ノ湖遊覧船","operator":"箱根遊船株式会社","category":"ferry","attribution":"© OpenStreetMap contributors"},"geometry":{"type":"MultiLineString","coordinates":[[[139.0086551,35.2114233],[139.0085936,35.2109478],[139.0085096,35.2105304],[139.0084436,35.2100246],[139.0084387,35.209516],[139.008495,35.2090094],[139.0086119,35.2085098],[139.0087883,35.208022],[139.0090225,35.2075507],[139.0093123,35.2071005],[139.0182605,35.1968261],[139.0187818,35.1962686],[139.0193407,35.1957361],[139.0199354,35.1952302],[139.0205641,35.1947524],[139.0212247,35.1943044],[139.0253823,35.1917706],[139.0257758,35.1917424]],[[139.0257758,35.1917424],[139.0254581,35.1917923],[139.0227246,35.1935308],[139.0223828,35.1938157],[139.022081,35.1941293],[139.0218225,35.1944678],[139.0216106,35.1948273],[139.0214477,35.1952034],[139.0213358,35.1955918],[139.0212761,35.1959878],[139.0212694,35.1963867],[139.0213158,35.1967839],[139.0214147,35.1971746],[139.0215649,35.1975543],[139.0217646,35.1979183],[139.0220116,35.1982625],[139.0223029,35.1985827],[139.0226349,35.1988752],[139.0230704,35.1992396],[139.0235354,35.1995786],[139.0240222,35.1998965],[139.0245295,35.2001923],[139.0250557,35.2004651],[139.0255993,35.2007141],[139.0261586,35.2009386],[139.0297991,35.2023798],[139.0299734,35.2024982],[139.0300758,35.2026641]],[[138.9972773,35.2336974],[138.9967343,35.2331199],[138.9963144,35.2325045],[138.9959621,35.2318615],[138.99568,35.2311956],[138.9954704,35.2305122],[138.9953349,35.2298164],[138.9952745,35.2291136],[138.9952896,35.2284091],[138.9953802,35.2277084],[138.9955455,35.2270169],[138.9960341,35.2250964],[138.99631,35.2242183],[138.9966795,35.2233634],[138.9971399,35.2225385],[139.0005274,35.2174098],[139.0010233,35.2166514],[139.0015594,35.2159115],[139.0021348,35.2151914],[139.0044087,35.2126511],[139.0049015,35.212146],[139.0054791,35.2116782],[139.0061365,35.211287],[139.0063873,35.2111506],[139.0066578,35.2110357],[139.0069642,35.2109398],[139.00722,35.2108842],[139.007475,35.2108492],[139.0077487,35.2108332],[139.0079716,35.2108333],[139.0081527,35.210858],[139.0082896,35.2109024],[139.0084066,35.2109706],[139.0085051,35.2110651],[139.0085707,35.2111746],[139.0086551,35.2114233]],[[139.0300758,35.2026641],[139.0300123,35.2025847],[139.0297884,35.2024763],[139.0295201,35.2023798],[139.0292787,35.2023097],[139.0265341,35.2016739],[139.0258266,35.201512],[139.0251051,35.2013986],[139.0243746,35.2013344],[139.0236402,35.20132],[139.0229068,35.2013553],[139.0221794,35.2014402],[139.0214633,35.201574],[139.0207631,35.2017559],[139.0200838,35.2019846],[139.01943,35.2022585],[139.0188063,35.2025758],[139.0098605,35.2077588],[139.0095978,35.2079904],[139.0093666,35.2082433],[139.0091695,35.2085149],[139.0090087,35.2088019],[139.008886,35.2091013],[139.0088029,35.2094096],[139.0087602,35.2097234],[139.0087262,35.2100303],[139.0086551,35.2114233]]]}}