{"type":"Feature","properties":{"id":"粟島汽船_ニューあわしま","name":"ニューあわしま","operator":"粟島汽船","category":"ferry","attribution":"© OpenStreetMap contributors"},"geometry":{"type":"MultiLineString","coordinates":[[[139.2553476,38.4676378],[139.2552054,38.4673112],[139.2554187,38.4672491],[139.2555336,38.467443],[139.256306,38.4679974],[139.2570356,38.4683754],[139.2573789,38.4684762],[139.2577008,38.4684762],[139.258087,38.468325],[139.2583231,38.4680226],[139.2586449,38.467527],[139.2609838,38.4637383],[139.4115796,38.1857356],[139.4129556,38.1837642],[139.4145837,38.1826431],[139.4159339,38.182137],[139.4171755,38.1820047],[139.4181322,38.1822436],[139.4192735,38.1830364],[139.4214417,38.185365],[139.4227978,38.1863875],[139.4259548,38.1880121],[139.4275687,38.1888578],[139.42914,38.1894305],[139.4300743,38.1896753],[139.4306406,38.1897087],[139.4312069,38.1895084],[139.431575,38.1892191],[139.4316599,38.1888519],[139.431582,38.188507],[139.4318113,38.1884728]]]}}