{"type":"Feature","properties":{"id":"結Lineこしき","name":"結Lineこしき","operator":"","category":"ferry","attribution":"© OpenStreetMap contributors"},"geometry":{"type":"MultiLineString","coordinates":[[[130.2530267,31.7223266],[130.253041,31.7223323],[130.2493789,31.7208847],[130.2489068,31.7203371],[130.2486064,31.7194975],[130.2486922,31.7183476],[130.2496364,31.7168873],[130.2499368,31.7159017],[130.2497222,31.7149424],[130.248821,31.7140772],[130.2475764,31.7136391],[130.2459242,31.7138582],[130.2447011,31.7143319],[130.2332212,31.7160449],[130.219145,31.7168481],[129.7706839,31.698228],[129.7598693,31.698082],[129.7540328,31.6995425],[129.7475697,31.7031864],[129.7451236,31.7042745],[129.7431495,31.7046031],[129.7417547,31.7041102],[129.7405638,31.7034439],[129.7396089,31.7024534],[129.7403493,31.703777],[129.7415884,31.7045556],[129.7430422,31.705137],[129.7458531,31.7053589],[129.7502949,31.7039824],[129.7578093,31.7011491],[129.7660491,31.700857],[129.7761771,31.7024635],[129.7836186,31.7046469],[129.7986647,31.7134164],[129.8114278,31.7245068],[129.856858,31.7618858],[129.8678443,31.769767],[129.9068114,31.7865487],[129.9406888,31.7987975],[129.9616315,31.8103225],[129.9650647,31.8205334],[129.9653479,31.8291461],[129.9595715,31.8367226],[129.9503018,31.8422642],[129.9358823,31.8447432],[129.9242682,31.8451199],[129.9203972,31.8432167],[129.9241399,31.8453429],[129.9392554,31.8457712],[129.974446,31.8438755],[129.995217,31.839209],[130.1178433,31.7318071],[130.1481673,31.7213017],[130.212712,31.7179433],[130.2334358,31.7165944],[130.244508,31.714842],[130.2466108,31.7143309],[130.2478124,31.7143309],[130.2487351,31.7147599],[130.249293,31.715417],[130.2492287,31.7163753],[130.2483703,31.7178356],[130.2481558,31.7185657],[130.2481129,31.7200259],[130.2486278,31.720902],[130.253041,31.7223323]]]}}