{"type":"Feature","properties":{"id":"網地島ライン_way812681357","name":"way812681357","operator":"網地島ライン","category":"ferry","attribution":"© OpenStreetMap contributors"},"geometry":{"type":"MultiLineString","coordinates":[[[141.4595165,38.2750462],[141.4605278,38.2763419],[141.4605493,38.2768304],[141.4603454,38.2773189],[141.4599806,38.2777401],[141.454702,38.2798815],[141.4523846,38.2833681],[141.4524704,38.2860125],[141.4545948,38.2877809],[141.457792,38.2883536],[141.4618045,38.2884715],[141.4656669,38.2878315],[141.4759666,38.2850861],[141.4830691,38.2820375],[141.4910084,38.2775233],[141.4955709,38.2743135],[141.4969828,38.2698117],[141.4948495,38.2599329],[141.4952345,38.2582395],[141.4953405,38.2568619]]]}}