{"type":"Feature","properties":{"id":"绿华_-_花鸟","name":"绿华 - 花鸟","operator":"","category":"ferry","attribution":"© OpenStreetMap contributors"},"geometry":{"type":"MultiLineString","coordinates":[[[122.6215463,30.8193825],[122.6208276,30.8175702],[122.619758,30.8143848],[122.6193976,30.8127811],[122.6192987,30.8112096],[122.6196957,30.8094403],[122.6207363,30.8077448],[122.6226139,30.8063902],[122.6245987,30.8056899],[122.6281177,30.8051002],[122.6356601,30.8048145],[122.6399516,30.8048882],[122.6449513,30.805819],[122.6494252,30.8077449],[122.6928878,30.8404429],[122.6941752,30.8414378],[122.6951301,30.8424695],[122.6958382,30.8436301],[122.6961493,30.844846],[122.6958273,30.8483334]]]}}