{"type":"Feature","properties":{"id":"羽田クルーズ_定期便（みなとみらい_ぷかり桟橋～羽田空港船着場）","name":"羽田クルーズ 定期便（みなとみらい ぷかり桟橋～羽田空港船着場）","operator":"","category":"ferry","attribution":"© OpenStreetMap contributors"},"geometry":{"type":"MultiLineString","coordinates":[[[139.7614465,35.5443528],[139.7611972,35.5435971],[139.761142,35.5434303],[139.7611313,35.5432921],[139.7611597,35.5431164],[139.7612517,35.5429666],[139.7614322,35.542814],[139.7616658,35.5426844],[139.7693902,35.5394558],[139.806872,35.5116923],[139.8070535,35.5115284],[139.8071511,35.5113034],[139.8071226,35.5111114],[139.8069722,35.5108996],[139.8066404,35.5106794],[139.7942537,35.5042298],[139.7939293,35.5041643],[139.7935591,35.5041294],[139.7931622,35.5041599],[139.7927813,35.5042516],[139.7749572,35.5080522],[139.7742385,35.5081808],[139.7732971,35.5082788],[139.772207,35.5083421],[139.7710107,35.5083191],[139.7688842,35.5081243],[139.7670122,35.5079112],[139.7646585,35.5075614],[139.7620433,35.5071509],[139.7597644,35.5066795],[139.7556361,35.5052957],[139.6965853,35.4803108],[139.6958557,35.479839],[139.695212,35.4792799],[139.690148,35.4733386],[139.6892253,35.4727096],[139.6877018,35.4721329],[139.6606437,35.4619792],[139.6598283,35.4615073],[139.6594421,35.4608257],[139.6591417,35.459812],[139.6586267,35.4593751],[139.6576182,35.4591129],[139.6562878,35.4589905],[139.6548501,35.4589556],[139.6428456,35.4595572],[139.6423403,35.4595162],[139.6418575,35.4593851],[139.6413747,35.4591885],[139.639701,35.4583103],[139.6393953,35.4581792],[139.6387627,35.4580126]]]}}