{"type":"Feature","properties":{"id":"船浮海運_船浮〜白浜","name":"船浮〜白浜","operator":"船浮海運","category":"ferry","attribution":"© OpenStreetMap contributors"},"geometry":{"type":"MultiLineString","coordinates":[[[123.7465576,24.3591267],[123.7466166,24.3586824],[123.7464887,24.3585576],[123.7461577,24.3583699],[123.7459217,24.3582135],[123.7457285,24.357803],[123.74575,24.3573339],[123.746029,24.3563565],[123.7463079,24.3550077],[123.7463508,24.353434],[123.7462435,24.3527303],[123.7464474,24.3519386],[123.7466203,24.3486781],[123.7447617,24.3454871],[123.7444518,24.3445686],[123.7441947,24.3442951],[123.7340448,24.337638],[123.7333904,24.3373545],[123.7322639,24.3370515],[123.7316094,24.3368266],[123.7308155,24.3364063],[123.7303327,24.336289],[123.7292136,24.3364764]]]}}