{"type":"Feature","properties":{"id":"花鸟_-_壁下","name":"花鸟 - 壁下","operator":"","category":"ferry","attribution":"© OpenStreetMap contributors"},"geometry":{"type":"MultiLineString","coordinates":[[[122.6958273,30.8483334],[122.697469,30.8451592],[122.7269518,30.8087124],[122.7302562,30.8055056],[122.7728927,30.7741138],[122.7739978,30.7734593],[122.7749956,30.7731274],[122.7760363,30.7731274],[122.776916,30.7734962],[122.7775383,30.7741322],[122.7821088,30.7828153],[122.7837717,30.7844744],[122.7843726,30.7844214]]]}}