{"type":"Feature","properties":{"id":"芸予汽船_芸予汽船_(今治－友浦－木浦－岩城－佐島－弓削ー生名－土生)","name":"芸予汽船 (今治－友浦－木浦－岩城－佐島－弓削ー生名－土生)","operator":"芸予汽船","category":"ferry","attribution":"© OpenStreetMap contributors"},"geometry":{"type":"MultiLineString","coordinates":[[[133.0058804,34.0707602],[133.0062208,34.0714258],[133.0062766,34.0716103],[133.0062947,34.0719055],[133.0062111,34.0722411],[133.0053414,34.0738724],[133.0052351,34.0741336],[133.0051714,34.0744299],[133.0051798,34.0747792],[133.0052314,34.0750826],[133.0053868,34.0754444],[133.0057026,34.0758608],[133.0801518,34.1428445],[133.0807697,34.1434114],[133.0813661,34.1442447],[133.0818079,34.1453608],[133.0827655,34.1506903],[133.0829373,34.1513151],[133.0829802,34.1515615],[133.0829667,34.1517701],[133.0829261,34.1519338],[133.0828449,34.1521042],[133.0826774,34.1522952]],[[133.1876175,34.2538874],[133.1870319,34.2543935],[133.1868754,34.2545948],[133.1867897,34.2547991],[133.1867663,34.2551124],[133.1868642,34.2554581],[133.1881968,34.2574488],[133.188663,34.2578123],[133.1892036,34.2580527],[133.1900747,34.2581944],[133.1911068,34.2582473],[133.1981706,34.257821],[133.1985288,34.2578312],[133.1989294,34.2578881],[133.1992126,34.257962],[133.1994404,34.2580664],[133.2003688,34.2586382]],[[133.147306,34.244601],[133.1475008,34.2442816],[133.1476525,34.244077],[133.1478598,34.2438746],[133.1482114,34.2436582],[133.1486309,34.2435121],[133.1491909,34.2434043],[133.1497947,34.2433921],[133.1502825,34.2434637],[133.1507134,34.2436025],[133.1512755,34.2438543],[133.1560232,34.2464474],[133.1573048,34.2470381],[133.1586362,34.2475313],[133.1841594,34.2545603],[133.1848553,34.2546145],[133.1855881,34.2545958],[133.1863434,34.2544589],[133.1876175,34.2538874]],[[133.1199134,34.2048156],[133.1202458,34.2049306],[133.12046,34.2050477],[133.1209874,34.2054838],[133.1214378,34.2058028],[133.1215847,34.2058731],[133.1218307,34.2059316],[133.1220944,34.2059404],[133.122358,34.2059258],[133.1246964,34.205453],[133.1258719,34.2053469],[133.1269245,34.2054181],[133.1279924,34.205633],[133.1290266,34.2059517],[133.1384339,34.2087508],[133.1388466,34.208931],[133.1392432,34.2091781],[133.1397076,34.2095551],[133.1401013,34.2100229],[133.1403558,34.2104929],[133.1438409,34.2186725],[133.1440859,34.2195321],[133.1474914,34.2429031],[133.147487,34.2434525],[133.147306,34.244601]],[[133.0826774,34.1522952],[133.0828279,34.1522056],[133.0829632,34.1520753],[133.0830387,34.1519326],[133.0830603,34.1517376],[133.083055,34.1515693],[133.0829565,34.1510524],[133.0829605,34.1508744],[133.0830673,34.150726],[133.0832192,34.1506394],[133.0834607,34.1506121],[133.0837273,34.1506421],[133.1026091,34.1570539],[133.1033354,34.1574331],[133.1039355,34.1579851],[133.1108448,34.1652806],[133.1109849,34.1654915],[133.1280437,34.1943344],[133.1286023,34.1954609],[133.1288625,34.1962518],[133.1289129,34.1970554],[133.1288559,34.1975925],[133.1286851,34.198022],[133.1284131,34.1985048],[133.123218,34.2051326],[133.1229674,34.2054034],[133.1227263,34.2055695],[133.1224281,34.2056644],[133.1221618,34.2057191],[133.1218401,34.2057307],[133.1216194,34.2056784],[133.1213967,34.205564],[133.1211609,34.2054173],[133.1206217,34.2049866],[133.1204754,34.2048936],[133.1203167,34.2048465],[133.1201582,34.2048301],[133.1199134,34.2048156]]]}}