{"type":"Feature","properties":{"id":"蜈蚣峙_-_六横大岙","name":"蜈蚣峙 - 六横大岙","operator":"","category":"ferry","attribution":"© OpenStreetMap contributors"},"geometry":{"type":"MultiLineString","coordinates":[[[122.3671139,29.95567],[122.3664576,29.9568587],[122.3654008,29.9582995],[122.3642421,29.9593964],[122.3603582,29.9619432],[122.35435,29.9640067],[122.3470115,29.9659772],[122.3400592,29.9659029],[122.3362613,29.9646202],[122.3335715,29.9623403],[122.3305806,29.9591491],[122.3284644,29.9554452],[122.3231935,29.9469214],[122.3161124,29.9294984],[122.3039245,29.9139509],[122.2942256,29.9077759],[122.2379207,29.8937132],[122.2110557,29.8826253],[122.1506308,29.8492799],[122.1478842,29.8446643],[122.1411894,29.8269442],[122.1366405,29.8030021],[122.1355676,29.7844551],[122.1348381,29.7731316],[122.1344197,29.772042],[122.1341085,29.771595],[122.1334236,29.771411]]]}}