{"type":"Feature","properties":{"id":"蜈蚣峙_-_白沙大沙头","name":"蜈蚣峙 - 白沙大沙头","operator":"","category":"ferry","attribution":"© OpenStreetMap contributors"},"geometry":{"type":"MultiLineString","coordinates":[[[122.3671139,29.95567],[122.3671067,29.9557601],[122.3661518,29.9595265],[122.365948,29.9612554],[122.3661947,29.9631144],[122.3675036,29.9650756],[122.3702716,29.9668881],[122.3749709,29.9675387],[122.3766875,29.9674458],[122.415676,29.9646016],[122.4251174,29.961776],[122.4306964,29.9584297],[122.4363612,29.951365],[122.4385928,29.9461591],[122.4404811,29.9410273],[122.4450731,29.9385729],[122.4466932,29.938108],[122.4476159,29.9380429]]]}}