{"type":"Feature","properties":{"id":"蜈蚣峙_-_普陀山","name":"蜈蚣峙 - 普陀山","operator":"","category":"ferry","attribution":"© OpenStreetMap contributors"},"geometry":{"type":"MultiLineString","coordinates":[[[122.3686705,29.954012],[122.3687696,29.9548416],[122.3686194,29.9561244],[122.3676753,29.9582624],[122.3659881,29.9615176],[122.365926,29.9634684],[122.3663764,29.9649618],[122.3680701,29.9671126],[122.3715787,29.969778],[122.3758945,29.9737452],[122.3763655,29.9746764],[122.3768484,29.9755595]]]}}