{"type":"Feature","properties":{"id":"蜈蚣峙_-_东极庙子湖","name":"蜈蚣峙 - 东极庙子湖","operator":"","category":"ferry","attribution":"© OpenStreetMap contributors"},"geometry":{"type":"MultiLineString","coordinates":[[[122.6840182,30.1917006],[122.6828005,30.1913899],[122.6791902,30.1885544],[122.664084,30.1776293],[122.6623027,30.1762013],[122.6367899,30.15405],[122.3953578,29.9735297],[122.3943041,29.972996],[122.3924822,29.9722487],[122.3900604,29.9717236],[122.3837815,29.9712358],[122.3777093,29.9712765],[122.3650057,29.9702004],[122.3511067,29.9680887],[122.338075,29.9641089],[122.3338561,29.9621697],[122.3312955,29.9595806],[122.3231213,29.948513],[122.3200157,29.9448675],[122.3171114,29.9433958]]]}}