{"type":"Feature","properties":{"id":"蜈蚣峙_-_白沙小沙","name":"蜈蚣峙 - 白沙小沙","operator":"","category":"ferry","attribution":"© OpenStreetMap contributors"},"geometry":{"type":"MultiLineString","coordinates":[[[122.3671139,29.95567],[122.3663127,29.9595823],[122.3661947,29.9611625],[122.3662162,29.96159],[122.366538,29.9630772],[122.3678684,29.9649734],[122.3702717,29.9665906],[122.3749387,29.9673156],[122.3766875,29.9671576],[122.4165343,29.9601401],[122.4306106,29.9546372],[122.4385929,29.9506027],[122.4417472,29.9500263],[122.4432331,29.9502494]]]}}