{"type":"Feature","properties":{"id":"衢山_-_黄泽山","name":"衢山 - 黄泽山","operator":"","category":"ferry","attribution":"© OpenStreetMap contributors"},"geometry":{"type":"MultiLineString","coordinates":[[[122.2765815,30.4358946],[122.2760295,30.4389431],[122.2744417,30.445418],[122.2698497,30.4558508],[122.2589491,30.4872906],[122.2601507,30.4948347],[122.2668455,30.5007511],[122.2786902,30.5063714],[122.2960281,30.5085898],[122.3066711,30.5086638],[122.3170566,30.5066671],[122.3207044,30.5079243],[122.3232901,30.5101334],[122.3241699,30.5110855]]]}}