{"type":"Feature","properties":{"id":"西岙_-_桃花茅草屋","name":"西岙 - 桃花茅草屋","operator":"","category":"ferry","attribution":"© OpenStreetMap contributors"},"geometry":{"type":"MultiLineString","coordinates":[[[122.3623678,29.8940494],[122.3602724,29.8919272],[122.3560452,29.8911831],[122.3496938,29.891704],[122.3481488,29.8923551],[122.3385572,29.8981033],[122.324953,29.9001123],[122.3064565,29.9029769],[122.2933244,29.9030141],[122.280836,29.8972848],[122.2755145,29.8905134],[122.2751712,29.8724293],[122.2754716,29.8608925],[122.2779178,29.8503965],[122.2828531,29.8452039],[122.2837919,29.844713],[122.2838455,29.8445595],[122.2837845,29.8443979]]]}}