{"type":"Feature","properties":{"id":"西尾市営渡船","name":"西尾市営渡船","operator":"","category":"ferry","attribution":"© OpenStreetMap contributors"},"geometry":{"type":"MultiLineString","coordinates":[[[137.016224,34.7943361],[137.0162836,34.7944378],[137.0167208,34.7943519],[137.0168267,34.7942482],[137.016889,34.7940985],[137.0169355,34.793685],[137.0169442,34.7932362],[137.0168403,34.7926614],[137.0166158,34.7917526],[137.0160976,34.7903709],[137.0157245,34.7898119],[137.0152815,34.7893399],[137.0138454,34.7878318],[137.0122361,34.78614],[137.0109057,34.7840605],[137.0080733,34.7788438],[137.0055832,34.7738207],[137.0041037,34.7706304],[137.0037174,34.7690616],[137.0042539,34.7641789],[137.0045757,34.7620988],[137.0065498,34.7581324],[137.0126867,34.7487357],[137.02039,34.7370632],[137.0262684,34.7287919],[137.0275569,34.7266236],[137.0283937,34.7260416],[137.0301318,34.7258829],[137.0311691,34.7258141],[137.0314615,34.7258314],[137.0315556,34.7258645],[137.031644,34.7259267],[137.0318879,34.7262328]],[[137.0318879,34.7262328],[137.0316861,34.7258949],[137.0315914,34.7258186],[137.0314772,34.7257744],[137.0312287,34.7257505],[137.02981,34.7257242],[137.0293103,34.7253917],[137.0290375,34.7249305],[137.0290364,34.7237842],[137.0300674,34.7216326],[137.0367837,34.7152125],[137.0404315,34.7125139],[137.0415512,34.7116883],[137.0425014,34.7111391],[137.0431133,34.7111514],[137.0436239,34.7113786],[137.0441245,34.7120561],[137.047895,34.7181646],[137.0481453,34.7184464],[137.0484183,34.7187068],[137.0486352,34.7188133],[137.0488368,34.7189016],[137.0489916,34.7190302],[137.0490146,34.7191634],[137.0489602,34.7193761],[137.0487571,34.7196043],[137.048049,34.7199923],[137.0478129,34.7201334],[137.0477189,34.7201763]]]}}