{"type":"Feature","properties":{"id":"西岙_-_六横大岙","name":"西岙 - 六横大岙","operator":"","category":"ferry","attribution":"© OpenStreetMap contributors"},"geometry":{"type":"MultiLineString","coordinates":[[[122.3623678,29.8940494],[122.3612594,29.8934527],[122.3593282,29.8926714],[122.3560237,29.8923365],[122.3494147,29.8936388],[122.3384284,29.8997403],[122.3198889,29.9030142],[122.3080443,29.9052463],[122.295513,29.9059903],[122.2932815,29.9058414],[122.2390365,29.8927458],[122.2219562,29.8853788],[122.1529483,29.8480888],[122.1472835,29.8367725],[122.1453094,29.8273164],[122.1403312,29.8092953],[122.1390437,29.7998367],[122.1363401,29.7766704],[122.1351492,29.7737835],[122.1338725,29.7727591],[122.1325941,29.7724772]]]}}