{"type":"Feature","properties":{"id":"豊島(家浦港)-犬島","name":"豊島(家浦港)-犬島","operator":"","category":"ferry","attribution":"© OpenStreetMap contributors"},"geometry":{"type":"MultiLineString","coordinates":[[[134.0610634,34.4896683],[134.0477008,34.5106022],[134.0482158,34.5141738],[134.0791148,34.5476545],[134.0802306,34.5532392],[134.076497,34.5627465],[134.0763682,34.5669873],[134.0781707,34.5698497],[134.0861593,34.5717978],[134.0952939,34.571758],[134.1039319,34.567767],[134.1048462,34.566718]]]}}