{"type":"Feature","properties":{"id":"軍艦島コンシェルジュ_軍艦島上陸ツアー","name":"軍艦島上陸ツアー","operator":"軍艦島コンシェルジュ","category":"ferry","attribution":"© OpenStreetMap contributors"},"geometry":{"type":"MultiLineString","coordinates":[[[129.7388323,32.62664],[129.7390362,32.6265632],[129.7407688,32.6288448],[129.7405593,32.6298931],[129.7384149,32.6300073],[129.7366032,32.6281494],[129.7356789,32.6258556],[129.7290914,32.6240303],[129.7354214,32.6261989],[129.736151,32.6282591],[129.7382753,32.6303011],[129.7407,32.6301566],[129.7425668,32.626217],[129.7471373,32.6283495],[129.7503989,32.6305541],[129.7852676,32.6756658],[129.7896664,32.6951343],[129.7908895,32.6967053],[129.808635,32.7071961],[129.8173253,32.7102113],[129.8388903,32.7112585],[129.8483102,32.7181912],[129.8646524,32.7382329],[129.8659253,32.7387253],[129.8675776,32.7387434],[129.8693114,32.7376966],[129.8693763,32.7377946]]]}}