{"type":"Feature","properties":{"id":"连云港_-_平泽_평택_-_롄윈강시","name":"连云港 - 平泽 평택 - 롄윈강시","operator":"","category":"ferry","attribution":"© OpenStreetMap contributors"},"geometry":{"type":"MultiLineString","coordinates":[[[126.3223424,37.1213164],[126.3105947,37.1159959],[125.8194186,36.8800953],[125.8148288,36.8781102],[125.8082198,36.8760505],[125.7960319,36.874128],[125.7753467,36.8735101],[125.5400842,36.8680861],[125.2695458,36.8576481],[124.8252855,36.79829],[124.5300279,36.7531906],[124.2224107,36.6794345],[123.8818346,36.5769393],[121.4291354,35.7264496],[119.6823106,34.8228239],[119.5473858,34.7551534],[119.5309925,34.7470784],[119.5181608,34.7425999],[119.5080328,34.7408367],[119.4955015,34.7401667],[119.488635,34.7405193],[119.4818115,34.7416478],[119.463787,34.7481363],[119.4580364,34.7497936],[119.4534444,34.7509572],[119.4494533,34.7515566],[119.4404411,34.7525439],[119.4333601,34.7531081],[119.4122457,34.7524734],[119.4023752,34.752156],[119.3979335,34.7514156],[119.3967855,34.7509307],[119.3960667,34.7504988],[119.3948543,34.7499787],[119.3938887,34.7497935],[119.3931913,34.7498288],[119.3769693,34.7524734],[119.3754029,34.7525086],[119.375073,34.7524932],[119.3748879,34.7524623],[119.3747726,34.752361],[119.3747002,34.7522221]],[[126.8432386,36.9559774],[126.8425214,36.9561217],[126.8415906,36.9562273],[126.8391898,36.9563231],[126.83792,36.9564031],[126.837329,36.9564847],[126.8365678,36.9567044],[126.8359376,36.9569879],[126.8353673,36.9573536],[126.8348689,36.9578313],[126.8293412,36.9648433],[126.8276575,36.9667392],[126.8262807,36.9679351],[126.824126,36.9695975],[126.8216272,36.9711999],[126.8191981,36.9726048],[126.8164005,36.9741703],[126.8139959,36.9754225],[126.5642582,37.1166427],[126.5586505,37.119357],[126.5552972,37.1207847],[126.5509728,37.1222608],[126.5471492,37.1233458],[126.5415176,37.1247892],[126.5353758,37.1262302],[126.5288283,37.1276885],[126.5223592,37.1290471],[126.5158109,37.1302069],[126.50983,37.1310932],[126.5034391,37.1318963],[126.4963229,37.1327336],[126.4892107,37.1334834],[126.4826736,37.1340485],[126.4775009,37.1344077],[126.4731153,37.1346704],[126.4665906,37.134913],[126.3823349,37.1359834],[126.3779292,37.135979],[126.3731783,37.1358765],[126.3690425,37.1357091],[126.3644132,37.1352493],[126.3578027,37.1342496],[126.3517549,37.1329389],[126.3462468,37.1314193],[126.3404483,37.129432],[126.3357072,37.1274158],[126.3290457,37.1244956],[126.3223424,37.1213164]]]}}