{"type":"Feature","properties":{"id":"遊覧船","name":"遊覧船","operator":"","category":"ferry","attribution":"© OpenStreetMap contributors"},"geometry":{"type":"MultiLineString","coordinates":[[[138.7701558,35.504228],[138.77019,35.5042834],[138.77019,35.5043219],[138.7700404,35.5046504],[138.7694912,35.5060236],[138.7681921,35.5087657],[138.7674572,35.509808],[138.7666333,35.5104334],[138.7642282,35.5118564],[138.763794,35.5122642],[138.7622129,35.5144485],[138.7614112,35.5153004],[138.7604536,35.5162973],[138.7598301,35.5166236],[138.7590061,35.5168502],[138.7566122,35.5172761],[138.7531383,35.5181008],[138.7521139,35.5183093],[138.7514904,35.5183818],[138.7508557,35.5182368],[138.7505996,35.5179558],[138.7505105,35.5176839],[138.7505885,35.517267],[138.751045,35.5169317],[138.751791,35.5168592],[138.7533498,35.5168502],[138.7543965,35.5170405],[138.755599,35.5171311],[138.7565454,35.5170948],[138.7589393,35.5166508],[138.7597299,35.5163517],[138.7602977,35.5159711],[138.7612553,35.5151282],[138.7620125,35.5142763],[138.7636047,35.5121827],[138.7640389,35.5117114],[138.7664217,35.509953],[138.7674238,35.5090285],[138.7680807,35.5082672],[138.7693055,35.505974],[138.7697668,35.5051698],[138.7698337,35.505016],[138.769877,35.5048718],[138.7698927,35.50475],[138.7698777,35.5046659],[138.7698438,35.504611],[138.7698097,35.5045804],[138.7697665,35.5045521],[138.7697039,35.5045487],[138.7696037,35.5045464],[138.7697046,35.5045396],[138.76977,35.5045306],[138.7698814,35.5044943],[138.7699718,35.504449],[138.7700797,35.5043861],[138.7701458,35.504334],[138.7701639,35.5043011],[138.7701639,35.5042813],[138.7701558,35.504228]]]}}