{"type":"Feature","properties":{"id":"遊覧船ガルベ","name":"遊覧船ガルベ","operator":"","category":"ferry","attribution":"© OpenStreetMap contributors"},"geometry":{"type":"MultiLineString","coordinates":[[[137.6548964,36.5466756],[137.6539893,36.5464869],[137.6529472,36.5463902],[137.6520166,36.5462251],[137.6511976,36.5458785],[137.6504196,36.5454044],[137.6498824,36.5450271],[137.6493247,36.5445625],[137.648761,36.5439941],[137.6482591,36.5433172],[137.6478539,36.5427512],[137.6470702,36.5414658],[137.6462717,36.5402865],[137.6458049,36.5395412],[137.6453675,36.5387086],[137.6450211,36.5380034],[137.644117,36.5366024],[137.6436209,36.5357957],[137.6431776,36.5349914],[137.6424877,36.53347],[137.6420239,36.5325595],[137.6415337,36.5315877],[137.6412841,36.5310357],[137.6409994,36.530538],[137.6406618,36.5300993],[137.6404064,36.529644],[137.6401892,36.5290779],[137.6400923,36.5286226],[137.6401877,36.5282147],[137.6404895,36.52788],[137.6409842,36.5276406],[137.641586,36.5275887],[137.642201,36.5277986],[137.6426648,36.5281808],[137.6428864,36.5286926],[137.6428688,36.529214],[137.642769,36.5302212],[137.642769,36.5310444],[137.6427543,36.5316318],[137.6427044,36.5323064],[137.642722,36.5330235],[137.6428835,36.5336957],[137.6431946,36.5342925],[137.6437906,36.5350709],[137.6448386,36.5362974],[137.6461243,36.5377597],[137.6469023,36.538781],[137.6476009,36.5396655],[137.6480589,36.5401962],[137.6487018,36.5409037],[137.6490922,36.5413566],[137.6495237,36.541899],[137.6501167,36.5424627],[137.6506892,36.5428448],[137.6513673,36.5432292],[137.6521775,36.543616],[137.6539212,36.5443731],[137.6545847,36.5447032],[137.6552129,36.5451395],[137.6557442,36.5456513],[137.6562168,36.546222],[137.6571738,36.5475521],[137.6574263,36.5479377],[137.6578111,36.5485114],[137.6583686,36.5493333],[137.6594372,36.551043],[137.6601329,36.5522197],[137.6607259,36.5532267],[137.6610583,36.5538557],[137.6613541,36.5544429],[137.661542,36.5550973],[137.6615155,36.5557115],[137.6614172,36.5562586],[137.6611264,36.5571001],[137.6610163,36.5574273],[137.6607099,36.5579884],[137.6605088,36.5585477],[137.6603669,36.5590682],[137.6602892,36.5595575],[137.6600294,36.5602165],[137.6597476,36.5610913],[137.6594775,36.5617539],[137.6590269,36.5626275],[137.6587436,36.563125],[137.6584633,36.5635376],[137.6582387,36.5638229],[137.6580934,36.5639797],[137.6580141,36.5641117],[137.6579245,36.5641874],[137.6582385,36.5643135],[137.6587346,36.5642427],[137.6590634,36.5640541],[137.6593629,36.563526],[137.6595346,36.5628664],[137.6596667,36.562258],[137.6599691,36.5611828],[137.6605239,36.5592948],[137.6606985,36.5586016],[137.6609407,36.5578691],[137.6611772,36.5571537],[137.6614398,36.5565494],[137.6617275,36.555849],[137.6618273,36.5551157],[137.6616365,36.5541984],[137.6612343,36.5533117],[137.6607587,36.5525547],[137.6603565,36.55201],[137.6598281,36.5513851],[137.6592479,36.5504947],[137.6586252,36.5493833],[137.6582017,36.5486798],[137.6578111,36.5485114],[137.6570775,36.548225],[137.6563025,36.5473902],[137.6557125,36.5469657]]]}}