{"type":"Feature","properties":{"id":"野尻湖一周遊覧船","name":"野尻湖一周遊覧船","operator":"","category":"ferry","attribution":"© OpenStreetMap contributors"},"geometry":{"type":"MultiLineString","coordinates":[[[138.2097542,36.8332346],[138.2097935,36.8332721],[138.2101961,36.8333233],[138.2111266,36.8333001],[138.211651,36.8331996],[138.2119415,36.8330543],[138.2121013,36.8328119],[138.2122139,36.8325192],[138.2125753,36.8314855],[138.2129444,36.831102],[138.2133733,36.830824],[138.2138597,36.8305832],[138.2145227,36.8304143],[138.2152341,36.8303664],[138.216177,36.8304228],[138.2170906,36.8306227],[138.2176849,36.8309026],[138.2180751,36.8313396],[138.2182598,36.8319119],[138.2182377,36.8327928],[138.2180754,36.8332682],[138.2178218,36.8336821],[138.2173119,36.833998],[138.2167176,36.8341116],[138.2159638,36.8340778],[138.2152268,36.8340277],[138.2147228,36.8338356],[138.2144834,36.833658],[138.2143217,36.8332169],[138.2141975,36.8335647],[138.2141032,36.8337134],[138.213999,36.8337726],[138.2136435,36.8338459],[138.2117238,36.833697],[138.2106278,36.8335895],[138.21007,36.8334905],[138.2097608,36.8333251],[138.2097542,36.8332346]]]}}