{"type":"Feature","properties":{"id":"野島海運","name":"野島海運","operator":"","category":"ferry","attribution":"© OpenStreetMap contributors"},"geometry":{"type":"MultiLineString","coordinates":[[[131.584285,34.0369148],[131.5843462,34.0370273],[131.5844007,34.0370849],[131.5845103,34.0371494],[131.5846809,34.0371902],[131.5848598,34.03721],[131.5862703,34.0371918],[131.5866051,34.0371671],[131.5870311,34.0370761],[131.5875487,34.0368868],[131.588309,34.0364908],[131.5891363,34.0358439],[131.5952638,34.0291964],[131.6136041,34.0101391],[131.6146549,34.0091511],[131.6162713,34.0078666],[131.6191728,34.0056562],[131.6874928,33.9538048],[131.6885765,33.9528156],[131.6894531,33.9517541],[131.6901551,33.9506255],[131.6929388,33.9455547],[131.6934705,33.9445065],[131.6935965,33.9441239],[131.6936544,33.943983],[131.6938094,33.9437629],[131.6940539,33.9435088],[131.6943969,33.9431682]]]}}