{"type":"Feature","properties":{"id":"野母商船_長崎～伊王島～高島航路","name":"長崎～伊王島～高島航路","operator":"野母商船","category":"ferry","attribution":"© OpenStreetMap contributors"},"geometry":{"type":"MultiLineString","coordinates":[[[129.7570075,32.6569615],[129.7570565,32.6570244],[129.7576359,32.6570831],[129.7693061,32.6637288],[129.7784042,32.6712432],[129.784069,32.678468],[129.7879169,32.6947666],[129.7874593,32.6975025],[129.7850883,32.7019805],[129.7835433,32.7028382],[129.7812903,32.7029556],[129.7801772,32.7033076],[129.7800588,32.7032828],[129.7801771,32.7033296],[129.7814447,32.7030585],[129.7828568,32.7031212],[129.7871966,32.7036766],[129.8078386,32.7093583],[129.8172841,32.7106503],[129.8386181,32.7116829],[129.8479986,32.7185924],[129.8642987,32.7384914],[129.8683781,32.7447208]]]}}