{"type":"Feature","properties":{"id":"金石滩-广鹿岛","name":"金石滩-广鹿岛","operator":"","category":"ferry","attribution":"© OpenStreetMap contributors"},"geometry":{"type":"MultiLineString","coordinates":[[[122.0480551,39.0825941],[122.0483371,39.0836616],[122.0489317,39.0846835],[122.0494979,39.085233],[122.0513454,39.087057],[122.0550643,39.0895064],[122.0601926,39.091788],[122.0644413,39.0933868]],[[122.0644413,39.0933868],[122.1649902,39.1290207]],[[122.1649902,39.1290207],[122.1704851,39.1300542],[122.2577812,39.1423859]]]}}