{"type":"Feature","properties":{"id":"長崎～端島（軍艦島）","name":"長崎～端島（軍艦島）","operator":"","category":"ferry","attribution":"© OpenStreetMap contributors"},"geometry":{"type":"MultiLineString","coordinates":[[[129.8703703,32.7479665],[129.8693966,32.7481255],[129.8685225,32.7481487],[129.8678508,32.7480559],[129.867216,32.7478082],[129.8668019,32.7472975],[129.8665811,32.7466475],[129.8670919,32.7423612],[129.8644922,32.7384091],[129.8481714,32.7184459],[129.838747,32.7114862],[129.8172902,32.7104087],[129.8085537,32.7074501],[129.797077,32.7005924],[129.7907197,32.6968985],[129.7894055,32.6952336],[129.7849702,32.6757587],[129.7501337,32.6307514],[129.7469134,32.6286174],[129.7424262,32.6265277],[129.7405922,32.6260286],[129.7396622,32.6261126],[129.739164,32.6262804],[129.7389205,32.6264948],[129.7388323,32.62664]]]}}