{"type":"Feature","properties":{"id":"長崎～五島（福江）","name":"長崎～五島（福江）","operator":"","category":"ferry","attribution":"© OpenStreetMap contributors"},"geometry":{"type":"MultiLineString","coordinates":[[[128.8522757,32.6967643],[128.853305,32.6980548],[128.8556485,32.7015478],[128.8586674,32.7040331],[128.8632129,32.7068383],[128.8826751,32.7150886],[128.8949489,32.7176883],[128.9067064,32.7179783],[129.7773544,32.7210358],[129.8080117,32.7116881],[129.8172779,32.7108928],[129.8384894,32.7118793],[129.8478097,32.7187527],[129.8641243,32.7385862],[129.8674638,32.7438991],[129.8683781,32.7447208]]]}}