{"type":"Feature","properties":{"id":"阪九フェリー株式会社_阪九フェリー_(神戸－新門司)","name":"阪九フェリー (神戸－新門司)","operator":"阪九フェリー株式会社","category":"ferry","attribution":"© OpenStreetMap contributors"},"geometry":{"type":"MultiLineString","coordinates":[[[135.2832069,34.6971415],[135.2834747,34.6970149],[135.2839494,34.6970875],[135.2843678,34.6970279],[135.2927883,34.6991311],[135.2942061,34.699231],[135.2963411,34.6990193],[135.2981007,34.6984018],[135.2991843,34.6973962],[135.3001043,34.6958787],[135.3004941,34.6943266],[135.3038415,34.6770405],[135.3042322,34.6742597],[135.303381,34.654026],[135.3026194,34.6500967],[135.3011659,34.6474226],[135.2983676,34.6441505],[135.2420248,34.6001553],[135.2401542,34.5986135],[135.2342965,34.5947093],[135.2299404,34.5928729],[135.2257868,34.5918362],[135.1122556,34.5864569],[135.0761517,34.586183],[135.0692224,34.587441],[135.007875,34.6218811],[134.9951559,34.623382],[134.9831497,34.621108],[134.9060698,34.586976],[134.3527909,34.4027744],[134.3428927,34.4007462],[134.2313033,34.398296],[134.2293891,34.3984707],[134.2279044,34.3986984],[134.223792,34.3997499],[134.1303773,34.4280295],[134.0632094,34.4395921],[134.0602791,34.4395217],[134.0573552,34.4389404],[134.0162816,34.4256993],[133.9224008,34.4042163],[133.8459334,34.3792078],[133.8438928,34.3783224],[133.8418575,34.3771238],[133.8164569,34.3601742],[133.8154837,34.3596403],[133.6775872,34.2968953],[133.6740339,34.2958614],[133.6698174,34.2953914],[133.5673346,34.2907537],[133.5649216,34.2904988],[133.5626183,34.2900469],[133.2543969,34.2070819],[133.0418426,34.0908961],[133.036858,34.0893513],[133.0312637,34.0886601],[133.0242687,34.0890258],[133.0179907,34.0908467],[132.9882145,34.1089798],[132.98594,34.111085],[132.9850924,34.1126218],[132.9845667,34.1140341],[132.9847276,34.1162814],[132.9853254,34.1181601],[132.9896736,34.1296662],[132.9899955,34.1315667],[132.9898882,34.1329787],[132.9890191,34.134968],[132.9867124,34.1370904],[132.9478751,34.1581384],[132.945857,34.1591726],[132.9433894,34.1599538],[132.940439,34.1602823],[132.9164653,34.1598322],[132.9108059,34.1591637],[132.9056775,34.1574148],[132.9013717,34.1547639],[132.7081609,33.9568653],[132.7050161,33.9540844],[132.7008206,33.9511306],[132.6289201,33.9070194],[132.6242065,33.9037701],[132.5475166,33.8302373],[132.5425708,33.8268792],[132.4048448,33.7599009],[132.1346229,33.6966683],[132.1250474,33.6970387],[131.1973625,33.864703],[131.0392892,33.8905812],[131.03643,33.8905501],[131.0341877,33.8900469],[131.0031009,33.8720368],[131.0012555,33.8716627],[130.9993887,33.8715736],[130.9972322,33.871636],[130.9955907,33.8718319],[130.9943461,33.8721259],[130.9931767,33.8726337],[130.9921253,33.8733018],[130.9914386,33.8739966],[130.9909344,33.8749141],[130.9906769,33.8758226],[130.9905803,33.8768381],[130.9909451,33.8805524],[130.9909451,33.8820755],[130.9907627,33.8841776],[130.9904927,33.8848612],[130.9905535,33.8849591],[130.9905087,33.8850394],[130.9907156,33.8856146]]]}}