{"type":"Feature","properties":{"id":"防予フェリー株式会社_防予フェリー(柳井-三津浜)","name":"防予フェリー(柳井-三津浜)","operator":"防予フェリー株式会社","category":"ferry","attribution":"© OpenStreetMap contributors"},"geometry":{"type":"MultiLineString","coordinates":[[[132.1327055,33.9566632],[132.1325846,33.9560665],[132.1325732,33.9555948],[132.1326897,33.95523],[132.1330429,33.9548345],[132.1336748,33.954527],[132.1386625,33.9526596],[132.1400771,33.9522285],[132.1416489,33.9520096],[132.1433302,33.9520512],[132.1833425,33.958753],[132.1856536,33.9593345],[132.2260288,33.9744107],[132.2303802,33.9755003],[132.2349805,33.9761261],[132.3460083,33.9806574],[132.3495748,33.9805406],[132.3531766,33.9800107],[132.4708364,33.9526861],[132.4729919,33.9520067],[132.4742477,33.9514544],[132.4752733,33.9508476],[132.5339628,33.9148128],[132.5365794,33.9134906],[132.6528184,33.8680666],[132.656003,33.8671687],[132.6591322,33.866603],[132.6630501,33.8663157],[132.667787,33.8665059],[132.69826,33.8698198],[132.6997851,33.8698963],[132.701399,33.8699113],[132.703373,33.8697159],[132.7047496,33.8694809],[132.7058302,33.8691598],[132.7064657,33.8689245],[132.7071086,33.8686155],[132.7075572,33.8682537],[132.7094867,33.8657525]]]}}