{"type":"Feature","properties":{"id":"隠岐汽船株式会社_西郷-別府_フェリー","name":"西郷-別府 フェリー","operator":"隠岐汽船株式会社","category":"ferry","attribution":"© OpenStreetMap contributors"},"geometry":{"type":"MultiLineString","coordinates":[[[133.0411559,36.1080541],[133.0450446,36.1082991],[133.0675113,36.11004],[133.0706496,36.1110048],[133.0855357,36.1191406],[133.1047404,36.129436],[133.1717852,36.1416112],[133.2595789,36.1444952],[133.3328783,36.1429011],[133.3541643,36.1616132],[133.350298,36.1794558],[133.3367277,36.1959763],[133.3366877,36.1991883],[133.3362522,36.2021102],[133.3361476,36.2024583],[133.3358456,36.2027841],[133.3355622,36.2030858]]]}}