{"type":"Feature","properties":{"id":"隠岐汽船株式会社_高速船レインボージェット_七類-西郷_航路","name":"高速船レインボージェット 七類-西郷 航路","operator":"隠岐汽船株式会社","category":"ferry","attribution":"© OpenStreetMap contributors"},"geometry":{"type":"MultiLineString","coordinates":[[[133.2292183,35.571716],[133.2311606,35.5722063],[133.233087,35.5736216],[133.2341086,35.5749898],[133.2352684,35.5766181],[133.2367581,35.5771906],[133.2403226,35.5769276],[133.2444176,35.5769629],[133.2468134,35.5781472],[133.2491364,35.5799846],[133.2515048,35.582943],[133.2560607,35.589007],[133.2597015,35.5975929],[133.3533745,36.1616778],[133.3488617,36.1788529],[133.3399585,36.1914256],[133.3372494,36.1961313],[133.3370046,36.1992219],[133.336601,36.201872],[133.3363725,36.2025847],[133.3360203,36.2029472],[133.3355622,36.2030858]]]}}