{"type":"Feature","properties":{"id":"須崎市_須崎市営巡航船","name":"須崎市営巡航船","operator":"須崎市","category":"ferry","attribution":"© OpenStreetMap contributors"},"geometry":{"type":"MultiLineString","coordinates":[[[133.4059491,33.4282783],[133.4059054,33.4289183],[133.4059253,33.429248],[133.4060697,33.4295517],[133.4062761,33.4298372],[133.4065568,33.4301974],[133.4076986,33.4313441],[133.4088669,33.4327123],[133.4102632,33.4342847],[133.4104444,33.4344879],[133.4107162,33.4345872],[133.411043,33.4342437]],[[133.4294061,33.4303204],[133.4295415,33.4304742],[133.4294775,33.4307174],[133.4264871,33.4340069],[133.4260865,33.4346067],[133.4258755,33.4351885],[133.4258826,33.435845],[133.4259661,33.4363417],[133.4262678,33.436828],[133.4266004,33.4371073],[133.4271966,33.4373479],[133.4277897,33.4374287],[133.429149,33.4373153],[133.4296587,33.4373058],[133.4300828,33.437497]],[[133.3594562,33.4087494],[133.3605134,33.4087958],[133.3623436,33.4091822],[133.363394,33.4093448],[133.364426,33.4096369],[133.3652763,33.4100268],[133.36606,33.4105328],[133.3663976,33.4108425],[133.3666446,33.4112682],[133.366726,33.4117584],[133.366742,33.41232],[133.3667408,33.413167],[133.3668341,33.4135964],[133.3670771,33.4139558],[133.3674055,33.414347],[133.3676498,33.4145869],[133.3678192,33.4147095],[133.3680778,33.4147581]],[[133.4033809,33.4177839],[133.4027321,33.4180814],[133.4022315,33.4186831],[133.4014636,33.4205356],[133.4010321,33.422347],[133.4008463,33.4235136],[133.4008282,33.424994],[133.4009369,33.4261701],[133.4013266,33.4269982],[133.4017884,33.4275535],[133.4026858,33.4284351],[133.403221,33.4287065],[133.403646,33.4288392],[133.4044938,33.4290401],[133.404954,33.4290932],[133.4051978,33.4290282],[133.4056619,33.4286394],[133.4059491,33.4282783],[133.4062946,33.4275268],[133.4066671,33.4268136],[133.4071668,33.4262553],[133.407535,33.4258939],[133.407954,33.4256077],[133.4082426,33.4254964],[133.4085065,33.4254633],[133.4086557,33.4255328],[133.4086692,33.4256805],[133.4086118,33.4259854]],[[133.4107162,33.4345872],[133.4097314,33.4368802],[133.4089724,33.4385343],[133.4072386,33.4430885],[133.4059208,33.4462831],[133.4054129,33.4473832],[133.4063456,33.4460393],[133.4077708,33.4443607],[133.4085652,33.4435193],[133.40923,33.4430314],[133.4101736,33.4426164],[133.4112163,33.4423831],[133.4124162,33.4423357],[133.4131546,33.4424433],[133.4137458,33.4427701],[133.4139635,33.4429111],[133.4140501,33.4431176],[133.4140516,33.4434391],[133.4139381,33.4437447],[133.4144186,33.4430374],[133.4148285,33.4426572],[133.4161953,33.4418851],[133.4182136,33.4407355],[133.4207446,33.4392518],[133.421567,33.4386428],[133.4222504,33.4377948],[133.4226658,33.4370927],[133.4229552,33.4362308],[133.4230962,33.4354101],[133.4230798,33.4345999],[133.4229716,33.4342758],[133.4226532,33.4338279],[133.4230396,33.4340868],[133.4234725,33.4341521],[133.4245297,33.4336107],[133.4268591,33.4322722],[133.4288775,33.4310824],[133.4293901,33.4305878],[133.4294061,33.4303204],[133.4291181,33.4300798]],[[133.3685567,33.4144618],[133.3680778,33.4147581],[133.3677191,33.4150739],[133.367411,33.4155822],[133.3669715,33.416214],[133.3666068,33.4170051],[133.3663372,33.417774],[133.3661197,33.4186502],[133.366088,33.4200808],[133.3662352,33.4212626],[133.3662009,33.423187],[133.3660313,33.4242216],[133.3657368,33.4254033],[133.3653259,33.4268795],[133.3651667,33.4282418],[133.3653579,33.427548],[133.3656122,33.4271238],[133.3661268,33.4268394],[133.3667563,33.4267457],[133.3674804,33.4267258],[133.3694181,33.4268875],[133.3716261,33.4271606],[133.3729068,33.4269915],[133.374186,33.4267069],[133.3755347,33.426084],[133.3769045,33.4253267],[133.3777774,33.4245714],[133.3786828,33.423625],[133.379555,33.4223582],[133.3797823,33.4218771],[133.3799174,33.4212804],[133.3800315,33.4205157],[133.3800307,33.4197678],[133.3800987,33.4190114],[133.3803497,33.4182155],[133.3804261,33.4189506],[133.3806548,33.4199747],[133.3816479,33.4213518],[133.3829615,33.4223813],[133.3843872,33.4231033],[133.3936015,33.4255423],[133.3949253,33.4260219],[133.3961614,33.4261852],[133.3975556,33.4258963],[133.3989252,33.4251264],[133.3995142,33.4246159],[133.4000545,33.4238107],[133.4006469,33.4225928],[133.4014636,33.4205356]]]}}