{"type":"Feature","properties":{"id":"高亭_-_大蛟山","name":"高亭 - 大蛟山","operator":"","category":"ferry","attribution":"© OpenStreetMap contributors"},"geometry":{"type":"MultiLineString","coordinates":[[[122.2030828,30.2380865],[122.2024083,30.2375467],[122.1992111,30.2361563],[122.1949195,30.2357855],[122.1871948,30.236972],[122.1814012,30.2366754],[122.1775817,30.2349698],[122.1694278,30.2281103],[122.1559524,30.2195073],[122.1470689,30.2168744],[122.1413827,30.2162995],[122.139945,30.2165591],[122.1390438,30.2168141]]]}}