{"type":"Feature","properties":{"id":"高松-豊島(家浦港)フェリー","name":"高松-豊島(家浦港)フェリー","operator":"","category":"ferry","attribution":"© OpenStreetMap contributors"},"geometry":{"type":"MultiLineString","coordinates":[[[134.0601645,34.4896407],[134.0600829,34.4903045],[134.0596966,34.4908704],[134.0381531,34.4913303],[134.0373807,34.4904814],[134.0354066,34.4838666],[134.0347199,34.4811427],[134.034677,34.4789848],[134.0357928,34.4750933],[134.0391402,34.4635238],[134.0418439,34.4558453],[134.0445475,34.4478122],[134.0466933,34.4400615],[134.0492682,34.4311419],[134.050384,34.4250889],[134.0511136,34.4206992],[134.0523581,34.4162385],[134.055448,34.4137249],[134.0598683,34.4109987],[134.0614562,34.4094054],[134.0627844,34.4066791],[134.0624861,34.401722],[134.0612395,34.3967645],[134.0594821,34.3930817],[134.0554554,34.3642819],[134.0548043,34.3613593],[134.0542454,34.3597449],[134.0496477,34.3528455]]]}}