{"type":"Feature","properties":{"id":"高松発↔鬼ヶ島着↔男木島着_フェリー","name":"高松発↔鬼ヶ島着↔男木島着 フェリー","operator":"","category":"ferry","attribution":"© OpenStreetMap contributors"},"geometry":{"type":"MultiLineString","coordinates":[[[134.0496477,34.3528455],[134.0537889,34.3597992],[134.0543548,34.3613925],[134.054977,34.364335],[134.05322,34.3876511],[134.0532631,34.3884044]],[[134.052276,34.389105],[134.0525571,34.3892447],[134.0528423,34.3893422],[134.0530663,34.3893624],[134.0534981,34.3893557],[134.0540236,34.3893994],[134.0544717,34.389554],[134.0548587,34.3897591],[134.0550705,34.3898935],[134.0558689,34.3908818],[134.056814,34.392576],[134.0581664,34.395292],[134.0590789,34.3974298],[134.0594537,34.3988684],[134.0598936,34.4008448],[134.060301,34.4028211],[134.0606269,34.4050797],[134.0607246,34.4065988],[134.0604476,34.4083599],[134.0598121,34.4098386],[134.0587693,34.4112098],[134.0574332,34.4124465],[134.0558363,34.4138177],[134.0545817,34.415014],[134.0535552,34.4163314],[134.0527893,34.4175546],[134.0527567,34.4181998],[134.0529523,34.4189391],[134.0532619,34.4198128],[134.0534248,34.4203773],[134.0535552,34.4210628],[134.0537181,34.4213216],[134.0537996,34.4214795],[134.0538199,34.4216946],[134.0539122,34.4218701]]]}}