{"type":"Feature","properties":{"id":"鳥羽湾めぐり観光船","name":"鳥羽湾めぐり観光船","operator":"","category":"ferry","attribution":"© OpenStreetMap contributors"},"geometry":{"type":"MultiLineString","coordinates":[[[136.8453133,34.4840295],[136.845447,34.4840488],[136.8455828,34.4841048],[136.8457309,34.4841913],[136.8459285,34.4843694],[136.8464334,34.4854303],[136.8470401,34.4868515],[136.8475333,34.4880819],[136.8477995,34.4890784],[136.8481225,34.4904275],[136.8484281,34.4913665],[136.8484499,34.4918126],[136.848284,34.4922011],[136.8481313,34.4924457],[136.8477603,34.4926724],[136.8474154,34.4927083],[136.8471579,34.4926508],[136.8468611,34.4924349],[136.8467738,34.4921795],[136.8466734,34.4919205],[136.8465163,34.4916615],[136.8463592,34.4914996],[136.846202,34.4913701],[136.845879,34.4912693],[136.8461816,34.4914346],[136.8461728,34.4915425],[136.8461466,34.4916289],[136.8458149,34.4919167],[136.8454483,34.4921685],[136.8442523,34.4927729],[136.8429341,34.4931758],[136.8413366,34.4934708],[136.8405771,34.4939168],[136.8401668,34.4943917],[136.8400184,34.4947874],[136.839774,34.4978667],[136.8400359,34.5016006],[136.8402978,34.5049314],[136.8402454,34.505658],[136.8400272,34.5064205],[136.8397129,34.5072262],[136.8393812,34.5077226],[136.8387876,34.5082333],[136.8380543,34.5085211],[136.8374694,34.5086793],[136.8366925,34.5087513],[136.8359417,34.5087225],[136.8349727,34.5085211],[136.8343093,34.5082118],[136.8338466,34.5077873],[136.8335498,34.5070967],[136.8336633,34.5064205],[136.8339775,34.5056364],[136.8342482,34.5050105],[136.834366,34.5047408],[136.8344577,34.5045645],[136.8346017,34.5044386],[136.8347981,34.5044314],[136.8349989,34.504453],[136.8352521,34.504525],[136.8349989,34.5044099],[136.8347763,34.5043883],[136.8346323,34.5043883],[136.8344708,34.5044458],[136.8343966,34.5045286],[136.8342918,34.5047408],[136.834174,34.5049926],[136.8339208,34.5056508],[136.8336153,34.506399],[136.8334363,34.5068594],[136.8330086,34.507737],[136.8328383,34.5086038],[136.8328383,34.5096595],[136.8333815,34.5110226],[136.8340852,34.5120298],[136.8347519,34.512691],[136.8354309,34.5132607],[136.836221,34.5136167],[136.8370975,34.5137388],[136.839258,34.5136167],[136.8408259,34.5134641],[136.8427518,34.5131182],[136.8436901,34.512986],[136.8442209,34.5129962],[136.8449617,34.5130776],[136.8454925,34.5131589],[136.8460357,34.5131081],[136.8466283,34.5129758],[136.847011,34.5127622],[136.8472456,34.512457],[136.8473567,34.5119586],[136.8472332,34.5115008],[136.846974,34.5110328],[136.8462456,34.5102292],[136.8444308,34.5085608],[136.8437888,34.5080012],[136.8435419,34.5076146],[136.8435913,34.5072484],[136.8439246,34.506699],[136.8471098,34.5017444],[136.8492209,34.4993229],[136.8514925,34.4974305],[136.8528752,34.4957415],[136.8532208,34.4946833],[136.8531838,34.4936556],[136.8527394,34.4926584],[136.852332,34.4920886],[136.85169,34.491529],[136.85106,34.4910159],[136.8503404,34.4905685],[136.8499111,34.4902667],[136.8496081,34.4900794],[136.8492041,34.4898817],[136.848939,34.4896319],[136.8485224,34.4893093],[136.8482825,34.4888931],[136.8481815,34.4883208],[136.8480679,34.4876236],[136.8480048,34.4871345],[136.8478533,34.4866454],[136.8473735,34.4859378],[136.8466412,34.4850636],[136.8464493,34.4848342],[136.8462351,34.4846079],[136.8459873,34.4843614],[136.84584,34.4842271],[136.8457017,34.4841351],[136.8455633,34.4840597],[136.8454517,34.4840229],[136.8453892,34.4840155],[136.8453133,34.4840295]]]}}