{"type":"Feature","properties":{"id":"鷹島汽船_飛島-殿ノ浦","name":"鷹島汽船 飛島-殿ノ浦","operator":"","category":"ferry","attribution":"© OpenStreetMap contributors"},"geometry":{"type":"MultiLineString","coordinates":[[[129.776736,33.3962437],[129.7765861,33.3963223],[129.7763501,33.3960715],[129.776039,33.3959193],[129.7756098,33.3959103],[129.7748883,33.3959857],[129.7740236,33.3961265],[129.7736197,33.3962605],[129.7729491,33.3965552],[129.7717933,33.397202],[129.7708452,33.3984025],[129.7697394,33.4002828],[129.7665517,33.4065289],[129.7645107,33.4120699],[129.760933,33.4212728],[129.7600386,33.4228472],[129.7583962,33.4241095],[129.7579246,33.4246252],[129.7577132,33.4251817],[129.7575994,33.4266204],[129.7576281,33.4269153],[129.7577979,33.4273761]]]}}