{"type":"Feature","properties":{"id":"鷹島汽船_青島-船唐津","name":"鷹島汽船 青島-船唐津","operator":"","category":"ferry","attribution":"© OpenStreetMap contributors"},"geometry":{"type":"MultiLineString","coordinates":[[[129.6891436,33.4118105],[129.6898381,33.4114229],[129.6904603,33.4110109],[129.6910546,33.4109442],[129.6924794,33.4109003],[129.6937556,33.4109128],[129.6955163,33.4108056],[129.6984627,33.4102672],[129.7008536,33.4094339],[129.7027546,33.4090491],[129.7061679,33.4090676],[129.7094385,33.4096275],[129.7164863,33.4113076],[129.7193422,33.4117506],[129.7225992,33.4125354],[129.7236849,33.4128997],[129.7242781,33.4133482],[129.7248769,33.4133015],[129.7253582,33.413145],[129.7254177,33.4132977]]]}}