{"type":"Feature","properties":{"id":"鷹島汽船_今福港-飛島","name":"鷹島汽船 今福港-飛島","operator":"","category":"ferry","attribution":"© OpenStreetMap contributors"},"geometry":{"type":"MultiLineString","coordinates":[[[129.776736,33.3962437],[129.7765861,33.3963223],[129.7763501,33.3960715],[129.776039,33.3959193],[129.7756098,33.3959103],[129.7748883,33.3959857],[129.7740236,33.3961265],[129.7735046,33.3959895],[129.772594,33.395623],[129.7718297,33.3951953],[129.7703769,33.394015],[129.7692464,33.3925686],[129.7682739,33.3905475],[129.767271,33.3861385],[129.7659233,33.3810439],[129.7650844,33.3755885],[129.7652491,33.3691579],[129.7661183,33.3586001],[129.7657443,33.3561552],[129.7655167,33.3556255],[129.7651101,33.3553402],[129.7645247,33.3550006],[129.7642211,33.3545641],[129.7641547,33.3543379],[129.7642444,33.3543256]]]}}