{"type":"Feature","properties":{"id":"鷹島汽船_黒島-阿翁","name":"鷹島汽船 黒島-阿翁","operator":"","category":"ferry","attribution":"© OpenStreetMap contributors"},"geometry":{"type":"MultiLineString","coordinates":[[[129.7588263,33.4549657],[129.7580302,33.4549774],[129.7578585,33.4549685],[129.7571504,33.4547358],[129.7563136,33.4543508],[129.7553158,33.4541271],[129.753803,33.4540017],[129.7524297,33.4538048],[129.7510135,33.4535273],[129.7481918,33.4523547],[129.7458315,33.4515848],[129.7439003,33.4513879],[129.7401023,33.4511731],[129.7352313,33.4519967],[129.7306555,33.4536168],[129.7285044,33.4537824],[129.7276756,33.4538026],[129.7273564,33.4538988],[129.7268575,33.4541517],[129.7266523,33.4543783]]]}}