{"type":"Feature","properties":{"id":"鷹島汽船_御厨港-青島","name":"鷹島汽船 御厨港-青島","operator":"","category":"ferry","attribution":"© OpenStreetMap contributors"},"geometry":{"type":"MultiLineString","coordinates":[[[129.6891436,33.4118105],[129.6898381,33.4114229],[129.6904603,33.4110109],[129.6905784,33.4108676],[129.6907178,33.4101511],[129.6908895,33.4096944],[129.6910826,33.4093361],[129.6915252,33.4084253],[129.6915689,33.4083354],[129.6928872,33.4058971],[129.6938717,33.4039187],[129.6951388,33.4005712],[129.6960032,33.3969352],[129.6966277,33.3928296],[129.6969373,33.3893411],[129.6964919,33.3858485],[129.6956612,33.3819874],[129.6942493,33.3779453],[129.6923098,33.3743396],[129.6888246,33.369852],[129.6858161,33.3673123],[129.681832,33.3652343],[129.6776364,33.3645145],[129.6741726,33.3647047],[129.6722537,33.3658455],[129.6696275,33.36711],[129.6697092,33.3672438]]]}}