{"type":"Feature","properties":{"id":"鹿児島市_行政連絡船(しんじま丸)","name":"行政連絡船(しんじま丸)","operator":"鹿児島市","category":"ferry","attribution":"© OpenStreetMap contributors"},"geometry":{"type":"MultiLineString","coordinates":[[[130.7089092,31.6079782],[130.7091508,31.6082351],[130.7094902,31.6087296],[130.7096665,31.6091504],[130.7098833,31.6095515],[130.710291,31.6099718],[130.711793,31.6111048],[130.7125869,31.6116896],[130.7137435,31.6124214],[130.7147563,31.6130884],[130.7158142,31.6138705],[130.7164997,31.6146526],[130.7169407,31.6152538],[130.7174793,31.6160935],[130.7181015,31.6168061],[130.7188311,31.6174822],[130.7194319,31.617939],[130.7198825,31.6181765],[130.7202881,31.6182862],[130.7207194,31.6183775],[130.7210252,31.6185009],[130.7211383,31.618719],[130.7212433,31.6187263]]]}}