{"type":"Feature","properties":{"id":"鹿児島市船舶局_桜島フェリー","name":"桜島フェリー","operator":"鹿児島市船舶局","category":"ferry","attribution":"© OpenStreetMap contributors"},"geometry":{"type":"MultiLineString","coordinates":[[[130.563216,31.5968024],[130.5633528,31.5968856],[130.5639268,31.5972348],[130.5657818,31.597668],[130.5690541,31.5980929],[130.571908,31.5982757],[130.5797829,31.5982574],[130.5873789,31.5978005],[130.5907478,31.5971983],[130.5927434,31.5963941],[130.5943312,31.5955351],[130.598494,31.592958],[130.5990348,31.5925688],[130.5992861,31.592388]]]}}