{"type":"Feature","properties":{"id":"黄島海運_福江～赤島・黄島","name":"福江～赤島・黄島","operator":"黄島海運","category":"ferry","attribution":"© OpenStreetMap contributors"},"geometry":{"type":"MultiLineString","coordinates":[[[128.8524194,32.697763],[128.8555035,32.701622],[128.859237,32.7038028],[128.863348,32.7046668],[128.8674801,32.7033793],[128.9038288,32.6610221],[128.9168,32.600304],[128.9180552,32.5989573],[128.9199901,32.5971735],[128.9211279,32.596591]],[[128.9211279,32.596591],[128.9199686,32.5970877],[128.9180258,32.5988194],[128.9134016,32.5986477],[128.9117708,32.5961891],[128.9112558,32.5911995],[128.9102259,32.5857757],[128.9048185,32.5794113],[128.9029303,32.5747824],[128.9024904,32.5738783],[128.9022758,32.5728114],[128.9022758,32.57141],[128.9025548,32.5707952],[128.9032012,32.5705918],[128.9043679,32.5705499],[128.9045821,32.5706068],[128.9045721,32.5706359]]]}}