{"type":"Feature","properties":{"id":"黄龙_-_嵊山箱子岙","name":"黄龙 - 嵊山箱子岙","operator":"","category":"ferry","attribution":"© OpenStreetMap contributors"},"geometry":{"type":"MultiLineString","coordinates":[[[122.8053501,30.72664],[122.8047561,30.7268572],[122.8014714,30.7291489],[122.7991784,30.7329996],[122.7925756,30.7385199],[122.7819388,30.7425983],[122.7550982,30.7469824],[122.7182553,30.7499238],[122.7111743,30.7488542],[122.6846848,30.7394765],[122.6724754,30.73517],[122.635536,30.7264826],[122.6220499,30.720875],[122.5993262,30.7114392],[122.5852392,30.7052496],[122.568631,30.6968271],[122.5566362,30.6880163],[122.5529991,30.6845103],[122.5476561,30.6782175],[122.5463043,30.6763536],[122.5454092,30.6750326],[122.5450229,30.6741467],[122.5450597,30.6727917],[122.5465872,30.6684642]]]}}