{"type":"Feature","properties":{"id":"가력도_-_비안도","name":"가력도 - 비안도","operator":"","category":"ferry","attribution":"© OpenStreetMap contributors"},"geometry":{"type":"MultiLineString","coordinates":[[[126.5314886,35.7264795],[126.5313076,35.7254589],[126.5319345,35.7247369],[126.5321061,35.7239879],[126.5320417,35.7231343],[126.5315268,35.7222807],[126.5306255,35.721549],[126.5295312,35.7211135],[126.5281794,35.7210089],[126.5257546,35.7210089],[126.5196607,35.721758],[126.5092537,35.7242492],[126.4994475,35.7275241],[126.488826,35.7302415],[126.4742991,35.7330632],[126.4623607,35.7351077]]]}}