{"type":"Feature","properties":{"id":"가오치_-_사량도","name":"가오치 - 사량도","operator":"","category":"ferry","attribution":"© OpenStreetMap contributors"},"geometry":{"type":"MultiLineString","coordinates":[[[128.314002,34.9088096],[128.3141493,34.9094855],[128.3139243,34.9102381],[128.3136163,34.9107242],[128.3131152,34.9110796],[128.3123298,34.9113906],[128.3112057,34.9116904],[128.309689,34.9118015],[128.3085108,34.9116571],[128.3009541,34.9084254],[128.2969232,34.9063452],[128.291801,34.8986245],[128.291801,34.891831],[128.2908979,34.888754],[128.2891355,34.8870467],[128.2445727,34.8534534],[128.2335434,34.8444198],[128.2316403,34.842705],[128.2306214,34.8421191],[128.2288201,34.841531],[128.2278074,34.8413681],[128.2268188,34.8413681],[128.2257887,34.8414408],[128.2249939,34.8416658],[128.2245398,34.8419249],[128.2241715,34.8422999],[128.2239694,34.8427908],[128.2238725,34.8432749],[128.2239558,34.8437643]]]}}