{"type":"Feature","properties":{"id":"가사도-소성남도","name":"가사도-소성남도","operator":"","category":"ferry","attribution":"© OpenStreetMap contributors"},"geometry":{"type":"MultiLineString","coordinates":[[[126.0522571,34.4699808],[126.0524135,34.4698906],[126.053167,34.4697743],[126.0538582,34.469705],[126.0547735,34.4695356],[126.0551284,34.4693431],[126.0556514,34.4690274],[126.0561838,34.4684191],[126.0565201,34.4674796],[126.0568189,34.4667558],[126.0569123,34.4658164],[126.0569449,34.4644622],[126.0569123,34.4627997],[126.0570587,34.4611505],[126.0566359,34.4602119],[126.0560667,34.4588577],[126.0555138,34.4580666],[126.0551723,34.4576509],[126.0544731,34.4568598],[126.0531721,34.4558139],[126.0517573,34.4546339],[126.046057,34.4489266],[126.0433425,34.4461626],[126.0411465,34.4434803],[126.0399786,34.44008],[126.0391404,34.4369145],[126.0389416,34.4331894],[126.0391331,34.4285025],[126.0388343,34.4245034],[126.0388618,34.4212294],[126.03883,34.4178819],[126.0386537,34.414309],[126.0386213,34.411109],[126.0383396,34.4087539],[126.0381574,34.4060143],[126.0374169,34.4033096],[126.0373198,34.4016229],[126.0373743,34.4010523],[126.0373134,34.4007873],[126.0366954,34.4004552],[126.0361268,34.4000945]]]}}