{"type":"Feature","properties":{"id":"강릉항-울릉도(저동항)","name":"강릉항-울릉도(저동항)","operator":"","category":"ferry","attribution":"© OpenStreetMap contributors"},"geometry":{"type":"MultiLineString","coordinates":[[[130.9108784,37.4962956],[130.9131335,37.4969125],[130.913986,37.497083],[130.9145123,37.4970603],[130.9151753,37.4969544],[130.9157188,37.4967258],[130.916364,37.4963792],[130.9169874,37.4959114],[130.9179672,37.4949539],[130.9192243,37.4936828],[130.9201363,37.4927734],[130.9212208,37.4916195],[130.9220219,37.4904168],[130.9223916,37.4894095],[130.9226134,37.4883436],[130.922712,37.4869746],[130.9225199,37.485293],[130.9221943,37.4841584],[130.921713,37.4830575],[130.9207928,37.481833],[130.9198585,37.4806871],[130.918159,37.4785315],[130.9161011,37.4760554],[130.9106717,37.4695877],[130.9056532,37.4622125],[130.9005437,37.4566357],[130.8951086,37.4526253],[130.8798639,37.4488243],[130.875194,37.4486985],[128.9588769,37.7697973],[128.9581911,37.7699446],[128.9574975,37.7700781],[128.9571188,37.7701872],[128.9567897,37.7702851],[128.956503,37.7704278],[128.9562981,37.7705878],[128.9559191,37.771031],[128.9556973,37.7712965],[128.955457,37.7714816],[128.9551462,37.7716493],[128.9532819,37.7725216],[128.952811,37.7726096]]]}}