{"type":"Feature","properties":{"id":"개도_-_능산도","name":"개도 - 능산도","operator":"","category":"ferry","attribution":"© OpenStreetMap contributors"},"geometry":{"type":"MultiLineString","coordinates":[[[126.0114203,34.6373506],[126.0113178,34.6361771],[126.0111227,34.6354413],[126.0106023,34.6345715],[126.0080167,34.6317483],[126.0076589,34.6306511],[126.0076589,34.6290989],[126.0080329,34.6275199],[126.0115943,34.6207621],[126.012196,34.619116],[126.0124562,34.6176573],[126.0124237,34.6164394],[126.0122041,34.615603],[126.011765,34.6149539],[126.0111959,34.6146862],[126.0104966,34.6145524],[126.0098415,34.6145878]]]}}