{"type":"Feature","properties":{"id":"격포항_-_위도","name":"격포항 - 위도","operator":"","category":"ferry","attribution":"© OpenStreetMap contributors"},"geometry":{"type":"MultiLineString","coordinates":[[[126.4694303,35.6206706],[126.4682258,35.6206385],[126.4670863,35.6206841],[126.4660402,35.6208207],[126.4649008,35.62117],[126.4642656,35.6213522],[126.4634811,35.6214585],[126.4626031,35.621504],[126.4618933,35.6214129],[126.4609219,35.6211092],[126.460156,35.6209422],[126.4587364,35.6208663],[126.4574856,35.6209027],[126.4553183,35.6210772],[126.4218229,35.6260307],[126.4048713,35.6275307],[126.3831991,35.6290655],[126.3713545,35.6296934],[126.368522,35.6297108],[126.3602394,35.6292225],[126.336872,35.6276353],[126.3288039,35.6268505],[126.3248771,35.6264668],[126.3187188,35.6256993],[126.3101357,35.6243214],[126.3056725,35.6233621],[126.3037628,35.6228563],[126.3029474,35.6226644],[126.3020486,35.6223696],[126.3013014,35.6220659],[126.300741,35.6217166],[126.3005916,35.6215344],[126.3005355,35.6212307],[126.3005729,35.6208207],[126.3006736,35.6193545],[126.300819,35.6183495]]]}}