{"type":"Feature","properties":{"id":"계마항-송이도-대석만도","name":"계마항-송이도-대석만도","operator":"","category":"ferry","attribution":"© OpenStreetMap contributors"},"geometry":{"type":"MultiLineString","coordinates":[[[126.4068793,35.3896001],[126.4041944,35.3897587],[126.4022983,35.3894009],[126.4004117,35.3888222],[126.3980953,35.3873298],[126.395312,35.3851063],[126.3934067,35.3832026],[126.3918189,35.3812075],[126.3905299,35.3789229],[126.3890271,35.3768039],[126.3837915,35.3734272],[126.3653461,35.3634153],[126.3610795,35.3583873],[126.3568391,35.3557535],[126.3501188,35.3538093],[126.3425549,35.3505233],[126.3365008,35.3472119],[126.3306214,35.3428434],[126.3206089,35.3394454],[126.3014993,35.335712],[126.291356,35.3338071],[126.2837719,35.3321308],[126.2764307,35.3301497],[126.2683983,35.3278942],[126.261468,35.3252119],[126.253473,35.3233372],[126.2470097,35.3202737],[126.2406959,35.3174997],[126.2333173,35.3145274],[126.2263683,35.3112654],[126.2199611,35.3079423],[126.2138528,35.3052136],[126.2070453,35.3015497],[126.20386,35.3002441],[126.2007455,35.2985688],[126.1981265,35.2969974],[126.1953376,35.2952873],[126.1915779,35.2922936],[126.1891638,35.2902314],[126.1862546,35.288722],[126.1814664,35.2855742],[126.1756798,35.2824966],[126.1704676,35.279224],[126.1649744,35.2771219],[126.1612622,35.2756855],[126.1565844,35.2737936],[126.1524612,35.2723266],[126.1518126,35.2720853],[126.1512312,35.2720455],[126.1505726,35.2721086],[126.1500604,35.2722546],[126.1493806,35.2729141],[126.1492351,35.2730844],[126.1490966,35.2733518]],[[126.1490966,35.2733518],[126.1491858,35.2730931],[126.1493259,35.2728567],[126.1500031,35.2722009],[126.1505635,35.2720065],[126.1511986,35.2718654],[126.1514321,35.2715566],[126.1515862,35.2711677],[126.151563,35.2708547],[126.1513435,35.2701577],[126.151002,35.26962],[126.1503597,35.2692549],[126.1488229,35.2690092],[126.1474488,35.2690092],[126.1448088,35.2689282],[126.1411336,35.2691804],[126.1380114,35.2699372],[126.1359949,35.2715835],[126.1329702,35.2745574],[126.1313928,35.2762833],[126.1283355,35.2798013],[126.125506,35.2831201],[126.122774,35.286505],[126.1201558,35.289943],[126.117993,35.2929029],[126.114724,35.2969435],[126.1107973,35.3014793],[126.1069778,35.3061899],[126.1019352,35.3117232],[126.0980729,35.3163632],[126.093674,35.3214231],[126.0883316,35.3292814],[126.0855669,35.3337618],[126.0810651,35.3410762],[126.0773104,35.3466378],[126.0746952,35.3514981],[126.0745053,35.3563627],[126.0723583,35.3606382],[126.0677099,35.3656583],[126.0660292,35.367198],[126.0646023,35.368589],[126.0631217,35.3700763],[126.0611047,35.3709599],[126.0580899,35.3716686],[126.055751,35.3719048],[126.0555692,35.3719961],[126.0555082,35.3721154],[126.0555163,35.3722513],[126.0555321,35.3725952]]]}}