{"type":"Feature","properties":{"id":"고대도_~_안면도","name":"고대도 ~ 안면도","operator":"","category":"ferry","attribution":"© OpenStreetMap contributors"},"geometry":{"type":"MultiLineString","coordinates":[[[126.3726222,36.3900577],[126.3750433,36.3903715],[126.379172,36.3908447],[126.3859664,36.3919684],[126.3906529,36.392225],[126.3964025,36.3923129],[126.4171546,36.3931912],[126.4214131,36.3934409],[126.4241369,36.3939842],[126.4253485,36.3944815],[126.4264096,36.395136],[126.4269625,36.3960654],[126.4280439,36.3993208],[126.4279467,36.3995465]]]}}