{"type":"Feature","properties":{"id":"곽도-맹골도","name":"곽도-맹골도","operator":"","category":"ferry","attribution":"© OpenStreetMap contributors"},"geometry":{"type":"MultiLineString","coordinates":[[[125.8533923,34.2166785],[125.8520793,34.2179771],[125.8521223,34.2185804],[125.8525943,34.2194321],[125.8535814,34.219574],[125.8545255,34.2196095],[125.8555126,34.2192547],[125.856328,34.2190417],[125.8574438,34.2185804],[125.8591175,34.2178352],[125.8610057,34.2167351],[125.8629798,34.2153511],[125.8662414,34.2133637],[125.8676147,34.2104891],[125.868473,34.2085726],[125.8689022,34.2073304],[125.8689451,34.2061947],[125.8673143,34.204562],[125.8661985,34.2031068],[125.8638811,34.2022195],[125.8615207,34.2019],[125.8592033,34.2014386],[125.8577442,34.200853],[125.8569288,34.2004093],[125.8565855,34.1997881],[125.8569865,34.1985214]]]}}