{"type":"Feature","properties":{"id":"관리도_-_방축도","name":"관리도 - 방축도","operator":"","category":"ferry","attribution":"© OpenStreetMap contributors"},"geometry":{"type":"MultiLineString","coordinates":[[[126.3753449,35.8175317],[126.3756398,35.8172522],[126.3759026,35.8171],[126.3762406,35.8170173],[126.3767931,35.8169173],[126.3775656,35.8169956],[126.3783112,35.8172261],[126.3790891,35.8179091],[126.3798615,35.8192836],[126.3801405,35.8212845],[126.3802478,35.8239465],[126.3801376,35.8405982],[126.3800664,35.8440548],[126.3797677,35.8455681],[126.3793691,35.8465624],[126.3789829,35.8471463],[126.378529,35.8475507]]]}}