{"type":"Feature","properties":{"id":"관리도_-_말도","name":"관리도 - 말도","operator":"","category":"ferry","attribution":"© OpenStreetMap contributors"},"geometry":{"type":"MultiLineString","coordinates":[[[126.3186979,35.8555468],[126.3181018,35.8557244],[126.3178049,35.8557463],[126.3175134,35.8557332],[126.3172435,35.8556763],[126.3170222,35.8555625],[126.3168333,35.8553788],[126.3167145,35.8551731],[126.3166659,35.8549938],[126.3166497,35.85474],[126.3167037,35.8544906],[126.316871,35.8541056],[126.317713,35.8527316],[126.3199875,35.8500184],[126.3264463,35.8445048],[126.3398573,35.8360509],[126.3502244,35.830461],[126.3593409,35.8266915],[126.3660786,35.8248647],[126.3738892,35.8235599],[126.3749536,35.8233269],[126.3759304,35.8229481],[126.3767656,35.8224201],[126.3775726,35.821674],[126.3782946,35.8207327],[126.3786626,35.8198488],[126.3788184,35.8189305],[126.3787476,35.8182647],[126.3784928,35.8177366],[126.3779831,35.8173004],[126.3773177,35.8171052],[126.3766807,35.8170363],[126.3760012,35.8171511],[126.3756587,35.8172904],[126.3753449,35.8175317]]]}}