{"type":"Feature","properties":{"id":"광대도-송도","name":"광대도-송도","operator":"","category":"ferry","attribution":"© OpenStreetMap contributors"},"geometry":{"type":"MultiLineString","coordinates":[[[126.1030763,34.5292342],[126.102976,34.52965],[126.1023524,34.5309958],[126.1008881,34.5320647],[126.0987493,34.5325494],[126.0959099,34.5325648],[126.09421,34.5320108],[126.0916322,34.5303796],[126.0909877,34.5286483],[126.0921272,34.5263707],[126.0949479,34.5243392],[126.0979554,34.5235851],[126.1004211,34.5227232],[126.1018035,34.5217998],[126.1028682,34.5197836],[126.102588,34.5179058],[126.1012057,34.5169977],[126.099319,34.5166745],[126.0973763,34.5166591],[126.0963863,34.5170285],[126.0966077,34.5181805]]]}}