{"type":"Feature","properties":{"id":"구도항_-_고파도","name":"구도항 - 고파도","operator":"","category":"ferry","attribution":"© OpenStreetMap contributors"},"geometry":{"type":"MultiLineString","coordinates":[[[126.3400883,36.912447],[126.3402022,36.9125485],[126.3403162,36.9126504],[126.3404182,36.9127297],[126.3405429,36.9128176],[126.3406864,36.9129034],[126.340858,36.9129871],[126.3410203,36.9130482],[126.3412215,36.9131093],[126.3414642,36.9131651],[126.3417526,36.9132069],[126.341998,36.9132315],[126.3422327,36.9132498],[126.3425482,36.9132578],[126.3428653,36.9132546],[126.3432393,36.9132335],[126.3435442,36.9131896],[126.3438064,36.913136],[126.3440469,36.9130792],[126.3445121,36.9129462],[126.3449404,36.9127787],[126.3454026,36.9125496],[126.3458339,36.912318],[126.3463762,36.911946],[126.3467551,36.9116529],[126.3471738,36.911293],[126.3477478,36.9106582],[126.3485578,36.9096288],[126.3495232,36.9080691],[126.3499055,36.9074748],[126.3502452,36.9068607],[126.3505461,36.9061843],[126.3506876,36.905839],[126.3507832,36.9053608],[126.3508575,36.9048712],[126.3508787,36.90439],[126.3508858,36.9039995],[126.3508717,36.9036118],[126.350815,36.9031561],[126.3507301,36.9026467],[126.3506239,36.902225],[126.3504505,36.9016561],[126.3502169,36.901059],[126.3500254,36.9006295],[126.3497234,36.9000135],[126.3493475,36.8993631],[126.3490019,36.8988531],[126.3395555,36.8863493],[126.3382251,36.8842726],[126.335779,36.8810803],[126.3321097,36.8766519],[126.3249334,36.869517],[126.3222173,36.8665318],[126.3204007,36.8644081],[126.3180002,36.862399],[126.3139787,36.8590805],[126.3127329,36.8577213],[126.3117761,36.8565234],[126.310832,36.8550469],[126.3100166,36.8534329],[126.3095874,36.8521967],[126.3092441,36.8508402],[126.3090939,36.8495696],[126.3090103,36.8484144],[126.3089513,36.8475],[126.3089298,36.8469505],[126.3089191,36.8463281],[126.3089137,36.8456627],[126.3089406,36.8451132],[126.3090096,36.8445614],[126.3091204,36.8441277],[126.3092805,36.8436891],[126.3094714,36.8432899],[126.3097363,36.8428759],[126.3100873,36.8424176],[126.3104445,36.8420775],[126.3107709,36.8417867],[126.3111588,36.8415058],[126.3115407,36.8413037],[126.3120087,36.8411115],[126.3126738,36.8408897],[126.3132527,36.8407074],[126.3137885,36.8405644],[126.3148426,36.840354],[126.3159357,36.840122],[126.3164238,36.8399521],[126.3167563,36.8397483],[126.3170464,36.8395218],[126.3175557,36.8390519],[126.3180792,36.8385424],[126.318447,36.8381064],[126.3187088,36.8377328],[126.3188998,36.8373478],[126.3190625,36.8368892],[126.3191686,36.8365042],[126.3192605,36.8359833],[126.3193525,36.8350378],[126.3194303,36.8338091],[126.3195577,36.8329315],[126.319777,36.8320426],[126.3200741,36.8312272],[126.3203783,36.830695],[126.3214922,36.8290919],[126.3217888,36.8287504],[126.3220813,36.8284675],[126.3223698,36.8282528],[126.3234348,36.8275942]]]}}