{"type":"Feature","properties":{"id":"군산항_-_연도","name":"군산항 - 연도","operator":"","category":"ferry","attribution":"© OpenStreetMap contributors"},"geometry":{"type":"MultiLineString","coordinates":[[[126.445073,36.0816522],[126.4461501,36.0814515],[126.4486907,36.080978],[126.4526174,36.0799375],[126.4569733,36.0780992],[126.4626167,36.0751336],[126.4667795,36.0722893],[126.4704917,36.0685083],[126.4737318,36.0628711],[126.4759419,36.0561754],[126.4765856,36.0475013],[126.4770792,36.0351477],[126.4790962,36.022879],[126.4823363,36.0130036],[126.4853551,36.0015148],[126.4874823,35.9909924],[126.4889453,35.9795326],[126.4890955,35.9786992],[126.489589,35.978022],[126.4905975,35.9774663],[126.4930222,35.9769106],[126.4975498,35.9765286],[126.5439176,35.9789786],[126.6183007,35.982625],[126.6206503,35.9823993],[126.6239011,35.9817047],[126.6252637,35.9811491],[126.6272968,35.9803156],[126.6280264,35.9797904],[126.6283321,35.979506],[126.6284341,35.979302],[126.6284341,35.9791392],[126.6283536,35.9789482],[126.6281819,35.9788375],[126.6280505,35.9787789],[126.6276524,35.9786962]]]}}