{"type":"Feature","properties":{"id":"기도_-_막금도","name":"기도 - 막금도","operator":"","category":"ferry","attribution":"© OpenStreetMap contributors"},"geometry":{"type":"MultiLineString","coordinates":[[[126.1259983,34.6212836],[126.1260903,34.6213684],[126.1261542,34.6214569],[126.1261677,34.6215842],[126.1261441,34.6217447],[126.1260701,34.6218997],[126.1256027,34.6225944],[126.1251135,34.6231773],[126.1244,34.6238483],[126.1223155,34.6254168],[126.1218772,34.6258907],[126.1201699,34.6282266],[126.1194411,34.6289689],[126.1187174,34.629535],[126.1176303,34.6300298],[126.1164785,34.6302982],[126.093779,34.6332253],[126.0921074,34.6336362],[126.0902625,34.634282],[126.088652,34.6346845],[126.0872116,34.6349467],[126.0861666,34.6352172]]]}}