{"type":"Feature","properties":{"id":"남해고속_아리온제주(녹동신항_-_제주항)_Goheung(Nokdong)_-_Jeju","name":"아리온제주(녹동신항 - 제주항) / Goheung(Nokdong) - Jeju","operator":"남해고속","category":"ferry","attribution":"© OpenStreetMap contributors"},"geometry":{"type":"MultiLineString","coordinates":[[[127.1436311,34.5228975],[127.1438471,34.5213775],[127.1438983,34.5210723],[127.1439111,34.5208435],[127.1439008,34.5206243],[127.1438138,34.519951],[127.1433858,34.5175657],[127.1428494,34.5150197],[127.1423344,34.5123322],[127.1416048,34.5096447],[127.1409182,34.5081771],[127.1402101,34.5069747],[127.1392874,34.5056838],[127.1383433,34.5047113],[127.1363477,34.5031729],[127.1337728,34.5019174],[127.1266918,34.4990526],[127.1246962,34.4983099],[127.1229367,34.497744],[127.1186022,34.4965768],[127.1046547,34.4936588],[127.0930032,34.4906523],[127.0875075,34.4891187],[127.0837954,34.4878806],[127.0805767,34.4865188],[127.0739248,34.4834589],[127.068539,34.4814779],[127.0529607,34.4773035],[127.0251086,34.4699978],[127.0227268,34.4689186],[127.0169118,34.4654689],[127.0133498,34.4632221],[127.0068696,34.4586576],[127.0042089,34.4566052],[127.0015481,34.454022],[126.9997457,34.4520757],[126.9952181,34.4458825],[126.9933727,34.4423965],[126.9783524,34.4081122],[126.9750693,34.4016503],[126.9724086,34.3960908],[126.9693401,34.3889728],[126.9670871,34.3834479],[126.9653919,34.3780466],[126.9624522,34.3704311],[126.9587186,34.3614865],[126.9536117,34.350415],[126.9523242,34.3475273],[126.9473889,34.3328748],[126.9460157,34.3286753],[126.9450286,34.3255565],[126.9438699,34.3206122],[126.9435266,34.3175818],[126.9431618,34.3110242],[126.9417456,34.2904266],[126.940265,34.271739],[126.9400504,34.2645395],[126.9409087,34.2462719],[126.9448522,34.1491451],[126.9444922,34.1461731],[126.9434843,34.1427822],[126.9417477,34.1393429],[126.9391281,34.1351894],[126.8639541,34.0201451],[126.5427494,33.5326136],[126.5408056,33.5303032],[126.5400443,33.5293821],[126.5399003,33.5284995],[126.5402536,33.5276411],[126.543017,33.5258692]]]}}