{"type":"Feature","properties":{"id":"낭도_-_둔병도","name":"낭도 - 둔병도","operator":"","category":"ferry","attribution":"© OpenStreetMap contributors"},"geometry":{"type":"MultiLineString","coordinates":[[[127.5329581,34.627569],[127.532835,34.6276487],[127.5325131,34.627631],[127.5320947,34.6275516],[127.5317192,34.6274103],[127.5311381,34.6268994],[127.5302798,34.625893],[127.5295932,34.6244098],[127.5284345,34.6216905],[127.5275547,34.6202955],[127.5265462,34.6194656],[127.5245721,34.6181765],[127.5225336,34.6173289],[127.5205809,34.6162517],[127.5193579,34.615351],[127.5186712,34.6144504],[127.5178344,34.6125608],[127.5177485,34.611148],[127.5178987,34.609382],[127.518521,34.607298],[127.5195939,34.6049844],[127.5207097,34.6034831],[127.5219359,34.6022379],[127.5227267,34.6017169],[127.5241,34.6011341],[127.5266749,34.6004982],[127.5284988,34.6003216],[127.5298936,34.6003569],[127.5313956,34.6005159],[127.5326616,34.6007278],[127.5338418,34.6010281],[127.5344855,34.60124],[127.5348503,34.6015226],[127.5351078,34.6022291],[127.535258,34.6029003],[127.5355584,34.603748],[127.536009,34.6045605],[127.536288,34.604949],[127.5367815,34.6052669],[127.5375819,34.6054509],[127.5378927,34.6055994]]]}}