{"type":"Feature","properties":{"id":"노력_-_가학","name":"노력 - 가학","operator":"","category":"ferry","attribution":"© OpenStreetMap contributors"},"geometry":{"type":"MultiLineString","coordinates":[[[127.0226812,34.4540232],[127.0220262,34.454095],[127.0214865,34.4544891],[127.0211825,34.4552819],[127.0211426,34.4562686],[127.0214277,34.4573098],[127.0217143,34.4580902],[127.0216831,34.4586682],[127.0214051,34.4592637],[127.0182488,34.4629038],[127.0170534,34.4636581],[127.0150429,34.4641771],[127.0124997,34.4647629],[127.0094259,34.4655783],[127.0070636,34.4664935],[127.0052281,34.4672125],[127.0035127,34.4676508],[127.0013876,34.467731],[126.9977836,34.4673558],[126.993569,34.4670779],[126.9869047,34.4669564],[126.9790378,34.4669356],[126.969065,34.4666489],[126.9673561,34.4664095],[126.9667523,34.466055],[126.9661879,34.4657813],[126.9656223,34.4653918]]]}}