{"type":"Feature","properties":{"id":"노력(연안)_-_금일","name":"노력(연안) - 금일","operator":"","category":"ferry","attribution":"© OpenStreetMap contributors"},"geometry":{"type":"MultiLineString","coordinates":[[[127.0106835,34.3693898],[127.0097455,34.3715411],[127.007659,34.3760991],[127.0028263,34.3882296],[126.9941474,34.4122528],[126.9754677,34.458782],[126.9742017,34.4614889],[126.9727641,34.4642842],[126.9721096,34.4650361],[126.97138,34.4655579],[126.9703715,34.4658764],[126.969245,34.4659383],[126.9682472,34.465956],[126.9676169,34.465883],[126.9671848,34.4657169],[126.9656223,34.4653918]]]}}