{"type":"Feature","properties":{"id":"노화도(동천항)_-_소안항","name":"노화도(동천항) - 소안항","operator":"","category":"ferry","attribution":"© OpenStreetMap contributors"},"geometry":{"type":"MultiLineString","coordinates":[[[126.6246552,34.202223],[126.6253656,34.2018401],[126.6262239,34.2013077],[126.6280263,34.2001542],[126.6289766,34.1994337],[126.6293933,34.1990442],[126.6297035,34.1987255],[126.6300058,34.1983693],[126.6304191,34.1977862],[126.630861,34.1971268],[126.6312235,34.1964272],[126.6314194,34.1959332],[126.6315438,34.1953113],[126.6315454,34.1946524],[126.6312879,34.1930018],[126.6308373,34.1910139],[126.6298073,34.1875705],[126.6295927,34.186612],[126.6295713,34.1857067],[126.6297215,34.1848902],[126.6301292,34.1838607],[126.6308373,34.1826536],[126.631717,34.1816063],[126.6324251,34.1809052],[126.6333907,34.180204],[126.6343939,34.1795954]]]}}