{"type":"Feature","properties":{"id":"노화도(이목)_-_소안항","name":"노화도(이목) - 소안항","operator":"","category":"ferry","attribution":"© OpenStreetMap contributors"},"geometry":{"type":"MultiLineString","coordinates":[[[126.5731254,34.1756356],[126.5729148,34.1751029],[126.5728823,34.1745109],[126.5730124,34.173744],[126.5733051,34.1729906],[126.573858,34.1723448],[126.574606,34.1718066],[126.5756305,34.1715106],[126.5769152,34.1713492],[126.5785902,34.1713761],[126.5827207,34.171847],[126.5842656,34.1719681],[126.5856478,34.1719008],[126.5893718,34.1711204],[126.5921201,34.1707168],[126.5964945,34.1704881],[126.6047555,34.170071],[126.6127564,34.1701652],[126.6175536,34.1706899],[126.6237494,34.1722372],[126.6260423,34.1732731],[126.6276848,34.1745782],[126.6318316,34.1785335],[126.632726,34.1792197],[126.6334903,34.1795291],[126.6343939,34.1795954]]]}}