{"type":"Feature","properties":{"id":"녹동신항-초도(대동)","name":"녹동신항-초도(대동)","operator":"","category":"ferry","attribution":"© OpenStreetMap contributors"},"geometry":{"type":"MultiLineString","coordinates":[[[127.2441499,34.2417035],[127.2439552,34.2417146],[127.2436754,34.2417022],[127.2427932,34.2415779],[127.2418622,34.2412821],[127.2402685,34.2405293],[127.2398132,34.2403579],[127.2391139,34.2401663],[127.2387033,34.2401125],[127.2377743,34.2401227],[127.2360362,34.2403178],[127.2354084,34.2404708],[127.2347917,34.2407613],[127.2331824,34.241861],[127.2308864,34.2440606],[127.2291698,34.2462246],[127.2281184,34.2481579],[127.2225179,34.2581079],[127.2197928,34.2647759],[127.217883,34.2688723],[127.2161664,34.2787666],[127.21563,34.2866209],[127.2145142,34.2979312],[127.2142782,34.3052165],[127.2141065,34.3148052],[127.2149219,34.3355563],[127.2157587,34.3442911],[127.216617,34.3538222],[127.2177364,34.3622022],[127.2185213,34.3674174],[127.2216557,34.3804379],[127.2232657,34.3846894],[127.2274873,34.3916262],[127.2319519,34.4005046],[127.234455,34.4102143],[127.2357812,34.4185051],[127.2375355,34.4268466],[127.2394238,34.433898],[127.2413852,34.4375416],[127.2445982,34.4431339],[127.2458871,34.4459992],[127.2468398,34.4502661],[127.2480727,34.4592307],[127.2485584,34.4686563],[127.2489133,34.4757094],[127.2493242,34.4824309],[127.2494924,34.4889286],[127.2494257,34.4932792],[127.2491003,34.4953353],[127.2484601,34.4975589],[127.2471613,34.4994236],[127.2453884,34.5004888],[127.2433898,34.5012531],[127.2413576,34.5017323],[127.155364,34.5129993],[127.1527767,34.5133678],[127.1508303,34.5139698],[127.149534,34.5147713],[127.1486408,34.5154998],[127.1472251,34.5166278],[127.1451585,34.5185978],[127.1445276,34.5194976],[127.1442713,34.5201213],[127.1439628,34.5213594],[127.1436311,34.5228975]]]}}