{"type":"Feature","properties":{"id":"녹도_~_외연도","name":"녹도 ~ 외연도","operator":"","category":"ferry","attribution":"© OpenStreetMap contributors"},"geometry":{"type":"MultiLineString","coordinates":[[[126.2669285,36.2696004],[126.2677495,36.2693531],[126.2681993,36.269368],[126.2685321,36.2695419],[126.2698446,36.2713006],[126.2704423,36.2717229],[126.2720734,36.2720441],[126.2734859,36.2721346],[126.2749332,36.2719904],[126.2762505,36.2714791],[126.2772099,36.2706007],[126.2777791,36.2695256],[126.2780067,36.2685291],[126.278023,36.2674671],[126.2779254,36.2665755],[126.2775514,36.2652644],[126.2768847,36.2640843],[126.2756488,36.2625764],[126.2721759,36.2597986],[126.2675196,36.2567707],[126.2580353,36.2521507],[126.248315,36.2488629],[126.1014063,36.224284],[126.0966685,36.2235948],[126.0929878,36.2233093],[126.086504,36.2232294],[126.0806572,36.2235377],[126.0800491,36.2236426],[126.0797219,36.2238503],[126.079561,36.2241489],[126.0794376,36.2248499],[126.0793483,36.2266435]]]}}