{"type":"Feature","properties":{"id":"능산도_-_대야도","name":"능산도 - 대야도","operator":"","category":"ferry","attribution":"© OpenStreetMap contributors"},"geometry":{"type":"MultiLineString","coordinates":[[[126.0098415,34.6145878],[126.010485,34.6146034],[126.0111663,34.6147358],[126.0117028,34.6149963],[126.0121426,34.6156365],[126.0123152,34.6164377],[126.0123521,34.6177055],[126.012081,34.6190849],[126.0114402,34.6207279],[126.0078908,34.6275024],[126.0075334,34.629054],[126.0070897,34.6306461],[126.00643,34.6317791],[126.0050664,34.6332393],[126.0028435,34.6346533],[126.000303,34.6357753],[125.9961373,34.6367743],[125.9887214,34.6374198],[125.9698794,34.6391849]]]}}