{"type":"Feature","properties":{"id":"대부해운_대부도-풍도","name":"대부도-풍도","operator":"대부해운","category":"ferry","attribution":"© OpenStreetMap contributors"},"geometry":{"type":"MultiLineString","coordinates":[[[126.5989919,37.4556334],[126.5984002,37.4559709],[126.5928564,37.4558303],[126.5903845,37.4556804],[126.5873804,37.4551489],[126.5841532,37.4537862],[126.5823679,37.4518238],[126.5807715,37.4481852],[126.5787802,37.4394217],[126.578866,37.3677762],[126.5767889,37.3415909],[126.575835,37.3126553],[126.5731046,37.2999159],[126.5737254,37.2969971],[126.5698814,37.3009534],[126.5674095,37.3024418],[126.5580711,37.3061558],[126.5545864,37.3073027],[126.5430164,37.3102928],[126.528511,37.311194],[126.5140228,37.3102792],[126.5022983,37.3081902],[126.4870891,37.3035205],[126.4630737,37.2955458],[126.4516239,37.2911211],[126.4450321,37.2878434],[126.4319171,37.2804407],[126.4259261,37.2733925],[126.4245529,37.2658518],[126.4218234,37.2572172],[126.4189567,37.2453979],[126.4115581,37.2320595],[126.405081,37.1141664],[126.4024789,37.1126586],[126.3965222,37.112289],[126.3948262,37.1122513],[126.3941501,37.1123662],[126.3938983,37.112409],[126.3936663,37.1124484]]]}}