{"type":"Feature","properties":{"id":"대부해_풍도-육도","name":"풍도-육도","operator":"대부해","category":"ferry","attribution":"© OpenStreetMap contributors"},"geometry":{"type":"MultiLineString","coordinates":[[[126.3936663,37.1124484],[126.3943247,37.1122362],[126.3949626,37.1121284],[126.3972133,37.1119208],[126.3987673,37.1116929],[126.4046908,37.1090845],[126.4116254,37.104517],[126.4428876,37.0937148],[126.446763,37.0933119],[126.4533162,37.0943149],[126.4549037,37.0955844],[126.4553062,37.0963026],[126.4551508,37.0970551],[126.4542904,37.0972318]]]}}