{"type":"Feature","properties":{"id":"대천항_~_효자도","name":"대천항 ~ 효자도","operator":"","category":"ferry","attribution":"© OpenStreetMap contributors"},"geometry":{"type":"MultiLineString","coordinates":[[[126.512388,36.3283768],[126.5124773,36.3291782],[126.51222,36.3299008],[126.5118353,36.3304731],[126.5107732,36.331209],[126.5093122,36.3316691],[126.5021983,36.3325647],[126.4985989,36.3335192],[126.4967791,36.3343577],[126.4944189,36.3363731],[126.4922002,36.3390673],[126.4844253,36.3561571],[126.4827633,36.3583923],[126.4757771,36.3631959],[126.4715579,36.3657577],[126.4410956,36.3769159],[126.4402978,36.377391],[126.4398918,36.3780675],[126.4400565,36.3787392]]]}}