{"type":"Feature","properties":{"id":"대천_~_삽시도","name":"대천 ~ 삽시도","operator":"","category":"ferry","attribution":"© OpenStreetMap contributors"},"geometry":{"type":"MultiLineString","coordinates":[[[126.512388,36.3283768],[126.5122999,36.3291878],[126.5120103,36.3298729],[126.5114927,36.3304587],[126.5104944,36.3310941],[126.5092904,36.3314274],[126.5075524,36.3316694],[126.4943988,36.3330696],[126.3933541,36.355222],[126.388378,36.3563228],[126.3843687,36.3567024],[126.3805063,36.3568925],[126.3772899,36.3568593],[126.3737511,36.3565814],[126.3700884,36.3558587],[126.3677989,36.3550963],[126.3662659,36.3543878],[126.365144,36.3536618],[126.3643754,36.3529072],[126.3641155,36.3522199],[126.3640099,36.3518599]]]}}