{"type":"Feature","properties":{"id":"대천항_~_원산도(저두)","name":"대천항 ~ 원산도(저두)","operator":"","category":"ferry","attribution":"© OpenStreetMap contributors"},"geometry":{"type":"MultiLineString","coordinates":[[[126.512388,36.3283768],[126.5123593,36.3291905],[126.5120803,36.329882],[126.5115654,36.330487],[126.5105569,36.3311266],[126.5092265,36.3315242],[126.5075957,36.3317316],[126.5019309,36.3322848],[126.4985406,36.3331837],[126.4963304,36.3343072],[126.494013,36.3362432],[126.4919316,36.3389051],[126.4839279,36.3560151],[126.48234,36.3582616],[126.480323,36.3597131],[126.4748306,36.363145],[126.4710533,36.3655536],[126.4674269,36.3667285],[126.4641868,36.3673851],[126.4622497,36.3673512],[126.460735,36.3670776],[126.4589512,36.3664278],[126.4578045,36.3657097],[126.4569686,36.3651231],[126.4563576,36.3644399],[126.456125,36.3640402],[126.4560237,36.3639342]]]}}