{"type":"Feature","properties":{"id":"대천항_~_원산도(선촌)","name":"대천항 ~ 원산도(선촌)","operator":"","category":"ferry","attribution":"© OpenStreetMap contributors"},"geometry":{"type":"MultiLineString","coordinates":[[[126.43508,36.3834853],[126.4354721,36.3834424],[126.4358755,36.3833],[126.4362932,36.3830606],[126.4366188,36.3827301],[126.4368099,36.3822457],[126.4372882,36.3808763],[126.4384758,36.3778488],[126.4403589,36.3762462],[126.4713851,36.3656213],[126.4750665,36.3633036],[126.4825651,36.3582775],[126.4841751,36.3560723],[126.4921113,36.3390077],[126.4943529,36.3362841],[126.4966319,36.3342978],[126.4985559,36.33344],[126.5021425,36.332507],[126.5046829,36.3321158],[126.5092969,36.3316192],[126.5107166,36.3311527],[126.5117627,36.3304454],[126.5121466,36.3298918],[126.512418,36.3291879],[126.512388,36.3283768]]]}}