{"type":"Feature","properties":{"id":"대정원도_-_죽굴도","name":"대정원도 - 죽굴도","operator":"","category":"ferry","attribution":"© OpenStreetMap contributors"},"geometry":{"type":"MultiLineString","coordinates":[[[126.4289284,34.2653499],[126.4303075,34.2653257],[126.4316164,34.2647937],[126.4324747,34.2637829],[126.4330541,34.2621513],[126.4330326,34.2604488],[126.4323889,34.2586754],[126.4303719,34.2558378],[126.4170733,34.2439593],[126.414858,34.2417901],[126.4133774,34.2393244],[126.4129268,34.2368941],[126.4131628,34.2346589],[126.4138065,34.2326366],[126.4152657,34.2308625],[126.417099,34.2292705],[126.4204633,34.2276376]]]}}