{"type":"Feature","properties":{"id":"대흑산도_-_다물도","name":"대흑산도 - 다물도","operator":"","category":"ferry","attribution":"© OpenStreetMap contributors"},"geometry":{"type":"MultiLineString","coordinates":[[[125.441572,34.6845743],[125.4373083,34.6863131],[125.4367954,34.6866412],[125.4363161,34.6870672],[125.4359067,34.6875354],[125.4357471,34.6878176],[125.4356519,34.6881174],[125.435493,34.6887445],[125.4355106,34.6892792],[125.4357076,34.6898208],[125.4360369,34.6904262],[125.4366088,34.6911616],[125.4377446,34.6925079],[125.4395217,34.693614],[125.4427822,34.6956358],[125.4433709,34.6960667],[125.443812,34.6966593],[125.4441297,34.6973012],[125.444712,34.6988541],[125.4450369,34.6999876],[125.4451904,34.7015578],[125.4451811,34.7034756],[125.4450867,34.7054832],[125.4414689,34.7263523],[125.4416191,34.727704],[125.4420912,34.7287683],[125.4433143,34.730038],[125.4445374,34.7305847],[125.4458999,34.7308581],[125.4481208,34.7311843],[125.4494727,34.7313077],[125.4506528,34.7316781],[125.4516613,34.7321189],[125.4521549,34.7326127],[125.4525411,34.7333357],[125.4527342,34.7340587],[125.4526055,34.7345525],[125.4521763,34.7350991],[125.4508889,34.7355576],[125.4487645,34.7358926],[125.447344,34.7356935],[125.4467152,34.7353491]]]}}