{"type":"Feature","properties":{"id":"대흑산도_-_영산도(예약제)","name":"대흑산도 - 영산도(예약제)","operator":"","category":"ferry","attribution":"© OpenStreetMap contributors"},"geometry":{"type":"MultiLineString","coordinates":[[[125.4634225,34.6527068],[125.4627274,34.6524275],[125.4608513,34.6527005],[125.4600896,34.6535962],[125.4595747,34.6542052],[125.459006,34.655612],[125.458609,34.656738],[125.4584139,34.6578789],[125.4582442,34.6588384],[125.4582335,34.6598799],[125.4582228,34.66108],[125.4581597,34.6627126],[125.4582442,34.6640451],[125.4590811,34.6678748],[125.4600467,34.6702573],[125.4615916,34.672022],[125.4648103,34.6742808],[125.4672994,34.6759043],[125.4691447,34.6774043],[125.4711188,34.67961],[125.4724921,34.682098],[125.4733075,34.6843742],[125.4737581,34.6864915],[125.4737152,34.6876913],[125.4732432,34.6889617],[125.4722776,34.6904261],[125.4699816,34.6927902],[125.46878,34.6937959],[125.4669561,34.6950485],[125.4653467,34.6955248],[125.46142,34.6961599],[125.4590596,34.6963364],[125.4560126,34.6963364],[125.451013,34.6960365],[125.4448117,34.6952955],[125.4432024,34.6948368],[125.4415716,34.6940076],[125.4395761,34.6927902],[125.438353,34.6916787],[125.437602,34.6908495],[125.4370226,34.689985],[125.436808,34.6894027],[125.436808,34.6887146],[125.4371818,34.688031],[125.4373808,34.6876762],[125.4375969,34.6874393],[125.4377681,34.6872433],[125.4380418,34.6869591],[125.4385836,34.6866018],[125.4389967,34.6863283],[125.4400159,34.6857549],[125.441572,34.6845743]]]}}