{"type":"Feature","properties":{"id":"대흑산도_-_상태도","name":"대흑산도 - 상태도","operator":"","category":"ferry","attribution":"© OpenStreetMap contributors"},"geometry":{"type":"MultiLineString","coordinates":[[[125.441572,34.6845743],[125.4386371,34.6859325],[125.4367967,34.6870267],[125.4362588,34.6875855],[125.4359048,34.6883887],[125.4359391,34.6893976],[125.436011,34.6899387],[125.4368577,34.6911864],[125.4382894,34.6925988],[125.4439742,34.6957685],[125.4480372,34.6969557],[125.4541388,34.6975958],[125.459759,34.6973049],[125.4639353,34.6961176],[125.4673046,34.6942669],[125.4709287,34.6911474],[125.4725042,34.6894035],[125.4734269,34.6875509],[125.4740706,34.684569],[125.473384,34.6799107],[125.471839,34.6769462],[125.4675689,34.673364],[125.4445449,34.6520084],[125.4387942,34.6441531],[125.4111782,34.6012094],[125.3568903,34.513063],[125.3303471,34.4390172],[125.3284016,34.4360606],[125.3256288,34.4337905],[125.3195848,34.4314425],[125.3127621,34.4297049],[125.3054,34.4292132],[125.2949923,34.4299459],[125.288088,34.4313883],[125.2853619,34.4325643],[125.2844983,34.4333641],[125.2842718,34.4339946],[125.2843072,34.4344733],[125.2845479,34.4348645],[125.2849377,34.4351216]]]}}