{"type":"Feature","properties":{"id":"덕적_소이작","name":"덕적/소이작","operator":"","category":"ferry","attribution":"© OpenStreetMap contributors"},"geometry":{"type":"MultiLineString","coordinates":[[[126.2430697,37.1813597],[126.2442735,37.180744],[126.245014,37.1803799],[126.2455643,37.180212],[126.2461604,37.1800969],[126.2466183,37.1800239],[126.2470382,37.18007],[126.2478322,37.1804076],[126.2486306,37.1808196],[126.2500134,37.1813814],[126.2513963,37.1824527],[126.2518446,37.1830332],[126.252405,37.1840452],[126.2526843,37.1851907],[126.2525556,37.1858403],[126.2516115,37.1870028],[126.2471697,37.1896182],[126.2352941,37.1953102],[126.220649,37.2032558],[126.2112903,37.2089392],[126.2006427,37.2156188],[126.1931521,37.2214054],[126.1839428,37.2282922],[126.1811595,37.2296457],[126.1784135,37.2304488],[126.1736502,37.2306719],[126.1703998,37.230196],[126.1659166,37.2289764],[126.1620175,37.2270319],[126.1610834,37.2262097],[126.1606924,37.2257941],[126.1604583,37.2256085],[126.1600184,37.2255061],[126.1595571,37.2255402],[126.1563749,37.2263393]]]}}