{"type":"Feature","properties":{"id":"도초_-_흑산","name":"도초 - 흑산","operator":"","category":"ferry","attribution":"© OpenStreetMap contributors"},"geometry":{"type":"MultiLineString","coordinates":[[[125.9360467,34.7155544],[125.93548,34.716017],[125.9342284,34.7166466],[125.9324729,34.7169085],[125.9297907,34.7168204],[125.9245765,34.7160619],[125.9170877,34.7152682],[125.9110259,34.7155063],[125.9075283,34.7159473],[125.9032153,34.717129],[125.9015846,34.7173407],[125.8999538,34.7172701],[125.8975291,34.7166881],[125.8917784,34.7133898],[125.8888816,34.7122962],[125.4619383,34.7054697],[125.4588005,34.7051219],[125.4554531,34.7038342],[125.4508183,34.700747],[125.4402182,34.6936197],[125.4384801,34.6925082],[125.4371927,34.6911497],[125.4366562,34.6898617],[125.4364684,34.6886532],[125.4373643,34.6873916],[125.4381958,34.6865579],[125.441572,34.6845743]]]}}