{"type":"Feature","properties":{"id":"도초도_-_우이도","name":"도초도 - 우이도","operator":"","category":"ferry","attribution":"© OpenStreetMap contributors"},"geometry":{"type":"MultiLineString","coordinates":[[[125.8246165,34.6046512],[125.8210042,34.6060873],[125.8189228,34.6066525],[125.81579,34.6071647],[125.8140305,34.6073943],[125.8124855,34.6076062],[125.8114341,34.6078005],[125.8104256,34.6080124],[125.80843,34.6084892],[125.8060911,34.6092133],[125.8039883,34.6100434],[125.8029369,34.6105909],[125.8019069,34.6114209],[125.8013919,34.6120213],[125.7991174,34.615412],[125.7984522,34.6165598],[125.7978728,34.6176547],[125.7974866,34.6186789],[125.7972506,34.6198267],[125.7971647,34.6215042],[125.7971647,34.6225637],[125.7974437,34.6236938],[125.7981732,34.6250358],[125.7990959,34.6261305],[125.8011129,34.6278256],[125.8065417,34.6324338],[125.8113483,34.6361591],[125.8144811,34.6377304],[125.823386,34.641014],[125.825918,34.6418791],[125.8392861,34.6462747],[125.8509806,34.6503348],[125.853577,34.6515704],[125.8563021,34.6529825],[125.8584049,34.6546417],[125.8598426,34.6562126],[125.8620313,34.6600427],[125.8635333,34.6622842],[125.8655289,34.6643668],[125.8721593,34.6709672],[125.8764938,34.6755202],[125.8785751,34.6778671],[125.8820727,34.6818021],[125.884476,34.6842547],[125.8897331,34.6891421],[125.891321,34.6906595],[125.8934024,34.6930589],[125.8955482,34.6967638],[125.8963421,34.6989514],[125.8969103,34.7005702],[125.8972485,34.7011986],[125.8982518,34.7024267],[125.8991393,34.7031171],[125.9004988,34.7038898],[125.902479,34.70472],[125.905011,34.7055491],[125.9069044,34.7063342],[125.9076438,34.7067282],[125.908154,34.7071017],[125.9087006,34.7077723],[125.909088,34.7083538],[125.9094529,34.7092318],[125.9100536,34.7102941],[125.9109023,34.7114774],[125.9120277,34.7124814],[125.9134009,34.7133986],[125.9151885,34.7141449],[125.9167376,34.7144304],[125.9207073,34.715277],[125.92913,34.7165472],[125.9305546,34.7166835],[125.9321657,34.716732],[125.9330025,34.7166704],[125.9340056,34.7165853],[125.9347248,34.7162935],[125.9353879,34.7159557],[125.9360467,34.7155544]]]}}