{"type":"Feature","properties":{"id":"동소우이도-우이도(돈목)","name":"동소우이도-우이도(돈목)","operator":"","category":"ferry","attribution":"© OpenStreetMap contributors"},"geometry":{"type":"MultiLineString","coordinates":[[[125.8767745,34.6078308],[125.8758931,34.6074553],[125.8756472,34.6065317],[125.8792988,34.5968672],[125.8793358,34.5946049],[125.8779802,34.5927432],[125.874554,34.5919966],[125.8598295,34.5904702],[125.847301,34.589843],[125.8367836,34.5900387],[125.8305476,34.5899362],[125.8264743,34.5899626],[125.8227659,34.590313],[125.8189155,34.5902048],[125.8171247,34.5902161],[125.8145498,34.5904281],[125.811889,34.5907637],[125.8094214,34.5914703],[125.8078335,34.5922122],[125.8061384,34.5933074],[125.8052371,34.5944555],[125.8046578,34.595798],[125.8043788,34.5969284],[125.8043574,34.5977763],[125.8048724,34.5994542],[125.8055375,34.6012205],[125.806074,34.6022272],[125.8068035,34.6029867],[125.8075975,34.6036049],[125.8087347,34.6041347],[125.8106445,34.6048412],[125.8126829,34.6053181],[125.8163307,34.6055123],[125.8209012,34.6053357],[125.8235834,34.6048853],[125.8246165,34.6046512]]]}}