{"type":"Feature","properties":{"id":"동해_-_사카이미나토_境港_-_東海","name":"동해 - 사카이미나토 境港 - 東海","operator":"","category":"ferry","attribution":"© OpenStreetMap contributors"},"geometry":{"type":"MultiLineString","coordinates":[[[133.2524594,35.54754],[133.251766,35.5485443],[133.2517134,35.5486753],[133.2517098,35.5488251],[133.2517523,35.5489906],[133.2518213,35.5491159],[133.2519275,35.5492383],[133.2521575,35.5493923],[133.253037,35.5497473],[133.2545307,35.5503366],[133.2554186,35.5506206],[133.256501,35.5509213],[133.2632821,35.5523281],[133.266689,35.553016],[133.2684046,35.5532608],[133.2906103,35.5549997],[133.3148455,35.5561167],[133.3198705,35.5563681],[133.3232041,35.5567914],[133.325806,35.5574661],[133.3287494,35.5584451],[133.3309611,35.5595034],[133.3325872,35.560403],[133.334246,35.5613687],[133.3353843,35.5622551],[133.3364454,35.5634478],[133.3374536,35.5649624],[133.3383074,35.5665498],[133.3387383,35.5677866],[133.3389599,35.568873],[133.3391063,35.5705529],[133.3390413,35.5724841],[133.3388136,35.5739655],[133.338525,35.5753445],[133.2324363,35.8223857],[133.2320822,35.8231704],[133.230818,35.8259719],[133.2295014,35.8281527],[133.2276461,35.8305491],[133.2137629,35.8457525],[133.2091495,35.8493528],[133.2040855,35.8522052],[133.1979916,35.8547792],[133.1917259,35.8567792],[133.186466,35.8580083],[132.6758423,35.9637624],[132.6728549,35.9644902],[132.6689595,35.9655853],[132.6648844,35.9668386],[132.510189,36.0175453],[132.5048307,36.0194095],[132.5000161,36.0210963],[132.4943488,36.0232927],[132.4890917,36.0255219],[129.1606633,37.4916045],[129.1461689,37.4972508],[129.1450846,37.497645],[129.1443909,37.4978443],[129.1437963,37.4979651],[129.1432619,37.4980437],[129.1426673,37.4980605],[129.1421223,37.4980381],[129.1415595,37.4979623],[129.1411101,37.4978668],[129.1407597,37.4977489],[129.140473,37.4975692],[129.1402713,37.4973052],[129.1400164,37.4968812],[129.1397404,37.4964516],[129.1394573,37.4961034],[129.1390644,37.4957721],[129.1387176,37.4955222],[129.1300603,37.4910907],[129.1295251,37.4908149],[129.1291588,37.4906619],[129.1288704,37.490572],[129.1285412,37.490485],[129.1282457,37.4904457],[129.1279484,37.4904232],[129.1277166,37.4904274],[129.1274742,37.4904527],[129.1272742,37.490492],[129.1270636,37.4905636],[129.126876,37.4906675],[129.1267345,37.490763],[129.1265982,37.4908739],[129.1264938,37.4910101],[129.1261031,37.4915335]]]}}