{"type":"Feature","properties":{"id":"동화도_-_남성항","name":"동화도 - 남성항","operator":"","category":"ferry","attribution":"© OpenStreetMap contributors"},"geometry":{"type":"MultiLineString","coordinates":[[[126.6060644,34.3164887],[126.6064602,34.3165255],[126.6069132,34.3164436],[126.6073521,34.3162448],[126.6076706,34.3158824],[126.6079396,34.3153328],[126.6080348,34.3141975],[126.6072409,34.3048746],[126.6069834,34.2989542],[126.6071336,34.2957279],[126.6076486,34.2933702],[126.6079873,34.2920701],[126.6083049,34.2913447],[126.6084915,34.2911315],[126.6085521,34.2910622]]]}}