{"type":"Feature","properties":{"id":"동해_-_블라디보스토크_Владивосток_-_Донхэ","name":"동해 - 블라디보스토크 Владивосток - Донхэ","operator":"","category":"ferry","attribution":"© OpenStreetMap contributors"},"geometry":{"type":"MultiLineString","coordinates":[[[129.1261031,37.4915335],[129.1264675,37.4910974],[129.1266923,37.4908866],[129.1269958,37.4906902],[129.1273041,37.4905679],[129.1276917,37.4905086],[129.1280466,37.4905086],[129.1284762,37.4905568],[129.1289152,37.4906828],[129.1293028,37.4908347],[129.1299426,37.4911534],[129.1381733,37.4953495],[129.1387433,37.4957827],[129.1393124,37.4963504],[129.1396458,37.4967633],[129.1400117,37.4973568],[129.1404182,37.4977567],[129.1408898,37.4979825],[129.1415566,37.4981502],[129.1422802,37.4981825],[129.1428575,37.4981825],[129.1435324,37.4981567],[129.1440853,37.4980534],[129.1447846,37.4978922],[129.1456086,37.4976084],[129.1607792,37.4918437],[129.1627096,37.4913504],[129.1646616,37.4909057],[129.1669406,37.4905278],[129.1689954,37.490298],[129.1714145,37.4902388],[129.1736841,37.4903203],[129.1761782,37.4904714],[129.1789671,37.490741],[129.1820249,37.4912128],[129.1850969,37.492044],[129.1880274,37.4930549],[129.1911419,37.4943017],[129.1937892,37.4954249],[129.1964224,37.4970647],[129.1992537,37.498918],[129.2025947,37.5018943],[129.2099182,37.5086362],[129.2814742,37.5675076],[129.3448141,37.6195806],[129.4060478,37.6698874],[129.4669981,37.7199275],[129.5262816,37.7685668],[129.5828289,37.8149313],[129.6426453,37.8639446],[129.6966647,37.9081799],[129.751222,37.9528286],[129.7936595,37.98754],[129.8356652,38.021882],[129.8792204,38.0574739],[129.9233118,38.0934863],[129.970282,38.1318304],[130.0102069,38.1644074],[130.053278,38.1995351],[130.0956152,38.2340478],[130.1233082,38.2566139],[130.1771695,38.3004835],[130.228437,38.342216],[130.3232752,38.4193522],[130.4307474,38.4853149],[130.4962149,38.525467],[130.5641276,38.5670952],[130.6854456,38.6334805],[130.7481312,38.6677581],[130.8003911,38.6963221],[130.8519969,38.7245175],[130.8928992,38.746857],[130.9947329,38.8024449],[131.0665657,38.8416301],[131.1619345,38.8936211],[131.2482572,38.9406477],[131.283319,38.9576025],[131.301558,38.9670126],[131.316793,38.9735522],[131.3291097,38.9790404],[131.3478852,38.9875303],[131.3686011,38.9975392],[131.4480786,39.0381441],[131.5302262,39.0800886],[131.6091631,39.1203703],[131.6239045,39.1301416],[131.63326,39.1374151],[131.6418217,39.1446379],[131.6483019,39.1507784],[131.6522072,39.1549549],[131.655061,39.1584158],[131.6642973,39.1698945],[131.6709848,39.1787571],[131.6743845,39.1838105],[131.6772239,39.1888202],[131.6786436,39.1921211],[131.6799512,39.1962471],[131.6806797,39.1998807],[131.6810611,39.2031678],[131.6829172,39.3301217],[131.6842601,39.4218254],[131.6859519,39.4834856],[131.6887325,39.5965746],[131.6916394,39.7146036],[131.6935929,39.7938071],[131.6966609,39.9180138],[131.69666,39.9962306],[131.6966584,40.1277402],[131.6966582,40.1468574],[131.696658,40.1580986],[131.6966579,40.1670253],[131.6966575,40.2031343],[131.6966568,40.2667691],[131.6966554,40.377889],[131.6966542,40.4808905],[131.6981091,40.6014073],[131.6988465,40.6623984],[131.6997449,40.7366461],[131.7009404,40.8353074],[131.7010989,40.9265693],[131.701253,41.015249],[131.7014027,41.1012024],[131.7015658,41.194758],[131.7017418,41.2955725],[131.6968854,41.3747851],[131.6913047,41.4656889],[131.6856211,41.5581386],[131.6795589,41.6565999],[131.6746576,41.7360965],[131.6713201,41.7901727],[131.6708471,41.7978334],[131.6698188,41.8144829],[131.6675832,41.8506667],[131.6661729,41.8734831],[131.666098,41.8746942],[131.6648689,41.8945716],[131.6636515,41.9142528],[131.6612288,41.9534014],[131.658867,41.9915439],[131.6578178,42.0084816],[131.6551029,42.0522862],[131.6541341,42.0679114],[131.6529406,42.0871539],[131.6505585,42.125543],[131.6488511,42.1530451],[131.6482097,42.1633728],[131.6462874,42.1943175],[131.6440732,42.2299408],[131.6433961,42.2408301]],[[131.6433961,42.2408301],[131.6425454,42.2545096],[131.6418682,42.2653964],[131.6413972,42.2729675],[131.6409094,42.2773879],[131.6401184,42.2823731],[131.6381307,42.2948975],[131.6361417,42.3074274],[131.6333278,42.3251502],[131.6315776,42.336171],[131.6279746,42.3588519],[131.6267219,42.3667357],[131.6233338,42.388054],[131.6192903,42.4134867],[131.615599,42.4366946],[131.6103994,42.4693713],[131.6099008,42.4725041],[131.5990575,42.5405904],[131.594366,42.5700262],[131.5896734,42.5994546],[131.5799461,42.6604127],[131.5641736,42.7591278],[131.5535109,42.8261439],[131.5534182,42.8273715],[131.5533905,42.8285633],[131.5535385,42.8302613],[131.5543062,42.8342026],[131.557545,42.8469273],[131.5579596,42.8482301],[131.558464,42.8492524],[131.5592965,42.8504492],[131.5599929,42.8514421],[131.5607666,42.8524946],[131.6458022,42.9453027],[131.6548004,42.9551151],[131.6653466,42.9666137],[131.6731143,42.9750815],[131.6802389,42.9828472],[131.6871278,42.9903551],[131.6940199,42.9978655],[131.7023257,43.0069152],[131.7180164,43.0240077],[131.7292875,43.0362828],[131.7402075,43.0481732],[131.7489524,43.0576935],[131.7571494,43.066616],[131.7597091,43.069402],[131.760253,43.069846],[131.7609052,43.0702592],[131.7616642,43.0704769],[131.7623423,43.0705936],[131.7632118,43.0706175],[131.8283713,43.071988],[131.8433802,43.0708962],[131.8489933,43.0715936],[131.8761527,43.0942693],[131.8849756,43.1094117],[131.8839329,43.1118805]]]}}