{"type":"Feature","properties":{"id":"득량호(녹동항_-_득량도)","name":"득량호(녹동항 - 득량도)","operator":"","category":"ferry","attribution":"© OpenStreetMap contributors"},"geometry":{"type":"MultiLineString","coordinates":[[[127.1351631,34.5256886],[127.1349567,34.5257073],[127.1347181,34.5257349],[127.1342568,34.5259116],[127.1337128,34.5260381],[127.1332243,34.5260875],[127.1324837,34.5260832],[127.1318054,34.5260066],[127.1294189,34.5257419],[127.1268919,34.5259078],[127.1250738,34.5261359],[127.1236281,34.5265138],[127.1204428,34.5271185],[127.1168339,34.5281416],[127.1135292,34.5294713],[127.1104263,34.5307939],[127.106528,34.5344553],[127.1031751,34.5382306],[127.1003728,34.5418892],[127.0910864,34.5555942],[127.0897168,34.5587346],[127.0859909,34.5697735],[127.0853637,34.5742461],[127.085249,34.5784676],[127.0854894,34.5830038],[127.0860571,34.5856831],[127.0872508,34.5884832],[127.0880652,34.5897218],[127.0901202,34.5916853],[127.0917312,34.5925813],[127.0955438,34.5936331],[127.0974132,34.5942064],[127.0984034,34.5946207],[127.0991951,34.5949968]]]}}