{"type":"Feature","properties":{"id":"땅끝마을_-_넙도","name":"땅끝마을 - 넙도","operator":"","category":"ferry","attribution":"© OpenStreetMap contributors"},"geometry":{"type":"MultiLineString","coordinates":[[[126.5304372,34.2982631],[126.5312386,34.2980876],[126.5318608,34.2977508],[126.53229,34.2972899],[126.5325904,34.296634],[126.5327621,34.2956945],[126.532011,34.2207643],[126.5315819,34.2157252],[126.5306592,34.2126909],[126.5293503,34.2105793],[126.5272474,34.2081127],[126.5243292,34.205717],[126.5211272,34.2034182],[126.5185083,34.2019657],[126.516183,34.2009344]]]}}