{"type":"Feature","properties":{"id":"마라도유람선(Marado_cruise_ship)","name":"마라도유람선(Marado cruise ship)","operator":"","category":"ferry","attribution":"© OpenStreetMap contributors"},"geometry":{"type":"MultiLineString","coordinates":[[[126.2697856,33.1220034],[126.2699497,33.1215229],[126.2708516,33.1215002],[126.2723321,33.1221243],[126.2733964,33.1233107],[126.2794661,33.1318652],[126.2818006,33.1361749],[126.2876794,33.1490318],[126.2977816,33.1710627],[126.2994371,33.181259],[126.2971874,33.2020743],[126.2947078,33.2038202],[126.2912717,33.2059211]]]}}