{"type":"Feature","properties":{"id":"마산_-_선도","name":"마산 - 선도","operator":"","category":"ferry","attribution":"© OpenStreetMap contributors"},"geometry":{"type":"MultiLineString","coordinates":[[[126.249859,34.9527647],[126.2497352,34.9628815],[126.2497781,34.965572],[126.2500999,34.9662138],[126.2509368,34.9672601],[126.251838,34.9680338],[126.2550364,34.9693855],[126.2578462,34.9702493],[126.2628029,34.9711285],[126.2646482,34.9714801],[126.2664507,34.9724296],[126.2685106,34.9741703],[126.2697041,34.975634]]]}}