{"type":"Feature","properties":{"id":"막금도_-_부소도","name":"막금도 - 부소도","operator":"","category":"ferry","attribution":"© OpenStreetMap contributors"},"geometry":{"type":"MultiLineString","coordinates":[[[126.1259983,34.6212836],[126.1261316,34.6213674],[126.1262131,34.6214638],[126.1262437,34.6215645],[126.1262488,34.6217029],[126.1261979,34.6219252],[126.1259634,34.6224117],[126.1257239,34.6227556],[126.1245313,34.6239005],[126.1223959,34.6254816],[126.1217843,34.6261861],[126.1202656,34.6282578],[126.1197967,34.628782],[126.1188539,34.6295578],[126.1138981,34.6329377],[126.1090563,34.6373309],[126.107402,34.6390351],[126.1063933,34.6406949],[126.1058015,34.6425539],[126.1054787,34.6451099],[126.1056804,34.6524455],[126.1062184,34.6557978],[126.1071868,34.6589618],[126.1089352,34.6620262],[126.1108988,34.6644267],[126.1138174,34.666794],[126.1175698,34.6688073],[126.1454776,34.6790386],[126.1475691,34.6800796],[126.1490776,34.6814543],[126.1502192,34.6830468],[126.1509531,34.6849243],[126.1511977,34.6864329],[126.1510754,34.6876063],[126.1506269,34.68883],[126.1498319,34.6898692],[126.1486291,34.6906738],[126.1473391,34.6911026]]]}}