{"type":"Feature","properties":{"id":"명도_-_말도","name":"명도 - 말도","operator":"","category":"ferry","attribution":"© OpenStreetMap contributors"},"geometry":{"type":"MultiLineString","coordinates":[[[126.3499554,35.8488391],[126.3502561,35.8487184],[126.350472,35.8485836],[126.3506397,35.8483575],[126.3507363,35.8481053],[126.3507256,35.8478009],[126.3505754,35.8475487],[126.3502428,35.8473313],[126.3494596,35.8470617],[126.3483917,35.8469551],[126.3444006,35.8471812],[126.3323629,35.8489205],[126.3204968,35.8514077],[126.3186514,35.8522251],[126.3181732,35.8525563],[126.3176408,35.8530257],[126.316931,35.8541007],[126.3168096,35.8544489],[126.3168189,35.8548122],[126.316959,35.8551529],[126.3172019,35.8554557],[126.3175568,35.855645],[126.3180892,35.8556904],[126.3186979,35.8555468]]]}}