{"type":"Feature","properties":{"id":"목포_-_제주","name":"목포 - 제주","operator":"","category":"ferry","attribution":"© OpenStreetMap contributors"},"geometry":{"type":"MultiLineString","coordinates":[[[126.3816713,34.7807092],[126.3803428,34.7794611],[126.378299,34.7780678],[126.3764126,34.7774361],[126.3738501,34.7771631],[126.3676678,34.7782066],[126.3664034,34.7788841],[126.3630313,34.7818791],[126.3618705,34.7847313],[126.3599644,34.7873689],[126.3578885,34.788868],[126.3571561,34.789134],[126.354707,34.7896114],[126.3519967,34.7895984],[126.3499397,34.7889742],[126.3484533,34.7881276],[126.3468718,34.7867814],[126.3454143,34.7849282],[126.3440352,34.782372],[126.3423865,34.7791825],[126.3379221,34.771118],[126.3312732,34.7618958],[126.3214311,34.754326],[126.2916952,34.7675727],[126.257143,34.7532936],[126.242406,34.7381329],[126.231772,34.7119129],[126.229318,34.64599],[126.23259,34.6167115],[126.2051871,34.562839],[126.1826922,34.5335312],[126.1282954,34.4930897],[126.0847977,34.4692467]],[[126.0847977,34.4692467],[126.0833055,34.4688153],[126.0743076,34.4303665],[126.0955755,34.3378822],[126.1143894,34.3206566],[126.1814652,34.2767325],[126.237498,34.2104649],[126.3961895,34.0059249],[126.4657192,33.8104069],[126.5415437,33.5499423],[126.5437735,33.5385071],[126.5435678,33.5355082],[126.5431536,33.5339671],[126.5425422,33.5327328],[126.540612,33.5304535],[126.5398868,33.5294323],[126.5397301,33.5284942],[126.540161,33.5275826],[126.543017,33.5258692]]]}}