{"type":"Feature","properties":{"id":"목포연안_-_장산도","name":"목포연안 - 장산도","operator":"","category":"ferry","attribution":"© OpenStreetMap contributors"},"geometry":{"type":"MultiLineString","coordinates":[[[126.1629334,34.6690307],[126.1655415,34.6692815],[126.1712921,34.6694932],[126.1744673,34.6698292],[126.1772788,34.670305],[126.1816593,34.6714315],[126.1849821,34.6725463],[126.1932862,34.6758462],[126.2090147,34.6818634],[126.2137285,34.684327],[126.2155271,34.6855365],[126.2187027,34.6881277],[126.2208808,34.690562],[126.2265886,34.6995596],[126.2287764,34.70312],[126.2355101,34.7134578],[126.2576139,34.7502138],[126.2592042,34.7523611],[126.2609778,34.754245],[126.2632383,34.7562396],[126.2697541,34.7608115],[126.2721003,34.7622334],[126.2832839,34.7673734],[126.2868944,34.7683424],[126.2891001,34.7685445],[126.2904251,34.7685616],[126.2935579,34.7681738],[126.2959958,34.7675568],[126.2984001,34.7667913],[126.2999752,34.7660306],[126.3038152,34.7638258],[126.3083423,34.7612286],[126.3156883,34.7578229],[126.316973,34.7573382],[126.3187758,34.7570978],[126.3202072,34.7570984],[126.3214744,34.7572092],[126.3235858,34.7576524],[126.3256553,34.7584513],[126.3277829,34.7595362],[126.3327548,34.7628903],[126.3343061,34.7641372],[126.338898,34.770007],[126.3439835,34.7784143],[126.3465001,34.7830084],[126.3474811,34.7842655],[126.3489187,34.7855696],[126.3501204,34.7863097],[126.3512791,34.7868737],[126.3523311,34.7872157],[126.3537896,34.7874376],[126.3559998,34.7872966],[126.3580597,34.7869442],[126.3592786,34.786334],[126.3602892,34.7854662],[126.3616146,34.7834227],[126.3627691,34.7819535],[126.3648425,34.7798231],[126.3658508,34.7790351],[126.3678429,34.7783472],[126.3708838,34.7779265],[126.3732824,34.7777128],[126.3755754,34.7775525],[126.3778439,34.7775525],[126.3798604,34.7776393],[126.3814622,34.7778463],[126.3824379,34.7780333],[126.3839258,34.7784808],[126.3849016,34.7789683],[126.3852512,34.7792288],[126.3855358,34.7797096],[126.3856415,34.7800168],[126.3856333,34.780491],[126.3853975,34.7810252],[126.3851374,34.7813191],[126.3843806,34.7817439]]]}}