{"type":"Feature","properties":{"id":"목포_-_안좌도","name":"목포 - 안좌도","operator":"","category":"ferry","attribution":"© OpenStreetMap contributors"},"geometry":{"type":"MultiLineString","coordinates":[[[126.1675084,34.6999277],[126.1679995,34.6992892],[126.1684176,34.6988688],[126.1692667,34.698487],[126.1706864,34.6982252],[126.1726102,34.6980507],[126.1749984,34.6978544],[126.1766702,34.6978107],[126.1777449,34.6979307],[126.1784481,34.6982034],[126.1792309,34.6987816],[126.184883,34.7055771],[126.1872617,34.7083188],[126.1903945,34.7104531],[126.1945573,34.7124639],[126.2620202,34.7566898],[126.2707964,34.7620313],[126.277856,34.7658036],[126.2836495,34.7682714],[126.2866536,34.769188],[126.2899581,34.7695053],[126.2936059,34.7692232],[126.2966314,34.7683948],[126.2999574,34.7671433],[126.3033048,34.7648517],[126.3110939,34.7594928],[126.3150421,34.7568308],[126.3169519,34.7558965],[126.319398,34.7554558],[126.3217584,34.7556144],[126.3246981,34.7564077],[126.3291184,34.758012],[126.3334313,34.7613085],[126.3361994,34.7645344],[126.343216,34.7742819],[126.3464132,34.7807325],[126.3501683,34.7875704],[126.3514987,34.7886454],[126.3537732,34.7891917],[126.3567129,34.7889273],[126.3578931,34.7883458],[126.359438,34.7870241],[126.3630429,34.781085],[126.3643733,34.7797632],[126.3658753,34.7785295],[126.3679138,34.7775954],[126.3743082,34.776626],[126.3776771,34.7768728],[126.3825265,34.7775425],[126.3851014,34.7786353],[126.3857176,34.7790329],[126.386067,34.7795165],[126.3862066,34.7800215],[126.3862172,34.7805034],[126.38603,34.7809333],[126.3857103,34.7812084],[126.3843806,34.7817439]]]}}