{"type":"Feature","properties":{"id":"목포(북항)_-_안좌","name":"목포(북항) - 안좌","operator":"","category":"ferry","attribution":"© OpenStreetMap contributors"},"geometry":{"type":"MultiLineString","coordinates":[[[126.1343388,34.7595418],[126.1344205,34.7595853],[126.1350535,34.7597263],[126.1368279,34.7597753],[126.1397247,34.7593169],[126.14363,34.7590701],[126.1486296,34.7591054],[126.1618046,34.7596871],[126.1700658,34.7599163],[126.1935405,34.7639002],[126.2916879,34.7883814],[126.2958936,34.7885929],[126.3041548,34.7880819],[126.3098625,34.7872888],[126.3141541,34.7870069],[126.3169221,34.7872007],[126.3185314,34.7880466],[126.3200764,34.7892273],[126.3220505,34.7898265],[126.3247756,34.789756],[126.3272003,34.7890863],[126.3286809,34.7885224],[126.3299469,34.7882933],[126.3315992,34.7883462],[126.3330797,34.7886634],[126.3345174,34.7895621],[126.3399677,34.7968926],[126.3444952,34.8012448],[126.3499884,34.803782],[126.3548378,34.8044163],[126.3574771,34.8043282],[126.3592581,34.8040287],[126.3614762,34.8039865],[126.3649014,34.8043572]]]}}