{"type":"Feature","properties":{"id":"목포연안_-달리도_-_율도_-_외달도","name":"목포연안 -달리도 - 율도 - 외달도","operator":"","category":"ferry","attribution":"© OpenStreetMap contributors"},"geometry":{"type":"MultiLineString","coordinates":[[[126.2922728,34.7771705],[126.2924191,34.7767391],[126.2926224,34.7763038],[126.2930723,34.7756205],[126.2935837,34.7751296],[126.2941938,34.7748208],[126.2951242,34.7745931],[126.296295,34.7744463],[126.2970591,34.7744412],[126.29831,34.7744868],[126.300046,34.774684],[126.3009258,34.7749483],[126.302063,34.7753537],[126.3026209,34.7757239],[126.3032432,34.7763584],[126.30408,34.7781737],[126.3052817,34.780976],[126.3070841,34.7858753],[126.3075781,34.7868788],[126.308393,34.7877962],[126.3096053,34.7887139],[126.3110323,34.7894527],[126.3132854,34.7904572],[126.3157101,34.7916026],[126.3164655,34.7921081],[126.3171849,34.7924959],[126.3184174,34.7929501],[126.3190486,34.7932279],[126.3193794,34.7936114],[126.319967,34.7946492],[126.3209368,34.7937149],[126.3216419,34.7933021],[126.3227818,34.792873],[126.3247305,34.7924122],[126.3264011,34.7917614],[126.3276966,34.7910121],[126.3292026,34.7897145],[126.3300335,34.7888791],[126.3306824,34.7880184],[126.3321134,34.7856545],[126.3325526,34.7848502],[126.3329933,34.7838997],[126.3333981,34.782783],[126.3335607,34.7818747],[126.333577,34.7808864],[126.3333331,34.7799981],[126.3330973,34.7796409],[126.3325289,34.7790633],[126.3319346,34.7786691],[126.329366,34.7775501]],[[126.329366,34.7775501],[126.3307474,34.7776139],[126.3322656,34.7776604],[126.3344492,34.7778439],[126.3359515,34.7781568],[126.3384621,34.778897],[126.3399058,34.7795652],[126.3408009,34.780307],[126.3420455,34.7819636],[126.3445131,34.7856822],[126.3456718,34.787092],[126.347131,34.7883785],[126.3486544,34.7891891],[126.3505427,34.7898411],[126.3522593,34.7899821],[126.353933,34.7899997],[126.356508,34.7897354],[126.3583962,34.7889776],[126.3594477,34.7883608],[126.3606922,34.786951],[126.3618295,34.7852064],[126.3627307,34.7837965],[126.3640825,34.7821046],[126.3666145,34.7798311],[126.3678161,34.7789499],[126.3695757,34.7783331],[126.3715927,34.7780334],[126.3739745,34.7778043],[126.3768559,34.7776484],[126.3794734,34.7777519],[126.38171,34.7779894],[126.3832442,34.7783859],[126.3842098,34.7787384],[126.3846466,34.7789736],[126.3849608,34.7792672],[126.3851647,34.7795183],[126.3852772,34.7799009],[126.3853309,34.7803775],[126.3852489,34.7807565],[126.3851575,34.7810867],[126.3843806,34.7817439]]]}}