{"type":"Feature","properties":{"id":"목포(북항)_-_도초","name":"목포(북항) - 도초","operator":"","category":"ferry","attribution":"© OpenStreetMap contributors"},"geometry":{"type":"MultiLineString","coordinates":[[[125.9360467,34.7155544],[125.9359401,34.7160936],[125.9359307,34.7168306],[125.9361549,34.7174985],[125.9366406,34.7180896],[125.9373598,34.7185349],[125.9403019,34.7189418],[125.9420967,34.7195858],[125.9435236,34.720935],[125.9481906,34.7275133],[125.952053,34.7318074],[125.9572276,34.7380737],[125.9620247,34.7414827],[125.9683994,34.7443824],[125.9759937,34.7481371],[125.9845059,34.7517515],[125.9950004,34.7563406],[126.0036045,34.7604431],[126.0076935,34.7635329],[126.0134774,34.7675204],[126.0181055,34.7692889],[126.0235102,34.7695937],[126.0308669,34.7687556],[126.0371969,34.7683854],[126.0440848,34.7685617],[126.0495994,34.7691786],[126.0609291,34.7739905],[126.0699842,34.7783968],[126.0770438,34.7805822],[126.0838673,34.7810757],[126.0903905,34.7800535],[126.0998104,34.7771278],[126.1061189,34.7755416],[126.110153,34.7753829],[126.1127064,34.7757354],[126.1146591,34.7766167],[126.1167405,34.7780267],[126.1186502,34.7786788],[126.120517,34.7786259],[126.1230061,34.77815],[126.1247227,34.7770573],[126.1262892,34.7751538],[126.130159,34.7691508],[126.1326308,34.7635668],[126.134085,34.7619772],[126.1368949,34.7603978],[126.1397541,34.7594967],[126.1436116,34.7592132],[126.148529,34.7592638],[126.1555538,34.7598713],[126.1617405,34.7598814],[126.1700712,34.7600391],[126.1785041,34.7619958],[126.2916718,34.7885746],[126.2957986,34.7887736],[126.3041242,34.7882802],[126.309789,34.7874343],[126.3142522,34.78717],[126.3169344,34.7873462],[126.3183936,34.7881745],[126.31996,34.7893728],[126.321977,34.7899719],[126.324745,34.7899719],[126.3272127,34.7892494],[126.3286718,34.7886855],[126.3298949,34.7884564],[126.3314398,34.788474],[126.3329419,34.7888089],[126.3343581,34.7896547],[126.3359245,34.7918046],[126.3397869,34.7970205],[126.3443573,34.8013198],[126.3499578,34.8039627],[126.3548501,34.8045794],[126.357468,34.8044648],[126.3592704,34.8041653],[126.3614162,34.804086],[126.3649014,34.8043572]]]}}