{"type":"Feature","properties":{"id":"무녀도항_-_비안도항","name":"무녀도항 - 비안도항","operator":"","category":"ferry","attribution":"© OpenStreetMap contributors"},"geometry":{"type":"MultiLineString","coordinates":[[[126.4623607,35.7351077],[126.4645009,35.734635],[126.4667325,35.7336422],[126.4680415,35.7323533],[126.468771,35.730925],[126.4691358,35.7289566],[126.4690714,35.7273192],[126.4686637,35.7257166],[126.4672475,35.7243056],[126.4651447,35.7228946],[126.4626556,35.7220235],[126.4598875,35.7215532],[126.4570766,35.721379],[126.4542871,35.7215706],[126.4507466,35.7222674],[126.4481287,35.7230688],[126.4454894,35.7244624],[126.4420562,35.7265005],[126.4379363,35.7295663],[126.432529,35.7339383],[126.4262204,35.7397209],[126.4207917,35.7459907],[126.4172082,35.7529739],[126.41429,35.7607053],[126.4100628,35.7725969],[126.4081102,35.7806571],[126.4063506,35.7930331],[126.4055567,35.7992464],[126.4055996,35.8011086],[126.4060717,35.8022572],[126.4068871,35.8029882],[126.4077239,35.8034406],[126.4091401,35.8038409],[126.4101916,35.8041367],[126.4108568,35.8044848],[126.4117365,35.8049025],[126.4126377,35.8051113],[126.4135902,35.8051741],[126.4145242,35.8051438],[126.4150006,35.805212],[126.4154489,35.8054014],[126.4157571,35.8057271],[126.4158598,35.8061513],[126.4159813,35.8065755],[126.4161575,35.806957],[126.4163163,35.8071842],[126.4165171,35.8073206],[126.4167879,35.807385],[126.4170635,35.807366],[126.4172363,35.8072713],[126.417378,35.8070943]]]}}