{"type":"Feature","properties":{"id":"미래고속코비_부산_-_이즈하라_厳原_-_釜山","name":"부산 - 이즈하라 厳原 - 釜山","operator":"미래고속코비","category":"ferry","attribution":"© OpenStreetMap contributors"},"geometry":{"type":"MultiLineString","coordinates":[[[129.0488482,35.1162624],[129.0495012,35.115863],[129.0505144,35.1154379],[129.0510046,35.1151483],[129.0521204,35.114139],[129.0530216,35.1134369],[129.0541803,35.1126733],[129.0957331,35.0887014],[129.1047453,35.0834953],[129.1068911,35.0822837],[129.1079104,35.0817042],[129.1090744,35.0809887],[129.109981,35.0802555],[129.1110324,35.0793336],[129.5448957,34.7253108],[129.5582211,34.7074388],[129.5595057,34.7047573],[129.5603548,34.7023741],[129.5610535,34.6996593],[129.5615041,34.6967838],[129.561826,34.6921085],[129.5617912,34.689648],[129.5614436,34.6868623],[129.5609069,34.6842624],[129.5603242,34.6819957],[129.5594273,34.6791455],[129.4497694,34.3437603],[129.4482596,34.3384934],[129.4467187,34.3335903],[129.4448104,34.3285334],[129.4423093,34.3238026],[129.4391866,34.3189422],[129.4366106,34.3153264],[129.3609432,34.2189935],[129.3582249,34.2158934],[129.3548217,34.2124036],[129.3503274,34.2081571],[129.3461531,34.2047991],[129.3408044,34.2012025],[129.3376075,34.1992798],[129.3347068,34.1977955],[129.3305168,34.1958532],[129.3260582,34.1941849],[129.3202224,34.1925623],[129.3147194,34.1914693],[129.3091308,34.1906771],[129.3049776,34.1903156],[129.3010796,34.1903187],[129.2990124,34.1905108],[129.2973924,34.1908395],[129.2959412,34.1913015],[129.2938682,34.1922744],[129.2926459,34.1931053],[129.2919957,34.1938121],[129.2914722,34.1946849],[129.2911417,34.1955222],[129.2910145,34.1963397],[129.2909152,34.1972351],[129.2908653,34.1978612]]]}}