{"type":"Feature","properties":{"id":"미래고속코비_부산_-_히타카쓰_比田勝_-_釜山","name":"부산 - 히타카쓰 比田勝 - 釜山","operator":"미래고속코비","category":"ferry","attribution":"© OpenStreetMap contributors"},"geometry":{"type":"MultiLineString","coordinates":[[[129.0492856,35.1167236],[129.0498928,35.1162945],[129.0501536,35.1157857],[129.0506112,35.1151458],[129.051641,35.1142243],[129.052905,35.1132882],[129.0544164,35.1122849],[129.1087099,35.0807365],[129.5440169,34.7247602],[129.5481033,34.7143807],[129.5468296,34.7018537],[129.5461658,34.6978153],[129.5448265,34.6927557],[129.5415678,34.6828604],[129.5392913,34.6781123],[129.5374709,34.6751025],[129.5333499,34.6694457],[129.5255583,34.6597093],[129.52231,34.6560765],[129.519874,34.6538417],[129.5177133,34.652322],[129.5154916,34.6511214],[129.5119672,34.6496975],[129.506987,34.6482149],[129.5029619,34.6474867],[129.4998915,34.6472516],[129.4958772,34.6472722],[129.4927433,34.6474962],[129.490517,34.6478064],[129.4852441,34.648953],[129.4833985,34.6494557],[129.481413,34.6502317],[129.480019,34.6510267],[129.478727,34.6520241],[129.4772723,34.6531978],[129.4764784,34.6536744],[129.4755342,34.6541774],[129.4744185,34.6546628],[129.4729295,34.655126],[129.4715587,34.6554743],[129.4704511,34.6556442],[129.4691822,34.655668]]]}}