{"type":"Feature","properties":{"id":"반월도_-_장산도(북강)","name":"반월도 - 장산도(북강)","operator":"","category":"ferry","attribution":"© OpenStreetMap contributors"},"geometry":{"type":"MultiLineString","coordinates":[[[126.1629334,34.6690307],[126.1637579,34.669332],[126.1640229,34.6695415],[126.1642573,34.6699565],[126.1643847,34.6703673],[126.1644,34.6709792],[126.1643083,34.6716624],[126.164028,34.6725007],[126.163238,34.6736449],[126.1622901,34.6747514],[126.1582028,34.6780583],[126.1566025,34.6791144],[126.1547168,34.6798437],[126.1336924,34.6846471],[126.1302815,34.6860171],[126.1268788,34.6881626],[126.1243906,34.6904739],[126.1215797,34.694267],[126.1191184,34.6990661],[126.1179483,34.7026819],[126.1163613,34.7090726],[126.115953,34.7104294],[126.1155198,34.7114112],[126.1150632,34.7121042],[126.1143665,34.7126383],[126.1136113,34.7128982],[126.1129264,34.7128886],[126.112499,34.7128453],[126.1121317,34.7126937]]]}}