{"type":"Feature","properties":{"id":"백일도_-_마삭도","name":"백일도 - 마삭도","operator":"","category":"ferry","attribution":"© OpenStreetMap contributors"},"geometry":{"type":"MultiLineString","coordinates":[[[126.5922366,34.2948496],[126.5942402,34.2945658],[126.5953001,34.2941179],[126.5961751,34.293456],[126.5968037,34.2925193],[126.5971118,34.2913789],[126.5971118,34.2896174],[126.5965818,34.2877846],[126.5947702,34.2846178],[126.5754852,34.2457958],[126.5742192,34.2439865],[126.5725455,34.2429223],[126.5709362,34.2425498],[126.5695843,34.2426207],[126.5681,34.2434499]]]}}