{"type":"Feature","properties":{"id":"백일도_-_남성항","name":"백일도 - 남성항","operator":"","category":"ferry","attribution":"© OpenStreetMap contributors"},"geometry":{"type":"MultiLineString","coordinates":[[[126.6060644,34.3164887],[126.6064107,34.3164857],[126.6068613,34.3163616],[126.6073548,34.3160426],[126.6076981,34.3154046],[126.6077625,34.3145362],[126.60699,34.3052488],[126.606518,34.3035649],[126.6055095,34.3019873],[126.6036641,34.3003742],[126.6005313,34.2983712],[126.5968835,34.2964567],[126.5939983,34.2952214],[126.5922366,34.2948496]]]}}