{"type":"Feature","properties":{"id":"벌교_-_장도","name":"벌교 - 장도","operator":"","category":"ferry","attribution":"© OpenStreetMap contributors"},"geometry":{"type":"MultiLineString","coordinates":[[[127.3493073,34.8432631],[127.3494642,34.8432099],[127.3496373,34.8431504],[127.349801,34.8430696],[127.3502045,34.8428137],[127.350586,34.8424896],[127.3506658,34.8424218],[127.3511164,34.8422501],[127.3520176,34.8421224],[127.352614,34.8419573],[127.3532348,34.8416432],[127.3542314,34.8408152],[127.3548058,34.8402224],[127.3554106,34.8393877],[127.356048,34.8385157],[127.3565916,34.8379205],[127.3571183,34.8374565],[127.357897,34.8369623],[127.3590128,34.8364948],[127.3599392,34.836137],[127.3621574,34.8350457],[127.3636901,34.8343546],[127.3642214,34.8341008],[127.3646268,34.833836],[127.3648814,34.8336017],[127.3651436,34.8331277],[127.3653571,34.8326398],[127.3656268,34.8322252],[127.3659958,34.8320082],[127.3664466,34.8318022],[127.3669615,34.8316787],[127.3675624,34.8317029],[127.3683236,34.8319092],[127.3727836,34.833274],[127.3733856,34.8335185],[127.374118,34.8336897],[127.3751096,34.8338213],[127.3768181,34.8338398],[127.3793446,34.8334942],[127.3816957,34.8328619],[127.3845362,34.8312773],[127.3856164,34.8303861],[127.3866249,34.8294526],[127.3904229,34.8246792],[127.3925845,34.8228652],[127.3939736,34.8221094],[127.3956079,34.8213984],[127.3975115,34.8206223],[127.3986807,34.8202842],[127.4002505,34.8200464],[127.4067401,34.8195839],[127.4103725,34.8194364],[127.4140295,34.8195115],[127.4208778,34.8198474],[127.4278022,34.8204692],[127.4443997,34.8221615],[127.4504865,34.8219794],[127.4561162,34.8206636],[127.4600922,34.8183919],[127.462946,34.8162711],[127.4750521,34.8047689],[127.4763702,34.8028179],[127.4768311,34.8017401],[127.47724,34.7993195],[127.4772756,34.7985317],[127.4770979,34.797919],[127.4764747,34.7971557],[127.4753811,34.796405],[127.4745889,34.7960554],[127.4737694,34.7958263],[127.4702149,34.7949672]]]}}