{"type":"Feature","properties":{"id":"병풍_-_마산","name":"병풍 - 마산","operator":"","category":"ferry","attribution":"© OpenStreetMap contributors"},"geometry":{"type":"MultiLineString","coordinates":[[[126.2172794,34.9550412],[126.2176542,34.9551238],[126.2193202,34.9563691],[126.2254127,34.9599697],[126.2301137,34.9635621],[126.2321476,34.9654212],[126.234883,34.968444],[126.2359016,34.9693897],[126.2372247,34.9699553],[126.2389032,34.9700063],[126.2405818,34.9691742],[126.2420314,34.9679878],[126.2435244,34.9663892],[126.2466329,34.9625172],[126.2481724,34.9588482],[126.2491311,34.955969],[126.249859,34.9527647]]]}}