{"type":"Feature","properties":{"id":"보성군_장도사랑호(상진포구_-_장도)","name":"장도사랑호(상진포구 - 장도)","operator":"보성군","category":"ferry","attribution":"© OpenStreetMap contributors"},"geometry":{"type":"MultiLineString","coordinates":[[[127.4117995,34.8154021],[127.4124812,34.8154785],[127.4143012,34.8155896],[127.415882,34.8156967],[127.4185447,34.816007],[127.4210915,34.8164132],[127.4235822,34.8169487],[127.4248281,34.8171192],[127.4257556,34.8171922],[127.4261292,34.8171861],[127.4274025,34.8170788],[127.4310098,34.8163888],[127.4379181,34.8149329],[127.4428651,34.8142822],[127.4471401,34.8138327],[127.4520474,34.8133702],[127.4587041,34.8128225],[127.4647529,34.8122382],[127.466873,34.8117513],[127.4694675,34.8106558],[127.4713693,34.8097194],[127.4731146,34.808696],[127.4748492,34.8072839],[127.4760417,34.8060978],[127.4770434,34.8048006],[127.4777488,34.8034136],[127.4783954,34.802011],[127.4785188,34.8015685],[127.4786704,34.8008391],[127.4787083,34.8002241],[127.4785386,34.7992524],[127.4781947,34.7983567],[127.4778087,34.7976573],[127.4775326,34.7973137],[127.4770213,34.7968019],[127.4763291,34.7963459],[127.4758277,34.7960719],[127.4744453,34.795466],[127.4733127,34.7951953],[127.4727773,34.7951303],[127.4722295,34.7950654],[127.4714761,34.7950044],[127.4702149,34.7949672]]]}}