{"type":"Feature","properties":{"id":"비금(가산)_-하사치도(사치)","name":"비금(가산) -하사치도(사치)","operator":"","category":"ferry","attribution":"© OpenStreetMap contributors"},"geometry":{"type":"MultiLineString","coordinates":[[[126.0611866,34.7551085],[126.0615925,34.7551458],[126.062165,34.7554197],[126.0627702,34.7558849],[126.0633949,34.7565585],[126.063883,34.7575048],[126.0641173,34.7588842],[126.0640197,34.7606966],[126.0633168,34.7626533],[126.0600175,34.7711371],[126.0592561,34.771987],[126.0582214,34.772436],[126.0568158,34.7725483],[126.0551173,34.7721634],[126.0512128,34.7701749],[126.0482649,34.7693249],[126.0439699,34.7688278],[126.0369222,34.7685872],[126.0305774,34.7690363],[126.0231978,34.7698221],[126.0180001,34.7694239],[126.0146098,34.7683134],[126.010962,34.7660219],[126.00637,34.7627255],[126.0042457,34.7615268],[126.0026579,34.7608569],[126.0010217,34.7604559],[125.9996626,34.7602104],[125.9986457,34.7610854]]]}}