{"type":"Feature","properties":{"id":"비금-흑산","name":"비금-흑산","operator":"","category":"ferry","attribution":"© OpenStreetMap contributors"},"geometry":{"type":"MultiLineString","coordinates":[[[125.9986457,34.7610854],[125.9986352,34.7598072],[125.997219,34.7582559],[125.9943866,34.7567398],[125.9643888,34.7432347],[125.9593677,34.7404135],[125.9561061,34.7379802],[125.9498405,34.7306797],[125.9446477,34.7238371],[125.9429311,34.7210506],[125.940442,34.7195691],[125.9367513,34.7188283],[125.926795,34.7167206],[125.9234047,34.7161121],[125.9206152,34.7158034],[125.9182656,34.7155389],[125.9129655,34.7155565],[125.9048009,34.7169763],[125.9013355,34.7175937],[125.898664,34.7172585],[125.8971405,34.7169058],[125.8921409,34.7137839],[125.890274,34.7130254],[125.8889329,34.7125051],[125.4584169,34.7063049],[125.455327,34.7048584],[125.4510355,34.7020006],[125.4452634,34.6975903],[125.4435199,34.6959385],[125.4423961,34.6951865],[125.4414386,34.6945955],[125.4404703,34.6939913],[125.4387134,34.6929371],[125.4380214,34.6925137],[125.4370692,34.6915257],[125.4366186,34.6910052],[125.4359508,34.6900657],[125.4356906,34.6890247],[125.435755,34.688233],[125.4361492,34.6874897],[125.4366562,34.686956],[125.4379651,34.6861554],[125.4396147,34.6854165],[125.441572,34.6845743]]]}}