{"type":"Feature","properties":{"id":"비안도_-_두리도","name":"비안도 - 두리도","operator":"","category":"ferry","attribution":"© OpenStreetMap contributors"},"geometry":{"type":"MultiLineString","coordinates":[[[126.4623607,35.7351077],[126.4643836,35.7349595],[126.4677653,35.7351459],[126.4704046,35.7359297],[126.4723787,35.7369399],[126.4738592,35.7387165],[126.4744386,35.7405975],[126.4738807,35.7430358],[126.4722499,35.7448819],[126.4705548,35.7459094],[126.4697366,35.7463091],[126.4691902,35.7466843],[126.4687211,35.7471385]]]}}