{"type":"Feature","properties":{"id":"삼목-신도-장봉","name":"삼목-신도-장봉","operator":"","category":"ferry","attribution":"© OpenStreetMap contributors"},"geometry":{"type":"MultiLineString","coordinates":[[[126.4525664,37.5000099],[126.4522782,37.5008289],[126.4517705,37.5040881],[126.4515865,37.5048181],[126.4513175,37.5056379],[126.4509069,37.5063454],[126.4504398,37.507008],[126.4498027,37.5076931],[126.4486843,37.5085241],[126.4403743,37.5121513],[126.4400345,37.5124208],[126.4398788,37.5125893],[126.4397104,37.5130672],[126.439588,37.5135218]],[[126.439588,37.5135218],[126.4396769,37.5130672],[126.4398274,37.512339],[126.4398703,37.5120156],[126.4398489,37.5116922],[126.4398274,37.5114709],[126.4397416,37.5111986],[126.4394412,37.5108752],[126.4387545,37.5105518],[126.4374885,37.5103816],[126.4320597,37.5101263],[126.424807,37.5100241],[126.4161167,37.5102624],[126.4136061,37.5104837],[126.4112243,37.5108412],[126.4064822,37.5118284],[126.4013538,37.5129007],[126.3989506,37.5137517],[126.3966975,37.5147729],[126.3946161,37.5161686],[126.3928137,37.5177344],[126.3895521,37.5212063],[126.3878999,37.5231464],[126.3865909,37.5253076],[126.384719,37.5303455]]]}}