{"type":"Feature","properties":{"id":"삽시도(밤섬)_~_장고도_(조석간만_차_발생시)","name":"삽시도(밤섬) ~ 장고도 (조석간만 차 발생시)","operator":"","category":"ferry","attribution":"© OpenStreetMap contributors"},"geometry":{"type":"MultiLineString","coordinates":[[[126.362508,36.3650577],[126.3651345,36.363224],[126.3675163,36.3616688],[126.3702629,36.3595607],[126.3725374,36.357297],[126.3742111,36.3547912],[126.3812063,36.3455453],[126.3827512,36.3429527],[126.3839314,36.3401008],[126.3844035,36.3364537],[126.3842318,36.3339646],[126.383116,36.3314236],[126.3811848,36.3293319],[126.3783739,36.3279489],[126.3753698,36.3269463],[126.3721511,36.3264622],[126.3695548,36.3264968],[126.3666151,36.3267561],[126.3644693,36.3271364],[126.3630189,36.3275346],[126.3625039,36.3278278]]]}}