{"type":"Feature","properties":{"id":"삽시도(밤섬)_~_대천_(조석간만_차_발생시)","name":"삽시도(밤섬) ~ 대천 (조석간만 차 발생시)","operator":"","category":"ferry","attribution":"© OpenStreetMap contributors"},"geometry":{"type":"MultiLineString","coordinates":[[[126.3625039,36.3278278],[126.3630924,36.3274157],[126.3646211,36.3267908],[126.3670029,36.3263241],[126.3703074,36.3261339],[126.3726463,36.3262549],[126.3757362,36.3266525],[126.5036669,36.3318905],[126.5050394,36.3318648],[126.5064498,36.3317218],[126.5084392,36.331481],[126.5092237,36.3313531],[126.5102885,36.3310446],[126.5111478,36.3305706],[126.5116334,36.3301567],[126.5119616,36.3298106],[126.512262,36.329171],[126.512388,36.3283768]]]}}