{"type":"Feature","properties":{"id":"상왕등도_-_식도","name":"상왕등도 - 식도","operator":"","category":"ferry","attribution":"© OpenStreetMap contributors"},"geometry":{"type":"MultiLineString","coordinates":[[[126.1123266,35.6582644],[126.1141918,35.6586511],[126.116379,35.6586379],[126.1194769,35.6584728],[126.1246431,35.6577374],[126.1269131,35.6573192],[126.1288103,35.6567872],[126.1319859,35.6559828],[126.1338072,35.6554819],[126.1360675,35.6549355],[126.138692,35.654169],[126.1405413,35.653744],[126.143829,35.6532051],[126.1467244,35.652598],[126.1505818,35.6520667],[126.154103,35.6517707],[126.1559056,35.6512243],[126.1579271,35.6506826],[126.1592441,35.6502424],[126.1607852,35.649825],[126.1615417,35.6496921],[126.1627372,35.6495138],[126.1642083,35.6492292],[126.1653384,35.6491533],[126.1666133,35.6489749],[126.1678649,35.6489142],[126.1695414,35.6485727],[126.1709004,35.6484209],[126.172236,35.6482615],[126.1743422,35.6481211],[126.1762335,35.6477909],[126.1784518,35.6476733],[126.1811931,35.6473355],[126.1837149,35.6470661],[126.1859144,35.6468915],[126.1879832,35.64666],[126.1899633,35.6463412],[126.1923404,35.6460338],[126.1947361,35.6456961],[126.1974353,35.6453621],[126.1995275,35.6450433],[126.2015869,35.6446069],[126.2040153,35.6442616],[126.2054444,35.6438365],[126.205736,35.6437646],[126.2061026,35.6436657],[126.206725,35.643538],[126.2072072,35.6434616],[126.2078372,35.6433915],[126.2083687,35.643374],[126.2088956,35.6433477],[126.209538,35.6433251],[126.2101186,35.6433099],[126.2114684,35.6432405],[126.2148455,35.6425798],[126.2186113,35.6413856],[126.2217117,35.6404192],[126.2266276,35.6387732],[126.2341807,35.6365759],[126.2354555,35.6357745],[126.2408022,35.6334923],[126.2459392,35.6312756],[126.2520102,35.6281024],[126.2566055,35.6257793],[126.2607525,35.6237598],[126.2639281,35.6223629],[126.2655345,35.6219073],[126.2688409,35.6215125],[126.2748256,35.6206578],[126.2787309,35.6202218],[126.2832584,35.6199427],[126.2854042,35.6202915],[126.287271,35.6207276],[126.2896957,35.6214428],[126.2901678,35.6218265],[126.290318,35.6222102],[126.2902322,35.6224544],[126.2896603,35.623131]]]}}