{"type":"Feature","properties":{"id":"서거차도-곽도","name":"서거차도-곽도","operator":"","category":"ferry","attribution":"© OpenStreetMap contributors"},"geometry":{"type":"MultiLineString","coordinates":[[[125.8569865,34.1985214],[125.8573365,34.1996639],[125.8579373,34.1998591],[125.8605981,34.2001786],[125.8632159,34.2006222],[125.8663702,34.2012611],[125.8710909,34.2018823],[125.8748674,34.2030536],[125.8770561,34.2037102],[125.880425,34.2047927],[125.8908748,34.2086791],[125.8981704,34.2109505],[125.9030627,34.2151382],[125.905981,34.2190418],[125.9095859,34.223371],[125.9125899,34.2275581],[125.9158515,34.2321707],[125.9185981,34.2363574],[125.9193706,34.2384683],[125.9193063,34.240189],[125.9191346,34.2414484],[125.9185767,34.2431336],[125.917933,34.2446413],[125.9165168,34.2460603],[125.9153581,34.2469383],[125.9147787,34.2474083],[125.9147251,34.2482242],[125.9161842,34.2512395],[125.9164417,34.2518248],[125.9165382,34.2521396],[125.9165221,34.2529776],[125.9164041,34.2533545],[125.91627,34.2535319],[125.9160699,34.2538431]]]}}