{"type":"Feature","properties":{"id":"서도-거문도","name":"서도-거문도","operator":"","category":"ferry","attribution":"© OpenStreetMap contributors"},"geometry":{"type":"MultiLineString","coordinates":[[[127.2964384,34.0465655],[127.2964599,34.0467244],[127.2965618,34.0468666],[127.296771,34.0469822],[127.2973804,34.0471221],[127.2979136,34.0471909],[127.2983569,34.0472038],[127.2988607,34.0471739],[127.2995621,34.0469943],[127.2999125,34.0468022],[127.3001876,34.0465571],[127.3004296,34.046191],[127.300737,34.0454791],[127.3013379,34.0434611],[127.3021103,34.0398961],[127.3024537,34.0388648],[127.3033656,34.0358153],[127.3041381,34.0336993],[127.3052002,34.0312364],[127.3060371,34.0297337],[127.3067267,34.0284558],[127.306932,34.028141],[127.3071337,34.0279826],[127.3073425,34.0278829],[127.3077672,34.0277568],[127.3079761,34.0277069],[127.3082273,34.0276923],[127.3084432,34.0276952],[127.3085456,34.027709],[127.3085685,34.0277135],[127.3085892,34.0277178],[127.3086121,34.027727]]]}}