{"type":"Feature","properties":{"id":"서넙도_-_마안도","name":"서넙도 - 마안도","operator":"","category":"ferry","attribution":"© OpenStreetMap contributors"},"geometry":{"type":"MultiLineString","coordinates":[[[126.4863438,34.188757],[126.4884278,34.1893957],[126.4899942,34.1902121],[126.4917108,34.1916321],[126.4942857,34.1947736],[126.4956805,34.1959272],[126.4977404,34.1977907],[126.4988991,34.199317],[126.4996716,34.2012515],[126.5004226,34.203665],[126.5011736,34.2048008],[126.5022251,34.2056526],[126.5038773,34.206327],[126.5058085,34.2065754],[126.508083,34.2065044],[126.5115866,34.2059645],[126.5128096,34.2060178],[126.5137323,34.2062218],[126.5144512,34.2066211],[126.5149661,34.2071624],[126.5151056,34.2076681],[126.5151163,34.2080763],[126.5150091,34.2083424],[126.51482,34.20846]]]}}