{"type":"Feature","properties":{"id":"성남도-옥도","name":"성남도-옥도","operator":"","category":"ferry","attribution":"© OpenStreetMap contributors"},"geometry":{"type":"MultiLineString","coordinates":[[[126.0454023,34.3959764],[126.0454835,34.3958602],[126.0454476,34.3953312],[126.0406175,34.390665],[126.0290637,34.3810522],[126.0203304,34.3753497],[126.0183992,34.3736495],[126.0176053,34.371843],[126.0166397,34.3700896],[126.008185,34.3635259],[126.0066186,34.3611878],[126.0065542,34.3596822],[126.006919,34.3580348],[126.0076271,34.3564405],[126.0091721,34.3546337],[126.0108672,34.3536239],[126.0127984,34.3524548],[126.0148369,34.3514804],[126.0181414,34.3504529],[126.0207823,34.3498438]]]}}