{"type":"Feature","properties":{"id":"소도_~_안면도(영목)","name":"소도 ~ 안면도(영목)","operator":"","category":"ferry","attribution":"© OpenStreetMap contributors"},"geometry":{"type":"MultiLineString","coordinates":[[[126.4369036,36.401399],[126.4367828,36.4016425],[126.4360355,36.4021637],[126.4350693,36.4024826],[126.4346563,36.4025982],[126.4340165,36.4027327],[126.4335567,36.4028351],[126.4330211,36.4028712],[126.4324832,36.4028199],[126.4320372,36.4026547],[126.4316196,36.4023413],[126.4306286,36.4010595],[126.4292656,36.3997308],[126.4287883,36.3995619],[126.4282861,36.3995049],[126.4279467,36.3995465]]]}}