{"type":"Feature","properties":{"id":"소안도_-_횡간도","name":"소안도 - 횡간도","operator":"","category":"ferry","attribution":"© OpenStreetMap contributors"},"geometry":{"type":"MultiLineString","coordinates":[[[126.6343939,34.1795954],[126.6334364,34.1802857],[126.6324649,34.1811695],[126.6316924,34.1821813],[126.6311345,34.1833884],[126.6307483,34.1847907],[126.6305552,34.1865302],[126.6306195,34.1882697],[126.6309414,34.1898849],[126.6327868,34.1956887],[126.6328511,34.1979605],[126.6325936,34.1997175],[126.6318426,34.2012615],[126.6305766,34.2030361],[126.6296754,34.2045623],[126.6291819,34.2061062],[126.629096,34.2079163],[126.6295681,34.212459],[126.6295252,34.2149965],[126.6288815,34.2173209],[126.6277657,34.2204437],[126.6263924,34.2223422],[126.6248689,34.2237793],[126.6231952,34.2248971],[126.6196976,34.2260681],[126.6112647,34.228747],[126.609591,34.2297228],[126.608561,34.2308937],[126.6082392,34.2320291],[126.6082606,34.2332886],[126.608604,34.2343353],[126.6091189,34.2350449],[126.6108563,34.23659]]]}}