{"type":"Feature","properties":{"id":"소안항_-_당사도","name":"소안항 - 당사도","operator":"","category":"ferry","attribution":"© OpenStreetMap contributors"},"geometry":{"type":"MultiLineString","coordinates":[[[126.6343939,34.1795954],[126.6341307,34.1795256],[126.6337552,34.1793836],[126.6334547,34.1791883],[126.6328968,34.1786912],[126.6319098,34.1778037],[126.6304936,34.1761527],[126.6294247,34.1744177],[126.6287861,34.1726538],[126.6282834,34.1709156],[126.6281115,34.1693002],[126.6281332,34.1672761],[126.6282405,34.1612395],[126.6281332,34.1593219],[126.6277899,34.157422],[126.6268243,34.1553445],[126.6254223,34.1535605],[126.6230478,34.1507809],[126.6213808,34.1484338],[126.5983399,34.1068582],[126.5982755,34.1064346],[126.5982692,34.1060066]]]}}