{"type":"Feature","properties":{"id":"소성남도-성남도","name":"소성남도-성남도","operator":"","category":"ferry","attribution":"© OpenStreetMap contributors"},"geometry":{"type":"MultiLineString","coordinates":[[[126.0454023,34.3959764],[126.0453914,34.3958919],[126.0453592,34.3957901],[126.04515,34.3957281],[126.0447815,34.39571],[126.0441653,34.3956439],[126.0434382,34.3955524],[126.0427665,34.3955219],[126.042329,34.3956236],[126.0418237,34.3957659],[126.041454,34.3962236],[126.0412075,34.3968134],[126.0407269,34.3976879],[126.0401723,34.3985218],[126.0398026,34.3991624],[126.039211,34.3999454],[126.0388289,34.4003929],[126.038299,34.4007284],[126.0376335,34.4007081],[126.0369405,34.4004584],[126.0364105,34.4002381],[126.0362689,34.4001709],[126.0361268,34.4000945]]]}}