{"type":"Feature","properties":{"id":"속초_-_자루비노_Зарубино_-_Сокчо","name":"속초 - 자루비노 Зарубино - Сокчо","operator":"","category":"ferry","attribution":"© OpenStreetMap contributors"},"geometry":{"type":"MultiLineString","coordinates":[[[128.5980757,38.2066582],[128.5981569,38.2073091],[128.5982111,38.2075094],[128.5983097,38.2077104],[128.5984391,38.2078653],[128.5986332,38.2080178],[128.5987967,38.2080911],[128.5989769,38.2081347],[128.599188,38.2081432],[128.599419,38.2081323],[128.5996559,38.2081076],[128.5998688,38.2080558],[128.6000376,38.2079742],[128.6002093,38.2078556],[128.6003343,38.2077143],[128.6004526,38.2075419],[128.6005535,38.207353],[128.6006397,38.207169],[128.601115,38.2057753],[128.6014684,38.2046595],[128.6019736,38.2034654],[128.6022191,38.2030032],[128.6024492,38.2025972],[128.6026637,38.2023103],[128.6028785,38.2020846],[128.6031587,38.2018516],[128.6036491,38.2015451],[128.604095,38.2013011],[128.6045901,38.2011176],[128.6050827,38.2009671],[128.6056431,38.2008424],[128.6062409,38.2007341],[128.6068457,38.2006607],[128.6076559,38.200613],[128.6088947,38.2006089],[128.6140961,38.2008351],[128.6247636,38.2011486],[128.7124455,38.2016108],[128.9384856,38.2022242],[129.0198437,38.2024543],[129.0357804,38.2024926],[129.0481979,38.2027709],[129.1567171,38.2054732],[129.2423332,38.2072605],[129.6448791,38.2165503],[129.9760803,38.2249802],[130.0015971,38.2257286],[130.0151962,38.2263009],[130.0254702,38.2269026],[130.0347168,38.2275923],[130.043926,38.2283553],[130.0507629,38.229089],[130.0580107,38.2301896],[130.0639696,38.2312901],[130.0732349,38.2333297],[130.0833595,38.2360588],[130.0921204,38.2390813],[130.0992188,38.2421623],[130.1055139,38.2455366],[130.1118464,38.2492629],[130.1535775,38.2824239],[130.2309127,38.3453162],[130.317756,38.41638],[130.3238083,38.4208146],[130.3453837,38.4337948],[130.4270899,38.483733],[130.4743129,38.5126942],[130.6022709,38.5890397],[130.6735911,38.6279992],[130.6929622,38.6386222],[130.7575389,38.6740256],[130.7918727,38.6924717],[130.8066673,38.7005777],[130.8451667,38.7217423],[130.8655279,38.7326282],[130.8888219,38.7453628],[130.9360636,38.7711747],[130.952614,38.7802183],[130.9766552,38.7933521],[130.9938118,38.8026967],[131.056833,38.8373032],[131.1083529,38.8648592],[131.2012002,38.9159326],[131.2406609,38.9373831],[131.2539217,38.9438253],[131.2678263,38.950317],[131.2852499,38.9591942],[131.3270924,38.9795975],[131.3888475,39.0092826],[131.5208122,39.076645],[131.5872452,39.110452],[131.5998623,39.1168951],[131.6134879,39.1248691],[131.6260836,39.1345899],[131.6364262,39.1433274],[131.6472623,39.153212],[131.6566487,39.1626068],[131.6628445,39.1695035],[131.6681947,39.1764877],[131.6714308,39.1820342],[131.6745693,39.1876434],[131.6771712,39.1940586],[131.6786998,39.1996668],[131.6797081,39.2051611],[131.6800496,39.2096974],[131.6844008,39.4367049],[131.6868684,39.5473201],[131.6889712,39.6373876],[131.6904947,39.6951661],[131.6916105,39.7409185],[131.6920611,39.756575],[131.6928122,39.7874156],[131.6954515,39.8858479],[131.6957436,40.1766503],[131.6958294,40.2460473],[131.6957865,40.2929381],[131.6958723,40.3252875],[131.6958294,40.3751965],[131.6962371,40.4717535],[131.6964946,40.5083406],[131.6971383,40.5575924],[131.6990052,40.7105306],[131.7001687,40.7935506],[131.7007367,40.9293508],[131.7012983,41.174178],[131.70163,41.2955126],[131.6975448,41.3511765],[131.6833006,41.5863906],[131.6797816,41.6432927],[131.6775071,41.6821664],[131.6751682,41.7163078],[131.6721427,41.7654933],[131.6708337,41.789912],[131.6679799,41.8338134],[131.6645466,41.8935476],[131.660597,41.9533558],[131.6581966,41.9915226],[131.6571679,42.0084345],[131.6545008,42.0522603],[131.6535495,42.0678851],[131.6523776,42.0871281],[131.6500381,42.1255241],[131.6483622,42.1530157],[131.6476873,42.1633358],[131.6457392,42.1942838],[131.6434953,42.2299118],[131.642813,42.2407417]],[[131.642813,42.2407417],[131.6418552,42.2544933],[131.6413352,42.2653768],[131.6409463,42.2729545],[131.6404257,42.2773203],[131.6396937,42.2823332],[131.6376173,42.2948411],[131.6355782,42.3073751],[131.6326927,42.325078],[131.6314374,42.3300672],[131.6299783,42.334826],[131.6287338,42.3382045],[131.6266309,42.3429468],[131.6238414,42.3483231],[131.6208588,42.3527316],[131.6167389,42.3572825],[131.6125762,42.3613099],[131.6076838,42.3653211],[131.6032635,42.3687297],[131.5999161,42.3707272],[131.5042578,42.4157334],[131.4700114,42.4284845],[131.3956644,42.4562422],[131.2429716,42.5144902],[131.1262948,42.5685823],[131.1236936,42.5699786],[131.1212232,42.5713027],[131.1191357,42.5725477],[131.1179635,42.5734934],[131.1165859,42.5749344],[131.1156052,42.5761758],[131.1148673,42.5774379],[131.1143162,42.5786965],[131.1138929,42.5799731],[131.1127127,42.5853923],[131.1103696,42.6172912],[131.1103696,42.6237039],[131.1064214,42.6321662],[131.0987634,42.6373168],[131.0963494,42.6387849],[131.0935814,42.6401108],[131.087069,42.6421312],[131.083417,42.6431492]]]}}