{"type":"Feature","properties":{"id":"속초_-_블라디보스토크_Владивосток_-_Сокчо","name":"속초 - 블라디보스토크 Владивосток - Сокчо","operator":"","category":"ferry","attribution":"© OpenStreetMap contributors"},"geometry":{"type":"MultiLineString","coordinates":[[[128.5980757,38.2066582],[128.5982164,38.2072933],[128.5982653,38.2074419],[128.5983238,38.2075908],[128.5983947,38.2076949],[128.5984794,38.2077845],[128.5985795,38.2078644],[128.5987305,38.2079455],[128.5989046,38.2079963],[128.5990894,38.2080217],[128.5992496,38.208029],[128.5993898,38.2080217],[128.5995408,38.2079963],[128.5996887,38.2079576],[128.5998535,38.2078777],[128.5999937,38.2077796],[128.6001416,38.2076537],[128.6002433,38.207523],[128.6003588,38.2073644],[128.6004728,38.2071225],[128.60066,38.2066596],[128.6014058,38.2046401],[128.6016054,38.2041467],[128.6017875,38.2036953],[128.602035,38.2032073],[128.6023012,38.2027449],[128.6026328,38.2022825],[128.602997,38.2019155],[128.6034033,38.2016256],[128.6039404,38.20131],[128.6044634,38.2010898],[128.6051499,38.2009026],[128.6059438,38.2007375],[128.6068918,38.2006274],[128.6076857,38.200565],[128.6086618,38.2005576],[128.6101447,38.2005904],[128.6335528,38.201234],[128.7172687,38.2014496],[128.8155758,38.2017028],[128.9356939,38.2020122],[129.0405826,38.2022824],[129.1948494,38.2058243],[129.3467683,38.2093121],[129.5083525,38.2130216],[129.67921,38.2169438],[129.7074437,38.2173016],[129.8665983,38.2215212],[129.9961075,38.2251271],[130.0017509,38.2253883],[130.0109992,38.2257423],[130.0213632,38.2261806],[130.0307402,38.2268549],[130.039967,38.2275123],[130.0478205,38.2282202],[130.0558886,38.2292653],[130.0650296,38.2310857],[130.0736341,38.2329061],[130.0834617,38.2356365],[130.0913152,38.2382321],[130.0985465,38.2411477],[130.1044044,38.244097],[130.1103482,38.2474842],[130.1147685,38.2505849],[130.1229224,38.2569037],[130.1768893,38.3008057],[130.2281508,38.3424822],[130.2892193,38.3922303],[130.322865,38.4196049],[130.3270737,38.4223878],[130.3363104,38.4279041],[130.346409,38.4340061],[130.352865,38.4378529],[130.4304992,38.4855779],[130.4544529,38.5003295],[130.4961158,38.5255874],[130.5623179,38.5666937],[130.5805312,38.5766742],[130.6309105,38.6042817],[130.6850788,38.6339747],[130.7478822,38.6680995],[130.8001733,38.6966203],[130.8516502,38.7249004],[130.8926344,38.7471282],[130.9944511,38.8028681],[131.0661626,38.8420706],[131.1621862,38.8932825],[131.2994882,38.9664453],[131.3597413,38.9937512],[131.3813277,39.004774],[131.4476748,39.038782],[131.5297492,39.0806626],[131.6041442,39.1186032],[131.6087147,39.1212169],[131.6142293,39.1249124],[131.6200443,39.1290572],[131.6266104,39.1344168],[131.6336056,39.1405083],[131.6407724,39.1467656],[131.64633,39.1518742],[131.6538616,39.1590457],[131.6583463,39.1637208],[131.6648694,39.1711739],[131.6704269,39.1790752],[131.6743108,39.186011],[131.6765638,39.1910503],[131.6786238,39.1972532],[131.6798254,39.2026076],[131.6805979,39.2072466],[131.6808983,39.2111039],[131.6809412,39.217621],[131.6815206,39.2624757],[131.6828691,39.3301225],[131.6846993,39.4218358],[131.685931,39.4834867],[131.6874366,39.5587713],[131.6883378,39.5965954],[131.6913204,39.7145987],[131.6933257,39.7938035],[131.6956744,39.8864527],[131.6962923,39.9962335],[131.6962092,40.1277189],[131.6961971,40.1468574],[131.69619,40.1580859],[131.6961843,40.16704],[131.6961614,40.2031487],[131.6961211,40.2667502],[131.6962498,40.3778979],[131.6965285,40.4901425],[131.697872,40.6014116],[131.6986264,40.6623984],[131.6995457,40.7366435],[131.7008344,40.8331834],[131.7008969,40.9265649],[131.7010602,41.015242],[131.7012187,41.1011998],[131.7014511,41.194757],[131.7017025,41.2957716],[131.7012277,41.3029243],[131.699879,41.3215371],[131.6954374,41.3893831],[131.6929483,41.4354883],[131.6913819,41.458215],[131.6899442,41.482895],[131.6884636,41.507437],[131.6870903,41.527986],[131.685245,41.5596723],[131.6840433,41.5798676],[131.6826915,41.6006022],[131.6812967,41.6254043],[131.6800093,41.6447292],[131.6780566,41.6774321],[131.6766404,41.7004264],[131.6742372,41.7360792],[131.6710495,41.790159],[131.6705563,41.797815],[131.6694831,41.8144723],[131.667273,41.8506533],[131.6659081,41.8734714],[131.6658353,41.874688],[131.6647195,41.8945609],[131.6633247,41.9142361],[131.6608822,41.9533864],[131.6585182,41.9915205],[131.6574668,42.0084553],[131.6547631,42.0522704],[131.6538014,42.0678997],[131.6526174,42.0871383],[131.6502785,42.125536],[131.6486477,42.1530306],[131.6479771,42.1633546],[131.6459655,42.1943137],[131.6437124,42.2299296],[131.64304,42.2407774]],[[131.64304,42.2407774],[131.6421889,42.2545042],[131.6416332,42.2653887],[131.6412275,42.272961],[131.6406955,42.2773512],[131.6399452,42.2823474],[131.6378988,42.2948723],[131.6358523,42.3073953],[131.6330479,42.3251193],[131.6313033,42.3361432],[131.6277055,42.3588153],[131.6264538,42.3667012],[131.6231064,42.388037],[131.619008,42.4134529],[131.6152958,42.4366573],[131.6101031,42.4693349],[131.6096114,42.4724688],[131.6049747,42.5020112],[131.6020135,42.520818],[131.5987091,42.5405678],[131.5940742,42.5699675],[131.5893535,42.5994165],[131.5851263,42.6257413],[131.5825085,42.6420486],[131.5742258,42.6937837],[131.5628893,42.7656134],[131.5534002,42.8252465],[131.553331,42.8257486],[131.5532495,42.8263313],[131.5531645,42.8271334],[131.5530973,42.828073],[131.5531185,42.8288855],[131.5531964,42.8296252],[131.553299,42.8303468],[131.5534795,42.8311592],[131.5537096,42.8322986],[131.5551707,42.8386071],[131.5572588,42.8468904],[131.557577,42.8479123],[131.5579139,42.8486898],[131.5586378,42.8500183],[131.559399,42.8510865],[131.5601229,42.8520862],[131.560991,42.8529708],[131.5629337,42.855114],[131.5741777,42.8674509],[131.5787406,42.8725149],[131.5925164,42.8873425],[131.6014857,42.8973722],[131.6105838,42.9071803],[131.6199179,42.9173797],[131.6269345,42.925142],[131.637599,42.9366737],[131.6455169,42.9454389],[131.6545506,42.9552236],[131.6651936,42.9666869],[131.6728754,42.9752123],[131.6800637,42.982936],[131.6869946,42.9904232],[131.6938181,42.997941],[131.7020793,43.0070269],[131.7177472,43.0241578],[131.7290655,43.0364137],[131.740026,43.0482749],[131.7487586,43.0577931],[131.7569709,43.0667277],[131.7593135,43.0691494],[131.7597945,43.0695895],[131.7603689,43.0700227],[131.7607798,43.0702684],[131.7612609,43.0704526],[131.7618213,43.0705993],[131.7623536,43.0706675],[131.7631102,43.0706982],[131.7702366,43.0708176],[131.7878004,43.0711861],[131.8280511,43.0721655],[131.8312924,43.0719404],[131.8434003,43.0711007],[131.8487755,43.0717277],[131.8644613,43.0847014],[131.8759075,43.0942478],[131.876856,43.0957571],[131.8781901,43.0980535],[131.8799442,43.1010009],[131.8848464,43.109406],[131.8839329,43.1118805]]]}}