{"type":"Feature","properties":{"id":"손축도_-_소거문도_-_평도_-_광도","name":"손축도 - 소거문도 - 평도 - 광도","operator":"","category":"ferry","attribution":"© OpenStreetMap contributors"},"geometry":{"type":"MultiLineString","coordinates":[[[127.5294799,34.2628701],[127.4726009,34.2557283],[127.446723,34.252394],[127.4458003,34.2521013],[127.4453926,34.2518619],[127.4447274,34.2511879],[127.4443841,34.2500528],[127.4443197,34.2489885],[127.4447703,34.2474809],[127.4452639,34.246328],[127.4455428,34.2459555],[127.445929,34.2456717],[127.4467423,34.2453385],[127.442531,34.2462771],[127.4362741,34.2480553],[127.3943663,34.2622547],[127.3874765,34.2649256],[127.3828649,34.2669896],[127.381717,34.2676368],[127.3806548,34.2685323],[127.3799252,34.2695608],[127.3795175,34.2704297],[127.379303,34.2715114],[127.379303,34.2722739],[127.3795175,34.2735683],[127.3803759,34.2764408],[127.3816419,34.2790295],[127.3829937,34.2813167],[127.3838091,34.2823273],[127.3846459,34.2831074],[127.3856759,34.2836393],[127.3868132,34.2841003],[127.3874569,34.2843308],[127.3880524,34.2844754],[127.3793567,34.2845669],[127.3789535,34.284629],[127.378404,34.2847851],[127.377962,34.2850279],[127.3751725,34.2871199],[127.3702801,34.2923498],[127.3678125,34.2948671],[127.3672546,34.2953812],[127.366804,34.295718],[127.3662686,34.2960467],[127.3654092,34.2963207],[127.3645509,34.2964094],[127.3635639,34.2964094],[127.3626412,34.2962144],[127.3616112,34.2959307],[127.3608816,34.2955053],[127.3598088,34.2946898],[127.3592509,34.2942289],[127.3587788,34.293573],[127.3585213,34.2930766],[127.3583496,34.2925448],[127.3583711,34.2921193],[127.3584569,34.2915698],[127.3585396,34.2913536],[127.358693,34.2910379],[127.3589094,34.2907225],[127.3590861,34.2905264],[127.3594527,34.2903587]]]}}