{"type":"Feature","properties":{"id":"송공-비금","name":"송공-비금","operator":"","category":"ferry","attribution":"© OpenStreetMap contributors"},"geometry":{"type":"MultiLineString","coordinates":[[[126.2266979,34.8478008],[126.2199068,34.8443279],[126.163473,34.8317003],[126.1534309,34.826698],[126.1367797,34.8133806],[126.1251926,34.8021753],[126.116352,34.7967131],[126.0979843,34.7932241],[126.0882854,34.7950215],[126.0835218,34.7944224],[126.0623645,34.7770109],[126.0583734,34.7739441],[126.0502838,34.7701016],[126.0400485,34.7690264],[126.0262942,34.7700135],[126.017046,34.7698372],[126.0111236,34.767299],[126.0043859,34.7621694],[126.002326,34.7609178],[126.0008991,34.7606974],[125.9994051,34.7606665],[125.9986457,34.7610854]]]}}