{"type":"Feature","properties":{"id":"쉬미항-저도","name":"쉬미항-저도","operator":"","category":"ferry","attribution":"© OpenStreetMap contributors"},"geometry":{"type":"MultiLineString","coordinates":[[[126.1999627,34.5052817],[126.1979418,34.5049256],[126.1966971,34.5055147],[126.1956249,34.5070279],[126.1954215,34.5079623],[126.1954215,34.5081298],[126.1957068,34.509482],[126.1965449,34.5117975],[126.1969023,34.5143769],[126.195904,34.516946],[126.1948811,34.5174639],[126.1931434,34.5178904],[126.1911222,34.5179919],[126.1876345,34.5178092],[126.1850094,34.5159915],[126.1828773,34.5136762],[126.1814724,34.5114014],[126.1797964,34.5097049],[126.1779843,34.5081651],[126.176059,34.5073834],[126.1726897,34.5069401],[126.1700285,34.5066759],[126.1660575,34.5069045]]]}}