{"type":"Feature","properties":{"id":"시산페리호(오천_-_시산도)","name":"시산페리호(오천 - 시산도)","operator":"","category":"ferry","attribution":"© OpenStreetMap contributors"},"geometry":{"type":"MultiLineString","coordinates":[[[127.213237,34.4347006],[127.2145142,34.4346835],[127.2157386,34.4346622],[127.2192055,34.4345109],[127.2246162,34.4341808],[127.2266678,34.4340225],[127.2305781,34.4335552],[127.2375089,34.4323871],[127.246328,34.430051],[127.2495324,34.4287763],[127.2524005,34.4273784],[127.2583228,34.4239624],[127.2613698,34.4212897],[127.2634083,34.4184398],[127.2645917,34.4163267],[127.2660691,34.4129877],[127.2675496,34.408562],[127.2678575,34.4069494],[127.2680432,34.4050567],[127.2680002,34.4036581],[127.2678774,34.402538],[127.2677294,34.4020451],[127.2674965,34.4013187],[127.2667557,34.3992673],[127.2659554,34.3972767],[127.2654188,34.3961501],[127.2650218,34.3955195],[127.2647741,34.3952525],[127.264397,34.3950571],[127.2641013,34.3949574],[127.2638839,34.3949479],[127.2636668,34.394981],[127.263311,34.3951006],[127.2617578,34.3958831],[127.2614844,34.3959856],[127.2611967,34.3960597],[127.2609623,34.3960876],[127.2608601,34.3960665],[127.2607477,34.3960016],[127.2606776,34.3959191]]]}}