{"type":"Feature","properties":{"id":"안면도_~_원산도(초전)","name":"안면도 ~ 원산도(초전)","operator":"","category":"ferry","attribution":"© OpenStreetMap contributors"},"geometry":{"type":"MultiLineString","coordinates":[[[126.4279467,36.3995465],[126.4281668,36.3993426],[126.4281889,36.3992214],[126.4279459,36.3975676],[126.4278286,36.3964475],[126.4277521,36.3957306],[126.4271434,36.3948453],[126.4262411,36.3938968],[126.424279,36.3931602],[126.4197001,36.3916479],[126.4183424,36.3910124],[126.417527,36.3899587],[126.4155314,36.3864867],[126.4144371,36.3854157],[126.4129565,36.3846038],[126.4110468,36.3843619],[126.4034722,36.3838437],[126.401541,36.3834118],[126.4005863,36.3830175],[126.3988965,36.3819206]]]}}