{"type":"Feature","properties":{"id":"안좌도_-_자라도","name":"안좌도 - 자라도","operator":"","category":"ferry","attribution":"© OpenStreetMap contributors"},"geometry":{"type":"MultiLineString","coordinates":[[[126.1675084,34.6999277],[126.1671671,34.6992627],[126.1666008,34.6985643],[126.1661478,34.6978776],[126.165893,34.6973655],[126.165801,34.6968534],[126.165893,34.6965507],[126.1665017,34.6956894],[126.1674077,34.694735],[126.1689621,34.6931419],[126.1691993,34.6926812],[126.1692915,34.6922645],[126.1693018,34.6919669],[126.1692549,34.6917626]]]}}