{"type":"Feature","properties":{"id":"암태도(오도)_-_당사도","name":"암태도(오도) - 당사도","operator":"","category":"ferry","attribution":"© OpenStreetMap contributors"},"geometry":{"type":"MultiLineString","coordinates":[[[126.1578485,34.8621799],[126.1583646,34.8622371],[126.1589011,34.8623779],[126.1606254,34.8629135],[126.1623343,34.8635047],[126.1649957,34.8647676],[126.1670573,34.8658774],[126.1699732,34.8680294],[126.1709818,34.8689273],[126.1717542,34.8699484],[126.1721683,34.8706448],[126.1724838,34.8714624],[126.1728577,34.8728886],[126.1731907,34.8749069],[126.1732563,34.8762155],[126.1732348,34.8784864],[126.173149,34.8814965],[126.1731275,34.8833095],[126.172988,34.8842204],[126.1728808,34.8846869],[126.1727784,34.8849768],[126.1727419,34.8851002],[126.17271,34.8852603],[126.1727314,34.885431],[126.1728388,34.8856255]]]}}