{"type":"Feature","properties":{"id":"압해도(송공)_-_당사도","name":"압해도(송공) - 당사도","operator":"","category":"ferry","attribution":"© OpenStreetMap contributors"},"geometry":{"type":"MultiLineString","coordinates":[[[126.1728388,34.8856255],[126.1727815,34.8853974],[126.1727786,34.8851925],[126.1728356,34.8850197],[126.1731933,34.8835723],[126.1743235,34.8780761],[126.175143,34.875269],[126.1766949,34.8730322],[126.1798745,34.871356],[126.1846275,34.8694697],[126.1895387,34.8681744],[126.1953527,34.8659123],[126.1994882,34.8634452],[126.2023148,34.8597633],[126.2045282,34.8543669],[126.2062448,34.8492075],[126.2077469,34.8472352],[126.2098712,34.8459321],[126.2127036,34.8449635],[126.2160724,34.8449107],[126.2205785,34.8456327],[126.2266979,34.8478008]]]}}