{"type":"Feature","properties":{"id":"압해도_-_매화도","name":"압해도 - 매화도","operator":"","category":"ferry","attribution":"© OpenStreetMap contributors"},"geometry":{"type":"MultiLineString","coordinates":[[[126.2266979,34.8478008],[126.2261473,34.8478208],[126.2257235,34.8480233],[126.2251966,34.8483755],[126.2247615,34.8489304],[126.2244483,34.8496953],[126.2214326,34.8602026],[126.2211653,34.8615559],[126.2196633,34.8676724],[126.2181398,34.8759114],[126.2173764,34.8798378],[126.2165734,34.8859097],[126.2159995,34.8934922],[126.2155918,34.9011654],[126.2153558,34.9080284],[126.2155006,34.9117464],[126.2160766,34.9156406],[126.2168908,34.9176643],[126.2176563,34.9184079],[126.2180489,34.9186604],[126.218565,34.9189758]]]}}