{"type":"Feature","properties":{"id":"압해(송공)_-_목포(북항)","name":"압해(송공) - 목포(북항)","operator":"","category":"ferry","attribution":"© OpenStreetMap contributors"},"geometry":{"type":"MultiLineString","coordinates":[[[126.3649014,34.8043572],[126.3613579,34.8043231],[126.3593414,34.8045368],[126.357455,34.8052311],[126.3555198,34.8065263],[126.3537961,34.8080485],[126.3518935,34.8101581],[126.3501534,34.8115333],[126.3468523,34.8129085],[126.3360056,34.8163664],[126.326346,34.8189431],[126.3176772,34.8205388],[126.2996313,34.8227936],[126.282036,34.8262284],[126.2703631,34.8295927],[126.2531111,34.8337846],[126.2343785,34.8407766],[126.2280485,34.8431717],[126.2266967,34.8441931],[126.2259457,34.8454258],[126.2258598,34.8467642],[126.2266979,34.8478008]]]}}