{"type":"Feature","properties":{"id":"약산_-_생일","name":"약산 - 생일","operator":"","category":"ferry","attribution":"© OpenStreetMap contributors"},"geometry":{"type":"MultiLineString","coordinates":[[[126.9888097,34.3613089],[126.9884666,34.3615098],[126.9880053,34.3616869],[126.9874796,34.3617666],[126.9869539,34.3617312],[126.9862029,34.3615806],[126.9858059,34.3615364],[126.9854411,34.3615364],[126.9851085,34.3615718],[126.9846579,34.3616515],[126.9841429,34.3618109],[126.9484803,34.3785481],[126.9479653,34.3786632],[126.9475469,34.3787075],[126.9471606,34.3786189],[126.9467215,34.3783493]]]}}