{"type":"Feature","properties":{"id":"양덕도-주지도","name":"양덕도-주지도","operator":"","category":"ferry","attribution":"© OpenStreetMap contributors"},"geometry":{"type":"MultiLineString","coordinates":[[[126.1053644,34.4944643],[126.1024675,34.4969673],[126.1001864,34.4977222],[126.0970172,34.4987711],[126.0950215,34.4981133],[126.0933961,34.4964139],[126.092569,34.4946252],[126.0920111,34.4935994],[126.0917429,34.4921935],[126.091936,34.4912207],[126.0917675,34.4901596],[126.0909382,34.4884706],[126.0900799,34.4874536],[126.089286,34.48664],[126.0869363,34.4864455],[126.0857923,34.4864305]]]}}