{"type":"Feature","properties":{"id":"어란진_-_어불도","name":"어란진 - 어불도","operator":"","category":"ferry","attribution":"© OpenStreetMap contributors"},"geometry":{"type":"MultiLineString","coordinates":[[[126.4760912,34.3379801],[126.4762785,34.3377152],[126.4764466,34.3375609],[126.4766614,34.3374684],[126.476951,34.3374298],[126.4772312,34.3374761],[126.477446,34.3375841],[126.4776515,34.3377769],[126.4782306,34.3386021],[126.4786789,34.3394967],[126.4789964,34.3405147],[126.4791459,34.3414555],[126.4792206,34.3424735],[126.4791459,34.3436303],[126.478903,34.3446482],[126.4784921,34.3454194],[126.4777636,34.3460826],[126.4770164,34.3464219],[126.4756901,34.3466532],[126.47371,34.3469771],[126.4731329,34.3471191],[126.4726728,34.3473236],[126.4723684,34.3475866],[126.4721844,34.3478496],[126.4721065,34.3481242],[126.4721136,34.3483405],[126.4722311,34.3485301]]]}}