{"type":"Feature","properties":{"id":"여수-금오도","name":"여수-금오도","operator":"","category":"ferry","attribution":"© OpenStreetMap contributors"},"geometry":{"type":"MultiLineString","coordinates":[[[127.7526547,34.5505613],[127.7526408,34.5508693],[127.7526297,34.5521972],[127.7517882,34.5534992],[127.7487708,34.5566968],[127.7457723,34.5602996],[127.7436392,34.563391],[127.742871,34.5653151],[127.7425702,34.5666245],[127.742743,34.569397],[127.7435949,34.5712082],[127.7446955,34.5736932],[127.746079,34.5802326],[127.7454388,34.5833159],[127.7439665,34.5866626],[127.7414378,34.5903518],[127.7404455,34.5918801],[127.7392612,34.5941462],[127.7377568,34.5963068],[127.7325394,34.600865],[127.727322,34.6079521],[127.7253694,34.6099279],[127.7233529,34.6110607],[127.7205041,34.6117983],[127.7166631,34.6122989],[127.7150947,34.6126677],[127.7133022,34.6141429],[127.7108055,34.6172513],[127.7078287,34.6229673],[127.7053641,34.6295784],[127.7045318,34.6336871],[127.7048519,34.635478],[127.708853,34.6443528],[127.7101974,34.6481974],[127.7137503,34.6585716],[127.7151924,34.6673887],[127.7166706,34.6752792],[127.7173948,34.6920064],[127.7168906,34.6975021],[127.7150299,34.7093461],[127.7147018,34.7129833],[127.7155271,34.717067],[127.7177285,34.7219347],[127.7200877,34.7230417],[127.7314044,34.7271025],[127.7332413,34.7287134],[127.733732,34.7303366],[127.7349428,34.7373428],[127.7349248,34.737505],[127.7348387,34.737681],[127.7345829,34.7379251],[127.7344303,34.7380411],[127.7341989,34.7381084],[127.733108,34.7381614]]]}}