{"type":"Feature","properties":{"id":"여수_-_개도","name":"여수 - 개도","operator":"","category":"ferry","attribution":"© OpenStreetMap contributors"},"geometry":{"type":"MultiLineString","coordinates":[[[127.733108,34.7381614],[127.7333474,34.7381446],[127.7341976,34.7380175],[127.7344381,34.7379006],[127.7345878,34.7377771],[127.7346872,34.7376624],[127.7347687,34.7375665],[127.7348108,34.7374706],[127.7348142,34.7373668],[127.7335995,34.7303714],[127.7331305,34.7287854],[127.7313373,34.7272044],[127.7199847,34.7231517],[127.7176159,34.7220387],[127.7153836,34.7171257],[127.7145474,34.7129789],[127.7147066,34.7093582],[127.7165783,34.6974811],[127.7170524,34.6919952],[127.7163049,34.6753293],[127.7148418,34.6674212],[127.7106534,34.6542226],[127.7065508,34.6456648],[127.6754155,34.5925891],[127.6744997,34.5886043],[127.6735912,34.5844515],[127.673264,34.5834371],[127.6722172,34.5816165],[127.6718359,34.5811277],[127.6713628,34.5802526]]]}}