{"type":"Feature","properties":{"id":"연도_-_어청도","name":"연도 - 어청도","operator":"","category":"ferry","attribution":"© OpenStreetMap contributors"},"geometry":{"type":"MultiLineString","coordinates":[[[125.984135,36.1169476],[125.9857661,36.1171982],[125.9864817,36.1170209],[125.987376,36.116456],[125.9880184,36.1154707],[125.9883355,36.1145642],[125.9883925,36.1139468],[125.9882542,36.1135921],[125.9878395,36.1133163],[125.9867826,36.112817],[125.9863375,36.112297],[125.9860045,36.1113545],[125.9860467,36.109844],[125.9867812,36.1081481],[125.9879371,36.1070364],[125.9893356,36.1061561],[125.9910919,36.1056569],[125.9948646,36.105119],[126.0049518,36.1037154],[126.4413404,36.0716648],[126.445825,36.0713873],[126.4473415,36.0715189],[126.4484996,36.0720322],[126.44906,36.0727871],[126.449415,36.0739497],[126.4495457,36.0754142],[126.4496391,36.0779355],[126.449415,36.0791433],[126.4488546,36.080185],[126.4482942,36.0807285],[126.4474186,36.0810833],[126.4461501,36.0814515],[126.445073,36.0816522]]]}}