{"type":"Feature","properties":{"id":"연대도-추도","name":"연대도-추도","operator":"","category":"ferry","attribution":"© OpenStreetMap contributors"},"geometry":{"type":"MultiLineString","coordinates":[[[128.3965574,34.7374195],[128.3955623,34.7381267],[128.3947612,34.7382414],[128.3925096,34.7384409],[128.3917418,34.7389828],[128.3912097,34.7397234],[128.3907033,34.7404851],[128.3900252,34.7406615],[128.3897383,34.7404143],[128.3896774,34.7403453],[128.3895123,34.7411925],[128.3888997,34.742047],[128.3855223,34.7448243],[128.3835953,34.7447999],[128.3810948,34.7445506],[128.3799075,34.7445897],[128.3691959,34.7469453],[128.3481136,34.7511871],[128.3358541,34.7526153],[128.3203874,34.7551681],[128.3135974,34.7560048],[128.307044,34.7593847],[128.3033919,34.7604165],[128.301277,34.7597306],[128.3011457,34.7585406]]]}}