{"type":"Feature","properties":{"id":"오천_~_월도","name":"오천 ~ 월도","operator":"","category":"ferry","attribution":"© OpenStreetMap contributors"},"geometry":{"type":"MultiLineString","coordinates":[[[126.4699203,36.4088672],[126.4707854,36.4083597],[126.4721778,36.408158],[126.4735296,36.4082789],[126.4749673,36.4086761],[126.4761689,36.4094359],[126.4772204,36.410662],[126.4856747,36.4277908],[126.4866832,36.4288439],[126.4879277,36.4295863],[126.4894512,36.4300179],[126.4911893,36.4301733],[126.4999226,36.4301215],[126.5015963,36.4304323],[126.5038279,36.4312092],[126.5052655,36.4321414],[126.5145782,36.4389949],[126.5156178,36.4395536],[126.5162407,36.4398383],[126.5168707,36.4400035],[126.5174848,36.4400658],[126.5186597,36.4401722],[126.5207694,36.4403754],[126.5215586,36.4401318]]]}}