{"type":"Feature","properties":{"id":"완도항_-_소모도_-_대모도","name":"완도항 - 소모도 - 대모도","operator":"","category":"ferry","attribution":"© OpenStreetMap contributors"},"geometry":{"type":"MultiLineString","coordinates":[[[126.7594677,34.3164506],[126.7594627,34.3173266],[126.7594942,34.3176052],[126.7595481,34.3178288],[126.759635,34.3180409],[126.759796,34.3183476],[126.7601489,34.3187681],[126.7608356,34.3195125],[126.7614579,34.3200264],[126.7627239,34.3206998],[126.7637324,34.3212138],[126.7646336,34.3215327],[126.7662644,34.3220289],[126.7684101,34.3223834],[126.7696332,34.3224188],[126.7711353,34.3224543],[126.7726802,34.3222593],[126.7740106,34.3219403],[126.7755341,34.3214619],[126.7784952,34.3202922],[126.7802548,34.3192466],[126.7814135,34.3184668],[126.7826151,34.3173503],[126.7841172,34.315968],[126.7858552,34.3139653],[126.788237,34.3108459],[126.789267,34.3092331],[126.7908978,34.3062022],[126.7916703,34.3044651],[126.7925819,34.3013044],[126.7931612,34.2981491],[126.7936333,34.2947101],[126.7941054,34.2902959],[126.7943629,34.2854205],[126.7942556,34.2812363],[126.793805,34.2781335],[126.7925604,34.271431],[126.7909082,34.2616777],[126.7853292,34.2400746],[126.7845782,34.2378927],[126.7838915,34.236651],[126.7829474,34.2354092],[126.7813381,34.2339191],[126.779364,34.2325353],[126.777068,34.231258],[126.7753762,34.2304038],[126.7740743,34.2298241],[126.7715082,34.2288408],[126.7715677,34.229029],[126.771675,34.2293128],[126.7717179,34.2295612],[126.7717501,34.2299426],[126.7716857,34.2302353],[126.7715463,34.2305813],[126.7713746,34.2307587],[126.7706236,34.2311845],[126.7698082,34.2314328],[126.7684993,34.2315215],[126.7657098,34.2314151],[126.7641005,34.231078],[126.7626413,34.2306345],[126.7614826,34.2299604],[126.7581567,34.2270685],[126.7559251,34.224975],[126.7542085,34.2224556],[126.751655,34.2181796],[126.7489728,34.212324],[126.7487153,34.2112416],[126.7486938,34.209751],[126.7488655,34.2084379],[126.7493376,34.2070892],[126.7508616,34.2028144],[126.750949,34.2042736],[126.7511092,34.2056802],[126.7514296,34.2071173],[126.7517254,34.2080958],[126.7521444,34.2089519],[126.753648,34.2108985],[126.7549051,34.211775],[126.7558787,34.2121215],[126.7578259,34.212733],[126.7587749,34.2129573],[126.7618066,34.2131203],[126.7628172,34.2131305],[126.7641605,34.2130388],[126.7656394,34.2128248],[126.767143,34.2124375],[126.7690409,34.2116425],[126.7699779,34.2110248],[126.7705523,34.2105942],[126.771257,34.2097211],[126.7718825,34.2085929],[126.7721681,34.2073734],[126.7722206,34.2062188],[126.7720143,34.2049402],[126.7715573,34.2032152],[126.7709122,34.2015222],[126.7702916,34.2000647],[126.769975,34.1991442],[126.7699171,34.198922],[126.7698934,34.1988099],[126.7698314,34.1986982],[126.7696919,34.1986097],[126.7693305,34.1984715]]]}}