{"type":"Feature","properties":{"id":"용암포-사량도_(Yongampo_Saryang_Island)","name":"용암포-사량도 (Yongampo / Saryang Island)","operator":"","category":"ferry","attribution":"© OpenStreetMap contributors"},"geometry":{"type":"MultiLineString","coordinates":[[[128.1746431,34.9015789],[128.1747784,34.9014745],[128.175013,34.9013071],[128.1754082,34.9010689],[128.1758511,34.9006042],[128.1767534,34.8994579],[128.1775788,34.8978467],[128.1782298,34.8964261],[128.1785436,34.8958063],[128.1789272,34.8952819],[128.1791946,34.8950626],[128.1800316,34.8944143],[128.1812056,34.893661],[128.1828912,34.8926599],[128.1841467,34.8918018],[128.1857407,34.8906409],[128.1873572,34.8890467],[128.1886468,34.887244],[128.1902634,34.8849942],[128.191117,34.8839363],[128.1917709,34.8833999],[128.1930787,34.8826251],[128.1947134,34.8817758],[128.1960393,34.8809861],[128.1968567,34.8803454],[128.1990363,34.8784382],[128.2289463,34.8527137],[128.2327155,34.849484],[128.2333044,34.8487533],[128.2337089,34.8478781],[128.233784,34.846974],[128.2337113,34.8460677],[128.2335224,34.8451375],[128.2331446,34.8444816],[128.232607,34.8437661],[128.2315172,34.8427882],[128.2305146,34.8422277],[128.2287564,34.8416075],[128.227727,34.8414574],[128.2267689,34.841457],[128.2257946,34.8415386],[128.225031,34.841754],[128.2246085,34.8419904],[128.2242739,34.8423519],[128.2240397,34.8428645],[128.223944,34.8432944],[128.2239391,34.8435525],[128.2239558,34.8437643],[128.2234757,34.8426703],[128.2230613,34.8419867],[128.2215521,34.8401868],[128.221269,34.8395907],[128.2212444,34.8391766]]]}}