{"type":"Feature","properties":{"id":"울릉-죽도","name":"울릉-죽도","operator":"","category":"ferry","attribution":"© OpenStreetMap contributors"},"geometry":{"type":"MultiLineString","coordinates":[[[130.9370673,37.5270277],[130.9365687,37.5269239],[130.9345972,37.5264559],[130.9336209,37.5259624],[130.9234405,37.4834778],[130.9231421,37.4828309],[130.9228256,37.482345],[130.922406,37.4818482],[130.9219106,37.4814551],[130.9213058,37.4811116],[130.9186524,37.4800274],[130.9178281,37.4797216],[130.9169863,37.4794904],[130.9161172,37.4793159],[130.9153609,37.4791882],[130.9147022,37.4790822],[130.9143839,37.4790545],[130.9140296,37.4790301],[130.9136986,37.4790203],[130.9133082,37.4790271],[130.9126679,37.4790903],[130.9123775,37.4791401],[130.9121422,37.4792009],[130.9119092,37.4792793],[130.9117506,37.4793627],[130.9115833,37.4794657],[130.9114366,37.4795688],[130.9104498,37.4803386],[130.9102071,37.4806833],[130.9100053,37.4809956]]]}}