{"type":"Feature","properties":{"id":"울릉크루즈_포항(영일만신항)-울릉(사동)","name":"포항(영일만신항)-울릉(사동)","operator":"울릉크루즈","category":"ferry","attribution":"© OpenStreetMap contributors"},"geometry":{"type":"MultiLineString","coordinates":[[[129.4396671,36.0959897],[129.4541044,36.0958143],[129.4557352,36.0954848],[129.4572372,36.0948433],[129.4581384,36.0940457],[129.4587392,36.0929707],[129.4594688,36.0889133],[129.4599623,36.0874739],[129.4610567,36.0862602],[129.4626231,36.0856706],[129.464812,36.0856487],[129.4676978,36.086377],[129.4698288,36.0875908],[129.4944019,36.1050898],[129.5051736,36.1130815],[129.5296354,36.1307262],[129.553153,36.1476393],[129.5745892,36.1630589],[129.599802,36.1813505],[129.6251864,36.1995686],[129.6384043,36.2089358],[129.6519441,36.2189943],[129.6635313,36.2271648],[129.6714921,36.2327036],[129.6974344,36.2514116],[129.7196216,36.2671741],[129.7358436,36.2790414],[129.7433753,36.2842825],[129.7564859,36.2936741],[129.7690816,36.3022691],[129.7786088,36.3095837],[129.7956032,36.3216693],[129.8091001,36.3311428],[129.8221678,36.3405288],[129.8381109,36.3520566],[129.8523802,36.3623732],[129.8675508,36.3730684],[129.8823995,36.3838141],[129.8974414,36.3943682],[129.9121399,36.4049728],[129.923491,36.4133137],[129.9383182,36.4238294],[129.9535532,36.4344817],[129.9676294,36.4449944],[129.9816413,36.454988],[129.9961896,36.4653599],[130.0050301,36.4717273],[130.0144715,36.4782667],[130.0263805,36.4868414],[130.0363798,36.4938108],[130.0507135,36.504074],[130.0638885,36.5134909],[130.0797028,36.5248896],[130.0928993,36.534459],[130.1043148,36.5426482],[130.1198287,36.5536978],[130.1342911,36.5640048],[130.149333,36.5748619],[130.155384,36.5816338],[130.1638813,36.5909034],[130.1742882,36.6024457],[130.1877207,36.6175343],[130.1970548,36.6288832],[130.2047581,36.6385086],[130.2198858,36.6557763],[130.2406354,36.6761208],[130.2438326,36.6795282],[130.2558703,36.6936037],[130.2670712,36.7068165],[130.2768345,36.7177395],[130.2900953,36.7319284],[130.2977771,36.7404233],[130.3063817,36.7503958],[130.3181834,36.763702],[130.32726,36.7736028],[130.337667,36.7856677],[130.3493828,36.7980227],[130.364768,36.8151343],[130.3862257,36.8389399],[130.4023833,36.8567979],[130.4198284,36.8761107],[130.4348702,36.8929646],[130.4517574,36.9118736],[130.4709406,36.9332135],[130.4883213,36.9526956],[130.5029554,36.9688126],[130.5175252,36.9848747],[130.5326314,37.0017046],[130.5476088,37.0184108],[130.5570287,37.0288439],[130.5659766,37.0384534],[130.5767698,37.0511957],[130.5843873,37.0603059],[130.8854428,37.4509138],[130.8926373,37.4635051],[130.8927595,37.4643053],[130.8924428,37.465126],[130.8913405,37.4658408],[130.8898924,37.4660433],[130.8882179,37.4659311],[130.8802352,37.4604647],[130.8791884,37.4605639],[130.8780925,37.4613059]]]}}