{"type":"Feature","properties":{"id":"울진(후포)_-울릉(저동)","name":"울진(후포) -울릉(저동)","operator":"","category":"ferry","attribution":"© OpenStreetMap contributors"},"geometry":{"type":"MultiLineString","coordinates":[[[129.4611926,36.6786365],[129.4538923,36.6720753],[129.4522201,36.6695307],[129.4586907,36.6693493],[130.217361,36.9382613],[130.8843307,37.4513835],[130.892021,37.4636533],[130.892147,37.4642652],[130.891989,37.4648771],[130.8911904,37.4656028],[130.8898637,37.4658166],[130.8882501,37.465795],[130.880278,37.4604062],[130.8791803,37.4605386],[130.8780925,37.4613059]]]}}