{"type":"Feature","properties":{"id":"위도_-_하왕등도","name":"위도 - 하왕등도","operator":"","category":"ferry","attribution":"© OpenStreetMap contributors"},"geometry":{"type":"MultiLineString","coordinates":[[[126.1176783,35.6393418],[126.117821,35.639268],[126.1181696,35.63888],[126.1183072,35.6384205],[126.1191411,35.6367589],[126.1208872,35.634137],[126.1233057,35.6326284],[126.1255004,35.631975],[126.1373585,35.6301278],[126.1436441,35.6297826],[126.1502365,35.6292705],[126.1625317,35.6280845],[126.1771229,35.6275613],[126.1973146,35.6262183],[126.2071789,35.6250294],[126.2152624,35.6245001],[126.2231902,35.6240398],[126.2333265,35.622843],[126.240957,35.6216232],[126.2531304,35.620286],[126.2618636,35.6195883],[126.2703609,35.6194488],[126.2771844,35.619379],[126.2787079,35.6194313],[126.2811326,35.6194488],[126.2836217,35.6196581],[126.2863039,35.6200244],[126.2891363,35.6208442],[126.2932133,35.6213501],[126.2985659,35.621418],[126.2989109,35.621418],[126.2995703,35.6212527],[126.3000448,35.6209021],[126.3001187,35.6207218],[126.3003467,35.6201457],[126.3004823,35.6195921],[126.3005468,35.6191915],[126.3006219,35.6188187],[126.3006943,35.6185657],[126.300819,35.6183495]]]}}