{"type":"Feature","properties":{"id":"위도_-_식도","name":"위도 - 식도","operator":"","category":"ferry","attribution":"© OpenStreetMap contributors"},"geometry":{"type":"MultiLineString","coordinates":[[[126.300819,35.6183495],[126.3007488,35.618529],[126.3006978,35.6187644],[126.3006549,35.6190283],[126.3006147,35.6193117],[126.3005637,35.6196082],[126.3004705,35.6201552],[126.3004176,35.6205088],[126.3003192,35.6207036],[126.3001281,35.6211695],[126.2998015,35.6216854],[126.2994454,35.6220686],[126.2981172,35.622237],[126.2945213,35.6222024],[126.2916834,35.6225373],[126.2896603,35.623131]]]}}