{"type":"Feature","properties":{"id":"인천_-_소연평도","name":"인천 - 소연평도","operator":"","category":"ferry","attribution":"© OpenStreetMap contributors"},"geometry":{"type":"MultiLineString","coordinates":[[[125.7231915,37.6144285],[125.7230048,37.6147868],[125.7227275,37.6150992],[125.7224255,37.6154115],[125.722025,37.6157483],[125.7216306,37.6160607],[125.721113,37.6163731],[125.7205646,37.6166513],[125.7200038,37.6168808],[125.7193075,37.6171248],[125.7186174,37.6173201],[125.7179087,37.6175202],[125.7171693,37.6176715],[125.7164545,37.6177789],[125.715789,37.6178618],[125.7151419,37.6179058],[125.7144985,37.61788],[125.7138869,37.6178333],[125.7132968,37.6177653],[125.7128087,37.617693],[125.7123204,37.6175889],[125.711865,37.617473],[125.71143,37.6173184],[125.7110113,37.617167],[125.7106454,37.6170028],[125.7103446,37.6168257],[125.710064,37.6166325],[125.709816,37.6164264],[125.7095884,37.6162493],[125.7094095,37.616085],[125.7092469,37.615895],[125.7091209,37.6157082],[125.7089781,37.6154757]]]}}