{"type":"Feature","properties":{"id":"인천-자월_승봉_이작_덕적","name":"인천-자월/승봉/이작/덕적","operator":"","category":"ferry","attribution":"© OpenStreetMap contributors"},"geometry":{"type":"MultiLineString","coordinates":[[[126.599536,37.4553378],[126.5989554,37.4559321],[126.5985167,37.456081],[126.5979711,37.4561152],[126.592612,37.4563196],[126.5896294,37.4561663],[126.5866468,37.4555702],[126.5833423,37.4540031],[126.5816257,37.4521463],[126.5808304,37.4507204],[126.5673778,37.4166723],[126.5667985,37.4150703],[126.5657256,37.4133915],[126.5638587,37.4111503],[126.5569064,37.4048438],[126.5504477,37.4006165],[126.5415213,37.3950252],[126.5292475,37.3873193],[126.489819,37.3637536],[126.4801953,37.3580572],[126.4585016,37.3462707],[126.4462921,37.3396859],[126.4371297,37.3347554],[126.4264009,37.3294321],[126.4145348,37.32317],[126.4021752,37.3163442],[126.3946221,37.3121289],[126.3864252,37.3064798],[126.37943,37.301035],[126.3715765,37.2918515],[126.3643238,37.283418],[126.3598821,37.2774252],[126.3557622,37.2708002],[126.3541529,37.2656602],[126.3528011,37.2586072],[126.3517987,37.2551553],[126.3501887,37.2523206],[126.3468225,37.2492398],[126.3444808,37.247803],[126.3404438,37.245722],[126.3329157,37.2426736],[126.3261723,37.2406957],[126.3247152,37.2405173],[126.3232208,37.2405619],[126.3221374,37.2407404],[126.3207924,37.2411567],[126.3196716,37.2417813],[126.3193416,37.2421496],[126.3191485,37.2426621],[126.3191463,37.242912],[126.3192053,37.2431739],[126.3193051,37.2433764],[126.3194151,37.2435786],[126.3194949,37.2437378],[126.3195581,37.2438581],[126.3195903,37.2439958],[126.3196015,37.2441299],[126.3195772,37.2442264],[126.3195228,37.2443024],[126.3194088,37.2443773],[126.3192895,37.2444126],[126.3191698,37.2444351],[126.3189884,37.2444398],[126.3189033,37.2444422],[126.3187761,37.2444412],[126.3187032,37.2444286],[126.31865,37.2444075],[126.3186066,37.2443699],[126.3185899,37.2443202],[126.3185814,37.2442786],[126.3186206,37.2441694],[126.3186157,37.244225],[126.3186176,37.244259],[126.3186423,37.2442826],[126.3186864,37.2443085],[126.3187495,37.2443328],[126.3188183,37.2443541],[126.3189011,37.2443597],[126.3189702,37.2443555],[126.3190619,37.2443391],[126.3191875,37.2443085],[126.3192555,37.2442724],[126.3193298,37.2442034],[126.3193658,37.2441343],[126.3193798,37.2440661],[126.3193762,37.2439916],[126.3193477,37.2439237],[126.3192911,37.2438369],[126.3192114,37.2437185],[126.3191012,37.243554],[126.3189623,37.2433648],[126.3186535,37.2429475],[126.318249,37.2423845],[126.3174487,37.2413352],[126.3157786,37.2397897],[126.3097617,37.2357892],[126.3059727,37.2331998],[126.2994192,37.2287876],[126.2962649,37.2255242],[126.2930033,37.2207913],[126.2917159,37.2180915],[126.2909434,37.2157675],[126.2902782,37.2120764],[126.289849,37.2080091],[126.2892232,37.2013067],[126.2886068,37.1955483],[126.287019,37.1865305],[126.2861037,37.1811728],[126.2858235,37.1786576],[126.285674,37.1757999],[126.2859916,37.1733291],[126.2863092,37.1726742],[126.2866641,37.1720788],[126.2873179,37.171409],[126.2878222,37.1709774],[126.2886815,37.1704862],[126.2897463,37.1699116],[126.2903493,37.1697587]],[[126.2903493,37.1697587],[126.2897165,37.1698806],[126.2863514,37.1707611],[126.2828968,37.1719238],[126.2769959,37.1751553],[126.2734554,37.1775831],[126.2689707,37.1801304],[126.264014,37.1817887],[126.2584994,37.1831051],[126.2554524,37.1829512],[126.2500751,37.1813344],[126.2486535,37.1807819],[126.2478349,37.1803606],[126.2476117,37.1801405],[126.2473664,37.179892],[126.247257,37.1796166],[126.2473071,37.1794252],[126.2473952,37.1791906],[126.247623,37.1788568]]]}}