{"type":"Feature","properties":{"id":"장고도_~_고대도","name":"장고도 ~ 고대도","operator":"","category":"ferry","attribution":"© OpenStreetMap contributors"},"geometry":{"type":"MultiLineString","coordinates":[[[126.355111,36.3992529],[126.3556803,36.3984489],[126.3565939,36.3975821],[126.3577741,36.397064],[126.3594907,36.3968567],[126.3719147,36.3959931],[126.373052,36.3957513],[126.3742751,36.3952332],[126.3751851,36.394525],[126.3756947,36.3937273],[126.3757938,36.3929182],[126.3755956,36.3920977],[126.3751993,36.3915165],[126.3747045,36.3910603],[126.3741955,36.3907333],[126.3734529,36.3903686],[126.3730093,36.3901995],[126.3726222,36.3900577]]]}}