{"type":"Feature","properties":{"id":"장자도_-_관리도","name":"장자도 - 관리도","operator":"","category":"ferry","attribution":"© OpenStreetMap contributors"},"geometry":{"type":"MultiLineString","coordinates":[[[126.3946673,35.8103143],[126.394761,35.8109138],[126.3947664,35.8112357],[126.3946966,35.8114924],[126.3944767,35.8117229],[126.3941119,35.811836],[126.3921378,35.812097],[126.3910542,35.8123929],[126.3774704,35.8164251],[126.3765806,35.8167071],[126.3759648,35.8169597],[126.3755861,35.8172266],[126.3753449,35.8175317]]]}}