{"type":"Feature","properties":{"id":"장산도(북강)_-_옥도","name":"장산도(북강) - 옥도","operator":"","category":"ferry","attribution":"© OpenStreetMap contributors"},"geometry":{"type":"MultiLineString","coordinates":[[[126.1629334,34.6690307],[126.1637059,34.669347],[126.1639817,34.6695461],[126.1641834,34.6699388],[126.1643179,34.6703536],[126.1643313,34.6709233],[126.1642439,34.6716146],[126.1639346,34.6724608],[126.1631747,34.6735614],[126.162213,34.6746896],[126.1581709,34.6779574],[126.1565796,34.6790119],[126.1547257,34.6797107],[126.1336041,34.6845047],[126.1221485,34.6862367],[126.1075727,34.6894886],[126.0831302,34.6965619],[126.0783804,34.6972659],[126.0743032,34.6976514],[126.070328,34.6975508],[126.0670663,34.6969139],[126.0633357,34.69502],[126.0608894,34.6926063],[126.0587286,34.6894048],[126.0580354,34.6877286],[126.057852,34.6863541],[126.0580151,34.6853148],[126.058382,34.6844263],[126.0590751,34.6836887],[126.0601963,34.6832529],[126.0616845,34.683035],[126.0631726,34.6831188],[126.0642902,34.6836186]]]}}