{"type":"Feature","properties":{"id":"장산도(북강)_-_기도","name":"장산도(북강) - 기도","operator":"","category":"ferry","attribution":"© OpenStreetMap contributors"},"geometry":{"type":"MultiLineString","coordinates":[[[126.0861666,34.6352172],[126.0886756,34.6347482],[126.0903226,34.6343437],[126.0939717,34.6334212],[126.0955825,34.6332501],[126.0970811,34.6332501],[126.0985488,34.6334026],[126.0998774,34.6338094],[126.1009744,34.6345467],[126.1017932,34.635373],[126.1033999,34.6380296],[126.1043578,34.6407117],[126.104914,34.6436224],[126.1054701,34.6525318],[126.1060418,34.6557726],[126.1069842,34.658975],[126.1088072,34.6621139],[126.1107693,34.6645282],[126.113612,34.6668917],[126.1174435,34.6689502],[126.1455152,34.6792672],[126.1480798,34.6798008],[126.1503354,34.6800295],[126.1525756,34.6799406],[126.1547694,34.6794959],[126.1565306,34.6788352],[126.1580756,34.6777807],[126.1621234,34.6745536],[126.1629885,34.6735117],[126.1637455,34.6723682],[126.1640545,34.6715804],[126.164143,34.6709213],[126.1641363,34.6703738],[126.1640623,34.6699535],[126.1638673,34.6695774],[126.1634706,34.6693008],[126.1629334,34.6690307]]]}}