{"type":"Feature","properties":{"id":"장산도_-_하의도","name":"장산도 - 하의도","operator":"","category":"ferry","attribution":"© OpenStreetMap contributors"},"geometry":{"type":"MultiLineString","coordinates":[[[126.1629334,34.6690307],[126.1638935,34.6694989],[126.1641229,34.6699432],[126.1642299,34.6703581],[126.1642425,34.6709101],[126.164143,34.6715746],[126.1638386,34.6724171],[126.1630555,34.673546],[126.1621209,34.6746514],[126.1581117,34.6778722],[126.1565204,34.6789331],[126.1547051,34.6796128],[126.1525113,34.6800257],[126.1502866,34.680121],[126.1479151,34.6798796],[126.1454277,34.679365],[126.1172015,34.6690608],[126.1067224,34.6638262],[126.092241,34.6562647],[126.0853197,34.6531407],[126.0609534,34.6442788],[126.058649,34.6431258],[126.0563597,34.6414029],[126.0540703,34.6391251],[126.0460133,34.6248732],[126.0437772,34.6169577],[126.0383196,34.6089318]]]}}