{"type":"Feature","properties":{"id":"장흥_-_제주(성산포)항","name":"장흥 - 제주(성산포)항","operator":"","category":"ferry","attribution":"© OpenStreetMap contributors"},"geometry":{"type":"MultiLineString","coordinates":[[[126.9652301,34.4452373],[126.9645374,34.4445982],[126.9643216,34.4442341],[126.9638733,34.4426936],[126.9637238,34.4395817],[126.9639106,34.4367162],[126.965405,34.4294749],[126.9673291,34.421709],[126.9684872,34.4173481],[126.9693091,34.4135726],[126.9698509,34.4102593],[126.9700003,34.4059749],[126.9698322,34.4022451],[126.9689729,34.3954786],[126.9680763,34.3892974],[126.9670302,34.3848886],[126.9655358,34.3792616],[126.9641161,34.3757156],[126.9611833,34.3701497],[126.9591285,34.3663104],[126.9562518,34.3615148],[126.9547387,34.3582457],[126.9535214,34.3543211],[126.9519554,34.34853],[126.9503676,34.3407567],[126.9488137,34.3343856],[126.9480851,34.3302515],[126.9477302,34.3258704],[126.9477863,34.32044],[126.9479731,34.312803],[126.9482719,34.3076803],[126.9487203,34.2986687],[126.9493367,34.291755],[126.9499531,34.2865539],[126.9508311,34.2797009],[126.9514288,34.2740668],[126.9516904,34.2686331],[126.9519332,34.2636313],[126.952176,34.2583358],[126.9524002,34.2504306],[126.952531,34.2453196],[126.9527364,34.2384015],[126.9531848,34.2291662],[126.9536518,34.2212737],[126.9538386,34.2163308],[126.9540067,34.210708],[126.9542682,34.20303],[126.9546044,34.1941462],[126.9547912,34.1873012],[126.9550714,34.1796829],[126.9554264,34.1718012],[126.9565285,34.1255781],[126.957257,34.0895405],[126.9576866,34.0384738],[126.959181,33.9989148],[126.9604326,33.963505],[126.9615721,33.9254145],[126.9620204,33.8929514],[126.9620951,33.8843452],[126.9622259,33.8753814],[126.9623566,33.8421079],[126.9620764,33.8244809],[126.9611611,33.7568407],[126.9599469,33.7250126],[126.9587888,33.6868779],[126.9569955,33.6576361],[126.9539133,33.6153647],[126.9533342,33.6110867],[126.9515222,33.5989203],[126.9475247,33.5793602],[126.9454139,33.5693528],[126.9435459,33.5619127],[126.9410241,33.5531642],[126.9387451,33.5461275],[126.9354201,33.5366456],[126.9340004,33.5323169],[126.9320203,33.5247646],[126.9302831,33.516869],[126.9288634,33.509253],[126.9287087,33.5056076],[126.9287274,33.5020407],[126.9292877,33.4979283],[126.9298855,33.4933796],[126.930614,33.4887995],[126.9321831,33.4828326],[126.9332853,33.4797009],[126.9340325,33.4780026],[126.9343237,33.4768586],[126.9346776,33.4744379],[126.934734,33.4741876],[126.9348334,33.4739773],[126.9349891,33.4737766],[126.9351374,33.4737034],[126.935262,33.4736731]]]}}