{"type":"Feature","properties":{"id":"저도-광대도","name":"저도-광대도","operator":"","category":"ferry","attribution":"© OpenStreetMap contributors"},"geometry":{"type":"MultiLineString","coordinates":[[[126.1030763,34.5292342],[126.1032794,34.5299529],[126.1033842,34.5310368],[126.1034612,34.5321003],[126.1035783,34.5324962],[126.1042656,34.5332226],[126.1061735,34.5340568],[126.1108298,34.5343043],[126.1155934,34.5329785],[126.1202926,34.5310164],[126.1287469,34.5280642],[126.1349507,34.5235766],[126.1575833,34.506758],[126.157811,34.5066507],[126.1616,34.5022686],[126.1636338,34.5020016],[126.1658281,34.5023758],[126.1669827,34.5031129],[126.1671616,34.5037963],[126.1665338,34.5061827],[126.1664537,34.5063553],[126.1660575,34.5069045]]]}}