{"type":"Feature","properties":{"id":"점암-임자","name":"점암-임자","operator":"","category":"ferry","attribution":"© OpenStreetMap contributors"},"geometry":{"type":"MultiLineString","coordinates":[[[126.1570239,35.0895517],[126.1546433,35.0893742],[126.1534202,35.0890933],[126.1527336,35.0887772],[126.1524219,35.0885007],[126.1522617,35.0883091],[126.1521113,35.0880749],[126.1497081,35.083773],[126.1488927,35.0825439],[126.1484535,35.0820162],[126.1479975,35.0815825],[126.1474183,35.0811892],[126.1467281,35.0808463],[126.1459024,35.0805235],[126.1454587,35.0803924],[126.1450274,35.0802916],[126.1444358,35.080221],[126.1438716,35.0801909],[126.1367476,35.0799451],[126.1350817,35.0799285],[126.1329004,35.0798881],[126.1290182,35.0800193],[126.1258879,35.0801907],[126.1231712,35.0804202],[126.1226686,35.0805419],[126.1223147,35.0806404],[126.1220174,35.0808373],[126.1217252,35.0812652]]]}}