{"type":"Feature","properties":{"id":"점암_-_수도","name":"점암 - 수도","operator":"","category":"ferry","attribution":"© OpenStreetMap contributors"},"geometry":{"type":"MultiLineString","coordinates":[[[126.1570239,35.0895517],[126.1546489,35.0894414],[126.1537924,35.0892951],[126.1531084,35.0890682],[126.1525538,35.0887506],[126.1520362,35.0881606],[126.1490969,35.0830022],[126.1487703,35.0825182],[126.1481524,35.0818731],[126.1475507,35.0814206],[126.1468351,35.0810746],[126.1459407,35.080915],[126.1450626,35.0809416],[126.1441845,35.081088],[126.1433551,35.0813009],[126.1424119,35.0817134],[126.1418533,35.0821782]]]}}