{"type":"Feature","properties":{"id":"정서진호","name":"정서진호","operator":"","category":"ferry","attribution":"© OpenStreetMap contributors"},"geometry":{"type":"MultiLineString","coordinates":[[[126.6215996,37.4919681],[126.6214136,37.492706],[126.6204221,37.4932027],[126.618169,37.4936454],[126.6163022,37.4937986],[126.6140921,37.4937135],[126.6029126,37.4931516],[126.6018612,37.4931431],[126.6009385,37.4932368],[126.6002626,37.4933559],[126.5995867,37.4935432],[126.5989,37.4937645],[126.5982134,37.4941561],[126.5970976,37.4951946],[126.5962822,37.4964885],[126.5960247,37.497195],[126.5955955,37.4990251],[126.5949811,37.5035469],[126.5926129,37.5264112],[126.5924252,37.527354],[126.5920658,37.5282967],[126.5914971,37.5294675],[126.5905315,37.5313053],[126.5822918,37.5469928],[126.5818493,37.5482352],[126.5756266,37.5713516],[126.5753154,37.5721509],[126.5746824,37.5728482],[126.5738885,37.5733924],[126.5703051,37.5747189],[126.5696613,37.574787],[126.5691464,37.5746339],[126.5689532,37.5744468],[126.5688674,37.5742428],[126.5689747,37.5738006],[126.5692369,37.5732687]],[[126.5692369,37.5732687],[126.5687172,37.5739707],[126.5685455,37.5746169],[126.568567,37.5752291],[126.5686957,37.5761985],[126.5689396,37.5768553],[126.5694897,37.5779671],[126.574155,37.5850762]]]}}