{"type":"Feature","properties":{"id":"정원드림호","name":"정원드림호","operator":"","category":"ferry","attribution":"© OpenStreetMap contributors"},"geometry":{"type":"MultiLineString","coordinates":[[[127.4988602,34.9432512],[127.4987095,34.9431913],[127.4986585,34.9431275],[127.498621,34.9430572],[127.4986183,34.9429912],[127.4986317,34.9428659],[127.4989204,34.9421351],[127.4994486,34.9407738],[127.4996335,34.9405314],[127.5008906,34.9385866],[127.5011494,34.9381269],[127.501402,34.9374045],[127.5014944,34.9369903],[127.5014698,34.9362629],[127.501402,34.9356516],[127.501137,34.9347019],[127.5010138,34.9339391],[127.5010138,34.9337471],[127.5010816,34.9332975],[127.5013527,34.9321962],[127.5017409,34.9310444],[127.5018827,34.930812],[127.5026036,34.9291953],[127.5032198,34.9279323],[127.5036204,34.9273816],[127.503849,34.9271418],[127.504032,34.9269951],[127.5043328,34.9268451],[127.5047963,34.9266651],[127.5052313,34.9265018],[127.5056582,34.9263718],[127.5058127,34.9263151],[127.5059956,34.9262951],[127.5061338,34.9263285],[127.5062639,34.9263818],[127.5064144,34.9264751],[127.5064957,34.9265351],[127.5065973,34.9266518],[127.5067833,34.926851],[127.5069967,34.9270176],[127.5077272,34.9276289],[127.5078289,34.92773],[127.5078566,34.9279118],[127.5078381,34.928071],[127.5078073,34.9282074],[127.5077672,34.9284373],[127.5077888,34.9285257],[127.5078504,34.9286394],[127.5080692,34.9288187],[127.5082541,34.9289147],[127.5084173,34.9289576],[127.5085683,34.9289652],[127.5086762,34.9289526],[127.5088395,34.9288768],[127.5089873,34.928705],[127.5090459,34.9286217],[127.5091322,34.9285307],[127.5092153,34.9284853],[127.5094403,34.9284322],[127.5098993,34.9284103]]]}}