{"type":"Feature","properties":{"id":"주지도-가사도","name":"주지도-가사도","operator":"","category":"ferry","attribution":"© OpenStreetMap contributors"},"geometry":{"type":"MultiLineString","coordinates":[[[126.0522571,34.4699808],[126.0523978,34.4699803],[126.0607715,34.469816],[126.0625637,34.4699006],[126.0652964,34.469521],[126.0677019,34.4700413],[126.0702808,34.4705342],[126.0742876,34.4716451],[126.0771813,34.4731217],[126.0799835,34.474671],[126.0822547,34.4766011],[126.0864203,34.4796655],[126.0876138,34.4825648],[126.0875457,34.4842262],[126.0874384,34.4852344],[126.0869019,34.4859418],[126.0861048,34.4862918],[126.0857923,34.4864305]]]}}