{"type":"Feature","properties":{"id":"중마도_-_상마도","name":"중마도 - 상마도","operator":"","category":"ferry","attribution":"© OpenStreetMap contributors"},"geometry":{"type":"MultiLineString","coordinates":[[[126.4357881,34.4379717],[126.4360672,34.438488],[126.436078,34.439541],[126.4356059,34.4406028],[126.4340609,34.4428679],[126.4307779,34.446584],[126.4265293,34.4492382],[126.4233965,34.4496629],[126.4195555,34.4496275],[126.4159077,34.4498575],[126.4127749,34.4505653],[126.4109725,34.4513792],[126.4098781,34.4526355],[126.4093846,34.4541041],[126.4094061,34.4554134],[126.4097647,34.4565351],[126.4103463,34.4573775],[126.4113026,34.4577457],[126.4121905,34.4578365],[126.4144403,34.4577716],[126.4151164,34.4576024],[126.4158596,34.4572114],[126.4179129,34.4555114]]]}}