{"type":"Feature","properties":{"id":"중태도_-_하태도","name":"중태도 - 하태도","operator":"","category":"ferry","attribution":"© OpenStreetMap contributors"},"geometry":{"type":"MultiLineString","coordinates":[[[125.2854475,34.4274797],[125.2856917,34.4277691],[125.2859859,34.4279945],[125.2865992,34.4282657],[125.2875972,34.4284175],[125.2889067,34.428365],[125.2903083,34.4280264],[125.2915789,34.4272806],[125.2926197,34.4261539],[125.2932051,34.4246381],[125.2933027,34.4227065],[125.2938556,34.3972692],[125.2939532,34.3962025],[125.2941483,34.3954175],[125.2945549,34.3948673],[125.2951728,34.3943104],[125.2957366,34.393769],[125.2983494,34.392032]]]}}