{"type":"Feature","properties":{"id":"청산도-여서도","name":"청산도-여서도","operator":"","category":"ferry","attribution":"© OpenStreetMap contributors"},"geometry":{"type":"MultiLineString","coordinates":[[[126.9231925,33.9878259],[126.9224345,33.9888293],[126.9218706,33.9891798],[126.920472,33.9889168],[126.9201387,33.9904944],[126.8480168,34.1455136],[126.844296,34.1542184],[126.8431703,34.1602922],[126.8426866,34.1661147],[126.843467,34.1813951],[126.8440923,34.1825501],[126.8452878,34.1833181],[126.8469135,34.1836265],[126.8483929,34.1835371],[126.8502823,34.1826654],[126.8517038,34.1816417],[126.8531397,34.1813128],[126.8538738,34.1810862]]]}}