{"type":"Feature","properties":{"id":"초도-서도","name":"초도-서도","operator":"","category":"ferry","attribution":"© OpenStreetMap contributors"},"geometry":{"type":"MultiLineString","coordinates":[[[127.2964384,34.0465655],[127.2963509,34.046786],[127.2962872,34.0471613],[127.2962447,34.0479941],[127.2962801,34.0488211],[127.2964075,34.0497301],[127.2966128,34.0503459],[127.297172,34.0513371],[127.2986513,34.0529205],[127.2993096,34.0536184],[127.300874,34.0551901],[127.3011712,34.0557883],[127.301242,34.0560932],[127.3012916,34.0566562],[127.3012703,34.057096],[127.3012208,34.0574831],[127.3009518,34.0586442],[127.2945263,34.0842109],[127.2910073,34.0989423],[127.2907069,34.1008612],[127.2894194,34.1099758],[127.2880461,34.1199953],[127.2866943,34.12909],[127.2861793,34.1393736],[127.2844627,34.1550898],[127.2825959,34.1654413],[127.2814586,34.1736079],[127.2792485,34.1869392],[127.2786691,34.1895307],[127.2771027,34.1949796],[127.2752788,34.2019011],[127.2716739,34.2145891],[127.2712662,34.2159022],[127.2707942,34.2169846],[127.2701933,34.217783],[127.2691634,34.2186879],[127.2681119,34.2192025],[127.2666314,34.2195574],[127.2643569,34.2196993],[127.2553783,34.2204276],[127.2541891,34.2206032],[127.2532406,34.2207319],[127.2523983,34.2209777],[127.2522355,34.2211592],[127.2521293,34.2213874],[127.2520868,34.221762],[127.2522998,34.2240462]]]}}