{"type":"Feature","properties":{"id":"초도(대동)-거문도","name":"초도(대동)-거문도","operator":"","category":"ferry","attribution":"© OpenStreetMap contributors"},"geometry":{"type":"MultiLineString","coordinates":[[[127.3086121,34.027727],[127.3085872,34.0277233],[127.308566,34.0277216],[127.3085456,34.0277209],[127.3082715,34.0277304],[127.3080065,34.0277355],[127.3076984,34.0278121],[127.3072609,34.0279551],[127.3070946,34.0280674],[127.3068542,34.02843],[127.306657,34.0288284],[127.3063859,34.0293952],[127.3045191,34.0339031],[127.3023519,34.0397532],[127.3019655,34.0412091],[127.30173,34.0424908],[127.301615,34.0435785],[127.301463,34.049021],[127.3014582,34.050613],[127.3015365,34.0554167],[127.3013219,34.0572656],[127.3010215,34.0585633],[127.299734,34.0635052],[127.291151,34.0990673],[127.2907862,34.1014127],[127.2836837,34.1385573],[127.2825355,34.1407144],[127.2772354,34.1471077],[127.2745961,34.149363],[127.266056,34.1535005],[127.26273,34.1554182],[127.2502202,34.1638699],[127.2472376,34.1671012],[127.2459716,34.1698531],[127.2398347,34.1798122],[127.2353347,34.185053],[127.2305833,34.1889997],[127.2253903,34.1926228],[127.2218785,34.1941446],[127.2191325,34.1956987],[127.2168202,34.1981259],[127.2145777,34.2013906],[127.2136268,34.2032655],[127.2124265,34.2059693],[127.2112839,34.2093428],[127.2108396,34.2123939],[127.210624,34.215425],[127.2111319,34.2181949],[127.21196,34.2209392],[127.2136354,34.2236521],[127.2165827,34.2269822],[127.2199753,34.2299251],[127.2216576,34.2313515],[127.2238333,34.2331255],[127.2253026,34.2342571],[127.2271784,34.2354181],[127.2300432,34.2368006],[127.2333132,34.2380882],[127.2368687,34.2390664],[127.2394197,34.2399769],[127.2407104,34.2406097],[127.2427791,34.241435],[127.2441499,34.2417035]]]}}