{"type":"Feature","properties":{"id":"통영_-_비진도","name":"통영 - 비진도","operator":"","category":"ferry","attribution":"© OpenStreetMap contributors"},"geometry":{"type":"MultiLineString","coordinates":[[[128.4605062,34.7321169],[128.4606027,34.7329722],[128.4604311,34.7368781],[128.4595298,34.7414715],[128.4583711,34.7482421],[128.4566545,34.7583969],[128.4534359,34.7763411],[128.4512901,34.7894178],[128.4490156,34.8077429],[128.4469127,34.8198634],[128.4439516,34.8273673],[128.4388017,34.8311014],[128.4352827,34.8330741],[128.4306049,34.8352581],[128.4246826,34.8370897],[128.4225798,34.8379615],[128.4212125,34.8384737],[128.4205936,34.8387186],[128.4204158,34.8393395]]]}}