{"type":"Feature","properties":{"id":"통영_-_한산도(문어포)","name":"통영 - 한산도(문어포)","operator":"","category":"ferry","attribution":"© OpenStreetMap contributors"},"geometry":{"type":"MultiLineString","coordinates":[[[128.4636445,34.7976811],[128.4634301,34.797601],[128.4632899,34.7975677],[128.4626456,34.7974336],[128.4619308,34.797297],[128.4612816,34.7972095],[128.4600744,34.7971768],[128.4576974,34.7977077],[128.4555856,34.7988183],[128.4523092,34.8002941],[128.4510218,34.8019504],[128.4501871,34.8026917],[128.4497014,34.803612],[128.4491224,34.8084281],[128.4473291,34.8198537],[128.446806,34.8210959],[128.4440414,34.8275977],[128.4394275,34.8310478],[128.4367749,34.8325964],[128.4330389,34.834559],[128.4291161,34.8361536],[128.4250065,34.8371655],[128.4206317,34.8387675],[128.4204158,34.8393395]]]}}