{"type":"Feature","properties":{"id":"팔금(고산)_-_목포(북항)","name":"팔금(고산) - 목포(북항)","operator":"","category":"ferry","attribution":"© OpenStreetMap contributors"},"geometry":{"type":"MultiLineString","coordinates":[[[126.1725316,34.7942772],[126.1873191,34.7996396],[126.1938637,34.804485],[126.2034982,34.8122546],[126.2113947,34.8176277],[126.218819,34.8211333],[126.2278956,34.8240926],[126.2382597,34.8253256],[126.249997,34.8254489],[126.2605756,34.8247444],[126.273815,34.8241455],[126.3023752,34.8219436],[126.3178033,34.8201996],[126.3263005,34.8187552],[126.3357204,34.8163065],[126.3462347,34.8127479],[126.3498825,34.8113737],[126.3512772,34.8104048],[126.3527363,34.8089249],[126.3543242,34.8071807],[126.3558477,34.8060002],[126.3573927,34.8050488],[126.3592595,34.8043441],[126.3612121,34.8042031],[126.3632707,34.8043323],[126.3649014,34.8043572]]]}}