{"type":"Feature","properties":{"id":"팔봉산_중왕리_-_고파도","name":"중왕리 - 고파도","operator":"팔봉산","category":"ferry","attribution":"© OpenStreetMap contributors"},"geometry":{"type":"MultiLineString","coordinates":[[[126.3400883,36.912447],[126.3402782,36.9126551],[126.3404905,36.9128305],[126.3407949,36.9130116],[126.341163,36.9131418],[126.3416018,36.9132324],[126.3421186,36.913289],[126.3427202,36.9133059],[126.3432794,36.9132776],[126.3437749,36.9131984],[126.3442704,36.9130852],[126.3447659,36.9129211],[126.3452543,36.9127287],[126.3457002,36.9125079],[126.3461816,36.9122023],[126.3465921,36.9119024],[126.3469814,36.9115967],[126.3472999,36.9113081],[126.347668,36.9108836],[126.3480007,36.9104931],[126.3485195,36.9098148],[126.3499799,36.9075621],[126.3506022,36.9064125],[126.350758,36.9059963],[126.3509026,36.9052801],[126.3509502,36.9047814],[126.350967,36.9041133],[126.3509257,36.903433],[126.3508597,36.9027921],[126.3505378,36.9012821],[126.350173,36.9000466],[126.3496553,36.8984765],[126.3493442,36.8972324],[126.3492369,36.8960141],[126.3492476,36.8948901],[126.3493763,36.893869],[126.3496453,36.8927074],[126.3523177,36.8807995],[126.3524804,36.8802792],[126.3526836,36.879889],[126.3529926,36.8794532],[126.3533016,36.8791215],[126.3536187,36.8788679],[126.3540984,36.8786142],[126.3545944,36.8784386],[126.3551969,36.8783195],[126.3597488,36.8777334],[126.3603095,36.8776447],[126.3607224,36.8775609],[126.3611476,36.8773933],[126.3614372,36.8772208],[126.36177,36.8769398],[126.3637798,36.8732935],[126.363939,36.8731179],[126.3641691,36.8729905],[126.3643744,36.8729367],[126.3645796,36.8729311],[126.3651572,36.8729885]]]}}