{"type":"Feature","properties":{"id":"평화해운_녹동신항-금진","name":"녹동신항-금진","operator":"평화해운","category":"ferry","attribution":"© OpenStreetMap contributors"},"geometry":{"type":"MultiLineString","coordinates":[[[127.1436311,34.5228975],[127.1410904,34.5153926],[127.1404203,34.5138208],[127.1386607,34.5104437],[127.136987,34.5078267],[127.1356567,34.5061469],[127.1341444,34.5046465],[127.132541,34.5034219],[127.1304057,34.50207],[127.1279534,34.5007182],[127.1271058,34.5002761],[127.1262582,34.499834],[127.1255608,34.4993831],[127.124563,34.4985784],[127.1239408,34.4978357],[127.1236618,34.4971283],[127.123458,34.4948736],[127.1235856,34.493469],[127.123694,34.4930078],[127.1238013,34.4925656],[127.1238442,34.4920262],[127.1239142,34.4916068],[127.1238386,34.4911582],[127.1235916,34.490192]]]}}