{"type":"Feature","properties":{"id":"포항운하_페리","name":"포항운하 페리","operator":"","category":"ferry","attribution":"© OpenStreetMap contributors"},"geometry":{"type":"MultiLineString","coordinates":[[[129.3778434,36.0234763],[129.3781448,36.0235741],[129.3781894,36.0236511],[129.3779983,36.0238824],[129.3777131,36.0240959],[129.3771915,36.0245447],[129.376827,36.0249066],[129.3765564,36.0252539],[129.3762966,36.0256508],[129.3759128,36.0264313],[129.3757973,36.0266589],[129.3755321,36.0270869],[129.3754377,36.0271615],[129.374987,36.0275832],[129.3748883,36.0276422],[129.3746072,36.0280926],[129.3744764,36.0282817],[129.3739587,36.0287161],[129.3736279,36.0291063],[129.3735126,36.0295382],[129.3734519,36.0297689],[129.3729973,36.0303705],[129.3728,36.0307607],[129.3725148,36.0313362],[129.3722417,36.0316454],[129.3717258,36.032146],[129.3715108,36.0323243],[129.3713677,36.0324429],[129.3712342,36.0326932],[129.3712979,36.0331442],[129.3712008,36.0335245],[129.3710066,36.0341949],[129.3707669,36.0345728],[129.3705029,36.035731],[129.370427,36.036364],[129.3704907,36.0369308],[129.3707153,36.0381136],[129.3708397,36.0384105],[129.3709854,36.0392344],[129.3711401,36.0395191],[129.3713981,36.040315],[129.371392,36.0410683],[129.3715923,36.0425885],[129.3717197,36.0431626],[129.3720202,36.0443619],[129.3721142,36.0448649],[129.3724055,36.045685],[129.3724935,36.0463584],[129.3727151,36.0469202],[129.372976,36.0478501],[129.3733068,36.0487138],[129.3738288,36.0496314],[129.3740685,36.049862],[129.3747118,36.0501196],[129.3751882,36.0502815],[129.3755099,36.0503282],[129.3760743,36.050203],[129.3766296,36.0499969],[129.3769472,36.0498762],[129.3772972,36.0497074],[129.3777828,36.0493713],[129.3785566,36.0487236],[129.3789814,36.0483727],[129.3794882,36.0480415],[129.380523,36.0476833],[129.3810783,36.0473447],[129.3813545,36.0470846],[129.3821222,36.0458818],[129.3827777,36.0446746],[129.3828869,36.0442648],[129.3832116,36.0432885],[129.3833785,36.0431609],[129.3835697,36.0430775],[129.3840355,36.0430014],[129.3846428,36.0430344],[129.3851889,36.0430179],[129.3855921,36.0429478],[129.3861075,36.0425681],[129.3864699,36.0422009],[129.3866179,36.0417222],[129.3867404,36.0410537],[129.3873528,36.0395226],[129.3876437,36.0390357],[129.387904,36.0362542],[129.3881132,36.0354866],[129.3882612,36.0340504],[129.3881489,36.0337573],[129.3879754,36.033357],[129.3871384,36.0325646],[129.3859799,36.031863],[129.385143,36.0313636],[129.3839745,36.0300965],[129.3831834,36.0293412],[129.3822138,36.0281828],[129.3810859,36.0266721],[129.3791059,36.0236027],[129.3784052,36.0235632],[129.3782361,36.0235449],[129.3778434,36.0234763]]]}}