{"type":"Feature","properties":{"id":"하모니플라워호_(인천-소청-대청-백령_Incheon-Socheong-Daecheong-Baengnyeong)","name":"하모니플라워호 (인천-소청-대청-백령 / Incheon-Socheong-Daecheong-Baengnyeong)","operator":"","category":"ferry","attribution":"© OpenStreetMap contributors"},"geometry":{"type":"MultiLineString","coordinates":[[[126.599536,37.4553378],[126.5989831,37.4559541],[126.5985457,37.4561246],[126.597985,37.4562148],[126.5971448,37.4562493],[126.5930374,37.4564992],[126.5921314,37.4565217],[126.5895832,37.4563868],[126.5880967,37.4561621],[126.5866103,37.4557575],[126.584784,37.455027],[126.5833683,37.4543752],[126.5826605,37.4538358],[126.5815704,37.4526782],[126.5810389,37.4518855],[126.5806361,37.451161],[126.5668362,37.4161636],[126.5662226,37.4150147],[126.5657398,37.4140944],[126.5638516,37.4113845],[126.5619311,37.4095949],[126.5571675,37.4053338],[126.555923,37.4046094],[126.5515351,37.4016561],[126.5473399,37.3990268],[126.5400014,37.39439],[126.5337357,37.3907929],[126.5258662,37.3859937],[126.5177498,37.3811855],[126.5154538,37.3799323],[126.5025578,37.3730946],[126.4939318,37.3689507],[126.4860997,37.3654888],[126.4844046,37.364585],[126.4790187,37.3621632],[126.4748344,37.36056],[126.4660368,37.3576947],[126.4518104,37.3542834],[126.4461884,37.3532259],[126.4405236,37.3525777],[126.4356313,37.3522878],[126.4209971,37.3519296],[126.4155683,37.3518613],[126.4102683,37.3519978],[126.3884888,37.3530724],[126.0153828,37.3874514],[125.992466,37.3898382],[125.9658155,37.3937763],[125.9517608,37.3958391],[125.9334788,37.3992996],[125.8754573,37.4105835],[125.8500729,37.4159691],[125.8365974,37.4190538],[125.7817087,37.4302495],[125.756732,37.4367924],[125.7369695,37.4428065],[125.445231,37.5047088],[125.2021155,37.5377249],[125.0266133,37.5858956],[124.8675157,37.6453729],[124.7603991,37.7239455],[124.752803,37.7267459],[124.7321822,37.7346543],[124.7270324,37.7368094],[124.7212388,37.740322],[124.7181704,37.7427993],[124.7169902,37.7442755],[124.7154667,37.7475842],[124.7140719,37.7515204],[124.7133209,37.753709],[124.7129562,37.7557618],[124.7126128,37.7588833],[124.7129776,37.7626493],[124.7137501,37.765058],[124.7152521,37.7682131],[124.7175266,37.7723856],[124.7193291,37.7744549],[124.7216465,37.7762188],[124.7243287,37.7776265],[124.7283198,37.7789493],[124.7317531,37.7796277],[124.7349932,37.7797634],[124.7424283,37.7798397],[124.7429732,37.7798322],[124.7431613,37.779817],[124.7433259,37.7797921],[124.7434847,37.7797607],[124.7436444,37.7797215],[124.7437984,37.7796726],[124.7439297,37.7796144],[124.7440571,37.7795389],[124.744188,37.7794424],[124.7443011,37.779349],[124.744403,37.7792514],[124.7444888,37.7791343],[124.7445471,37.7790384],[124.7445903,37.7789396],[124.7446207,37.7788455],[124.7446417,37.7787311],[124.7446604,37.7786231],[124.7446586,37.7785152],[124.744671,37.7783261],[124.7447151,37.7781747],[124.7447876,37.7780327],[124.7449244,37.7778695],[124.7450746,37.7777401],[124.7452543,37.7776405],[124.7454581,37.7775409],[124.7457048,37.7774292]],[[124.7177132,37.8285944],[124.7175478,37.8286731],[124.7175262,37.8286915],[124.7175081,37.8287141],[124.7174999,37.8287325],[124.7174958,37.8287607],[124.7175034,37.8287939],[124.7175186,37.8288266],[124.7175904,37.8289223],[124.7181978,37.8297678],[124.7186854,37.8304466],[124.7218459,37.8329799],[124.7223649,37.8332844],[124.7230286,37.8334947],[124.7237669,37.8336534],[124.7245653,37.8336783],[124.7255224,37.8336148],[124.7267899,37.8331841],[124.7276202,37.8327698],[124.7290876,37.8322273],[124.7310394,37.8320332],[124.7330079,37.8321473],[124.7346471,37.8326071],[124.7373964,37.8353019],[124.7397997,37.8385048],[124.7417523,37.8427073],[124.7432758,37.8477568],[124.7447135,37.8546526],[124.7458508,37.8632758],[124.7466232,37.8734732],[124.7471811,37.8855998],[124.7472241,37.8917639],[124.7470309,37.8967254],[124.7459366,37.9041076],[124.7437815,37.9162011],[124.7430091,37.9226673],[124.7423653,37.9278298],[124.7388997,37.9534371],[124.7387817,37.9542239],[124.73861,37.9546215],[124.7384062,37.954833],[124.7380843,37.9549853],[124.7377088,37.955036],[124.7355229,37.9551122]],[[124.7457048,37.7774292],[124.7454621,37.7775462],[124.7452583,37.7776458],[124.7450786,37.7777454],[124.7449284,37.7778748],[124.7447916,37.778038],[124.7447191,37.77818],[124.744675,37.7783314],[124.7446626,37.7785205],[124.7446644,37.7786284],[124.7446753,37.7795],[124.7446204,37.7816042],[124.7445935,37.7830109],[124.7445369,37.78498],[124.7445227,37.7862107],[124.7444612,37.7871913],[124.7433402,37.7930076],[124.7402718,37.8040963],[124.739156,37.8069954],[124.7379758,37.8090467],[124.7362163,37.8113353],[124.728985,37.8202008],[124.7271397,37.8216416],[124.7249295,37.8226925],[124.7189823,37.8299114],[124.7189483,37.8299459],[124.7189047,37.8299766],[124.7188618,37.8299999],[124.7188135,37.8300174],[124.7187632,37.8300285],[124.7187035,37.8300328],[124.7186372,37.8300312],[124.7185748,37.8300243],[124.7185084,37.8300089],[124.7184487,37.8299872],[124.7184025,37.8299613],[124.7183582,37.8299343],[124.7183173,37.8299035],[124.7182818,37.8298665],[124.7182072,37.8297678],[124.7175998,37.8289223],[124.717528,37.8288266],[124.7175128,37.8287939],[124.7175052,37.8287607],[124.7175093,37.8287325],[124.7175175,37.8287141],[124.7175356,37.8286915],[124.7175572,37.8286731],[124.7177132,37.8285944]]]}}