{"type":"Feature","properties":{"id":"하의도_-_신도","name":"하의도 - 신도","operator":"","category":"ferry","attribution":"© OpenStreetMap contributors"},"geometry":{"type":"MultiLineString","coordinates":[[[125.9762107,34.6002087],[125.9759677,34.6003611],[125.9758254,34.6005987],[125.9757685,34.6008597],[125.9758416,34.6011475],[125.9760652,34.6014387],[125.9781468,34.6032223],[125.9786143,34.6038174],[125.984932,34.6226013],[125.986549,34.6270413],[125.9882227,34.6303784],[125.9900681,34.6328325],[125.9916774,34.6341567],[125.993158,34.6348276],[125.9948102,34.6351984],[125.9969989,34.6351984],[125.9996382,34.6348982],[126.0041014,34.6334681],[126.005539,34.633115],[126.0070411,34.6331503],[126.0088864,34.6335741],[126.011397,34.6345804],[126.0175768,34.637158],[126.0210744,34.6380937],[126.0249368,34.6385351],[126.0292283,34.6384645],[126.0336057,34.637723],[126.0384337,34.635781],[126.0416952,34.6334681],[126.043562,34.6310316],[126.0443989,34.6289129],[126.0447208,34.6259642],[126.0429398,34.6171882],[126.0383196,34.6089318]]]}}