{"type":"Feature","properties":{"id":"하조도-상하죽도","name":"하조도-상하죽도","operator":"","category":"ferry","attribution":"© OpenStreetMap contributors"},"geometry":{"type":"MultiLineString","coordinates":[[[125.9235186,34.250177],[125.9235683,34.2502884],[125.9235482,34.2503804],[125.9234905,34.2505899],[125.9233457,34.250703],[125.9230882,34.2508005],[125.9228736,34.2508005],[125.9224766,34.250703],[125.9219724,34.2503837],[125.921849,34.2501309],[125.9216988,34.24959],[125.9216344,34.2488539],[125.9215057,34.2478074],[125.9213877,34.2467698],[125.9212482,34.2455104],[125.9214628,34.2444018],[125.9221065,34.243506],[125.9234476,34.2433021],[125.9254432,34.2437632],[125.9274495,34.2451823],[125.9404313,34.2550261],[125.9476089,34.261189],[125.9605694,34.2722723],[125.971384,34.2818293],[125.9899234,34.2951612],[125.9953308,34.2977493],[126.006124,34.299841],[126.0125398,34.3011527],[126.0174536,34.3032266],[126.0192346,34.3066653],[126.0205648,34.3109705],[126.0223414,34.3147947],[126.0245991,34.3160766],[126.0271525,34.317583],[126.0309076,34.3197477],[126.0355425,34.3206515],[126.0400915,34.3206515],[126.0441255,34.3199781],[126.0530734,34.3171931],[126.0556912,34.3148537],[126.0557341,34.3134182],[126.055026,34.3103165],[126.0533172,34.3062928]]]}}