{"type":"Feature","properties":{"id":"하조도(창유)-관사도","name":"하조도(창유)-관사도","operator":"","category":"ferry","attribution":"© OpenStreetMap contributors"},"geometry":{"type":"MultiLineString","coordinates":[[[126.0533172,34.3062928],[126.0556483,34.3105647],[126.056056,34.3135777],[126.0559058,34.3150487],[126.0534382,34.3175476],[126.0440826,34.3201882],[126.0399735,34.3208882],[126.0355639,34.3208084],[126.0308111,34.3199135],[126.0115099,34.319692],[126.0020256,34.3198692],[125.9927988,34.318416],[125.9900093,34.3169273],[125.9846878,34.3132409],[125.9812438,34.3099621],[125.9795272,34.3092265],[125.9777252,34.309237]]]}}