{"type":"Feature","properties":{"id":"하태도_-_가거도","name":"하태도 - 가거도","operator":"","category":"ferry","attribution":"© OpenStreetMap contributors"},"geometry":{"type":"MultiLineString","coordinates":[[[125.1288991,34.0507764],[125.1270829,34.0499381],[125.1254903,34.0493458],[125.124379,34.0489294],[125.1240605,34.0486596],[125.1238693,34.0483077],[125.1237915,34.0479089],[125.123841,34.0474808],[125.1257168,34.0447242],[125.1279241,34.043111],[125.1314042,34.0419252],[125.1352993,34.0414724],[125.1410929,34.0420059],[125.1454059,34.0431794],[125.1525513,34.0463264],[125.1672927,34.0564779],[125.3286115,34.3720049],[125.329899,34.378115],[125.3297273,34.3819933],[125.3283969,34.3862787],[125.3250066,34.3905108],[125.3191057,34.3942823],[125.3099648,34.3971153],[125.3040854,34.3986379],[125.2976266,34.3993816],[125.2960387,34.3990098],[125.2949444,34.3981599],[125.2944938,34.3971153],[125.2945153,34.39623],[125.2949015,34.395327],[125.2956297,34.3945994],[125.2962298,34.3939333],[125.2983494,34.392032]]]}}