{"type":"Feature","properties":{"id":"하태도_-_만재도","name":"하태도 - 만재도","operator":"","category":"ferry","attribution":"© OpenStreetMap contributors"},"geometry":{"type":"MultiLineString","coordinates":[[[125.2983494,34.392032],[125.2959724,34.3937724],[125.2952135,34.3944312],[125.2946687,34.3949545],[125.2942865,34.3955517],[125.2941727,34.3963299],[125.2943353,34.3972625],[125.2947601,34.3982512],[125.2957687,34.3991896],[125.2974209,34.3997207],[125.3002748,34.3998624],[125.3045019,34.3992781],[125.3209814,34.3941611],[125.3266462,34.3897345],[125.4784322,34.2151587],[125.4792623,34.2136444],[125.4795004,34.2122325],[125.479094,34.2109683],[125.4783134,34.2103093],[125.4772762,34.2094217],[125.4747414,34.2083933],[125.4726115,34.2087792],[125.4718896,34.2099777]]]}}