{"type":"Feature","properties":{"id":"한강버스_(여의도-잠실,_옥수_경유)","name":"한강버스 (여의도-잠실, 옥수 경유)","operator":"","category":"ferry","attribution":"© OpenStreetMap contributors"},"geometry":{"type":"MultiLineString","coordinates":[[[127.0207317,37.5362277],[127.0205418,37.5361508],[127.0203996,37.5361052],[127.0202885,37.536085],[127.0201589,37.5360758],[127.0200242,37.5360842],[127.0198913,37.5361123],[127.0197538,37.5361612],[127.0196182,37.5362616],[127.0195072,37.5363827],[127.0194269,37.5365181],[127.0193448,37.5367295],[127.0192729,37.5369751],[127.019175,37.5373215],[127.0190575,37.5376543],[127.0189311,37.5379158],[127.0188301,37.5380806],[127.0187156,37.5382296],[127.0185717,37.5383881],[127.0184638,37.5384918],[127.0183344,37.5385987],[127.0182079,37.5386894],[127.018032,37.5388025],[127.0181758,37.5386878],[127.0183113,37.5385436],[127.01849,37.538314],[127.0185414,37.5382175],[127.0185794,37.538121],[127.0185917,37.5380666],[127.018598,37.5380138],[127.0186,37.5379607],[127.0185969,37.5378972],[127.0185881,37.5378138],[127.018564,37.5376666],[127.0184521,37.5370691],[127.0182757,37.536169],[127.0180523,37.5355314],[127.0175248,37.5343846],[127.0153007,37.5291436],[127.0150091,37.5284728],[127.0147761,37.5280645],[127.0145288,37.5277458],[127.0140126,37.5272734],[127.0129315,37.5264911],[127.0118929,37.5257464]]]}}