{"type":"Feature","properties":{"id":"한강버스_(마곡-여의도)","name":"한강버스 (마곡-여의도)","operator":"","category":"ferry","attribution":"© OpenStreetMap contributors"},"geometry":{"type":"MultiLineString","coordinates":[[[126.935013,37.5286435],[126.9352395,37.5289442],[126.9353556,37.5291383],[126.9354731,37.5293654],[126.9355709,37.5296025],[126.9356313,37.5297871],[126.9356913,37.5300245],[126.9357366,37.5302768],[126.9357673,37.5305467],[126.935783,37.5308269],[126.9357789,37.5310913],[126.9357599,37.5312847],[126.9357289,37.5314752],[126.935674,37.531667],[126.935612,37.5318166],[126.9355384,37.5319514],[126.935431,37.5321018],[126.935293,37.5322618],[126.9345921,37.5329638],[126.9341039,37.5333556],[126.933504,37.5337062],[126.9325301,37.5341228],[126.9301441,37.5348723],[126.9239322,37.5368226],[126.9153616,37.5394193],[126.9134309,37.5400449],[126.9118539,37.5406066],[126.9105449,37.5411071],[126.9095786,37.5415011],[126.9076721,37.5423926],[126.9070574,37.5427229],[126.9064735,37.5430873],[126.9059587,37.5434403],[126.9026939,37.5459995],[126.897587,37.5501505],[126.8955949,37.5517736],[126.8944687,37.5528612],[126.8942982,37.553058],[126.8941794,37.5532495],[126.8941053,37.5534086],[126.8940587,37.553553],[126.8940323,37.5537114],[126.8940302,37.5538392],[126.8940546,37.5539723],[126.894101,37.5540999],[126.8941839,37.5542661],[126.8943538,37.5545308],[126.8941089,37.5542942],[126.8939165,37.5541461],[126.8937471,37.5540251],[126.893556,37.5539155],[126.8933825,37.5538437],[126.893209,37.5537977],[126.8930605,37.5537745],[126.8928957,37.5537722],[126.8927288,37.5537869],[126.892564,37.5538301],[126.8915232,37.5542169],[126.8910888,37.5543726],[126.8904277,37.5546099],[126.8882711,37.5553253],[126.8825795,37.5571301],[126.8791968,37.5581456],[126.8750165,37.5597075],[126.8732293,37.5604934],[126.8714351,37.5613859],[126.8686413,37.5629182],[126.8611262,37.5672046],[126.857798,37.5691031],[126.8518192,37.5725596],[126.8496264,37.5738002],[126.8486338,37.5743449],[126.847887,37.5747392],[126.8472084,37.5750667],[126.8467884,37.5752555],[126.846433,37.5753985],[126.8462208,37.5754698],[126.8460573,37.5755058],[126.8458132,37.5755445],[126.8455736,37.5755719],[126.8453601,37.5755882],[126.8451546,37.5755884],[126.8449525,37.5755775],[126.8447891,37.5755613],[126.8446152,37.5755353],[126.8444787,37.575503],[126.8443453,37.575457],[126.8442489,37.5754074],[126.8441458,37.5753344],[126.8439458,37.5751408]]]}}