{"type":"Feature","properties":{"id":"한강버스_(급행)","name":"한강버스 (급행)","operator":"","category":"ferry","attribution":"© OpenStreetMap contributors"},"geometry":{"type":"MultiLineString","coordinates":[[[127.084784,37.5188395],[127.0847039,37.5191393],[127.0846173,37.5193786],[127.0844965,37.5196209],[127.084361,37.5198098],[127.0842096,37.5199622],[127.0840758,37.520072],[127.0839012,37.5201761],[127.0836543,37.5203004],[127.0830454,37.5205233],[127.0819736,37.520851],[127.0802831,37.521218],[127.0714083,37.5230472],[127.067096,37.5239733],[127.0647218,37.5246182],[127.0627825,37.5252593],[127.0617637,37.525653],[127.0606661,37.5261366],[127.0597066,37.5266268],[127.0585724,37.5272619],[127.0571291,37.5281808],[127.0543809,37.5299734],[127.0535777,37.530457],[127.0526896,37.5309406],[127.0507057,37.5318562],[127.0487639,37.5326442],[127.0464136,37.5334969],[127.0442093,37.5342077],[127.0419523,37.5348538],[127.0395982,37.5355227],[127.0372726,37.5361497],[127.0333864,37.5370538],[127.0322976,37.5372729],[127.0312957,37.5374334],[127.0305859,37.5375033],[127.0297653,37.5375439],[127.0288392,37.5375362],[127.0280379,37.5374711],[127.0271504,37.5373425],[127.0262853,37.5371614],[127.0253092,37.5368679],[127.0244381,37.5365451],[127.0234623,37.5361295],[127.0223843,37.5356133],[127.0215159,37.5351611],[127.0207627,37.534764],[127.0203592,37.5345187],[127.0198217,37.534133],[127.0192151,37.533623],[127.0185956,37.5330113],[127.0180298,37.5323869],[127.0167479,37.5308105],[127.0158745,37.5297033],[127.0152478,37.5289193],[127.0146563,37.5282604],[127.0141177,37.5277336],[127.0136715,37.5273604],[127.0106617,37.5251132],[127.0087202,37.5236265],[127.0053435,37.5208716],[127.0031085,37.5192204],[127.001077,37.5178842],[126.9981607,37.5162729],[126.994211,37.5144257],[126.9912977,37.5132658],[126.9891126,37.5125473],[126.9868461,37.5119772],[126.9843089,37.5114753],[126.9824268,37.5111861],[126.9801664,37.5109346],[126.9781743,37.5108185],[126.9758407,37.5108572],[126.9737673,37.5110055],[126.9719785,37.5112119],[126.9696693,37.5115925],[126.9681529,37.5119343],[126.9660185,37.5125212],[126.9628363,37.5135953],[126.9586326,37.5151238],[126.9557984,37.5163038],[126.9542828,37.5170301],[126.9530444,37.5177172],[126.9501667,37.5195304],[126.9479842,37.5210357],[126.9457333,37.5227988],[126.9420907,37.5261766],[126.9404282,37.5277173],[126.9400478,37.5280401],[126.9396844,37.5283114],[126.9392951,37.5285645],[126.9389283,37.5287783],[126.9384944,37.5289886],[126.9380785,37.529156],[126.9378493,37.5292361],[126.9375725,37.5293116],[126.937311,37.529367],[126.9370837,37.5293988],[126.9368811,37.5294147],[126.9366622,37.5294153],[126.9364158,37.5293884],[126.9362121,37.5293522],[126.9360502,37.5293058],[126.9359011,37.5292517],[126.9357683,37.529192],[126.9356286,37.5291102],[126.9355212,37.5290362],[126.9350307,37.5286572],[126.935013,37.5286435],[126.9354107,37.5290764],[126.9355138,37.5291998],[126.9355938,37.5293098],[126.9356812,37.5294522],[126.9357656,37.5296118],[126.9358638,37.5298344],[126.9359488,37.5300834],[126.9360359,37.5304077],[126.936105,37.530757],[126.9361438,37.5310616],[126.9361651,37.5313236],[126.936166,37.5315747],[126.9361492,37.531832],[126.9361285,37.5320019],[126.9360714,37.5322449],[126.9359752,37.532447],[126.935874,37.5325949],[126.9357225,37.5327717],[126.9352184,37.5333455],[126.9349366,37.5335863],[126.9346911,37.5337491],[126.9344456,37.5338906],[126.9341299,37.5340536],[126.9337916,37.5342202],[126.9330103,37.5345594],[126.9322054,37.53488],[126.9284244,37.5361651],[126.9241259,37.5374893],[126.9163397,37.5397287],[126.9141119,37.5405151],[126.9121365,37.5412409],[126.9094512,37.5423518],[126.9082212,37.5429668],[126.9072838,37.5435173],[126.9060845,37.5443715],[126.9042673,37.5456577],[126.901706,37.5476368],[126.8993946,37.5495598],[126.8980347,37.5505452],[126.8974643,37.5508926],[126.8968408,37.5512179],[126.8962733,37.5514874],[126.8956741,37.5517396],[126.89498,37.5520034],[126.8934082,37.5525414],[126.8906616,37.5534642],[126.8809153,37.5566647],[126.8792034,37.5572646],[126.8773562,37.5580014],[126.8756234,37.5587575],[126.8730878,37.5599752],[126.871415,37.56086],[126.8687224,37.5622554],[126.8652952,37.5641342],[126.8623796,37.5658606],[126.8589464,37.5679271],[126.8526486,37.5716262],[126.8491939,37.573565],[126.8475443,37.5745397],[126.8470803,37.5748102],[126.8467007,37.5750031],[126.8463923,37.5751413],[126.8461026,37.5752486],[126.8458431,37.5753299],[126.8456037,37.5753921],[126.8454006,37.5754341],[126.8452363,37.5754602],[126.8450874,37.575474],[126.8449325,37.5754825],[126.8447722,37.5754782],[126.8446284,37.5754663],[126.844502,37.5754458],[126.8443779,37.5754113],[126.8442641,37.5753675],[126.8441301,37.5752928],[126.8439458,37.5751408]]]}}