{"type":"Feature","properties":{"id":"한강버스_(여의도-잠실,_압구정_경유)","name":"한강버스 (여의도-잠실, 압구정 경유)","operator":"","category":"ferry","attribution":"© OpenStreetMap contributors"},"geometry":{"type":"MultiLineString","coordinates":[[[127.0207317,37.5362277],[127.0202316,37.5360091],[127.0199219,37.53586],[127.019583,37.5356621],[127.0192857,37.5354447],[127.0191101,37.5352761],[127.0189052,37.5350501],[127.0186741,37.5347154],[127.0183922,37.534261],[127.0180549,37.5336508],[127.0177846,37.5330881],[127.0174737,37.5323859],[127.0171737,37.5315801],[127.0168405,37.5306],[127.0165465,37.5295084],[127.0163697,37.5286237],[127.0162678,37.5279294],[127.0162428,37.5274232],[127.0162769,37.5270357],[127.0163281,37.5268833],[127.0164258,37.5267058],[127.0162162,37.5268279],[127.0160344,37.5269139],[127.0157928,37.5269844],[127.0155613,37.5270258],[127.0153328,37.5270557],[127.0151409,37.5270646],[127.0148846,37.5270554],[127.0146954,37.52703],[127.0144335,37.5269682],[127.0141026,37.526845],[127.0127508,37.5262366],[127.0123686,37.526035],[127.0118929,37.5257464]]]}}