{"type":"Feature","properties":{"id":"한일고속_완도_-_제주","name":"완도 - 제주","operator":"한일고속","category":"ferry","attribution":"© OpenStreetMap contributors"},"geometry":{"type":"MultiLineString","coordinates":[[[126.7594677,34.3164506],[126.7595913,34.3167848],[126.7596665,34.31698],[126.759773,34.3171509],[126.760008,34.3174528],[126.760514,34.3180028],[126.7613383,34.3187247],[126.7619719,34.3191736],[126.7629205,34.3196035],[126.7637784,34.3199201],[126.764608,34.3202667],[126.766008,34.3206021],[126.7700065,34.3211615],[126.7706977,34.3212233],[126.7717437,34.3212387],[126.7728272,34.3211307],[126.7740787,34.3207604],[126.7749941,34.3202822],[126.7776093,34.3184924],[126.7810277,34.3158542],[126.7822979,34.3147588],[126.7846516,34.3123827],[126.7879106,34.3065082],[126.7909251,34.2970338],[126.7911516,34.2933737],[126.7912891,34.2921135],[126.7914178,34.2905712],[126.7916109,34.2889402],[126.7918255,34.2877878],[126.7921045,34.2860858],[126.7924049,34.2842065],[126.7922976,34.2810506],[126.7913106,34.2792421],[126.7887786,34.276086],[126.784251,34.2717064],[126.7818692,34.268745],[126.7771116,34.2621228],[126.7752447,34.2596932],[126.7731205,34.2570685],[126.7715755,34.2554368],[126.7658249,34.2505239],[126.7609969,34.2460365],[126.7568555,34.2420277],[126.7540446,34.2390298],[126.7502251,34.2344885],[126.7466846,34.2299647],[126.7444959,34.2268423],[126.7425862,34.2236132],[126.7413202,34.2212712],[126.7331019,34.2036508],[126.7283383,34.1923278],[126.7230383,34.1772577],[126.7181245,34.1645641],[126.7141548,34.1513891],[126.7128297,34.1458457],[126.7094508,34.1291444],[126.7063394,34.1142406],[126.7046657,34.1074896],[126.7015543,34.0972376],[126.6966834,34.0817062],[126.6916623,34.0686249],[126.684989,34.0522883],[126.6803971,34.0422252],[126.6729513,34.0270216],[126.6649791,34.0098298],[126.6527053,33.9856536],[126.6403028,33.962396],[126.6360327,33.9546895],[126.6317841,33.9468755],[126.6224217,33.9227196],[126.5437849,33.5354927],[126.5433477,33.5339281],[126.5426802,33.5326615],[126.5407399,33.5303543],[126.5399657,33.5294071],[126.5398198,33.528493],[126.5402042,33.5276146],[126.543017,33.5258692]]]}}