{"type":"Feature","properties":{"id":"한산도(문어포)_-_비진도(내항)","name":"한산도(문어포) - 비진도(내항)","operator":"","category":"ferry","attribution":"© OpenStreetMap contributors"},"geometry":{"type":"MultiLineString","coordinates":[[[128.4636445,34.7976811],[128.4634338,34.797568],[128.4630903,34.7974832],[128.4625818,34.7973751],[128.4619964,34.7972562],[128.4613155,34.7971499],[128.4609642,34.7970107],[128.46012,34.796692],[128.4594709,34.7961223],[128.4582907,34.7954351],[128.4562951,34.794325],[128.4548575,34.7930562],[128.453055,34.7908183],[128.4521538,34.7884217],[128.4521753,34.786818],[128.4562093,34.7647161],[128.4607267,34.7361034],[128.4606945,34.7335906],[128.4606468,34.7322671],[128.4605062,34.7321169]]]}}