{"type":"Feature","properties":{"id":"한산도(제승당)_-_한산도(의항)","name":"한산도(제승당) - 한산도(의항)","operator":"","category":"ferry","attribution":"© OpenStreetMap contributors"},"geometry":{"type":"MultiLineString","coordinates":[[[128.4740606,34.7977718],[128.4740463,34.7977804],[128.4738475,34.797959],[128.4734532,34.7981859],[128.4732923,34.7982696],[128.473193,34.7983092],[128.472876,34.7983828],[128.4724417,34.7984097],[128.4717786,34.7984058],[128.4711107,34.7982524],[128.4707138,34.7979571],[128.4693035,34.7968489],[128.4678511,34.7944597],[128.4670872,34.7927181],[128.4669173,34.791416],[128.4670077,34.7900804],[128.4670448,34.7895326],[128.4670267,34.7894222]]]}}