{"type":"Feature","properties":{"id":"향화도-대각씨도-상낙월도","name":"향화도-대각씨도-상낙월도","operator":"","category":"ferry","attribution":"© OpenStreetMap contributors"},"geometry":{"type":"MultiLineString","coordinates":[[[126.144052,35.1999304],[126.1444418,35.1990367],[126.1450826,35.1984777],[126.1469383,35.1974909],[126.2055574,35.1815077],[126.2082846,35.1812786],[126.210246,35.181813],[126.2112548,35.1824237],[126.2116613,35.1831813],[126.2118952,35.1827205],[126.2124556,35.1821404],[126.214828,35.1812396],[126.2200606,35.1791335],[126.2281265,35.1769404],[126.2363713,35.175784],[126.2465024,35.1755314],[126.2546822,35.1754517],[126.2633823,35.1755048],[126.2768095,35.1754769],[126.2920873,35.1753892],[126.3056486,35.1757049],[126.318609,35.1755295],[126.3416546,35.1775465],[126.3464611,35.1758101],[126.3502591,35.1720566],[126.3535636,35.1688643],[126.3556879,35.1677417],[126.3571316,35.167455],[126.3582152,35.1675163],[126.3592784,35.1677951],[126.3595005,35.1680574]]]}}