{"type":"Feature","properties":{"id":"혈도-양덕도","name":"혈도-양덕도","operator":"","category":"ferry","attribution":"© OpenStreetMap contributors"},"geometry":{"type":"MultiLineString","coordinates":[[[126.1053644,34.4944643],[126.1054177,34.4950151],[126.1044295,34.4979752],[126.1026574,34.5009079],[126.1008335,34.5036842],[126.0983873,34.5076981],[126.0953618,34.5122954],[126.0933018,34.5154426],[126.092957,34.5158383],[126.092184,34.5164838],[126.090816,34.5171236],[126.0879707,34.5177063],[126.0868788,34.5174072],[126.0868312,34.5172039]]]}}