{"type":"Feature","properties":{"id":"호도_~_녹도","name":"호도 ~ 녹도","operator":"","category":"ferry","attribution":"© OpenStreetMap contributors"},"geometry":{"type":"MultiLineString","coordinates":[[[126.2646821,36.3039278],[126.265044,36.3038802],[126.2655359,36.3038835],[126.2660197,36.3039687],[126.2666336,36.3041456],[126.2675768,36.3045257],[126.2689713,36.305217],[126.2702562,36.3056395],[126.2716295,36.305847],[126.2733461,36.3058643],[126.2754061,36.3056914],[126.2773373,36.3051553],[126.2793972,36.3039448],[126.2809851,36.3024404],[126.2823369,36.3005727],[126.2834312,36.2978922],[126.2836029,36.2957478],[126.2833025,36.2903172],[126.2821009,36.2784516],[126.2810709,36.2761336],[126.2791826,36.2744556],[126.2762644,36.2733139],[126.2704708,36.2718088],[126.2698052,36.2713398],[126.2684976,36.2695778],[126.2682174,36.2694121],[126.2678065,36.2693895],[126.2669285,36.2696004]]]}}