{"type":"Feature","properties":{"id":"화도호(녹동항_-_상화도_-_하화도)","name":"화도호(녹동항 - 상화도 - 하화도)","operator":"","category":"ferry","attribution":"© OpenStreetMap contributors"},"geometry":{"type":"MultiLineString","coordinates":[[[127.1351631,34.5256886],[127.1346961,34.5247166],[127.1344736,34.5241842],[127.134416,34.5238077],[127.1343913,34.5234461],[127.1344423,34.5230756],[127.134558,34.522756],[127.1347062,34.5225637],[127.1348822,34.5223872],[127.1352065,34.5222089],[127.1357566,34.5220756],[127.1366563,34.5219959],[127.1376421,34.5220107],[127.1389211,34.5219425],[127.1393712,34.5218806],[127.140001,34.5217207],[127.1404115,34.5215039],[127.1408712,34.5212159],[127.1417808,34.5202568],[127.1423298,34.519367],[127.1427786,34.5184095],[127.1430727,34.517517],[127.1449344,34.5080985],[127.1451036,34.5074161],[127.1453745,34.5067798],[127.145678,34.5062507],[127.1462274,34.5054841],[127.1470853,34.5044],[127.1461653,34.5039714],[127.1450057,34.5029427],[127.1443736,34.5016127],[127.144161,34.4995733],[127.1443258,34.4984483],[127.1448339,34.4976353],[127.1452467,34.4971409]]]}}