{"type":"Feature","properties":{"id":"화태_-_나발_-_대두라_-_소두라","name":"화태 - 나발 - 대두라 - 소두라","operator":"","category":"ferry","attribution":"© OpenStreetMap contributors"},"geometry":{"type":"MultiLineString","coordinates":[[[127.7365954,34.5776793],[127.736627,34.5773523],[127.7367402,34.5768919],[127.7365703,34.5764548],[127.7361739,34.575837],[127.7358767,34.5749511],[127.7359828,34.5745723],[127.736089,34.5741934],[127.7365845,34.573529],[127.737264,34.5728879],[127.738287,34.5723447],[127.7376746,34.5722701],[127.7369101,34.5720136],[127.7366553,34.5717572],[127.7365279,34.5713608],[127.7370658,34.569962],[127.7372782,34.5694257],[127.7373773,34.5688662],[127.7373773,34.5681784],[127.737264,34.567374],[127.7365398,34.5658381],[127.7364815,34.5655357],[127.736676,34.5658665],[127.7375652,34.5659999],[127.7386684,34.5665251],[127.7400915,34.5670445],[127.7416741,34.56755],[127.7440512,34.5679711],[127.7449481,34.5679785],[127.7469942,34.5679291]]]}}