{"type":"Feature","properties":{"id":"효자도_~_원산도(저두)","name":"효자도 ~ 원산도(저두)","operator":"","category":"ferry","attribution":"© OpenStreetMap contributors"},"geometry":{"type":"MultiLineString","coordinates":[[[126.4400565,36.3787392],[126.4395898,36.3781686],[126.4396069,36.3777141],[126.4399653,36.3771512],[126.440874,36.3766476],[126.4522288,36.3704349],[126.4534735,36.3695517],[126.4542253,36.3687181],[126.455014,36.3675571],[126.4556549,36.3661479],[126.455963,36.3653341],[126.4560955,36.3645431],[126.4560205,36.3640678],[126.4560237,36.3639342]]]}}