{"type":"Feature","properties":{"id":"흑일도_-_노화도(산양진)","name":"흑일도 - 노화도(산양진)","operator":"","category":"ferry","attribution":"© OpenStreetMap contributors"},"geometry":{"type":"MultiLineString","coordinates":[[[126.5603553,34.2831534],[126.5602699,34.2842073],[126.5603914,34.2852723],[126.5607089,34.2861675],[126.5614374,34.28697],[126.5624929,34.287433],[126.564146,34.2877263],[126.5659393,34.2876954],[126.5698468,34.2870457],[126.5734407,34.2860783],[126.5758149,34.2848959],[126.5775712,34.283391],[126.5787583,34.2815905],[126.5794088,34.2795212],[126.5796527,34.2764844],[126.5794088,34.2737296],[126.5762702,34.2576023],[126.5743026,34.247575],[126.5737659,34.2428028],[126.5738635,34.2381245],[126.5746441,34.2321821],[126.5758755,34.22679]]]}}