{"type":"Feature","properties":{"id":"흑일도_-_백일도","name":"흑일도 - 백일도","operator":"","category":"ferry","attribution":"© OpenStreetMap contributors"},"geometry":{"type":"MultiLineString","coordinates":[[[126.5603553,34.2831534],[126.5601397,34.2841792],[126.5601611,34.2852429],[126.560483,34.2862003],[126.561234,34.2870159],[126.5623498,34.2876009],[126.5640235,34.28792],[126.5659762,34.2879555],[126.5848804,34.2846224],[126.5878201,34.2845515],[126.5905237,34.2848706],[126.5935278,34.2856684],[126.5958023,34.2866613],[126.5976691,34.2882746],[126.5984631,34.2899588],[126.5986777,34.2917671],[126.5981627,34.2933448],[126.5972615,34.2942667],[126.5958667,34.2947807],[126.5945149,34.2948517],[126.5922366,34.2948496]]]}}