{"type":"Feature","properties":{"id":"（津―セントレア）","name":"（津―セントレア）","operator":"","category":"ferry","attribution":"© OpenStreetMap contributors"},"geometry":{"type":"MultiLineString","coordinates":[[[136.5251459,34.7112027],[136.5253307,34.7111286],[136.526992,34.710896],[136.527872,34.711046],[136.528559,34.711304],[136.529503,34.711497],[136.530812,34.711669],[136.532722,34.711711],[136.536648,34.711947],[136.547484,34.712462],[136.551368,34.712913],[136.555359,34.713557],[136.559351,34.714308],[136.562719,34.715273],[136.565831,34.716368],[136.568492,34.717248],[136.571345,34.718385],[136.57274,34.719286],[136.57598,34.721582],[136.581044,34.72553],[136.584048,34.728084],[136.587095,34.730852],[136.589842,34.733233],[136.591516,34.734821],[136.593125,34.736216],[136.594734,34.737418],[136.59703,34.738855],[136.600034,34.740486],[136.60718,34.744177],[136.610613,34.745808],[136.613553,34.747267],[136.624475,34.752803],[136.627886,34.754455],[136.630483,34.755785],[136.635461,34.758446],[136.64237,34.761922],[136.645804,34.763532],[136.64855,34.764905],[136.651919,34.766622],[136.656296,34.768939],[136.658807,34.770377],[136.664622,34.773874],[136.671424,34.777758],[136.674149,34.779453],[136.676703,34.781106],[136.68417,34.786212],[136.690607,34.790804],[136.693375,34.792178],[136.696229,34.793444],[136.700521,34.794903],[136.702881,34.795568],[136.706185,34.796126],[136.710627,34.796598],[136.715198,34.797006],[136.721077,34.797177],[136.724081,34.797435],[136.726141,34.797864],[136.72936,34.798744],[136.733737,34.800074],[136.743908,34.802713],[136.746783,34.803593],[136.749981,34.804494],[136.753178,34.805481],[136.753693,34.805567],[136.75895,34.807005],[136.762405,34.808142],[136.768026,34.810653],[136.769228,34.811254],[136.770709,34.812305],[136.772618,34.813356],[136.775816,34.814687],[136.777661,34.815631],[136.779764,34.81679],[136.782167,34.817691],[136.788282,34.818785],[136.791802,34.819322],[136.795342,34.819665],[136.79826,34.820287],[136.801629,34.821274],[136.804419,34.822261],[136.808238,34.823806],[136.8110506,34.8251392],[136.814294,34.827225],[136.817068,34.829137],[136.819527,34.831205],[136.821888,34.833296],[136.823823,34.835262],[136.827068,34.839544],[136.827989,34.841361],[136.828609,34.843821],[136.828923,34.846998],[136.828769,34.850166],[136.828377,34.852826],[136.827832,34.855735],[136.827234,34.858097],[136.826483,34.85917],[136.825474,34.859816],[136.824218,34.860124],[136.823101,34.860196],[136.822217,34.860133],[136.820075,34.859769],[136.8197114,34.8597678]]]}}