{"type":"Feature","properties":{"id":"IRいしかわ鉄道_IRいしかわ鉄道線","name":"IRいしかわ鉄道線","operator":"IRいしかわ鉄道","railType":"普通鉄道","operatorType":"第三セクター","category":"rail","attribution":"国土数値情報（鉄道データ）国土交通省"},"geometry":{"type":"MultiLineString","coordinates":[[[136.66887,36.59301],[136.66344,36.58926],[136.6584,36.58639],[136.65735,36.58558],[136.65639,36.58458],[136.65375,36.58336],[136.65207,36.58246],[136.64981,36.58058],[136.64858,36.57927]],[[136.66887,36.59301],[136.67009,36.59389]],[[136.69026,36.61284],[136.68877,36.61147]],[[136.68877,36.61147],[136.67984,36.60334],[136.67815,36.60139],[136.67572,36.5993],[136.67401,36.59705],[136.67308,36.59602],[136.67009,36.59389]],[[136.73154,36.65884],[136.72993,36.65692]],[[136.79068,36.67253],[136.78889,36.67261],[136.7872,36.67256],[136.78548,36.67221],[136.78444,36.67185],[136.78309,36.67108],[136.78013,36.66908],[136.77729,36.66702],[136.77673,36.66677],[136.77493,36.66604],[136.76458,36.66309],[136.76241,36.66285],[136.76037,36.66297],[136.75765,36.66417],[136.75084,36.66619],[136.74779,36.66697],[136.74618,36.66704],[136.74406,36.6668],[136.74143,36.66581],[136.73514,36.66273],[136.73445,36.66224]],[[136.72993,36.65692],[136.70119,36.6229],[136.70015,36.62187],[136.69026,36.61284]],[[136.73445,36.66224],[136.73154,36.65884]],[[136.79253,36.67244],[136.79068,36.67253]],[[136.64858,36.57927],[136.64774,36.57826],[136.64711,36.57726]]]}}