{"type":"Feature","properties":{"id":"WILLER-TRAINS_宮福線","name":"宮福線","operator":"WILLER　TRAINS","railType":"普通鉄道","operatorType":"第三セクター","category":"rail","attribution":"国土数値情報（鉄道データ）国土交通省"},"geometry":{"type":"MultiLineString","coordinates":[[[135.19935,35.53402],[135.19679,35.53233],[135.195,35.53084]],[[135.10182,35.33813],[135.10153,35.3375]],[[135.17341,35.46229],[135.17319,35.46296]],[[135.18755,35.50894],[135.18799,35.50949]],[[135.11141,35.35898],[135.11077,35.35733],[135.10874,35.35351],[135.10182,35.33813]],[[135.15829,35.43185],[135.15852,35.43248]],[[135.12961,35.37207],[135.1289,35.37167]],[[135.10576,35.31895],[135.10563,35.31664],[135.1057,35.3155],[135.10853,35.30692]],[[135.11737,35.29707],[135.11797,35.29692]],[[135.11169,35.35963],[135.11319,35.36297],[135.11416,35.36492],[135.11502,35.36601],[135.11619,35.36698],[135.11949,35.36926],[135.12056,35.36986],[135.12155,35.37013],[135.12438,35.37022],[135.12564,35.37037],[135.12726,35.37089],[135.1289,35.37167]],[[135.11169,35.35963],[135.11141,35.35898]],[[135.15457,35.41354],[135.15554,35.41584],[135.15753,35.41966],[135.15799,35.42038],[135.1584,35.4215],[135.15855,35.42279],[135.15849,35.42632],[135.15827,35.42762],[135.158,35.42854],[135.15791,35.42932],[135.15798,35.43069],[135.15829,35.43185]],[[135.18799,35.50949],[135.18824,35.50999],[135.18985,35.51484],[135.1906,35.51853],[135.19213,35.52303]],[[135.14772,35.38907],[135.15174,35.3942],[135.15259,35.39545]],[[135.14729,35.3885],[135.14456,35.38488],[135.144,35.38431],[135.14344,35.38392],[135.14217,35.38323],[135.13888,35.38168],[135.13809,35.38117],[135.1367,35.38005],[135.13493,35.37793],[135.13391,35.37686],[135.13218,35.37454],[135.13104,35.37321],[135.13025,35.37249],[135.12961,35.37207]],[[135.10579,35.31969],[135.10576,35.31895]],[[135.15442,35.41287],[135.15457,35.41354]],[[135.15442,35.41287],[135.15423,35.41171],[135.15324,35.40229],[135.15323,35.39933],[135.15287,35.3961]],[[135.17319,35.46296],[135.17223,35.4655],[135.17097,35.46801],[135.16783,35.473],[135.16724,35.47461],[135.16704,35.47581],[135.1671,35.477],[135.16726,35.47793],[135.1705,35.49322],[135.17071,35.49388],[135.17124,35.49499],[135.17179,35.49574],[135.17309,35.49722],[135.17461,35.49871],[135.17593,35.49975],[135.17667,35.50026],[135.17818,35.50105],[135.17882,35.50147],[135.17949,35.50228],[135.18093,35.50476],[135.18168,35.5056],[135.18223,35.50601],[135.18323,35.50651],[135.18619,35.50773],[135.18695,35.50831],[135.18755,35.50894]],[[135.14772,35.38907],[135.14729,35.3885]],[[135.15852,35.43248],[135.15894,35.43322],[135.16055,35.43559],[135.1619,35.43744],[135.17073,35.44876],[135.17165,35.45011],[135.17306,35.45265],[135.17414,35.45503],[135.17436,35.45633],[135.17436,35.45763],[135.17422,35.45877],[135.17405,35.45979],[135.17341,35.46229]],[[135.2006,35.53486],[135.19935,35.53402]],[[135.15287,35.3961],[135.15259,35.39545]],[[135.19213,35.52303],[135.19236,35.52366]],[[135.10153,35.3375],[135.10078,35.33585],[135.10059,35.33505],[135.10054,35.33415],[135.10067,35.33289],[135.10154,35.32942],[135.10221,35.32613],[135.10233,35.32571],[135.10277,35.3249],[135.10336,35.32415],[135.10487,35.32268],[135.1054,35.32195],[135.10575,35.32094],[135.10579,35.31969]],[[135.10853,35.30692],[135.10874,35.30624]],[[135.10874,35.30624],[135.11069,35.30039],[135.111,35.29976],[135.11155,35.2991],[135.1122,35.29861],[135.1133,35.2981],[135.11737,35.29707]],[[135.195,35.53084],[135.19491,35.53055],[135.19456,35.53003],[135.19236,35.52366]]]}}