{"type":"Feature","properties":{"id":"いすみ鉄道_いすみ線","name":"いすみ線","operator":"いすみ鉄道","railType":"普通鉄道","operatorType":"第三セクター","category":"rail","attribution":"国土数値情報（鉄道データ）国土交通省"},"geometry":{"type":"MultiLineString","coordinates":[[[140.24078,35.24059],[140.24179,35.2406],[140.24273,35.24085],[140.24361,35.24144],[140.24432,35.24224],[140.24445,35.2426],[140.24454,35.24441],[140.24472,35.24493],[140.24585,35.24607],[140.24713,35.24684],[140.24759,35.2472],[140.24786,35.24748],[140.24819,35.24805],[140.24826,35.24832],[140.24824,35.24903],[140.24788,35.24991]],[[140.24745,35.25053],[140.24632,35.25201],[140.24589,35.25275],[140.24451,35.25572],[140.24437,35.25647],[140.24449,35.25707],[140.24481,35.25772],[140.24504,35.25798],[140.24598,35.25868],[140.24727,35.25929]],[[140.37839,35.26051],[140.37756,35.26052]],[[140.21478,35.2504],[140.21438,35.25011],[140.21371,35.24893],[140.21332,35.24842],[140.21245,35.24794],[140.21138,35.24778],[140.21037,35.24793],[140.20751,35.24955],[140.20673,35.2498],[140.20594,35.24976],[140.20237,35.24901],[140.20159,35.24908],[140.19998,35.24986]],[[140.23994,35.24055],[140.24078,35.24059]],[[140.37756,35.26052],[140.3759,35.26031],[140.37344,35.25959],[140.37229,35.25911],[140.37008,35.2579],[140.36859,35.25743],[140.36766,35.25727],[140.36595,35.25719],[140.36205,35.25735],[140.36048,35.25758],[140.35971,35.25795],[140.35905,35.25847],[140.35798,35.25959],[140.3576,35.26021],[140.35683,35.26223],[140.35635,35.26278],[140.3553,35.26347],[140.354,35.26379],[140.35236,35.26392],[140.34531,35.26333]],[[140.32877,35.27573],[140.32828,35.27625]],[[140.25289,35.29175],[140.2548,35.29182],[140.25534,35.29175],[140.25624,35.29139],[140.26053,35.288],[140.26125,35.28752],[140.26205,35.28714],[140.27622,35.28361],[140.28015,35.28272]],[[140.25071,35.26918],[140.24797,35.2708],[140.24716,35.27143],[140.24276,35.27663],[140.24263,35.27713],[140.24264,35.27759],[140.24282,35.27827],[140.2428,35.27932],[140.24237,35.28042],[140.24233,35.28093],[140.24348,35.28451],[140.24378,35.28619]],[[140.25137,35.26877],[140.25071,35.26918]],[[140.3445,35.26325],[140.34265,35.26322],[140.34133,35.2634],[140.34056,35.26369],[140.33937,35.26439],[140.3387,35.26502],[140.33562,35.26856],[140.32877,35.27573]],[[140.25137,35.26877],[140.25274,35.26797],[140.25366,35.26722],[140.25403,35.26655],[140.25414,35.26605],[140.25411,35.2657],[140.25366,35.26492],[140.25333,35.26451],[140.25011,35.26079],[140.24923,35.26015],[140.24799,35.2596]],[[140.21555,35.25064],[140.21478,35.2504]],[[140.34531,35.26333],[140.3445,35.26325]],[[140.24745,35.25053],[140.24788,35.24991]],[[140.32828,35.27625],[140.32712,35.27741],[140.32629,35.27783],[140.31842,35.28022],[140.31468,35.28039]],[[140.23994,35.24055],[140.23556,35.24037],[140.2348,35.2402],[140.2325,35.23935],[140.23187,35.23933],[140.23145,35.23943],[140.2309,35.23973],[140.23052,35.24014],[140.22993,35.2417],[140.22973,35.24211],[140.22939,35.24252],[140.22866,35.243],[140.22581,35.24371],[140.22527,35.24393],[140.2249,35.24419],[140.22116,35.24858],[140.22062,35.24913],[140.22022,35.24942],[140.21914,35.24991],[140.21703,35.25058],[140.21612,35.25072],[140.21555,35.25064]],[[140.31468,35.28039],[140.3133,35.28046]],[[140.37839,35.26051],[140.38,35.26038],[140.3828,35.25971],[140.38533,35.25897],[140.38614,35.25844],[140.38997,35.25531],[140.39057,35.25468],[140.39093,35.25402]],[[140.28097,35.28269],[140.28015,35.28272]],[[140.24727,35.25929],[140.24799,35.2596]],[[140.24378,35.28619],[140.2439,35.28688]],[[140.28097,35.28269],[140.28253,35.28272],[140.28656,35.28304],[140.28725,35.28291],[140.28913,35.28228],[140.28945,35.28224],[140.29432,35.28268],[140.30335,35.28224],[140.30478,35.28214],[140.30556,35.28197],[140.30785,35.28072],[140.30831,35.28061],[140.3133,35.28046]],[[140.19998,35.24986],[140.19921,35.25022]],[[140.39099,35.25185],[140.39093,35.25402]],[[140.39099,35.25185],[140.39106,35.25017]],[[140.25204,35.29169],[140.25289,35.29175]],[[140.2439,35.28688],[140.24446,35.28938],[140.24471,35.28996],[140.24519,35.29053],[140.24573,35.29092],[140.24626,35.29116],[140.2471,35.29132],[140.25204,35.29169]]]}}