{"type":"Feature","properties":{"id":"えちぜん鉄道_三国芦原線","name":"三国芦原線","operator":"えちぜん鉄道","railType":"普通鉄道","operatorType":"第三セクター","category":"rail","attribution":"国土数値情報（鉄道データ）国土交通省"},"geometry":{"type":"MultiLineString","coordinates":[[[136.20637,36.15391],[136.20662,36.15326]],[[136.20484,36.12058],[136.20478,36.1199]],[[136.17195,36.2191],[136.15871,36.215]],[[136.23348,36.0718],[136.23372,36.07265],[136.23426,36.07357],[136.23455,36.07438],[136.23447,36.07501],[136.23429,36.07543],[136.23392,36.07593],[136.23326,36.07653],[136.23253,36.07686],[136.23153,36.07698],[136.22908,36.07697]],[[136.20447,36.1008],[136.20524,36.09293]],[[136.22337,36.07527],[136.22261,36.07524]],[[136.20442,36.10144],[136.20447,36.1008]],[[136.20524,36.09293],[136.20532,36.09222]],[[136.20254,36.2122],[136.2025,36.21286]],[[136.23332,36.07119],[136.23348,36.0718]],[[136.15027,36.21672],[136.14963,36.21712]],[[136.20662,36.15326],[136.2069,36.15245],[136.20703,36.15158],[136.20704,36.15055],[136.20624,36.13921]],[[136.14963,36.21712],[136.14676,36.21896],[136.14619,36.21929],[136.1453,36.21965],[136.14107,36.21992],[136.14073,36.22]],[[136.20478,36.1199],[136.20388,36.10728],[136.20442,36.10144]],[[136.20572,36.13167],[136.20566,36.131]],[[136.20381,36.18696],[136.20417,36.19119],[136.20418,36.19247],[136.2032,36.20417]],[[136.21055,36.07423],[136.20971,36.07458]],[[136.2025,36.21286],[136.2019,36.21982],[136.20162,36.2207],[136.20105,36.22151],[136.20034,36.22216],[136.19945,36.22259],[136.19885,36.22276],[136.19782,36.22291],[136.19421,36.22295]],[[136.20375,36.1863],[136.20381,36.18696]],[[136.15796,36.21477],[136.15699,36.21453],[136.15571,36.21439],[136.15417,36.2146],[136.15303,36.21496],[136.15027,36.21672]],[[136.20258,36.16985],[136.20266,36.16551],[136.20637,36.15391]],[[136.15871,36.215],[136.15796,36.21477]],[[136.20312,36.20508],[136.20254,36.2122]],[[136.21723,36.07497],[136.21616,36.07488],[136.21217,36.07404],[136.21095,36.07408],[136.21055,36.07423]],[[136.17266,36.21932],[136.17195,36.2191]],[[136.19421,36.22295],[136.19339,36.22297]],[[136.19339,36.22297],[136.19153,36.22298],[136.1894,36.22287],[136.18678,36.22267],[136.18385,36.22227],[136.17957,36.22138],[136.17266,36.21932]],[[136.20624,36.13921],[136.2062,36.13859]],[[136.21805,36.07501],[136.21723,36.07497]],[[136.20258,36.16985],[136.2026,36.17039]],[[136.22261,36.07524],[136.21805,36.07501]],[[136.2062,36.13859],[136.20572,36.13167]],[[136.14073,36.22],[136.13998,36.22019]],[[136.2032,36.20417],[136.20312,36.20508]],[[136.20566,36.131],[136.20484,36.12058]],[[136.20651,36.08047],[136.20671,36.07839],[136.2068,36.078],[136.20727,36.07693],[136.20804,36.07589],[136.20896,36.07507],[136.20971,36.07458]],[[136.2026,36.17039],[136.20375,36.1863]],[[136.20532,36.09222],[136.20584,36.08659]],[[136.20584,36.08659],[136.20593,36.08579]],[[136.20593,36.08579],[136.20645,36.08109]],[[136.20645,36.08109],[136.20651,36.08047]],[[136.22908,36.07697],[136.22864,36.07696]],[[136.22864,36.07696],[136.22743,36.07686],[136.22534,36.07566],[136.22471,36.07547],[136.22337,36.07527]]]}}