{"type":"Feature","properties":{"id":"えちぜん鉄道_勝山永平寺線","name":"勝山永平寺線","operator":"えちぜん鉄道","railType":"普通鉄道","operatorType":"第三セクター","category":"rail","attribution":"国土数値情報（鉄道データ）国土交通省"},"geometry":{"type":"MultiLineString","coordinates":[[[136.32646,36.09603],[136.32552,36.09688],[136.32454,36.09753],[136.32288,36.09828],[136.32111,36.09931],[136.32067,36.09951],[136.31984,36.09968],[136.31853,36.09961],[136.31501,36.09901],[136.31282,36.09822],[136.3114,36.09785]],[[136.26952,36.08647],[136.26855,36.08599],[136.26527,36.08468],[136.26171,36.08268]],[[136.25136,36.08062],[136.25069,36.08023]],[[136.36076,36.08689],[136.35233,36.08784],[136.35054,36.0879],[136.3483,36.08772],[136.34569,36.0881],[136.34494,36.0883]],[[136.33675,36.09045],[136.33606,36.09081]],[[136.37649,36.08298],[136.37208,36.08402],[136.36144,36.08679]],[[136.24096,36.07514],[136.2416,36.07547]],[[136.41267,36.07392],[136.40961,36.07372],[136.40473,36.07315],[136.40412,36.07324],[136.40182,36.07407],[136.3994,36.07439],[136.39869,36.07465],[136.39821,36.07501],[136.39587,36.07743],[136.39534,36.0778],[136.39349,36.07883],[136.39283,36.07902]],[[136.33606,36.09081],[136.32779,36.09506],[136.32703,36.09558]],[[136.49206,36.0562],[136.48928,36.06006],[136.48881,36.06147],[136.4884,36.06215],[136.48743,36.06308],[136.48706,36.06359],[136.48676,36.06445],[136.48623,36.06532],[136.4855,36.06581],[136.4845,36.06598]],[[136.36144,36.08679],[136.36076,36.08689]],[[136.43447,36.07555],[136.43367,36.07552]],[[136.32703,36.09558],[136.32646,36.09603]],[[136.31061,36.09769],[136.30956,36.09757],[136.30897,36.09739],[136.30793,36.09658],[136.30325,36.09439],[136.30216,36.09414]],[[136.45127,36.07003],[136.44992,36.07068],[136.44978,36.07087],[136.44885,36.07313],[136.44833,36.07367],[136.44731,36.07418],[136.44318,36.07522],[136.44257,36.07527],[136.43949,36.0751],[136.43447,36.07555]],[[136.48376,36.06597],[136.48112,36.06577],[136.48064,36.06581],[136.47652,36.06698],[136.4758,36.06735],[136.47517,36.06846],[136.47462,36.06896],[136.47421,36.0692],[136.47352,36.06939],[136.47071,36.06954],[136.47005,36.06978],[136.46912,36.07047],[136.46757,36.07204],[136.46721,36.07229],[136.46656,36.0725]],[[136.34494,36.0883],[136.34416,36.08854]],[[136.46656,36.0725],[136.46578,36.07268]],[[136.30216,36.09414],[136.30129,36.09392]],[[136.22721,36.06503],[136.23197,36.06868],[136.2327,36.06954],[136.2332,36.07069],[136.23332,36.07119]],[[136.37726,36.0828],[136.37649,36.08298]],[[136.43367,36.07552],[136.42975,36.07538],[136.42777,36.07541],[136.42613,36.07564],[136.42391,36.07637],[136.42335,36.07639],[136.42197,36.07599],[136.42093,36.07559],[136.4192,36.07518],[136.41797,36.07479],[136.41641,36.07412],[136.41474,36.07396],[136.4134,36.07395]],[[136.25069,36.08023],[136.24745,36.07833],[136.24547,36.07774],[136.2416,36.07547]],[[136.30129,36.09392],[136.2988,36.0933],[136.29536,36.09287],[136.29469,36.09268],[136.29333,36.09213],[136.29239,36.09189],[136.29007,36.09181]],[[136.49234,36.05565],[136.49206,36.0562]],[[136.22383,36.06181],[136.22429,36.06239]],[[136.27769,36.0902],[136.27684,36.09004]],[[136.34416,36.08854],[136.34186,36.08934],[136.33789,36.08994],[136.33725,36.09017],[136.33675,36.09045]],[[136.28931,36.09185],[136.28426,36.09193],[136.28264,36.0918],[136.27922,36.09061],[136.27769,36.0902]],[[136.29007,36.09181],[136.28931,36.09185]],[[136.23348,36.0718],[136.2338,36.07231],[136.23421,36.0727],[136.23459,36.07293],[136.23783,36.07357],[136.23827,36.07373],[136.24096,36.07514]],[[136.27019,36.08679],[136.26952,36.08647]],[[136.39283,36.07902],[136.39209,36.07921]],[[136.27684,36.09004],[136.2754,36.08978],[136.27444,36.08942],[136.2733,36.08874],[136.27161,36.08756],[136.27019,36.08679]],[[136.45205,36.06981],[136.45127,36.07003]],[[136.22665,36.06464],[136.22721,36.06503]],[[136.26171,36.08268],[136.26104,36.0823]],[[136.26104,36.0823],[136.26039,36.08194],[136.25937,36.08164],[136.25614,36.08129],[136.25268,36.08106],[136.25205,36.08095],[136.25136,36.08062]],[[136.4134,36.07395],[136.41267,36.07392]],[[136.22429,36.06239],[136.22508,36.06349],[136.22665,36.06464]],[[136.39209,36.07921],[136.37726,36.0828]],[[136.3114,36.09785],[136.31061,36.09769]],[[136.46578,36.07268],[136.46428,36.07262],[136.46099,36.07168],[136.45791,36.0714],[136.45318,36.06963],[136.45205,36.06981]],[[136.4845,36.06598],[136.48376,36.06597]],[[136.23332,36.07119],[136.23348,36.0718]]]}}