{"type":"Feature","properties":{"id":"えちごトキめき鉄道_妙高はねうまライン","name":"妙高はねうまライン","operator":"えちごトキめき鉄道","railType":"普通鉄道","operatorType":"第三セクター","category":"rail","attribution":"国土数値情報（鉄道データ）国土交通省"},"geometry":{"type":"MultiLineString","coordinates":[[[138.2436,37.17106],[138.24087,37.16945]],[[138.24208,37.11573],[138.24244,37.1183],[138.24256,37.1198],[138.24251,37.12124],[138.24228,37.12215],[138.24181,37.12317],[138.24124,37.124],[138.23708,37.12839],[138.23657,37.12915],[138.23628,37.12974],[138.23597,37.13083],[138.23577,37.13212],[138.23509,37.14728]],[[138.24185,37.11351],[138.24208,37.11573]],[[138.24291,37.09712],[138.24077,37.10198],[138.24057,37.10304],[138.24185,37.11351]],[[138.25549,37.02756],[138.25539,37.02877],[138.25555,37.02982],[138.25851,37.03966],[138.25881,37.04115],[138.25879,37.04306],[138.25775,37.05256]],[[138.25767,37.05324],[138.25649,37.06422],[138.25627,37.06612],[138.25617,37.06644],[138.25132,37.0778],[138.25081,37.0787],[138.25037,37.07924],[138.24858,37.08084]],[[138.24756,37.08185],[138.24601,37.08348],[138.24545,37.08457],[138.24524,37.08569],[138.24554,37.08942],[138.24557,37.09009],[138.24549,37.09075],[138.2451,37.09203],[138.24316,37.09647]],[[138.24316,37.09647],[138.24291,37.09712]],[[138.24858,37.08084],[138.24756,37.08185]],[[138.23501,37.14868],[138.23472,37.15055],[138.23455,37.1512],[138.23153,37.16042],[138.23131,37.16164],[138.23137,37.16295],[138.23181,37.16393],[138.23269,37.16488],[138.2332,37.1653],[138.23436,37.16604]],[[138.23501,37.14868],[138.23509,37.14728]],[[138.25775,37.05256],[138.25767,37.05324]],[[138.25577,37.02591],[138.25549,37.02756]],[[138.24087,37.16945],[138.23676,37.16722],[138.23436,37.16604]],[[138.23303,36.9904],[138.2327,36.98985],[138.23236,36.98869]],[[138.22686,36.93198],[138.2267,36.93304]],[[138.2267,36.93304],[138.22636,36.93463],[138.22623,36.93595],[138.22629,36.93632],[138.22826,36.94079],[138.22848,36.94139],[138.22857,36.94195],[138.22862,36.94986],[138.22872,36.95058],[138.22898,36.95154],[138.23202,36.95802],[138.23241,36.95907],[138.23251,36.95967],[138.23254,36.96162],[138.2317,36.96937],[138.23155,36.97023],[138.23052,36.97219],[138.23031,36.97298],[138.23036,36.97392],[138.23101,36.97576],[138.23114,36.97651],[138.23078,36.97909],[138.23074,36.97991],[138.23081,36.98073],[138.23198,36.98702]],[[138.25577,37.02591],[138.25627,37.0221],[138.258,37.0177],[138.25828,37.01665],[138.25838,37.01546],[138.25685,37.00218],[138.25657,37.00068],[138.2563,37.00012],[138.25545,36.99929],[138.25433,36.99864],[138.25198,36.99783],[138.24765,36.9965],[138.24612,36.99625],[138.24257,36.99612],[138.24168,36.99598],[138.24059,36.99562],[138.23971,36.99498],[138.23902,36.99419],[138.23792,36.99191],[138.23744,36.99129],[138.23314,36.98841],[138.23276,36.98807],[138.23198,36.98702]],[[138.21262,36.87305],[138.2143,36.87568],[138.21461,36.87662],[138.21464,36.87754],[138.21445,36.87817],[138.21419,36.87866],[138.21351,36.87954],[138.21122,36.88122],[138.21059,36.88182],[138.21018,36.88263],[138.21003,36.88315],[138.20998,36.8841],[138.2101,36.88483],[138.21039,36.88544],[138.21078,36.88596],[138.2127,36.88792],[138.21381,36.89005],[138.21394,36.89054],[138.21431,36.8957],[138.21467,36.89662],[138.21711,36.9004],[138.21769,36.90169],[138.21793,36.90272],[138.21759,36.90408],[138.21768,36.9049],[138.21988,36.91035],[138.22037,36.91106],[138.22104,36.91175],[138.22289,36.91319],[138.22385,36.91372],[138.22609,36.91448],[138.22701,36.91507],[138.22774,36.91582],[138.22803,36.91624],[138.22851,36.91734],[138.2286,36.91775],[138.22859,36.91836],[138.22847,36.91902],[138.22617,36.92304],[138.22604,36.9234],[138.22607,36.92448],[138.227,36.93008],[138.22701,36.93073],[138.22686,36.93198]],[[138.23236,36.98869],[138.23198,36.98702]],[[138.21175,36.87156],[138.21262,36.87305]]]}}