{"type":"Feature","properties":{"id":"えちごトキめき鉄道_日本海ひすいライン","name":"日本海ひすいライン","operator":"えちごトキめき鉄道","railType":"普通鉄道","operatorType":"第三セクター","category":"rail","attribution":"国土数値情報（鉄道データ）国土交通省"},"geometry":{"type":"MultiLineString","coordinates":[[[138.23436,37.16604],[138.22279,37.16042],[138.22106,37.15984],[138.21956,37.15948],[138.21834,37.15931],[138.21566,37.15927],[138.20432,37.15955],[138.20138,37.15988],[138.19972,37.16026],[138.18643,37.16406],[138.18436,37.16437],[138.18321,37.1644],[138.18234,37.16433],[138.17497,37.16266]],[[138.13746,37.16346],[138.13881,37.16354],[138.14081,37.16334],[138.14371,37.16329],[138.14506,37.16309],[138.14665,37.16249],[138.14889,37.16083],[138.14933,37.16061],[138.15024,37.1603],[138.15182,37.15991],[138.1534,37.15968],[138.15495,37.1597],[138.15679,37.16002],[138.15832,37.16045],[138.16006,37.16125],[138.16073,37.16141],[138.16321,37.16149],[138.16854,37.1613],[138.17006,37.16149],[138.17286,37.16212]],[[138.09429,37.15614],[138.09279,37.15585],[138.09108,37.15535]],[[138.13587,37.16318],[138.10098,37.15733],[138.09429,37.15614]],[[138.17286,37.16212],[138.17497,37.16266]],[[138.13746,37.16346],[138.13587,37.16318]],[[137.73863,37.00703],[137.74074,37.00749]],[[137.87935,37.04851],[137.89788,37.05364],[137.90277,37.05586],[137.9045,37.05644]],[[137.65204,36.98054],[137.65636,36.98084],[137.65914,36.98141],[137.6979,36.99204],[137.70002,36.99269],[137.70108,36.99313],[137.70347,36.99419],[137.70748,36.99612],[137.71381,36.99833],[137.71476,36.99849],[137.7174,36.99869],[137.7236,36.99896],[137.72476,36.99908],[137.72604,36.99933],[137.72756,36.99989],[137.72841,37.00037],[137.73093,37.00253],[137.73157,37.00303],[137.73233,37.00343],[137.73461,37.00532],[137.73548,37.00594],[137.73615,37.00627],[137.73743,37.00667]],[[137.74074,37.00749],[137.74395,37.00768],[137.74606,37.00804],[137.77063,37.01659],[137.77407,37.01787],[137.78151,37.02097]],[[137.79706,37.02253],[137.79457,37.02247]],[[137.79457,37.02247],[137.78774,37.02235],[137.78658,37.02217],[137.78151,37.02097]],[[137.86107,37.04338],[137.85677,37.04219]],[[137.85677,37.04219],[137.85591,37.04197],[137.855,37.04159],[137.85331,37.04055],[137.84394,37.03392],[137.84258,37.03319],[137.83299,37.02885],[137.83173,37.02854],[137.83093,37.02848],[137.82927,37.02842],[137.82361,37.02847],[137.82214,37.0283],[137.82066,37.02791],[137.81539,37.02583],[137.8148,37.02568],[137.80837,37.02428],[137.8063,37.0242],[137.80415,37.02438],[137.80319,37.02434],[137.80158,37.02393],[137.79769,37.02259],[137.79706,37.02253]],[[137.64893,36.98035],[137.65204,36.98054]],[[137.9896,37.09638],[137.99689,37.09816],[138.0088,37.10122],[138.0211,37.10417],[138.03769,37.1083],[138.0387,37.10856],[138.04086,37.10936],[138.0429,37.11049],[138.04447,37.11157],[138.05963,37.12639]],[[137.9896,37.09638],[137.98723,37.09556]],[[137.90706,37.05669],[137.90588,37.05663],[137.9045,37.05644]],[[138.05963,37.12639],[138.06152,37.12826]],[[137.98723,37.09556],[137.9736,37.08944],[137.96838,37.08721],[137.95022,37.0791],[137.94061,37.07477],[137.94014,37.07448]],[[137.94014,37.07448],[137.93945,37.07385]],[[137.74074,37.00749],[137.74226,37.00766],[137.74441,37.00821],[137.75783,37.01316],[137.7604,37.01418],[137.76881,37.01697],[137.77275,37.01815],[137.77628,37.01958],[137.78151,37.02097]],[[138.06152,37.12826],[138.08584,37.1521],[138.08707,37.15314],[138.08858,37.15414],[138.09007,37.15493],[138.09108,37.15535]],[[137.86409,37.04423],[137.86107,37.04338]],[[137.73743,37.00667],[137.73863,37.00703]],[[137.91513,37.06075],[137.9164,37.06176],[137.92709,37.06796],[137.93734,37.07262],[137.93891,37.07345],[137.93945,37.07385]],[[137.91093,37.05717],[137.9124,37.05785],[137.91309,37.05837],[137.91367,37.05887],[137.91443,37.05974],[137.91513,37.06075]],[[137.90706,37.05669],[137.90988,37.05688],[137.91093,37.05717]],[[137.91093,37.05717],[137.91248,37.05821],[137.91513,37.06075]],[[138.2436,37.17106],[138.24087,37.16945]],[[138.24087,37.16945],[138.23676,37.16722],[138.23436,37.16604]],[[137.86409,37.04423],[137.87746,37.04798]],[[137.87746,37.04798],[137.87935,37.04851]]]}}