{"type":"Feature","properties":{"id":"くま川鉄道_湯前線","name":"湯前線","operator":"くま川鉄道","railType":"普通鉄道","operatorType":"第三セクター","category":"rail","attribution":"国土数値情報（鉄道データ）国土交通省"},"geometry":{"type":"MultiLineString","coordinates":[[[130.96654,32.27564],[130.97484,32.28052],[130.97568,32.28085],[130.97693,32.2812],[130.9782,32.28138],[130.97947,32.28141]],[[130.84022,32.21474],[130.83966,32.21438]],[[130.79496,32.20723],[130.79205,32.20722],[130.79124,32.20729],[130.79028,32.2075],[130.78946,32.20781],[130.78843,32.20841],[130.78065,32.21458],[130.77744,32.21615],[130.77646,32.21636],[130.77522,32.21627],[130.77419,32.21643],[130.77187,32.2177],[130.7709,32.21809],[130.77001,32.21832]],[[130.85916,32.22453],[130.85866,32.22402]],[[130.92158,32.25585],[130.9222,32.25622]],[[130.93288,32.26257],[130.9335,32.26294]],[[130.9222,32.25622],[130.93288,32.26257]],[[130.89342,32.23603],[130.8941,32.23647]],[[130.9335,32.26294],[130.94634,32.27058],[130.94732,32.27103],[130.9504,32.27212]],[[130.79574,32.20724],[130.79702,32.20719],[130.79805,32.20682],[130.79895,32.20612],[130.80083,32.20424],[130.80151,32.20372],[130.80221,32.20335],[130.80848,32.20234]],[[130.87545,32.23155],[130.87678,32.23182],[130.87805,32.23181],[130.88398,32.23074],[130.88489,32.23077],[130.88598,32.23117],[130.89342,32.23603]],[[130.85916,32.22453],[130.8612,32.22661],[130.86192,32.22722],[130.86294,32.22786],[130.86527,32.22865],[130.87476,32.23135]],[[130.97947,32.28141],[130.98026,32.28132]],[[130.96588,32.27525],[130.96654,32.27564]],[[130.9512,32.27237],[130.95378,32.27319],[130.95592,32.27367],[130.95777,32.27373],[130.96069,32.27329],[130.96141,32.27329],[130.96225,32.27342],[130.96352,32.27388],[130.96588,32.27525]],[[130.80925,32.2022],[130.80848,32.20234]],[[130.91268,32.24995],[130.89864,32.23948],[130.8941,32.23647]],[[130.84022,32.21474],[130.84325,32.21665],[130.8455,32.21794],[130.84704,32.21846],[130.85242,32.21975],[130.85465,32.22055],[130.85568,32.22118],[130.8563,32.22167],[130.85866,32.22402]],[[130.79574,32.20724],[130.79496,32.20723]],[[130.87476,32.23135],[130.87545,32.23155]],[[130.91336,32.25045],[130.91268,32.24995]],[[130.91336,32.25045],[130.91681,32.253],[130.92158,32.25585]],[[130.9504,32.27212],[130.9512,32.27237]],[[130.80925,32.2022],[130.81164,32.20188],[130.8127,32.20195],[130.8137,32.20214],[130.82212,32.20462],[130.82547,32.20568],[130.82772,32.2069],[130.83966,32.21438]],[[130.76834,32.21842],[130.76926,32.21841]],[[130.76926,32.21841],[130.77001,32.21832]],[[130.75482,32.21664],[130.75819,32.21824],[130.75904,32.21848],[130.75972,32.21857],[130.7652,32.21854],[130.76834,32.21842]],[[130.75281,32.21564],[130.75482,32.21664]]]}}