{"type":"Feature","properties":{"id":"しなの鉄道_しなの鉄道線","name":"しなの鉄道線","operator":"しなの鉄道","railType":"普通鉄道","operatorType":"第三セクター","category":"rail","attribution":"国土数値情報（鉄道データ）国土交通省"},"geometry":{"type":"MultiLineString","coordinates":[[[138.13694,36.57405],[138.13765,36.57581]],[[138.13765,36.57581],[138.13861,36.5784]],[[138.33037,36.35374],[138.33142,36.35324],[138.33343,36.35255],[138.33831,36.35128],[138.33969,36.35077],[138.34065,36.35018],[138.34766,36.34506],[138.34921,36.34414],[138.35032,36.3437],[138.35189,36.34342],[138.36055,36.34308],[138.36287,36.34268]],[[138.4552,36.30879],[138.45262,36.30848]],[[138.13268,36.54847],[138.1323,36.54744]],[[138.20804,36.41726],[138.19647,36.42151],[138.1958,36.42188],[138.19502,36.42248],[138.19336,36.42414],[138.19275,36.42498],[138.19231,36.42591],[138.19,36.43266],[138.1893,36.43513],[138.18833,36.43996]],[[138.13268,36.54847],[138.1339,36.55169],[138.13416,36.55323],[138.13399,36.55519],[138.13305,36.5598],[138.13275,36.56174],[138.13291,36.56328],[138.13305,36.56409],[138.13328,36.56481],[138.13694,36.57405]],[[138.59153,36.34747],[138.59302,36.34764],[138.59401,36.34756],[138.59473,36.3474]],[[138.50798,36.31879],[138.50466,36.31919]],[[138.63677,36.34282],[138.6332,36.34291]],[[138.29555,36.37014],[138.28739,36.37241],[138.28181,36.37409],[138.28077,36.37448],[138.27471,36.37783]],[[138.59153,36.34747],[138.58985,36.34696],[138.56876,36.33819],[138.56725,36.33781],[138.56416,36.33739],[138.56222,36.33703],[138.5616,36.33684],[138.5598,36.33607]],[[138.1323,36.54744],[138.1304,36.54228],[138.12983,36.54096],[138.12919,36.53976],[138.12782,36.53785],[138.12735,36.53689],[138.12726,36.53591],[138.12782,36.53369]],[[138.42172,36.32666],[138.42007,36.32844],[138.41709,36.3329],[138.41654,36.33348],[138.41536,36.33438],[138.41463,36.33482],[138.41216,36.33603],[138.41019,36.33681],[138.40543,36.33737],[138.39696,36.33821],[138.39494,36.33815],[138.39078,36.33731],[138.39007,36.33723],[138.38897,36.33726],[138.38803,36.33744],[138.38586,36.33812],[138.37893,36.34067],[138.37743,36.34112],[138.37647,36.34125],[138.37491,36.34124],[138.37242,36.34088],[138.37118,36.34088],[138.36688,36.34141],[138.36578,36.34163],[138.36499,36.34191]],[[138.18242,36.46104],[138.18408,36.45934],[138.18446,36.45863],[138.18807,36.4412]],[[138.42356,36.32511],[138.42333,36.32523],[138.42172,36.32666]],[[138.14108,36.50961],[138.13765,36.51339],[138.13645,36.5145],[138.13494,36.51568],[138.13441,36.51621],[138.13354,36.51731],[138.13286,36.51866],[138.12999,36.52559],[138.12972,36.52642],[138.1285,36.53142]],[[138.45262,36.30848],[138.45104,36.3084],[138.44965,36.30858],[138.44272,36.31082],[138.43695,36.31242],[138.43559,36.31291],[138.43481,36.31346],[138.4343,36.31404],[138.43351,36.31522],[138.43271,36.31662],[138.43235,36.31704],[138.42356,36.32511]],[[138.18807,36.4412],[138.18833,36.43996]],[[138.55719,36.33483],[138.55491,36.33394],[138.55299,36.33364],[138.55118,36.33348],[138.55019,36.33328],[138.54876,36.33275],[138.54787,36.33212],[138.54744,36.33169],[138.54685,36.33091],[138.54639,36.32979],[138.54638,36.32837],[138.54656,36.32581],[138.54633,36.32467],[138.54574,36.32365],[138.545,36.3228],[138.54418,36.3222],[138.5434,36.32186],[138.54231,36.32159],[138.54133,36.32146],[138.53843,36.32159],[138.53678,36.32147],[138.52713,36.31899],[138.52043,36.31636],[138.51865,36.31598],[138.51718,36.31596],[138.51565,36.31622],[138.50987,36.31829],[138.50798,36.31879]],[[138.15346,36.49184],[138.15834,36.47696],[138.15902,36.47535],[138.1598,36.47428],[138.16058,36.47355],[138.16388,36.4712],[138.16636,36.46866],[138.16762,36.46778],[138.17009,36.46678],[138.17779,36.46461],[138.17917,36.464],[138.18048,36.46292]],[[138.12782,36.53369],[138.1285,36.53142]],[[138.36499,36.34191],[138.36287,36.34268]],[[138.29871,36.36904],[138.29555,36.37014]],[[138.59473,36.3474],[138.5961,36.34701],[138.605,36.344],[138.60582,36.34379],[138.60736,36.34358],[138.62516,36.34321],[138.6332,36.34291]],[[138.50466,36.31919],[138.50382,36.31919],[138.50231,36.31901],[138.50069,36.31846],[138.49071,36.31237],[138.48965,36.31188],[138.48472,36.3101],[138.48084,36.30955],[138.47962,36.30944],[138.47807,36.30942],[138.46906,36.31021],[138.46689,36.31028],[138.46466,36.31009],[138.4552,36.30879]],[[138.24912,36.39672],[138.2462,36.39952],[138.24449,36.40075],[138.24326,36.40146],[138.23167,36.40744],[138.22663,36.4102],[138.22544,36.41079],[138.22413,36.41131],[138.21007,36.41649]],[[138.27296,36.37881],[138.27471,36.37783]],[[138.27296,36.37881],[138.2677,36.38173],[138.2648,36.38344],[138.26416,36.38391],[138.25959,36.38773],[138.2514,36.39479]],[[138.18048,36.46292],[138.18242,36.46104]],[[138.15346,36.49184],[138.15263,36.49409]],[[138.21007,36.41649],[138.20804,36.41726]],[[138.2514,36.39479],[138.24912,36.39672]],[[138.32805,36.35509],[138.3246,36.3574],[138.32239,36.35931],[138.32144,36.35987],[138.31983,36.3605],[138.31815,36.36098],[138.31689,36.36148],[138.30977,36.36486],[138.30824,36.3655],[138.30154,36.36789],[138.29871,36.36904]],[[138.33037,36.35374],[138.32805,36.35509]],[[138.5598,36.33607],[138.55719,36.33483]],[[138.14181,36.5088],[138.14108,36.50961]],[[138.15263,36.49409],[138.15209,36.49525],[138.15111,36.49691],[138.14694,36.5031],[138.14181,36.5088]]]}}