{"type":"Feature","properties":{"id":"しなの鉄道_北しなの線","name":"北しなの線","operator":"しなの鉄道","railType":"普通鉄道","operatorType":"第三セクター","category":"rail","attribution":"国土数値情報（鉄道データ）国土交通省"},"geometry":{"type":"MultiLineString","coordinates":[[[138.23047,36.79329],[138.23031,36.79371],[138.2299,36.79439],[138.2291,36.79532],[138.22732,36.79694],[138.22626,36.79747],[138.22532,36.79773],[138.22394,36.79786],[138.21806,36.79746],[138.21663,36.7977],[138.21586,36.79808],[138.21094,36.80202],[138.21024,36.80227],[138.20923,36.80245],[138.20838,36.8025],[138.2048,36.80243],[138.20387,36.80264],[138.20276,36.80318],[138.19832,36.8064]],[[138.19832,36.8064],[138.1959,36.80824]],[[138.23042,36.79158],[138.23054,36.79279],[138.23047,36.79329]],[[138.28996,36.71799],[138.27661,36.7116]],[[138.24724,36.75321],[138.24924,36.75312],[138.25083,36.75253],[138.25117,36.75226],[138.2524,36.75085],[138.25353,36.75012],[138.25412,36.74962],[138.25446,36.74915],[138.25507,36.74765],[138.25581,36.74682],[138.2565,36.74646],[138.25914,36.74537],[138.26035,36.74469],[138.26086,36.74427],[138.26128,36.74384],[138.26161,36.74322],[138.26176,36.74235],[138.26183,36.7409],[138.26205,36.74021],[138.26287,36.73898],[138.26362,36.73713],[138.26397,36.73662],[138.26426,36.73641],[138.26673,36.73527],[138.27217,36.73235],[138.27442,36.73179],[138.27615,36.73106],[138.27731,36.73081],[138.27878,36.73081],[138.27985,36.73096],[138.28061,36.73098],[138.28173,36.73082],[138.28672,36.72907],[138.28779,36.72845],[138.2885,36.72779],[138.28896,36.72707],[138.29103,36.72222],[138.29123,36.72149],[138.29131,36.72037],[138.29114,36.71962],[138.29073,36.71879],[138.28996,36.71799]],[[138.21175,36.87156],[138.21262,36.87305]],[[138.22161,36.66439],[138.21551,36.66065],[138.18992,36.64416]],[[138.22369,36.66575],[138.23275,36.67182],[138.23361,36.67288],[138.24321,36.68576]],[[138.27451,36.71059],[138.27661,36.7116]],[[138.24632,36.75321],[138.24724,36.75321]],[[138.22369,36.66575],[138.22161,36.66439]],[[138.21175,36.87156],[138.21148,36.87088],[138.21124,36.86871],[138.21114,36.86477],[138.21102,36.8633],[138.21064,36.86239],[138.20937,36.86065],[138.2071,36.858],[138.20498,36.85622],[138.20466,36.85603],[138.20366,36.85568],[138.20125,36.85525],[138.19956,36.85477],[138.19497,36.85297],[138.19435,36.85262],[138.19359,36.85182],[138.19286,36.85058],[138.19233,36.84848],[138.19197,36.84785],[138.19021,36.84572],[138.1882,36.84368],[138.18786,36.84317],[138.18769,36.84273],[138.18777,36.84166],[138.18857,36.83857],[138.18863,36.83697],[138.18858,36.8364],[138.18864,36.83637],[138.18848,36.83401],[138.18757,36.83097],[138.18738,36.82983],[138.18769,36.82557],[138.18766,36.81711],[138.18778,36.81674],[138.18945,36.81375],[138.19025,36.81255],[138.191,36.81187],[138.1959,36.80824]],[[138.24632,36.75321],[138.24104,36.75281],[138.23655,36.75164],[138.23541,36.75146],[138.23419,36.75153],[138.23216,36.75192],[138.22998,36.75259],[138.22909,36.75301],[138.22754,36.75396],[138.22697,36.75435],[138.22633,36.75501],[138.22607,36.75555],[138.22434,36.76032],[138.22371,36.76142],[138.22285,36.76258],[138.22271,36.76334],[138.22273,36.76377],[138.22286,36.76422],[138.22321,36.76481],[138.22409,36.76587],[138.22536,36.76826],[138.22645,36.7694],[138.22907,36.77138],[138.22973,36.77197],[138.2303,36.77284],[138.23053,36.77349],[138.23055,36.77506],[138.23033,36.77727],[138.23037,36.77809],[138.23138,36.78124],[138.23151,36.78215],[138.2314,36.78276],[138.23041,36.78465],[138.22994,36.78585],[138.22992,36.78782],[138.23042,36.79158]],[[138.24321,36.68576],[138.2448,36.68748]],[[138.2448,36.68748],[138.24877,36.6907],[138.25871,36.69838],[138.26831,36.70742],[138.26898,36.70787],[138.27031,36.70858],[138.27451,36.71059]],[[138.18992,36.64416],[138.18778,36.64276]]]}}