{"type":"Feature","properties":{"id":"とさでん交通_後免線","name":"後免線","operator":"とさでん交通","railType":"軌道","operatorType":"第三セクター","category":"tram","attribution":"国土数値情報（鉄道データ）国土交通省"},"geometry":{"type":"MultiLineString","coordinates":[[[133.57276,33.55802],[133.57079,33.55738],[133.57021,33.55711]],[[133.57524,33.55876],[133.57352,33.55824]],[[133.54883,33.55899],[133.5483,33.55903]],[[133.54378,33.5594],[133.54311,33.55948]],[[133.63606,33.57641],[133.63205,33.57684]],[[133.64869,33.57456],[133.64788,33.57465]],[[133.62135,33.57511],[133.62061,33.57494]],[[133.59674,33.56706],[133.59584,33.56716],[133.59538,33.5671],[133.59346,33.56649],[133.59304,33.56628]],[[133.57599,33.55897],[133.57524,33.55876]],[[133.5483,33.55903],[133.54523,33.55954],[133.54434,33.55937]],[[133.56942,33.55689],[133.56727,33.55731],[133.56587,33.55744]],[[133.58049,33.55916],[133.57978,33.55916]],[[133.5834,33.55997],[133.58279,33.55953],[133.58175,33.5592],[133.58109,33.5591],[133.58049,33.55916]],[[133.55699,33.55833],[133.55644,33.55838]],[[133.61756,33.57463],[133.61656,33.57455],[133.61444,33.57465]],[[133.63742,33.57627],[133.63688,33.57633]],[[133.59747,33.56695],[133.59674,33.56706]],[[133.60804,33.57379],[133.60852,33.57374],[133.60891,33.57381],[133.61069,33.57459],[133.61216,33.57468]],[[133.58703,33.56242],[133.58641,33.56205]],[[133.64323,33.57575],[133.64267,33.57579]],[[133.55965,33.5581],[133.55699,33.55833]],[[133.61831,33.57473],[133.61756,33.57463]],[[133.57978,33.55916],[133.57749,33.55912]],[[133.60382,33.57342],[133.60514,33.57393],[133.60675,33.57402],[133.60779,33.57385]],[[133.59304,33.56628],[133.59247,33.56589]],[[133.61444,33.57465],[133.61371,33.57467]],[[133.56587,33.55744],[133.56533,33.55751]],[[133.60382,33.57342],[133.60323,33.57296]],[[133.59004,33.56428],[133.58945,33.5639]],[[133.58945,33.5639],[133.58703,33.56242]],[[133.55341,33.55861],[133.54883,33.55899]],[[133.64629,33.5754],[133.64576,33.5755]],[[133.60323,33.57296],[133.60251,33.57248],[133.60112,33.57188],[133.60069,33.57157],[133.59991,33.57082],[133.59976,33.57054]],[[133.62573,33.57609],[133.62238,33.5754],[133.62135,33.57511]],[[133.59976,33.57054],[133.59958,33.5699]],[[133.57021,33.55711],[133.56942,33.55689]],[[133.63205,33.57684],[133.63124,33.57691]],[[133.63124,33.57691],[133.62991,33.57699],[133.62647,33.57626]],[[133.64788,33.57465],[133.64731,33.57472],[133.64668,33.57524],[133.64629,33.5754]],[[133.59958,33.5699],[133.59939,33.56939],[133.59819,33.56742],[133.59781,33.56699],[133.59747,33.56695]],[[133.56019,33.55805],[133.55965,33.5581]],[[133.61371,33.57467],[133.61295,33.57468]],[[133.54434,33.55937],[133.54378,33.5594]],[[133.56128,33.55793],[133.56019,33.55805]],[[133.64986,33.57449],[133.64869,33.57456]],[[133.58641,33.56205],[133.58388,33.56044]],[[133.55644,33.55838],[133.55393,33.55857]],[[133.56533,33.55751],[133.56174,33.55787]],[[133.58388,33.56044],[133.5834,33.55997]],[[133.64576,33.5755],[133.64323,33.57575]],[[133.57674,33.55914],[133.57633,33.5591],[133.57599,33.55897]],[[133.6379,33.57621],[133.63742,33.57627]],[[133.65064,33.57434],[133.64986,33.57449]],[[133.62647,33.57626],[133.62573,33.57609]],[[133.64267,33.57579],[133.6379,33.57621]],[[133.59247,33.56589],[133.59004,33.56428]],[[133.57749,33.55912],[133.57674,33.55914]],[[133.60779,33.57385],[133.60804,33.57379]],[[133.54311,33.55948],[133.54259,33.55954]],[[133.63688,33.57633],[133.63606,33.57641]],[[133.56174,33.55787],[133.56128,33.55793]],[[133.57352,33.55824],[133.57276,33.55802]],[[133.62061,33.57494],[133.61998,33.57483],[133.61831,33.57473]],[[133.55393,33.55857],[133.55341,33.55861]],[[133.61295,33.57468],[133.61216,33.57468]]]}}