{"type":"Feature","properties":{"id":"とさでん交通_駅前線","name":"駅前線","operator":"とさでん交通","railType":"軌道","operatorType":"第三セクター","category":"tram","attribution":"国土数値情報（鉄道データ）国土交通省"},"geometry":{"type":"MultiLineString","coordinates":[[[133.54336,33.5638],[133.54319,33.56234]],[[133.54338,33.56398],[133.54336,33.5638]],[[133.54367,33.56629],[133.54338,33.56398]],[[133.54313,33.56189],[133.54281,33.55932]],[[133.54372,33.56674],[133.54367,33.56629]],[[133.54319,33.56234],[133.54313,33.56189]],[[133.54281,33.55932],[133.54276,33.55888]]]}}