{"type":"Feature","properties":{"id":"のと鉄道_七尾線","name":"七尾線","operator":"のと鉄道","railType":"普通鉄道","operatorType":"第三セクター","category":"rail","attribution":"国土数値情報（鉄道データ）国土交通省"},"geometry":{"type":"MultiLineString","coordinates":[[[136.89222,37.06582],[136.9044,37.06717],[136.90701,37.06757],[136.91143,37.0693],[136.9126,37.06995],[136.91357,37.07071],[136.91413,37.0713],[136.91517,37.07305],[136.91583,37.07378],[136.91631,37.07414],[136.91715,37.07459],[136.92077,37.07595],[136.92204,37.07596],[136.92246,37.07589],[136.92509,37.07497]],[[136.87379,37.14739],[136.87167,37.14566],[136.87138,37.14527],[136.87111,37.14434],[136.87116,37.14386],[136.8713,37.14347],[136.87257,37.14095],[136.87321,37.13999],[136.87411,37.13933],[136.87648,37.13807],[136.87723,37.13735],[136.87747,37.13698],[136.87839,37.13491],[136.87949,37.13373],[136.8799,37.13307],[136.88004,37.13261],[136.88007,37.13197],[136.88004,37.13163],[136.87984,37.13116],[136.87822,37.12936],[136.87782,37.12901],[136.87721,37.12866],[136.87666,37.12845],[136.87586,37.1283],[136.87112,37.12802],[136.87043,37.1278],[136.86993,37.12754],[136.86918,37.12695],[136.8689,37.12656],[136.86841,37.12555],[136.86798,37.1242],[136.86796,37.12071],[136.86777,37.12004],[136.86732,37.11888],[136.86624,37.11656],[136.86605,37.11583],[136.86594,37.11475],[136.86567,37.11404],[136.86517,37.11343],[136.86479,37.11311],[136.86451,37.11292],[136.86392,37.11272],[136.86255,37.11255],[136.85884,37.11317],[136.85766,37.11321],[136.85677,37.11303],[136.85598,37.11259],[136.85567,37.11227],[136.85497,37.11139],[136.85384,37.10959]],[[136.85384,37.10959],[136.85339,37.10892]],[[136.90381,37.22872],[136.90536,37.22735]],[[136.89745,37.17932],[136.89609,37.17799],[136.89526,37.17657],[136.89465,37.17598],[136.89321,37.17497],[136.89269,37.17449],[136.89229,37.17397],[136.89155,37.17242],[136.88892,37.16965],[136.88861,37.16898],[136.88835,37.16745],[136.88774,37.16651],[136.88679,37.16586],[136.88446,37.16502],[136.88398,37.16472],[136.88359,37.16433],[136.88214,37.16183],[136.882,37.16101],[136.88217,37.16014],[136.88218,37.15954],[136.8821,37.15907],[136.88184,37.15849],[136.88145,37.15799],[136.88066,37.15731],[136.88033,37.15687],[136.87923,37.15421],[136.87718,37.15021],[136.87652,37.14949],[136.87453,37.14794]],[[136.85339,37.10892],[136.85218,37.10701],[136.852,37.1066],[136.85187,37.1056],[136.85201,37.10503],[136.85214,37.10473],[136.85236,37.10449],[136.85654,37.10093],[136.85751,37.09944],[136.85794,37.09832],[136.85805,37.09705],[136.8583,37.09574],[136.85839,37.09431],[136.85832,37.09357],[136.85735,37.09022],[136.85734,37.08928],[136.85775,37.08798],[136.8586,37.08633],[136.85887,37.08562],[136.85912,37.08452],[136.85911,37.08418],[136.8579,37.08004]],[[136.8576,37.07897],[136.85754,37.07832],[136.85763,37.07705],[136.85889,37.07108],[136.85925,37.07049],[136.85986,37.0699],[136.8611,37.06923],[136.8618,37.06897],[136.86292,37.06873],[136.86438,37.06865],[136.86973,37.06951],[136.87064,37.06954],[136.87987,37.06812],[136.88049,37.06783],[136.88321,37.06574],[136.88458,37.06532],[136.88516,37.06527],[136.88653,37.06534],[136.89072,37.06566]],[[136.87453,37.14794],[136.87379,37.14739]],[[136.89072,37.06566],[136.89222,37.06582]],[[136.90536,37.22735],[136.90678,37.22601],[136.90718,37.22517],[136.90728,37.22459],[136.90713,37.22385],[136.90686,37.22337],[136.9059,37.2221],[136.90564,37.22143],[136.90564,37.2202],[136.90582,37.21901],[136.90531,37.21701],[136.90528,37.21665],[136.90561,37.21546],[136.90583,37.2151],[136.90667,37.2142],[136.90698,37.21361],[136.90706,37.21331],[136.90702,37.21277],[136.90757,37.21062],[136.90833,37.20824],[136.90833,37.20787],[136.90806,37.20689],[136.90578,37.20316],[136.90568,37.20259],[136.90575,37.20186],[136.90603,37.2012],[136.90666,37.20047],[136.90853,37.19923],[136.90936,37.19849],[136.90972,37.19769],[136.91043,37.19556],[136.91056,37.19451],[136.91028,37.19388],[136.90974,37.19329],[136.9093,37.19304],[136.90848,37.19274],[136.90655,37.19247],[136.90569,37.19199],[136.90501,37.19134],[136.9048,37.191],[136.90467,37.19038],[136.90477,37.1876],[136.90454,37.18671],[136.90441,37.18648],[136.9041,37.18618],[136.90346,37.18578],[136.90036,37.18493],[136.89984,37.18458],[136.89952,37.18417],[136.89924,37.18353],[136.89917,37.1827],[136.89896,37.18168],[136.89872,37.18105],[136.89826,37.18026]],[[136.8576,37.07897],[136.8579,37.08004]],[[136.89826,37.18026],[136.89745,37.17932]],[[136.96364,37.04222],[136.9648,37.04134]],[[136.92662,37.07442],[136.92881,37.07363],[136.92929,37.07337],[136.92985,37.07291],[136.93397,37.06864],[136.94711,37.05797],[136.94809,37.05743],[136.94873,37.05724],[136.95141,37.05694],[136.95207,37.05675],[136.95274,37.05637],[136.95308,37.05602],[136.95353,37.05522],[136.95654,37.04863],[136.95746,37.04701],[136.95819,37.04633],[136.96364,37.04222]],[[136.92509,37.07497],[136.92662,37.07442]]]}}