{"type":"Feature","properties":{"id":"ひたちなか海浜鉄道_湊線","name":"湊線","operator":"ひたちなか海浜鉄道","railType":"普通鉄道","operatorType":"第三セクター","category":"rail","attribution":"国土数値情報（鉄道データ）国土交通省"},"geometry":{"type":"MultiLineString","coordinates":[[[140.52444,36.39359],[140.5243,36.39294]],[[140.61226,36.38312],[140.61243,36.38375]],[[140.61794,36.37805],[140.61788,36.37841],[140.6177,36.37867],[140.617,36.37923],[140.61623,36.3795],[140.61414,36.37999],[140.61337,36.38036],[140.61308,36.38059],[140.6125,36.38128],[140.61227,36.38172],[140.61215,36.38246],[140.61226,36.38312]],[[140.61793,36.37745],[140.61794,36.37805]],[[140.60775,36.35778],[140.60868,36.35892],[140.60972,36.35977],[140.61292,36.36142],[140.61429,36.36234],[140.61476,36.36283],[140.61523,36.36384],[140.61544,36.36458],[140.61684,36.37177]],[[140.60742,36.35725],[140.60775,36.35778]],[[140.60135,36.3496],[140.60563,36.35166],[140.60625,36.35218],[140.60656,36.35262],[140.60673,36.35302],[140.60685,36.35366],[140.60669,36.35539],[140.60678,36.35613],[140.60742,36.35725]],[[140.60067,36.34928],[140.60135,36.3496]],[[140.58821,36.34503],[140.58868,36.34469],[140.58971,36.34447],[140.5906,36.34454],[140.59121,36.34472],[140.60067,36.34928]],[[140.58712,36.34604],[140.58821,36.34503]],[[140.56242,36.36727],[140.56329,36.36683],[140.56532,36.36599],[140.5664,36.36532],[140.57994,36.35274]],[[140.56177,36.36763],[140.56242,36.36727]],[[140.53459,36.38203],[140.53716,36.3806],[140.53995,36.37945],[140.54056,36.37912],[140.54124,36.37864],[140.54325,36.37629],[140.54388,36.37586],[140.5482,36.37501],[140.55357,36.37301],[140.56177,36.36763]],[[140.53326,36.38282],[140.53459,36.38203]],[[140.5249,36.38787],[140.52729,36.38634],[140.53326,36.38282]],[[140.5244,36.38838],[140.5249,36.38787]],[[140.5243,36.39294],[140.5239,36.39108],[140.52374,36.38978],[140.52382,36.3892],[140.5244,36.38838]],[[140.57994,36.35274],[140.58046,36.35225]],[[140.58046,36.35225],[140.58712,36.34604]],[[140.61698,36.37245],[140.61793,36.37745]],[[140.61684,36.37177],[140.61698,36.37245]]]}}