{"type":"Feature","properties":{"id":"ゆりかもめ_東京臨海新交通臨海線","name":"東京臨海新交通臨海線","operator":"ゆりかもめ","railType":"案内軌条式(軌道)","operatorType":"第三セクター","category":"agt","attribution":"国土数値情報（鉄道データ）国土交通省"},"geometry":{"type":"MultiLineString","coordinates":[[[139.77932,35.61754],[139.77801,35.61696],[139.7772,35.61699],[139.77672,35.61721],[139.77635,35.61754],[139.77333,35.62109]],[[139.78072,35.62447],[139.77936,35.62371],[139.77906,35.62344],[139.77886,35.62291],[139.77892,35.62225],[139.77911,35.62181],[139.77998,35.62002],[139.78072,35.61892],[139.78072,35.61858],[139.78054,35.61825],[139.78001,35.61791]],[[139.77172,35.62606],[139.77818,35.62961]],[[139.792,35.63059],[139.7906,35.62983]],[[139.79313,35.63482],[139.79355,35.63428]],[[139.77103,35.62568],[139.77172,35.62606]],[[139.79355,35.63428],[139.79451,35.63302],[139.79466,35.63253],[139.79462,35.63218],[139.79436,35.63191],[139.792,35.63059]],[[139.7906,35.62983],[139.78191,35.62513]],[[139.78001,35.61791],[139.77932,35.61754]],[[139.77288,35.62163],[139.77147,35.62312],[139.77044,35.62437],[139.77034,35.62474],[139.77042,35.62505],[139.77078,35.62551],[139.77103,35.62568]],[[139.77333,35.62109],[139.77288,35.62163]],[[139.77818,35.62961],[139.77888,35.63]],[[139.78072,35.62447],[139.78191,35.62513]],[[139.76036,35.66328],[139.75979,35.66269]],[[139.76082,35.6648],[139.75898,35.66583],[139.75896,35.66612]],[[139.76036,35.66328],[139.76125,35.66429],[139.76117,35.66454],[139.76082,35.6648]],[[139.75932,35.64961],[139.759,35.64891]],[[139.75788,35.64195],[139.75793,35.63918],[139.75786,35.63732],[139.75775,35.63691],[139.7573,35.63645],[139.75693,35.63627],[139.75647,35.63617],[139.75563,35.63633],[139.7552,35.63666],[139.75504,35.63689],[139.75494,35.63723],[139.75496,35.63769],[139.75516,35.63804],[139.75556,35.63836],[139.756,35.63852],[139.75651,35.63855],[139.75787,35.63833]],[[139.75786,35.64249],[139.75788,35.64195]],[[139.76179,35.65378],[139.76224,35.65435]],[[139.75932,35.64961],[139.76067,35.65235],[139.76179,35.65378]],[[139.77888,35.63],[139.7793,35.63023],[139.77989,35.63079],[139.78012,35.63133],[139.77994,35.63187],[139.77705,35.63548],[139.77661,35.63581],[139.77613,35.63601],[139.7753,35.63622],[139.77451,35.63626],[139.77055,35.635],[139.7696,35.63485],[139.76913,35.63486],[139.76762,35.6352],[139.75787,35.63833]],[[139.76224,35.65435],[139.76251,35.65479],[139.76254,35.65515],[139.76249,35.65554],[139.76218,35.65605],[139.76164,35.65644],[139.76014,35.65729],[139.75952,35.65751],[139.75859,35.6577],[139.75842,35.65783],[139.75847,35.65833],[139.759,35.66054],[139.75916,35.66178],[139.7594,35.66226],[139.75979,35.66269]],[[139.75786,35.64249],[139.75775,35.64567],[139.75794,35.64653],[139.759,35.64891]],[[139.79313,35.63482],[139.78913,35.63971]],[[139.78913,35.63971],[139.78866,35.64025]],[[139.78866,35.64025],[139.78507,35.64466],[139.78493,35.64508],[139.78507,35.64531],[139.7853,35.64548]],[[139.7853,35.64548],[139.786,35.6459]],[[139.786,35.6459],[139.78985,35.64853]],[[139.78985,35.64853],[139.79038,35.64889]],[[139.79038,35.64889],[139.79081,35.64914],[139.79136,35.64963],[139.79315,35.65187],[139.79361,35.65234],[139.79504,35.65341]],[[139.79504,35.65341],[139.79583,35.654]]]}}