{"type":"Feature","properties":{"id":"アイジーアールいわて銀河鉄道_いわて銀河鉄道線","name":"いわて銀河鉄道線","operator":"アイジーアールいわて銀河鉄道","railType":"普通鉄道","operatorType":"第三セクター","category":"rail","attribution":"国土数値情報（鉄道データ）国土交通省"},"geometry":{"type":"MultiLineString","coordinates":[[[141.29139,40.3374],[141.29323,40.33654],[141.2949,40.33563],[141.29862,40.33317]],[[141.27554,40.23936],[141.27587,40.23827],[141.27622,40.23756],[141.27856,40.23344],[141.27983,40.23153],[141.28092,40.23042],[141.28345,40.22874]],[[141.28659,40.26092],[141.28538,40.25874]],[[141.29082,40.28615],[141.29103,40.28485]],[[141.27554,40.23936],[141.27569,40.24092],[141.27604,40.24226],[141.27647,40.24326],[141.28051,40.24972],[141.2818,40.25217]],[[141.29103,40.28485],[141.29261,40.2744],[141.29274,40.27309],[141.29268,40.27255],[141.29232,40.27136],[141.29192,40.27055],[141.28659,40.26092]],[[141.28941,40.35112],[141.2889,40.34817],[141.28832,40.34378],[141.28818,40.34252],[141.28827,40.34118],[141.28857,40.33994],[141.28903,40.33913],[141.28943,40.33872],[141.29,40.3383],[141.29139,40.3374]],[[141.30361,40.32397],[141.30407,40.32217]],[[141.28538,40.25874],[141.2818,40.25217]],[[141.27554,40.23936],[141.2754,40.2399],[141.27537,40.24039],[141.27544,40.2418],[141.27557,40.2425],[141.2763,40.24421],[141.27853,40.24753],[141.2818,40.25217]],[[141.30407,40.32217],[141.3062,40.31378],[141.30626,40.31306],[141.30619,40.31202],[141.30581,40.31079],[141.30523,40.30973],[141.29845,40.30143],[141.29529,40.29789],[141.2912,40.29261],[141.29066,40.29149],[141.2904,40.29041],[141.29038,40.28935],[141.29082,40.28615]],[[141.29139,40.3374],[141.29862,40.33317]],[[141.29862,40.33317],[141.29985,40.33235],[141.30028,40.33193],[141.3023,40.32867],[141.30267,40.32767],[141.30361,40.32397]],[[141.28941,40.35112],[141.28974,40.35298]],[[141.13473,39.7027],[141.13036,39.70654]],[[141.13802,39.69969],[141.13473,39.7027]],[[141.17295,39.87319],[141.1744,39.87513]],[[141.1744,39.87513],[141.17637,39.87777]],[[141.2314,40.04999],[141.23212,40.04905],[141.23284,40.04846],[141.23363,40.04802],[141.23625,40.04692],[141.23656,40.04672]],[[141.29729,40.21127],[141.29643,40.21648],[141.29598,40.2179],[141.29576,40.21834],[141.29538,40.21897],[141.29347,40.22159],[141.29221,40.22313],[141.29152,40.22373],[141.29028,40.22458]],[[141.23717,40.00469],[141.23693,40.00403]],[[141.21707,39.96091],[141.21764,39.96459],[141.2194,39.96786],[141.22746,39.98422],[141.2277,39.98487],[141.22943,39.99142],[141.2299,39.99294],[141.23081,39.99442],[141.23339,39.99708],[141.23439,39.99833],[141.23505,39.99951],[141.23693,40.00403]],[[141.2285,40.06577],[141.2285,40.06654]],[[141.26003,40.12217],[141.26081,40.12404]],[[141.26331,40.12707],[141.26586,40.12897],[141.2669,40.12961],[141.26791,40.13004],[141.26981,40.13045]],[[141.14916,39.78398],[141.15333,39.78812],[141.15415,39.78966],[141.15446,39.79096],[141.15451,39.79216],[141.15442,39.79289],[141.15407,39.79397],[141.15356,39.79487],[141.15296,39.79562],[141.15041,39.79821]],[[141.1446,39.80477],[141.14434,39.80549],[141.14418,39.80626],[141.14416,39.80683],[141.14439,39.80812],[141.14835,39.82056],[141.14839,39.82204],[141.14787,39.82745],[141.1479,39.82851],[141.14836,39.82962],[141.14875,39.83024],[141.14928,39.83079],[141.1513,39.8323]],[[141.28345,40.22874],[141.29028,40.22458]],[[141.28182,40.13402],[141.28255,40.13424],[141.28719,40.13604],[141.28855,40.13682]],[[141.30774,40.17235],[141.30759,40.18394]],[[141.30488,40.19287],[141.3066,40.19093],[141.30715,40.19007],[141.3076,40.18907],[141.30783,40.18785],[141.30785,40.18675],[141.30759,40.18394]],[[141.2314,40.04999],[141.23153,40.04955],[141.23181,40.0491],[141.23286,40.04824],[141.2355,40.04705],[141.23656,40.04672]],[[141.15041,39.79821],[141.1487,39.79979]],[[141.12938,39.74498],[141.13285,39.75157],[141.13595,39.75709],[141.13691,39.75897]],[[141.28182,40.13402],[141.2855,40.13571],[141.28855,40.13682]],[[141.1513,39.8323],[141.15347,39.8341]],[[141.29755,40.20895],[141.29746,40.20775],[141.2964,40.20396],[141.29635,40.20354],[141.2964,40.20271],[141.29663,40.20203],[141.29716,40.20103],[141.29854,40.19935],[141.29946,40.19834],[141.30287,40.19536],[141.30381,40.19428],[141.30488,40.19287]],[[141.28855,40.13682],[141.29152,40.13889],[141.293,40.13981]],[[141.19944,39.92025],[141.19991,39.92645],[141.20019,39.928],[141.20104,39.92977],[141.20351,39.93412],[141.20428,39.93511],[141.20703,39.93734],[141.20784,39.9379],[141.21257,39.94051],[141.21329,39.941],[141.21429,39.94189],[141.21512,39.94318],[141.21764,39.94793],[141.21779,39.94833],[141.21793,39.94917],[141.21781,39.95036],[141.21766,39.95094],[141.21657,39.95322],[141.21646,39.95367],[141.21708,39.96027]],[[141.29755,40.20895],[141.29729,40.21127]],[[141.23656,40.04672],[141.23728,40.04621],[141.23788,40.04542],[141.23801,40.0448],[141.23804,40.04407],[141.23716,40.03807],[141.23697,40.03502],[141.2365,40.01996],[141.23624,40.015],[141.23655,40.01333],[141.2379,40.01018],[141.23821,40.00939],[141.23827,40.00898],[141.23829,40.00851],[141.23805,40.0069],[141.2377,40.00588],[141.23717,40.00469]],[[141.26981,40.13045],[141.27315,40.13084],[141.27538,40.13126],[141.27882,40.13264],[141.28182,40.13402]],[[141.19929,39.91823],[141.19944,39.92025]],[[141.12938,39.74498],[141.12834,39.74318]],[[141.2285,40.06577],[141.22861,40.06005],[141.22884,40.05598],[141.2314,40.04999]],[[141.30185,40.14261],[141.30345,40.14313],[141.30463,40.14382],[141.30794,40.14667],[141.3084,40.14739],[141.30855,40.14795],[141.30882,40.15073],[141.30949,40.16282],[141.30941,40.16371],[141.30927,40.16419],[141.30803,40.16675],[141.30784,40.16735],[141.30777,40.16774],[141.30773,40.16983]],[[141.28345,40.22874],[141.28453,40.22825],[141.28675,40.22699],[141.29028,40.22458]],[[141.1487,39.79979],[141.14646,39.80191],[141.14577,39.80267],[141.1449,39.80396],[141.1446,39.80477]],[[141.293,40.13981],[141.29522,40.14074],[141.30185,40.14261]],[[141.2285,40.06654],[141.22853,40.06745],[141.22871,40.06824],[141.23424,40.08038],[141.23505,40.08207],[141.23706,40.08449],[141.23765,40.08509],[141.23819,40.08543],[141.23899,40.08575],[141.24059,40.0861],[141.24358,40.0866],[141.24531,40.08708],[141.25033,40.08886],[141.25167,40.08956],[141.2524,40.09034],[141.25471,40.09423],[141.25597,40.09589],[141.2568,40.09681],[141.25787,40.09781],[141.26102,40.10059],[141.26181,40.10169],[141.262,40.10228],[141.26214,40.10344],[141.2622,40.10495],[141.26205,40.10683],[141.26108,40.10922],[141.25869,40.11435],[141.25831,40.11583],[141.25829,40.11735],[141.25841,40.11794],[141.25867,40.11876],[141.26003,40.12217]],[[141.21708,39.96027],[141.21707,39.96091]],[[141.26331,40.12707],[141.26577,40.12922],[141.26692,40.12994],[141.26769,40.13021],[141.26887,40.13047],[141.26981,40.13045]],[[141.15347,39.8341],[141.15499,39.83539]],[[141.30773,40.16983],[141.30774,40.17235]],[[141.15499,39.83539],[141.15741,39.83756],[141.15779,39.83795],[141.15836,39.83881],[141.15878,39.84014],[141.1591,39.84645],[141.1593,39.84746],[141.16038,39.85017],[141.16676,39.86473],[141.16735,39.86578],[141.17295,39.87319]],[[141.26081,40.12404],[141.26218,40.12607],[141.26331,40.12707]],[[141.293,40.13981],[141.29399,40.1404],[141.29483,40.14077],[141.29701,40.14153],[141.30068,40.14242],[141.30185,40.14261]],[[141.1446,39.80477],[141.14445,39.80598],[141.14469,39.80796],[141.14879,39.82086],[141.14818,39.82761],[141.14826,39.82839],[141.14841,39.82893],[141.14874,39.82962],[141.14925,39.83032],[141.1513,39.8323]],[[141.17637,39.87777],[141.1847,39.88913],[141.1875,39.89321],[141.18818,39.89441],[141.19277,39.90428],[141.19316,39.90481],[141.19428,39.90591],[141.19631,39.90755],[141.19724,39.90847],[141.19816,39.90978],[141.19852,39.91076],[141.1988,39.9119],[141.19929,39.91823]],[[141.30488,40.19287],[141.30655,40.19031],[141.3072,40.18865],[141.30745,40.18662],[141.30759,40.18394]],[[141.11863,39.72529],[141.12328,39.7341],[141.12834,39.74318]],[[141.13036,39.70654],[141.1195,39.71637],[141.11873,39.71712],[141.11837,39.71759],[141.1175,39.71918],[141.11735,39.71972],[141.11709,39.72154],[141.1172,39.72265],[141.118,39.7241]],[[141.118,39.7241],[141.11863,39.72529]],[[141.13691,39.75897],[141.13796,39.76135],[141.14381,39.77211],[141.14511,39.77464],[141.1458,39.77654],[141.14701,39.78099],[141.14725,39.78161],[141.14781,39.78249],[141.14829,39.78304]],[[141.14829,39.78304],[141.14916,39.78398]]]}}