{"type":"Feature","properties":{"id":"アルピコ交通_上高地線","name":"上高地線","operator":"アルピコ交通","railType":"普通鉄道","operatorType":"民営","category":"rail","attribution":"国土数値情報（鉄道データ）国土交通省"},"geometry":{"type":"MultiLineString","coordinates":[[[137.88094,36.20788],[137.88172,36.20816]],[[137.94993,36.22914],[137.95097,36.22907],[137.95443,36.22787],[137.95574,36.22733]],[[137.83951,36.19513],[137.84037,36.19525]],[[137.89163,36.21282],[137.89446,36.21408],[137.89542,36.21422],[137.89909,36.21416],[137.90059,36.21427],[137.90166,36.21468],[137.90498,36.21631]],[[137.89099,36.21249],[137.89163,36.21282]],[[137.94905,36.22898],[137.94993,36.22914]],[[137.96299,36.22684],[137.96336,36.22716]],[[137.82215,36.18996],[137.83045,36.19312],[137.83466,36.19406],[137.83783,36.19486],[137.83951,36.19513]],[[137.87203,36.20618],[137.87557,36.20718],[137.87628,36.20729],[137.87841,36.20735],[137.88094,36.20788]],[[137.91395,36.21969],[137.91496,36.22002],[137.91581,36.22053],[137.91807,36.22334],[137.9184,36.22371],[137.91901,36.22418],[137.92035,36.22472],[137.92226,36.22508]],[[137.95574,36.22733],[137.95643,36.22694]],[[137.88172,36.20816],[137.88424,36.20925],[137.89099,36.21249]],[[137.94087,36.22695],[137.94165,36.22697]],[[137.96336,36.22716],[137.964,36.22797],[137.96432,36.22865],[137.96435,36.22925],[137.96392,36.23063]],[[137.85611,36.2002],[137.85679,36.20061]],[[137.84037,36.19525],[137.84459,36.19587],[137.84637,36.19622],[137.85433,36.19904],[137.85489,36.19933],[137.85611,36.2002]],[[137.95643,36.22694],[137.95841,36.22594],[137.95984,36.22565],[137.961,36.22574],[137.96173,36.22597],[137.96223,36.22625],[137.96299,36.22684]],[[137.96392,36.23063],[137.96364,36.23148]],[[137.82138,36.18965],[137.82215,36.18996]],[[137.92226,36.22508],[137.92298,36.2252]],[[137.94165,36.22697],[137.94294,36.22716],[137.94905,36.22898]],[[137.85679,36.20061],[137.86115,36.20299],[137.86172,36.20322],[137.86889,36.20547],[137.87166,36.20607]],[[137.91311,36.21957],[137.91395,36.21969]],[[137.90567,36.21662],[137.91027,36.21895],[137.91171,36.21939],[137.91311,36.21957]],[[137.92298,36.2252],[137.92892,36.22637],[137.9312,36.22675],[137.93265,36.2269],[137.94087,36.22695]],[[137.90498,36.21631],[137.90567,36.21662]],[[137.87166,36.20607],[137.87203,36.20618]]]}}