{"type":"Feature","properties":{"id":"スカイレールサービス_広島短距離交通瀬野線","name":"広島短距離交通瀬野線","operator":"スカイレールサービス","railType":"懸垂式モノレール(軌道)","operatorType":"民営","category":"monorail","attribution":"国土数値情報（鉄道データ）国土交通省"},"geometry":{"type":"MultiLineString","coordinates":[[[132.59475,34.42771],[132.59159,34.42826],[132.59118,34.42839],[132.59042,34.42891],[132.5897,34.43003]],[[132.59631,34.4221],[132.59632,34.42255]],[[132.58951,34.43045],[132.5897,34.43003]],[[132.59632,34.42255],[132.59632,34.42331],[132.59685,34.4256],[132.5969,34.4265],[132.59666,34.42694],[132.5963,34.42725],[132.59528,34.42759]],[[132.59528,34.42759],[132.59475,34.42771]]]}}