{"type":"Feature","properties":{"id":"一畑電車_北松江線","name":"北松江線","operator":"一畑電車","railType":"普通鉄道","operatorType":"民営","category":"rail","attribution":"国土数値情報（鉄道データ）国土交通省"},"geometry":{"type":"MultiLineString","coordinates":[[[132.80715,35.42142],[132.80657,35.42096]],[[132.94419,35.47483],[132.94543,35.47481],[132.94829,35.47531],[132.94962,35.47501],[132.95059,35.47505],[132.9538,35.47589],[132.95632,35.47707]],[[132.75714,35.36108],[132.75847,35.36121]],[[132.76691,35.36317],[132.76934,35.36405],[132.77158,35.36508],[132.7726,35.3657],[132.77362,35.36654],[132.77404,35.36714],[132.77425,35.36792],[132.77432,35.36877]],[[132.91865,35.46627],[132.91945,35.46643]],[[132.88289,35.46509],[132.8828,35.46411]],[[132.86846,35.45633],[132.87176,35.45835],[132.87217,35.45853],[132.87648,35.45986],[132.87754,35.46034],[132.87829,35.46058],[132.88053,35.46094],[132.88162,35.46132],[132.88217,35.46174],[132.88252,35.46227],[132.88274,35.46297],[132.8828,35.46411]],[[132.8828,35.46411],[132.88299,35.46339],[132.88347,35.46278],[132.88405,35.46238],[132.88502,35.46209],[132.89035,35.46163],[132.89345,35.46178],[132.89489,35.46176],[132.8975,35.46195],[132.90052,35.46133]],[[132.95632,35.47707],[132.95714,35.47739]],[[132.91945,35.46643],[132.92325,35.46725],[132.92384,35.46769],[132.9245,35.46881],[132.92502,35.46929],[132.93006,35.47169]],[[132.78772,35.40463],[132.78715,35.40421]],[[132.97464,35.47962],[132.97548,35.47924],[132.97667,35.47912],[132.9806,35.48061],[132.98284,35.48122],[132.98454,35.48156],[132.98597,35.48158],[132.98681,35.48137],[132.98751,35.48109]],[[132.93081,35.47191],[132.93254,35.47243],[132.9335,35.47257],[132.93564,35.47251],[132.93646,35.47263],[132.93827,35.47331],[132.94139,35.47477],[132.94234,35.47501],[132.94321,35.47498]],[[132.8546,35.45017],[132.854,35.4498],[132.8481,35.44498],[132.8468,35.44414],[132.83107,35.43894],[132.83006,35.43854],[132.82943,35.43819],[132.8289,35.43778],[132.82392,35.43257]],[[132.76611,35.36296],[132.76691,35.36317]],[[132.78715,35.40421],[132.78254,35.40071],[132.77669,35.39541]],[[132.82392,35.43257],[132.82344,35.43205]],[[132.86249,35.45288],[132.8678,35.45594]],[[132.79839,35.41279],[132.79782,35.41232]],[[132.77331,35.38767],[132.77323,35.38833]],[[133.00359,35.47741],[133.00111,35.47773],[133.00046,35.47773],[132.99822,35.47729],[132.99604,35.47744],[132.99429,35.47726],[132.99357,35.47729],[132.99301,35.47745],[132.99225,35.47782],[132.98995,35.47965],[132.98825,35.48072]],[[132.80715,35.42142],[132.80912,35.42289],[132.81875,35.42771],[132.81966,35.42826],[132.82056,35.42904],[132.82344,35.43205]],[[132.90125,35.46116],[132.90179,35.46104],[132.90283,35.46104],[132.90356,35.46117],[132.90594,35.46184],[132.90668,35.46206],[132.90752,35.46245],[132.90835,35.463],[132.90959,35.46405],[132.9107,35.46455],[132.91195,35.46492],[132.91514,35.46563],[132.91865,35.46627]],[[132.77323,35.38833],[132.77303,35.3902],[132.77305,35.3914],[132.7732,35.39192],[132.77356,35.39256]],[[132.77356,35.39256],[132.77613,35.39488]],[[133.00438,35.47729],[133.00359,35.47741]],[[132.93006,35.47169],[132.93081,35.47191]],[[132.95714,35.47739],[132.96351,35.47991],[132.96542,35.48045],[132.96932,35.48096],[132.97031,35.48094],[132.97259,35.48064],[132.97399,35.48006]],[[132.77432,35.36877],[132.77433,35.36942]],[[133.04583,35.46721],[133.04496,35.46695]],[[133.04496,35.46695],[133.03887,35.46514],[133.03837,35.46505],[133.03777,35.46511],[133.03483,35.46651],[133.03188,35.46901],[133.03039,35.46982],[133.02902,35.47041],[133.0284,35.47095],[133.02694,35.47327],[133.02653,35.47361],[133.02613,35.47379],[133.01921,35.47449],[133.01366,35.47612],[133.00438,35.47729]],[[132.85541,35.4503],[132.8546,35.45017]],[[132.97399,35.48006],[132.97464,35.47962]],[[132.77433,35.36942],[132.77458,35.37781],[132.77331,35.38767]],[[132.85541,35.4503],[132.85613,35.45043],[132.85728,35.45037],[132.85801,35.45049],[132.85916,35.45097],[132.8618,35.45249]],[[132.98751,35.48109],[132.98825,35.48072]],[[132.79782,35.41232],[132.79391,35.40924],[132.78772,35.40463]],[[132.77669,35.39541],[132.77613,35.39488]],[[132.8618,35.45249],[132.86249,35.45288]],[[132.86846,35.45633],[132.8678,35.45594]],[[132.94321,35.47498],[132.94419,35.47483]],[[132.75847,35.36121],[132.76082,35.36157],[132.76282,35.36198],[132.76611,35.36296]],[[132.80657,35.42096],[132.80538,35.42002],[132.80252,35.41695],[132.79839,35.41279]],[[132.90052,35.46133],[132.90125,35.46116]]]}}