{"type":"Feature","properties":{"id":"万葉線_高岡軌道線","name":"高岡軌道線","operator":"万葉線","railType":"軌道","operatorType":"第三セクター","category":"tram","attribution":"国土数値情報（鉄道データ）国土交通省"},"geometry":{"type":"MultiLineString","coordinates":[[[137.06628,36.78868],[137.06566,36.78897]],[[137.04846,36.77313],[137.04134,36.77411],[137.04077,36.77413],[137.03986,36.77395],[137.03898,36.77344],[137.03856,36.77225]],[[137.01519,36.74155],[137.01497,36.74156]],[[137.01506,36.74752],[137.01584,36.74796],[137.01668,36.74858],[137.01797,36.74983]],[[137.03174,36.76318],[137.03003,36.76164]],[[137.05618,36.78166],[137.05554,36.78076],[137.05439,36.77827],[137.05308,36.77628]],[[137.03856,36.77225],[137.0384,36.7718]],[[137.02365,36.75543],[137.02339,36.75518]],[[137.02088,36.75268],[137.02339,36.75518]],[[137.01309,36.74641],[137.01469,36.74731]],[[137.01797,36.74983],[137.01822,36.75009]],[[137.05308,36.77628],[137.05288,36.77598]],[[137.01469,36.74731],[137.01506,36.74752]],[[137.03776,36.7701],[137.03688,36.76791],[137.03592,36.76696]],[[137.05288,36.77598],[137.05079,36.77409],[137.0498,36.77348],[137.04909,36.77317]],[[137.0205,36.75233],[137.02088,36.75268]],[[137.0264,36.75839],[137.02601,36.75799]],[[137.01497,36.74156],[137.01478,36.74162],[137.01471,36.74173],[137.0147,36.74205],[137.01505,36.74225],[137.01507,36.7424],[137.0136,36.74431]],[[137.06128,36.78774],[137.06031,36.78679],[137.05942,36.78513],[137.05653,36.78207]],[[137.0384,36.7718],[137.03789,36.77046]],[[137.05653,36.78207],[137.05618,36.78166]],[[137.03789,36.77046],[137.03776,36.7701]],[[137.03592,36.76696],[137.03559,36.76665]],[[137.01822,36.75009],[137.0205,36.75233]],[[137.01271,36.7462],[137.01309,36.74641]],[[137.02968,36.76133],[137.0264,36.75839]],[[137.02601,36.75799],[137.02365,36.75543]],[[137.03559,36.76665],[137.03204,36.76345]],[[137.03204,36.76345],[137.03174,36.76318]],[[137.03003,36.76164],[137.02968,36.76133]],[[137.06566,36.78897],[137.06468,36.78923],[137.06358,36.78923],[137.06269,36.78895],[137.06168,36.78814]],[[137.04909,36.77317],[137.04846,36.77313]],[[137.06168,36.78814],[137.06128,36.78774]],[[137.0136,36.74431],[137.01329,36.74466]],[[137.01329,36.74466],[137.01231,36.74573],[137.01229,36.74588],[137.01239,36.74602],[137.01271,36.7462]]]}}