{"type":"Feature","properties":{"id":"三岐鉄道_近鉄連絡線","name":"近鉄連絡線","operator":"三岐鉄道","railType":"普通鉄道","operatorType":"民営","category":"rail","attribution":"国土数値情報（鉄道データ）国土交通省"},"geometry":{"type":"MultiLineString","coordinates":[[[136.64902,35.01559],[136.64963,35.01534],[136.65009,35.01504],[136.65037,35.01472],[136.65073,35.01393],[136.65098,35.01284],[136.65098,35.01217],[136.65085,35.01126],[136.65049,35.01024]],[[136.65049,35.01024],[136.64969,35.00706]],[[136.64906,35.00594],[136.64969,35.00706]]]}}