{"type":"Feature","properties":{"id":"三岐鉄道_三岐線","name":"三岐線","operator":"三岐鉄道","railType":"普通鉄道","operatorType":"民営","category":"rail","attribution":"国土数値情報（鉄道データ）国土交通省"},"geometry":{"type":"MultiLineString","coordinates":[[[136.56626,35.04658],[136.56558,35.04697]],[[136.60558,35.03294],[136.6043,35.03343],[136.60328,35.03366],[136.60217,35.03363],[136.60069,35.0333],[136.59952,35.03333],[136.59135,35.03533],[136.59004,35.03548],[136.58875,35.03535]],[[136.56611,35.06027],[136.56662,35.0577],[136.56654,35.05645],[136.56616,35.05571],[136.56376,35.05215],[136.56327,35.05125],[136.56315,35.05079],[136.56313,35.05018],[136.56326,35.04959],[136.56345,35.04903],[136.56386,35.04834],[136.56451,35.04768],[136.56558,35.04697]],[[136.48761,35.16426],[136.48341,35.16706],[136.48279,35.16734],[136.48121,35.16781],[136.48057,35.16813],[136.47839,35.16994]],[[136.51493,35.1323],[136.51456,35.13321]],[[136.54588,35.09121],[136.54564,35.09188]],[[136.56598,35.06094],[136.56534,35.06297],[136.56187,35.07078],[136.56125,35.07163],[136.56052,35.07236],[136.55748,35.07482]],[[136.53815,35.10753],[136.53395,35.11363],[136.53345,35.11421],[136.53239,35.11492],[136.52326,35.11958],[136.52255,35.12009],[136.5198,35.12246]],[[136.63383,35.02195],[136.63877,35.01955],[136.64902,35.01559]],[[136.56611,35.06027],[136.56598,35.06094]],[[136.51493,35.1323],[136.51544,35.13094],[136.51618,35.12667],[136.51651,35.12565],[136.51703,35.12496],[136.51928,35.12295]],[[136.58796,35.0352],[136.58609,35.03483],[136.58533,35.0348],[136.58458,35.03494],[136.5839,35.03524],[136.58338,35.03562],[136.58214,35.03697],[136.5812,35.03785],[136.5754,35.04191],[136.57473,35.04218],[136.57324,35.04254],[136.5724,35.04287],[136.56626,35.04658]],[[136.55748,35.07482],[136.55691,35.07529]],[[136.55691,35.07529],[136.55103,35.07994],[136.55005,35.08094],[136.54964,35.08172],[136.54588,35.09121]],[[136.60633,35.0327],[136.60558,35.03294]],[[136.633,35.02234],[136.63383,35.02195]],[[136.58875,35.03535],[136.58796,35.0352]],[[136.54564,35.09188],[136.54125,35.10277],[136.54094,35.10336],[136.53851,35.10697]],[[136.61806,35.02857],[136.60633,35.0327]],[[136.49895,35.1471],[136.49872,35.14773]],[[136.48825,35.16382],[136.48761,35.16426]],[[136.49872,35.14773],[136.4984,35.14861],[136.49833,35.14906],[136.49847,35.15234],[136.49831,35.15293],[136.49812,35.15327],[136.49717,35.15435],[136.49472,35.15613],[136.49404,35.15674],[136.49337,35.15776],[136.49152,35.16121],[136.49106,35.16179],[136.49033,35.1624],[136.48825,35.16382]],[[136.53851,35.10697],[136.53815,35.10753]],[[136.633,35.02234],[136.62657,35.02542],[136.6188,35.02831]],[[136.5198,35.12246],[136.51928,35.12295]],[[136.49895,35.1471],[136.49991,35.14467],[136.50051,35.14353],[136.50087,35.14302],[136.50422,35.13947],[136.5054,35.13743],[136.50587,35.13691],[136.50687,35.13635],[136.51132,35.1353],[136.51287,35.13478],[136.51386,35.13416],[136.51456,35.13321]],[[136.6188,35.02831],[136.61806,35.02857]],[[136.47839,35.16994],[136.47787,35.17045]]]}}