{"type":"Feature","properties":{"id":"三陸鉄道_リアス線","name":"リアス線","operator":"三陸鉄道","railType":"普通鉄道","operatorType":"第三セクター","category":"rail","attribution":"国土数値情報（鉄道データ）国土交通省"},"geometry":{"type":"MultiLineString","coordinates":[[[141.74071,39.06866],[141.73892,39.06962],[141.73741,39.07069],[141.73464,39.07298],[141.72923,39.07781],[141.72719,39.07932],[141.72578,39.0801],[141.72502,39.08039],[141.72423,39.08058],[141.72317,39.08067],[141.72239,39.08063],[141.72096,39.08036],[141.71818,39.07953],[141.71645,39.07938],[141.71543,39.07954],[141.71454,39.07987],[141.71376,39.08032],[141.71271,39.08123]],[[141.88591,39.24538],[141.88529,39.24312],[141.88419,39.23985],[141.87546,39.22658],[141.87058,39.21933],[141.86917,39.2171],[141.86464,39.2105],[141.86405,39.20873],[141.86134,39.20218]],[[141.86134,39.20218],[141.86106,39.20152]],[[141.86106,39.20152],[141.85986,39.19858],[141.85891,39.19654],[141.85744,39.19271],[141.85455,39.18412],[141.84991,39.16956],[141.84752,39.16241],[141.84656,39.15974],[141.8457,39.15776],[141.845,39.15654],[141.84435,39.15565],[141.84348,39.1547],[141.84276,39.15409],[141.8407,39.15302],[141.83684,39.15135]],[[141.81,39.11685],[141.81022,39.11295],[141.80997,39.11115],[141.80896,39.1056],[141.8083,39.10258],[141.8076,39.10089],[141.80665,39.09905],[141.80638,39.09831],[141.80615,39.09721],[141.80618,39.09641],[141.80666,39.09361]],[[141.7414,39.06838],[141.74071,39.06866]],[[141.80994,39.11763],[141.80983,39.11985],[141.80992,39.1209],[141.81031,39.12238],[141.81101,39.12359],[141.82696,39.14464],[141.82836,39.14607],[141.82952,39.1471],[141.83196,39.14898],[141.83358,39.14989],[141.83603,39.15095]],[[141.83603,39.15095],[141.83684,39.15135]],[[141.81605,39.0739],[141.816,39.07459]],[[141.80677,39.09291],[141.80732,39.08991],[141.80751,39.08922],[141.80782,39.0886],[141.81304,39.08091],[141.81519,39.07735],[141.81579,39.07593],[141.81592,39.07548],[141.816,39.07459]],[[141.80666,39.09361],[141.80677,39.09291]],[[141.87324,39.27304],[141.87617,39.27153],[141.87756,39.27108],[141.87949,39.26978],[141.88207,39.26867],[141.88256,39.26826],[141.88302,39.2677],[141.88354,39.26673],[141.88373,39.26618],[141.88454,39.26254],[141.88642,39.25545],[141.88676,39.2531],[141.88689,39.25085],[141.88684,39.24911],[141.8866,39.24788],[141.88609,39.24603]],[[141.88609,39.24603],[141.88591,39.24538]],[[141.80994,39.11763],[141.81,39.11685]],[[141.71095,39.0852],[141.71085,39.08589]],[[141.71271,39.08123],[141.71139,39.08359],[141.7112,39.08402],[141.71095,39.0852]],[[141.79898,39.0541],[141.79973,39.05426]],[[141.7414,39.06838],[141.74372,39.06767],[141.74831,39.06663],[141.75822,39.06415],[141.77907,39.05968],[141.78038,39.05911],[141.78415,39.05671],[141.78585,39.05574],[141.7877,39.055],[141.79028,39.05425],[141.79106,39.05406],[141.79273,39.05383],[141.79522,39.05371],[141.79695,39.05378],[141.79898,39.0541]],[[141.79973,39.05426],[141.80137,39.05469],[141.80255,39.05509],[141.80847,39.05792],[141.80983,39.05863],[141.81085,39.05927],[141.81207,39.06047],[141.81318,39.06247],[141.8157,39.07177],[141.81602,39.07306],[141.81605,39.0739]],[[141.93958,39.91607],[141.93975,39.91538]],[[141.96209,39.80916],[141.96222,39.8098]],[[141.94253,39.68655],[141.9428,39.68716]],[[141.96736,39.73594],[141.96868,39.74238],[141.96905,39.74478],[141.96906,39.74551],[141.96142,39.80454],[141.96139,39.80562],[141.96146,39.80611],[141.96209,39.80916]],[[141.88352,40.03224],[141.88444,40.03046],[141.8847,40.02971],[141.88492,40.02813],[141.88491,40.02715],[141.88476,40.02585],[141.88405,40.02128],[141.88397,40.02047],[141.88396,40.01861],[141.88414,40.01779],[141.88457,40.01655],[141.88517,40.01513],[141.88714,40.01116],[141.88748,40.01015],[141.88761,40.00948],[141.88768,40.00828],[141.88752,40.00641],[141.88644,40.00311]],[[141.9428,39.68716],[141.94328,39.68828],[141.94361,39.68933],[141.94367,39.69041],[141.94339,39.69185],[141.94241,39.69431],[141.93613,39.70867],[141.93592,39.70942],[141.93585,39.71078]],[[141.93585,39.71078],[141.93594,39.7115]],[[141.78641,40.13234],[141.78548,40.13252]],[[141.82876,40.08309],[141.82695,40.08725],[141.82571,40.09042],[141.82485,40.09331],[141.82414,40.09661]],[[141.88613,40.0022],[141.88644,40.00311]],[[141.96222,39.8098],[141.96286,39.81292],[141.96293,39.81541],[141.96276,39.81719],[141.95996,39.83648],[141.95928,39.83952],[141.95853,39.84242]],[[141.88352,40.03224],[141.88297,40.03293]],[[141.93594,39.7115],[141.9361,39.71223],[141.93671,39.71353],[141.93826,39.71593],[141.93888,39.7167],[141.93927,39.71706],[141.94029,39.71784],[141.94086,39.71815],[141.94215,39.71869],[141.94319,39.71897],[141.95303,39.72024],[141.95492,39.7207],[141.95587,39.72115],[141.95661,39.72161],[141.95736,39.72214],[141.95841,39.72312],[141.95926,39.72423],[141.96165,39.72817],[141.96255,39.72936],[141.96438,39.73152]],[[141.81875,40.11632],[141.8096,40.1228],[141.80762,40.12394],[141.8047,40.12521],[141.78949,40.13142],[141.78806,40.13194],[141.78641,40.13234]],[[141.95853,39.84242],[141.95837,39.84311]],[[141.94644,39.6401],[141.94275,39.6409],[141.94171,39.64085],[141.93745,39.64038]],[[141.93745,39.64038],[141.93587,39.64107],[141.93499,39.64192],[141.93446,39.64269],[141.93395,39.6437],[141.93343,39.64535],[141.93328,39.64612]],[[141.85988,40.05168],[141.8591,40.05212]],[[141.78548,40.13252],[141.77901,40.13379],[141.77672,40.13442],[141.77551,40.13509],[141.77466,40.13569],[141.77226,40.13762],[141.77109,40.13874],[141.77061,40.13938],[141.77022,40.14008],[141.7668,40.14895],[141.7665,40.15097],[141.76657,40.15241],[141.76686,40.15366],[141.76779,40.15535],[141.77042,40.15928],[141.77088,40.15988],[141.77353,40.16254],[141.77433,40.1637],[141.775,40.16537],[141.77659,40.17019],[141.77692,40.17182],[141.7772,40.17581],[141.77732,40.17912],[141.77711,40.18068],[141.77681,40.1817],[141.77617,40.183],[141.77501,40.18459],[141.77231,40.18706],[141.77182,40.18763],[141.77145,40.18834],[141.77103,40.18982]],[[141.96438,39.73152],[141.96493,39.73218]],[[141.93356,39.93457],[141.93115,39.93725],[141.92529,39.9429],[141.92388,39.94417],[141.92276,39.94496],[141.92139,39.94563],[141.91475,39.94832],[141.91326,39.94875],[141.90844,39.94991],[141.90702,39.95044],[141.90541,39.95124],[141.9039,39.95219],[141.90293,39.95298],[141.90174,39.95439],[141.89493,39.96828],[141.88529,39.98845],[141.88429,39.99069],[141.88378,39.9929],[141.88368,39.99415],[141.88372,39.99475],[141.88613,40.0022]],[[141.94829,39.63969],[141.94644,39.6401]],[[141.82904,40.08242],[141.82876,40.08309]],[[141.93958,39.91607],[141.93898,39.9183],[141.93882,39.91925],[141.93953,39.92518],[141.93933,39.92633],[141.93909,39.92697],[141.93856,39.928],[141.93402,39.93397]],[[141.88297,40.03293],[141.87255,40.04531],[141.87019,40.04794],[141.86968,40.04835],[141.8687,40.04895],[141.86792,40.04935],[141.86682,40.04978],[141.86543,40.05013],[141.86177,40.05084],[141.86054,40.05132],[141.85988,40.05168]],[[141.93402,39.93397],[141.93356,39.93457]],[[141.95837,39.84311],[141.94704,39.88674],[141.94448,39.89723],[141.9434,39.90107],[141.93975,39.91538]],[[141.8591,40.05212],[141.85725,40.05329],[141.85669,40.05356],[141.85619,40.05368],[141.85417,40.05381],[141.8532,40.05398],[141.851,40.05468],[141.84966,40.05538],[141.84864,40.0561],[141.84789,40.0568],[141.84694,40.05815],[141.84576,40.06045],[141.84463,40.06201],[141.84212,40.06468],[141.83747,40.06935],[141.83639,40.07019],[141.83247,40.07244],[141.83188,40.07302],[141.83111,40.07405],[141.8308,40.07483],[141.83058,40.07583],[141.83052,40.07819],[141.83035,40.07927],[141.82904,40.08242]],[[141.77103,40.18982],[141.77066,40.19119]],[[141.81943,40.11583],[141.81875,40.11632]],[[141.87324,39.27304],[141.87225,39.27356]],[[141.96083,39.62996],[141.96104,39.63086]],[[141.96104,39.63086],[141.9613,39.63195],[141.96138,39.63265],[141.96131,39.63409],[141.96099,39.63514],[141.96046,39.6359],[141.95999,39.6363],[141.95898,39.6368],[141.95699,39.63718],[141.95296,39.63869],[141.94829,39.63969]],[[141.95194,39.46315],[141.95066,39.46403]],[[141.92462,39.53369],[141.9244,39.53254],[141.92407,39.53145],[141.92377,39.53093],[141.9219,39.52877],[141.92103,39.5263],[141.92051,39.52528],[141.91976,39.52434],[141.91808,39.52274],[141.91747,39.52176],[141.91591,39.51856],[141.91568,39.51784],[141.91547,39.51561],[141.91532,39.51504],[141.91396,39.51288],[141.91382,39.51209],[141.91401,39.51119],[141.91451,39.51043],[141.91503,39.50998],[141.91664,39.50932],[141.91925,39.50846],[141.92045,39.50777],[141.9234,39.50563],[141.92386,39.5054],[141.92487,39.50508],[141.92541,39.50475],[141.92589,39.50432],[141.92603,39.50405],[141.92618,39.50337],[141.9262,39.50264],[141.92634,39.50243],[141.9269,39.50199],[141.9293,39.50043],[141.92961,39.50004],[141.92973,39.49972],[141.92975,39.49919],[141.92939,39.49815],[141.92824,39.49498],[141.92763,39.49375],[141.92678,39.49275],[141.92412,39.49148],[141.92353,39.4909],[141.92333,39.49041],[141.92329,39.49008],[141.92337,39.48966],[141.92471,39.48733],[141.92499,39.48643],[141.92503,39.48572],[141.92491,39.48349],[141.92416,39.48006],[141.92422,39.47945],[141.92486,39.47822],[141.92492,39.47727],[141.92507,39.47679],[141.92578,39.47597],[141.92622,39.47574],[141.9271,39.4756],[141.92861,39.47566],[141.93045,39.47526],[141.93119,39.47521],[141.93235,39.47539],[141.93416,39.47617],[141.9348,39.47624],[141.93672,39.47615],[141.93795,39.47631],[141.93937,39.47672],[141.9408,39.47739],[141.94175,39.47769],[141.94317,39.47766],[141.94427,39.47732],[141.94488,39.47695],[141.9458,39.47598],[141.9491,39.47173],[141.94951,39.47107],[141.9496,39.47071],[141.94959,39.47027],[141.94948,39.46982],[141.94884,39.46901],[141.94769,39.46812],[141.94748,39.46771],[141.94732,39.46706],[141.94734,39.46676],[141.9476,39.46627],[141.94819,39.46576],[141.95066,39.46403]],[[141.97383,39.43076],[141.97425,39.43191]],[[141.9375,39.58105],[141.93641,39.57913],[141.93566,39.57844],[141.93512,39.57765],[141.9318,39.56918],[141.93149,39.56822],[141.93137,39.56731],[141.93154,39.56632],[141.93193,39.56548],[141.93257,39.56466]],[[141.88772,39.32638],[141.88809,39.32709]],[[141.88809,39.32709],[141.89233,39.33575],[141.89246,39.33621],[141.8933,39.33794],[141.89399,39.33965],[141.89406,39.3405],[141.89381,39.34334],[141.89355,39.35151],[141.89404,39.3532],[141.89453,39.35392],[141.89564,39.35488],[141.89604,39.35509],[141.89729,39.35557],[141.89837,39.35585],[141.90206,39.35655]],[[141.93807,39.58195],[141.93846,39.58236],[141.93939,39.5829],[141.94009,39.58318],[141.94163,39.58355],[141.94338,39.58494],[141.94394,39.58557],[141.9456,39.58814],[141.94575,39.58878],[141.94564,39.58958],[141.94545,39.59012],[141.9449,39.59083],[141.94431,39.5913],[141.94338,39.59188],[141.94258,39.59259],[141.94049,39.59572],[141.93962,39.59672],[141.93301,39.6026],[141.93225,39.60376],[141.93163,39.60513],[141.93148,39.60574],[141.93152,39.60653],[141.93176,39.60712],[141.93451,39.61013],[141.93529,39.61074],[141.93677,39.61158],[141.93764,39.61226],[141.93895,39.61437],[141.93933,39.61482],[141.94026,39.6155],[141.94602,39.61908]],[[141.86581,39.27584],[141.86394,39.27581],[141.86301,39.27607],[141.86261,39.27625],[141.86206,39.27664],[141.86164,39.27724],[141.86151,39.27769],[141.86146,39.27906],[141.86216,39.28688],[141.86329,39.29313],[141.86362,39.29425],[141.86377,39.29446],[141.86466,39.29509],[141.86717,39.29623],[141.86941,39.29778],[141.87063,39.29851],[141.87466,39.30046],[141.87562,39.3007],[141.88111,39.30057],[141.88255,39.30083],[141.88406,39.30146],[141.88537,39.30235],[141.88698,39.30397],[141.88832,39.30462],[141.8888,39.30493],[141.8892,39.30538],[141.88941,39.30571],[141.88961,39.30653],[141.88953,39.30707],[141.88923,39.30779]],[[141.87225,39.27356],[141.87143,39.27399],[141.86963,39.27514],[141.86832,39.27577],[141.86717,39.2761],[141.86633,39.27603],[141.86581,39.27584]],[[141.93521,39.3839],[141.93555,39.38438],[141.93926,39.38811],[141.93992,39.38842],[141.94114,39.38874],[141.94175,39.38912],[141.94228,39.38977],[141.94283,39.39129],[141.94326,39.39185],[141.94502,39.39372],[141.94529,39.3942],[141.94571,39.39531],[141.94647,39.39633],[141.94776,39.39738],[141.9501,39.40006],[141.951,39.40092],[141.95423,39.40358],[141.95448,39.40388],[141.9557,39.4061],[141.95638,39.40677],[141.95838,39.40804],[141.95887,39.40848],[141.96283,39.41341],[141.9708,39.42048],[141.97117,39.42101],[141.97161,39.42232],[141.97191,39.42558],[141.97383,39.43076]],[[141.93886,39.3698],[141.93841,39.36925]],[[141.93807,39.58195],[141.9375,39.58105]],[[141.95526,39.45345],[141.95527,39.45408]],[[141.92481,39.53479],[141.92462,39.53369]],[[141.87324,39.27304],[141.87225,39.27356]],[[141.93841,39.36925],[141.93652,39.36775],[141.93438,39.36676],[141.93228,39.3663],[141.93032,39.3662],[141.9285,39.36583],[141.91731,39.36099],[141.90908,39.35835],[141.90683,39.35756],[141.9042,39.35692]],[[141.97425,39.43191],[141.97521,39.43474],[141.97519,39.4356],[141.97437,39.4383],[141.97414,39.43859],[141.9726,39.43985],[141.97222,39.44048],[141.97138,39.44454],[141.97123,39.4451],[141.97085,39.44568],[141.97046,39.44608],[141.96995,39.44639],[141.96874,39.44686],[141.96829,39.44694],[141.96462,39.44745],[141.95945,39.44714],[141.95811,39.44728],[141.95706,39.44767],[141.95655,39.44796],[141.95578,39.44873],[141.95533,39.44966],[141.95526,39.4504],[141.95526,39.45345]],[[141.9042,39.35692],[141.90206,39.35655]],[[141.93501,39.38321],[141.93501,39.38276],[141.93522,39.38221],[141.93551,39.38169],[141.93576,39.38145],[141.9363,39.38111],[141.93827,39.38031],[141.93961,39.37901],[141.94001,39.37852],[141.94121,39.37641],[141.94143,39.37585],[141.94137,39.37491],[141.94109,39.37411],[141.93939,39.37064],[141.93886,39.3698]],[[141.95527,39.45408],[141.95528,39.45494],[141.95543,39.45572],[141.95583,39.45692],[141.9559,39.45756],[141.95586,39.45827],[141.95572,39.45882],[141.95552,39.4593],[141.95401,39.46161],[141.95361,39.46198],[141.95194,39.46315]],[[141.88895,39.30842],[141.88839,39.30952],[141.88778,39.31042],[141.88758,39.3106],[141.88608,39.31144],[141.88572,39.3117],[141.88529,39.31217],[141.88506,39.31263],[141.88463,39.31425],[141.88404,39.31711],[141.88399,39.31765],[141.88403,39.31861],[141.88449,39.31985],[141.88772,39.32638]],[[141.93321,39.64647],[141.93102,39.65829],[141.93101,39.65909],[141.93115,39.65996],[141.93173,39.66151],[141.9344,39.66757],[141.94253,39.68655]],[[141.93328,39.64612],[141.93321,39.64647]],[[141.82405,40.09704],[141.8236,40.09955],[141.82363,40.1011],[141.82501,40.10417],[141.82529,40.10496],[141.82544,40.10579],[141.82537,40.10652],[141.82395,40.1113],[141.82344,40.11234],[141.8224,40.11362],[141.81943,40.11583]],[[141.82414,40.09661],[141.82405,40.09704]],[[141.94671,39.61952],[141.94907,39.62107],[141.95288,39.62433],[141.95355,39.6248],[141.95445,39.6252],[141.958,39.6261],[141.95923,39.62673],[141.96002,39.6275],[141.96055,39.62841],[141.96083,39.62996]],[[141.94602,39.61908],[141.94671,39.61952]],[[141.93257,39.56466],[141.93308,39.56413]],[[141.93308,39.56413],[141.93947,39.55739],[141.9399,39.55687],[141.94009,39.55646],[141.94023,39.55572],[141.93979,39.55314],[141.93984,39.552],[141.93972,39.5515],[141.93899,39.54986],[141.93895,39.54917],[141.93903,39.54796],[141.93897,39.54751],[141.93864,39.54691],[141.9382,39.54651],[141.92739,39.54049],[141.9262,39.53958],[141.92573,39.53899],[141.92544,39.5384],[141.92481,39.53479]],[[141.96493,39.73218],[141.96634,39.73383],[141.967,39.73486],[141.96716,39.73528]],[[141.96716,39.73528],[141.96736,39.73594]]]}}