{"type":"Feature","properties":{"id":"上信電鉄_上信線","name":"上信線","operator":"上信電鉄","railType":"普通鉄道","operatorType":"民営","category":"rail","attribution":"国土数値情報（鉄道データ）国土交通省"},"geometry":{"type":"MultiLineString","coordinates":[[[139.01229,36.31943],[139.01222,36.32038]],[[139.01927,36.29089],[139.01884,36.29141]],[[139.01239,36.31214],[139.01232,36.3127]],[[139.01232,36.3127],[139.01202,36.31519],[139.01208,36.31582],[139.01239,36.31715],[139.01229,36.31943]],[[139.01884,36.29141],[139.01529,36.29586],[139.01483,36.29659],[139.01459,36.29739],[139.01468,36.29828],[139.01506,36.29897],[139.01814,36.30236]],[[139.01029,36.26161],[139.01174,36.2619],[139.01227,36.2621],[139.03074,36.27003],[139.03175,36.27058]],[[139.00899,36.26133],[139.01029,36.26161]],[[139.03807,36.27814],[139.03797,36.2791],[139.03776,36.27968],[139.03723,36.28034],[139.03676,36.28075],[139.03631,36.281],[139.03338,36.28199],[139.03305,36.28218],[139.03211,36.28306],[139.02984,36.28423]],[[138.98475,36.25612],[138.9883,36.25661],[138.99371,36.25773],[138.99495,36.25822],[138.99796,36.25995],[138.99858,36.26021],[138.99926,36.26026],[139.00494,36.26018],[139.00788,36.26107],[139.00899,36.26133]],[[139.03813,36.27727],[139.03807,36.27814]],[[139.03175,36.27058],[139.03239,36.27106]],[[138.98475,36.25612],[138.98399,36.25606]],[[139.03239,36.27106],[139.03742,36.27485],[139.03778,36.27528],[139.03814,36.2761],[139.03813,36.27727]],[[139.02893,36.28469],[139.02441,36.28702],[139.02315,36.28775],[139.02049,36.28953],[139.01984,36.29016],[139.01927,36.29089]],[[139.02893,36.28469],[139.02984,36.28423]],[[138.79839,36.2297],[138.79871,36.23032]],[[138.86421,36.2533],[138.86388,36.25288]],[[138.88237,36.26015],[138.87668,36.25989],[138.87572,36.25955],[138.87486,36.25887]],[[138.81344,36.2379],[138.81432,36.23845]],[[138.89235,36.26052],[138.89152,36.2605]],[[138.88319,36.26017],[138.88237,36.26015]],[[138.89152,36.2605],[138.88319,36.26017]],[[138.84421,36.24262],[138.85646,36.24388],[138.85722,36.24409],[138.85764,36.24435],[138.85799,36.24473],[138.86388,36.25288]],[[138.96626,36.25577],[138.96547,36.25579]],[[138.95144,36.25604],[138.92988,36.2564]],[[138.98399,36.25606],[138.97698,36.2556],[138.96626,36.25577]],[[138.87426,36.25839],[138.8709,36.25571],[138.87042,36.25561],[138.86679,36.25559],[138.86589,36.25531],[138.86528,36.25481],[138.86421,36.2533]],[[138.96547,36.25579],[138.95221,36.25603]],[[138.90135,36.26081],[138.89235,36.26052]],[[138.92909,36.25642],[138.92059,36.25653],[138.91916,36.25662],[138.91843,36.2569],[138.91349,36.26062],[138.91273,36.261],[138.9124,36.26107],[138.91158,36.26111],[138.90202,36.26083]],[[138.95221,36.25603],[138.95144,36.25604]],[[138.78626,36.21047],[138.7871,36.21054]],[[138.79871,36.23032],[138.79904,36.23072],[138.79972,36.23117],[138.8103,36.23603],[138.81158,36.23672],[138.81344,36.2379]],[[138.84348,36.24256],[138.84421,36.24262]],[[138.90202,36.26083],[138.90135,36.26081]],[[138.87486,36.25887],[138.87426,36.25839]],[[138.7871,36.21054],[138.79494,36.21132],[138.7986,36.21251],[138.80006,36.21286],[138.8005,36.21309],[138.80088,36.21354],[138.80093,36.2143],[138.80063,36.21502],[138.80025,36.2153],[138.79863,36.21608],[138.79797,36.21667],[138.7978,36.21705],[138.79777,36.21732],[138.79793,36.2183],[138.79784,36.21893],[138.79758,36.21928],[138.79561,36.22084],[138.79506,36.22141],[138.79444,36.22223],[138.7937,36.22341],[138.79337,36.22406],[138.79315,36.22473],[138.79309,36.2252],[138.79322,36.22586],[138.79346,36.22623],[138.79384,36.22652],[138.7943,36.2267],[138.79507,36.22686],[138.79726,36.22708],[138.79794,36.22739],[138.79822,36.22778],[138.79833,36.22814],[138.79839,36.2297]],[[138.81432,36.23845],[138.8163,36.23962],[138.81768,36.23994],[138.84348,36.24256]],[[138.92988,36.2564],[138.92909,36.25642]],[[139.01814,36.30236],[139.01844,36.30268]],[[139.01844,36.30268],[139.01879,36.30315],[139.01892,36.30364],[139.01892,36.30398],[139.01868,36.30455],[139.01815,36.30515],[139.01299,36.30942],[139.01264,36.31003],[139.01239,36.31214]]]}}