{"type":"Feature","properties":{"id":"上毛電気鉄道_上毛線","name":"上毛線","operator":"上毛電気鉄道","railType":"普通鉄道","operatorType":"民営","category":"rail","attribution":"国土数値情報（鉄道データ）国土交通省"},"geometry":{"type":"MultiLineString","coordinates":[[[139.30851,36.41474],[139.30779,36.41511]],[[139.25798,36.41817],[139.25719,36.4183]],[[139.32169,36.41677],[139.32094,36.41683]],[[139.17284,36.41556],[139.17371,36.41541]],[[139.23744,36.41851],[139.24088,36.41822],[139.24147,36.41828],[139.24266,36.41866],[139.24458,36.41991],[139.2452,36.42008],[139.2459,36.42009],[139.24806,36.41987],[139.25719,36.4183]],[[139.09603,36.39391],[139.10612,36.39418]],[[139.27714,36.42574],[139.27642,36.4255]],[[139.18502,36.41358],[139.18963,36.41282],[139.19086,36.41271],[139.19264,36.41287],[139.1962,36.41362]],[[139.1842,36.4137],[139.18502,36.41358]],[[139.26734,36.4218],[139.26344,36.4198],[139.26039,36.41837],[139.25982,36.4182],[139.25918,36.41812],[139.25798,36.41817]],[[139.07514,36.39113],[139.07559,36.39072]],[[139.17371,36.41541],[139.1842,36.4137]],[[139.33201,36.4142],[139.32878,36.41473],[139.32169,36.41677]],[[139.23651,36.41859],[139.23744,36.41851]],[[139.13299,36.40708],[139.1338,36.40732]],[[139.31614,36.41421],[139.31555,36.41378]],[[139.22248,36.4169],[139.22373,36.41698],[139.2298,36.41829],[139.23248,36.41871],[139.23414,36.41878],[139.23651,36.41859]],[[139.12935,36.40543],[139.13215,36.40677],[139.13299,36.40708]],[[139.30779,36.41511],[139.30324,36.41737],[139.30011,36.41809],[139.2989,36.41857]],[[139.21049,36.41672],[139.21133,36.4169]],[[139.11709,36.39696],[139.11759,36.39751]],[[139.32094,36.41683],[139.32021,36.41676],[139.31916,36.41636],[139.31614,36.41421]],[[139.09531,36.39388],[139.09603,36.39391]],[[139.08963,36.39374],[139.09531,36.39388]],[[139.07559,36.39072],[139.07743,36.38918],[139.07799,36.38901],[139.07847,36.38899],[139.07938,36.38913],[139.07993,36.38946],[139.08024,36.3898],[139.08097,36.39098]],[[139.08097,36.39098],[139.08144,36.39142]],[[139.08877,36.39371],[139.08963,36.39374]],[[139.107,36.39418],[139.11324,36.39429],[139.11393,36.39439],[139.11463,36.39465],[139.11519,36.39498],[139.1156,36.39533],[139.11709,36.39696]],[[139.15585,36.41261],[139.15673,36.41278]],[[139.11759,36.39751],[139.12018,36.40033],[139.12158,36.40147],[139.12263,36.40212],[139.12857,36.40504]],[[139.15673,36.41278],[139.16622,36.41465],[139.16701,36.41487],[139.1688,36.41574],[139.16945,36.41589],[139.17057,36.41591],[139.17284,36.41556]],[[139.12935,36.40543],[139.12857,36.40504]],[[139.26804,36.42215],[139.26734,36.4218]],[[139.31555,36.41378],[139.31433,36.4131],[139.31332,36.41287],[139.31273,36.41288],[139.31214,36.41298],[139.31144,36.41324],[139.30851,36.41474]],[[139.33364,36.41399],[139.33201,36.4142]],[[139.21133,36.4169],[139.21465,36.41764],[139.2167,36.41801],[139.21816,36.41792],[139.22164,36.417]],[[139.27642,36.4255],[139.2708,36.42348],[139.26804,36.42215]],[[139.10612,36.39418],[139.107,36.39418]],[[139.22164,36.417],[139.22248,36.4169]],[[139.08144,36.39142],[139.08466,36.39322],[139.08542,36.39352],[139.08631,36.39365],[139.08877,36.39371]],[[139.1338,36.40732],[139.15118,36.41163],[139.15585,36.41261]],[[139.1962,36.41362],[139.19698,36.41378]],[[139.19698,36.41378],[139.21049,36.41672]],[[139.29753,36.41939],[139.2913,36.4233],[139.28586,36.42657],[139.28472,36.42712],[139.28307,36.42748],[139.28212,36.42744],[139.28141,36.4273],[139.27714,36.42574]],[[139.2989,36.41857],[139.29815,36.41901]],[[139.29815,36.41901],[139.29753,36.41939]]]}}