{"type":"Feature","properties":{"id":"上田電鉄_別所線","name":"別所線","operator":"上田電鉄","railType":"普通鉄道","operatorType":"民営","category":"rail","attribution":"国土数値情報（鉄道データ）国土交通省"},"geometry":{"type":"MultiLineString","coordinates":[[[138.17617,36.35845],[138.18238,36.35958]],[[138.19291,36.3605],[138.19374,36.36052]],[[138.22212,36.39047],[138.22677,36.39127]],[[138.21697,36.37817],[138.21712,36.38016],[138.21636,36.38357]],[[138.205,36.36336],[138.20648,36.36389],[138.20724,36.36389],[138.20761,36.36379],[138.2102,36.36255],[138.21541,36.3619],[138.21622,36.36201],[138.2166,36.3622],[138.21695,36.36258],[138.21709,36.36292]],[[138.17535,36.35832],[138.17617,36.35845]],[[138.24301,36.39262],[138.24407,36.3931],[138.24429,36.39327],[138.24639,36.39549],[138.24688,36.3961],[138.24758,36.39664],[138.24834,36.39687],[138.24912,36.39672]],[[138.21692,36.37752],[138.21697,36.37817]],[[138.21709,36.36292],[138.2173,36.36355]],[[138.23595,36.39168],[138.2399,36.39156],[138.24044,36.39166],[138.24228,36.39231]],[[138.20433,36.3631],[138.205,36.36336]],[[138.19802,36.36085],[138.19884,36.36096]],[[138.18319,36.35971],[138.18624,36.36024],[138.19291,36.3605]],[[138.24228,36.39231],[138.24301,36.39262]],[[138.2173,36.36355],[138.21733,36.36408],[138.21715,36.36491],[138.21514,36.37098]],[[138.22757,36.39142],[138.23035,36.39179],[138.23513,36.39168]],[[138.19884,36.36096],[138.20253,36.36162],[138.20284,36.3618],[138.20378,36.36281],[138.20433,36.3631]],[[138.18238,36.35958],[138.18319,36.35971]],[[138.21636,36.38357],[138.21627,36.38422]],[[138.21627,36.38422],[138.2188,36.38973],[138.21914,36.39004],[138.21956,36.39019],[138.22131,36.39031]],[[138.21513,36.37163],[138.2154,36.37384],[138.21681,36.3767],[138.21692,36.37752]],[[138.21514,36.37098],[138.21513,36.37163]],[[138.16211,36.35348],[138.16316,36.35524],[138.16348,36.35559],[138.16919,36.35813],[138.17002,36.35832],[138.17403,36.35819],[138.17535,36.35832]],[[138.22131,36.39031],[138.22212,36.39047]],[[138.22677,36.39127],[138.22757,36.39142]],[[138.19374,36.36052],[138.19802,36.36085]],[[138.16165,36.35292],[138.16211,36.35348]],[[138.23513,36.39168],[138.23595,36.39168]],[[138.2514,36.39479],[138.24912,36.39672]]]}}