{"type":"Feature","properties":{"id":"九州旅客鉄道_三角線","name":"三角線","operator":"九州旅客鉄道","railType":"普通鉄道(JR)","operatorType":"JR在来線","category":"rail","attribution":"国土数値情報（鉄道データ）国土交通省"},"geometry":{"type":"MultiLineString","coordinates":[[[130.66899,32.69383],[130.66835,32.69123]],[[130.66915,32.69487],[130.66899,32.69383]],[[130.48839,32.61573],[130.48768,32.61498]],[[130.66835,32.69123],[130.66815,32.69065],[130.66784,32.69014],[130.66729,32.68962],[130.66671,32.68926],[130.6659,32.68897],[130.66498,32.68888],[130.66441,32.68892],[130.6635,32.68915],[130.66223,32.68985],[130.66154,32.69008],[130.65797,32.69074],[130.64847,32.69111],[130.64289,32.69145],[130.63175,32.69384]],[[130.56112,32.69107],[130.55973,32.69011]],[[130.5072,32.64275],[130.50662,32.64225]],[[130.51025,32.65358],[130.51004,32.65293]],[[130.51004,32.65293],[130.50916,32.64631],[130.5089,32.64512],[130.50861,32.64442],[130.50822,32.6438],[130.50762,32.64311],[130.5072,32.64275]],[[130.55973,32.69011],[130.55832,32.68917],[130.55682,32.68863],[130.55588,32.68815],[130.55525,32.68766],[130.55469,32.68694],[130.55439,32.68608],[130.55417,32.68476],[130.55281,32.67262],[130.55259,32.67149],[130.55234,32.67076],[130.55156,32.66951],[130.55081,32.66885],[130.55019,32.66853],[130.54738,32.66764]],[[130.54656,32.66735],[130.54468,32.66671],[130.54114,32.66588],[130.53941,32.66515],[130.53792,32.66467],[130.53555,32.66451],[130.53277,32.6638],[130.52884,32.66325],[130.52662,32.66271],[130.52465,32.66181],[130.52273,32.66054],[130.52187,32.66011],[130.5188,32.65904],[130.51575,32.65657],[130.51467,32.65601],[130.51171,32.65491],[130.51086,32.65432],[130.51025,32.65358]],[[130.47062,32.60851],[130.46884,32.60725]],[[130.50662,32.64225],[130.50468,32.64049],[130.50384,32.63953],[130.5033,32.63839],[130.50305,32.63738],[130.50276,32.63666],[130.50251,32.63612],[130.50199,32.6355],[130.50149,32.63515],[130.50103,32.63495],[130.5004,32.63484],[130.49769,32.63472],[130.49632,32.63442],[130.4958,32.63415],[130.49556,32.63393],[130.49467,32.63271],[130.49253,32.62963],[130.49158,32.62809],[130.49126,32.627],[130.49114,32.62561],[130.49118,32.62072],[130.49103,32.6195],[130.49074,32.6187],[130.49035,32.61797],[130.48839,32.61573]],[[130.63175,32.69384],[130.63095,32.69402]],[[130.59707,32.70231],[130.59047,32.70413],[130.58923,32.70413],[130.58542,32.70373],[130.57205,32.70055],[130.56859,32.69923],[130.56789,32.69887],[130.56729,32.69845],[130.56691,32.69787],[130.56573,32.69486],[130.56524,32.69408],[130.56383,32.69294],[130.56112,32.69107]],[[130.48768,32.61498],[130.48548,32.61276],[130.48302,32.61125],[130.48144,32.61041],[130.48075,32.6102],[130.47961,32.61009],[130.47535,32.61035],[130.47379,32.61032],[130.47272,32.60997],[130.47062,32.60851]],[[130.63095,32.69402],[130.61021,32.69853],[130.59879,32.70176]],[[130.59879,32.70176],[130.59707,32.70231]],[[130.46884,32.60725],[130.46784,32.60655]],[[130.54738,32.66764],[130.54656,32.66735]]]}}