{"type":"Feature","properties":{"id":"九州旅客鉄道_日南線","name":"日南線","operator":"九州旅客鉄道","railType":"普通鉄道(JR)","operatorType":"JR在来線","category":"rail","attribution":"国土数値情報（鉄道データ）国土交通省"},"geometry":{"type":"MultiLineString","coordinates":[[[131.37416,31.67879],[131.37476,31.67971],[131.37529,31.68027],[131.37564,31.68051],[131.42725,31.69869],[131.42943,31.69961],[131.43029,31.70015],[131.43094,31.70062],[131.43191,31.70169],[131.43242,31.70199],[131.43348,31.70229],[131.43398,31.70221],[131.43669,31.70137],[131.43729,31.7011],[131.43884,31.70013],[131.43942,31.69994],[131.43988,31.69991],[131.44036,31.69994],[131.44117,31.70019],[131.44226,31.70099],[131.44276,31.70116],[131.44445,31.7012],[131.4467,31.70168],[131.44747,31.70193],[131.44815,31.70238],[131.44864,31.70304],[131.44892,31.70363],[131.44941,31.70514],[131.45035,31.70722],[131.45083,31.70805],[131.45192,31.70956],[131.45255,31.70996],[131.45571,31.71093]],[[131.20379,31.45691],[131.20299,31.45681]],[[131.45571,31.71093],[131.45657,31.71119]],[[131.38234,31.55719],[131.38187,31.55663]],[[131.37361,31.67793],[131.37416,31.67879]],[[131.44252,31.82011],[131.44279,31.82361],[131.44267,31.82427],[131.43726,31.83084]],[[131.37176,31.5359],[131.37099,31.536],[131.37049,31.5362],[131.37015,31.53645],[131.36877,31.53799],[131.36824,31.53845],[131.36624,31.53941],[131.36418,31.54064],[131.36265,31.54113],[131.36159,31.54118],[131.3603,31.54088],[131.35979,31.54062],[131.35402,31.53659],[131.35253,31.53582],[131.35124,31.53538],[131.34586,31.53433],[131.34543,31.53412],[131.3449,31.53363]],[[131.37275,31.64267],[131.37232,31.64224]],[[131.45717,31.80708],[131.45676,31.80766]],[[131.24848,31.51033],[131.24758,31.50933],[131.24732,31.50862],[131.24729,31.50792],[131.24767,31.50669],[131.24896,31.50351],[131.24927,31.50205],[131.24915,31.50072],[131.24782,31.4941],[131.24735,31.49224],[131.2453,31.48807],[131.24364,31.48385],[131.24336,31.48331]],[[131.36132,31.62698],[131.36012,31.62585],[131.35981,31.62534],[131.35929,31.62384],[131.3589,31.62337],[131.35821,31.62279],[131.35805,31.62241],[131.35786,31.62151],[131.35794,31.62095],[131.35815,31.62036],[131.35878,31.61945],[131.35927,31.61902],[131.36,31.61863],[131.37266,31.61353],[131.37347,31.61317],[131.37426,31.6127],[131.37627,31.61003],[131.38104,31.60329]],[[131.45657,31.71119],[131.45838,31.71189],[131.45869,31.71217],[131.45887,31.71248],[131.45969,31.7147],[131.4599,31.71559],[131.45986,31.71656],[131.4593,31.71837],[131.45921,31.71895],[131.45923,31.71992],[131.45954,31.72149],[131.45954,31.72192],[131.45945,31.72225],[131.45875,31.72354],[131.45865,31.72381],[131.45865,31.72409],[131.45987,31.73209],[131.46006,31.7328],[131.4604,31.73337],[131.46122,31.73423],[131.46464,31.73724],[131.46529,31.73769],[131.46574,31.73788]],[[131.23037,31.46256],[131.22962,31.46194],[131.22855,31.46132],[131.22561,31.4599],[131.22523,31.45987],[131.22244,31.46011],[131.21104,31.45964],[131.21039,31.45937],[131.20821,31.45791],[131.20768,31.45763],[131.20536,31.45714],[131.20379,31.45691]],[[131.38144,31.60276],[131.38265,31.60104],[131.38323,31.6004],[131.39451,31.58818],[131.39573,31.5871]],[[131.3449,31.53363],[131.34436,31.53314]],[[131.46574,31.73788],[131.46638,31.7381]],[[131.24286,31.48279],[131.24063,31.48038],[131.24035,31.47911],[131.23547,31.47108],[131.23412,31.46619],[131.2338,31.46574],[131.23093,31.46305]],[[131.43462,31.8591],[131.43443,31.85979]],[[131.4672,31.79908],[131.46684,31.79997]],[[131.13668,31.4695],[131.13616,31.47003]],[[131.39573,31.5871],[131.39632,31.58666]],[[131.46741,31.78902],[131.46755,31.78977]],[[131.43726,31.83084],[131.43681,31.83138]],[[131.37249,31.53595],[131.37176,31.5359]],[[131.30692,31.53456],[131.30617,31.53481]],[[131.37361,31.67793],[131.37244,31.6762],[131.36697,31.66957],[131.36663,31.66893],[131.3664,31.66765],[131.36643,31.66688],[131.36665,31.6658],[131.36734,31.66316],[131.3677,31.66243],[131.36878,31.66083],[131.36947,31.65964],[131.37006,31.65898],[131.37162,31.65785],[131.37425,31.65553],[131.37494,31.65431],[131.37587,31.65331],[131.37635,31.65261],[131.37673,31.65166],[131.37686,31.6506],[131.37664,31.64785],[131.37644,31.64667],[131.3763,31.64644],[131.37275,31.64267]],[[131.43025,31.87942],[131.42952,31.88132],[131.4288,31.88254],[131.42377,31.88957],[131.42216,31.89119],[131.42167,31.8918],[131.42152,31.89227],[131.4215,31.89293],[131.42162,31.89359],[131.42196,31.89433]],[[131.44879,31.81344],[131.4479,31.81328]],[[131.45676,31.80766],[131.45531,31.80973],[131.45343,31.81302],[131.45306,31.8133],[131.45259,31.81355],[131.45156,31.8138],[131.45115,31.81381],[131.44879,31.81344]],[[131.36132,31.62698],[131.36199,31.62746]],[[131.24897,31.51088],[131.24848,31.51033]],[[131.38104,31.60329],[131.38144,31.60276]],[[131.23093,31.46305],[131.23037,31.46256]],[[131.39632,31.58666],[131.39697,31.58605],[131.39751,31.58534],[131.3981,31.58423],[131.39827,31.58352],[131.3983,31.58256],[131.39811,31.58058],[131.39785,31.57935],[131.39822,31.57814],[131.39811,31.57731],[131.39813,31.57646],[131.39854,31.57552],[131.39847,31.5708],[131.39812,31.56899],[131.3977,31.5679],[131.3969,31.56632],[131.39648,31.56575],[131.39625,31.56558],[131.39589,31.56541],[131.39474,31.56516],[131.39187,31.56481],[131.39122,31.56458],[131.39065,31.5641],[131.3903,31.56367],[131.38917,31.56179],[131.38893,31.56153],[131.3882,31.56111],[131.38637,31.56057],[131.38449,31.55962],[131.38234,31.55719]],[[131.36199,31.62746],[131.3631,31.62803],[131.36416,31.62837],[131.3659,31.62883],[131.36965,31.62958],[131.37019,31.62977],[131.37398,31.63154],[131.37435,31.63185],[131.37461,31.63221],[131.37491,31.63287],[131.37502,31.6334],[131.37491,31.63407],[131.37469,31.63456],[131.37396,31.63526],[131.37213,31.63629],[131.37163,31.63666],[131.37088,31.63746],[131.37059,31.63807],[131.37075,31.63947],[131.37106,31.6407],[131.37128,31.64109],[131.37232,31.64224]],[[131.43681,31.83138],[131.43502,31.83352],[131.43478,31.8339],[131.43457,31.83453],[131.43463,31.83523],[131.43474,31.83554],[131.43574,31.83765],[131.43587,31.8381],[131.4373,31.84671],[131.43732,31.84716],[131.43668,31.85029],[131.43486,31.8583],[131.43462,31.8591]],[[131.34436,31.53314],[131.3432,31.53207],[131.34304,31.53172],[131.34291,31.5305],[131.34278,31.53015],[131.34233,31.52961],[131.34188,31.5293],[131.3412,31.52908],[131.33968,31.52904],[131.33773,31.52806],[131.33695,31.52779],[131.33638,31.52784],[131.33528,31.52812],[131.33426,31.52815],[131.33368,31.528],[131.33168,31.52715],[131.33116,31.52711],[131.33053,31.52723],[131.32955,31.52764],[131.3292,31.52771],[131.32679,31.52776],[131.32578,31.5279],[131.32344,31.52898],[131.31889,31.53084],[131.31805,31.53088],[131.31634,31.53061],[131.31577,31.53061],[131.31535,31.53071],[131.31474,31.53106],[131.31319,31.53341],[131.31245,31.53422],[131.31176,31.53475],[131.31128,31.53486],[131.31079,31.53486],[131.30986,31.53471],[131.30838,31.53431],[131.30801,31.53429],[131.30692,31.53456]],[[131.30617,31.53481],[131.30475,31.53526],[131.30418,31.53533],[131.30269,31.53523],[131.30081,31.53476],[131.30021,31.53479],[131.29955,31.535],[131.29825,31.53609],[131.29651,31.537],[131.29581,31.53748],[131.29507,31.53831],[131.29402,31.53921],[131.29367,31.54028],[131.29331,31.5409],[131.29266,31.54138],[131.29205,31.54155],[131.29144,31.54158],[131.29098,31.54151],[131.29,31.54126],[131.28939,31.541],[131.28909,31.54075],[131.28826,31.53963],[131.28721,31.5387],[131.2853,31.5377],[131.28434,31.53732],[131.28395,31.53725],[131.28309,31.5372],[131.28224,31.53739],[131.28075,31.53804],[131.27956,31.53828],[131.27836,31.53899],[131.27786,31.53913],[131.27249,31.53865],[131.27202,31.53838],[131.27064,31.53733],[131.26892,31.53692],[131.2683,31.53646],[131.26742,31.535],[131.2654,31.53102],[131.26508,31.53058],[131.26472,31.53031],[131.26415,31.53008],[131.26233,31.5297],[131.26174,31.52975],[131.26051,31.53022],[131.25933,31.53021],[131.25873,31.52998],[131.25728,31.52868],[131.25709,31.52828],[131.25694,31.52729],[131.25656,31.52644],[131.25599,31.52572],[131.25481,31.52512],[131.25443,31.52478],[131.25417,31.52424],[131.25404,31.5229],[131.25363,31.52224],[131.25285,31.52127],[131.25274,31.52076],[131.25279,31.51908],[131.25271,31.51842],[131.25251,31.51803],[131.25156,31.517],[131.2514,31.51666],[131.25138,31.51585],[131.25158,31.51478],[131.25156,31.51433],[131.2514,31.51372],[131.25075,31.51278],[131.24897,31.51088]],[[131.46762,31.75823],[131.4672,31.75878]],[[131.46684,31.79997],[131.46657,31.80038],[131.4631,31.80345],[131.46246,31.80375],[131.45933,31.80483],[131.45824,31.80573],[131.45717,31.80708]],[[131.44246,31.81927],[131.44252,31.82011]],[[131.13616,31.47003],[131.13577,31.47054],[131.13556,31.47122],[131.13514,31.47406],[131.13484,31.47533],[131.13448,31.47578],[131.13417,31.47601],[131.13374,31.47622],[131.13298,31.47637],[131.1316,31.4763],[131.12944,31.47588],[131.12891,31.47587],[131.12797,31.4761],[131.12657,31.47658],[131.12578,31.47672],[131.1251,31.47673],[131.12413,31.47647],[131.1225,31.47551],[131.12189,31.47532],[131.12099,31.47526],[131.11946,31.47536],[131.11535,31.47461],[131.11429,31.47473],[131.11376,31.47496],[131.1114,31.47699],[131.11092,31.47729],[131.11028,31.47747],[131.10913,31.47754],[131.10813,31.47731],[131.10354,31.47525],[131.10089,31.47443],[131.09902,31.47343]],[[131.4672,31.75878],[131.46608,31.76033],[131.46591,31.76091],[131.46589,31.76146],[131.46664,31.76341],[131.46704,31.7641],[131.46825,31.76566],[131.46849,31.76615],[131.4687,31.76685],[131.47083,31.77695],[131.47095,31.77861],[131.47086,31.77991],[131.47013,31.78304],[131.46985,31.78391],[131.46963,31.78435],[131.46919,31.78494],[131.46776,31.78663],[131.46748,31.78721],[131.46729,31.78823],[131.46741,31.78902]],[[131.17791,31.45855],[131.17492,31.45873],[131.17452,31.45869],[131.17233,31.45777],[131.17194,31.45765],[131.17136,31.45761],[131.17055,31.45778],[131.17006,31.45804],[131.16905,31.45895],[131.16837,31.45933],[131.16733,31.45961],[131.16322,31.46034],[131.16268,31.46062],[131.16206,31.46121],[131.16175,31.46185],[131.16157,31.46321],[131.16146,31.46352],[131.16068,31.46461],[131.15967,31.46584],[131.15923,31.46626],[131.15881,31.46649],[131.15813,31.46667],[131.1556,31.46658],[131.15493,31.46671],[131.15414,31.46738],[131.1524,31.46978],[131.15165,31.47025],[131.15072,31.47057],[131.15007,31.47062],[131.14898,31.47045],[131.14791,31.47018],[131.14,31.4677],[131.13944,31.46774],[131.13845,31.46809],[131.13668,31.4695]],[[131.09902,31.47343],[131.09804,31.47285]],[[131.43443,31.85979],[131.43255,31.86671],[131.43225,31.87049],[131.43158,31.87432]],[[131.43158,31.87432],[131.43112,31.87651],[131.43057,31.87841]],[[131.1787,31.45853],[131.17791,31.45855]],[[131.20299,31.45681],[131.2023,31.45678],[131.19542,31.45758],[131.18904,31.45712],[131.1883,31.45713],[131.18787,31.45726],[131.187,31.45769],[131.186,31.45829],[131.18545,31.45841],[131.18482,31.4584],[131.18261,31.45794],[131.18209,31.45802],[131.18063,31.45849],[131.1787,31.45853]],[[131.43057,31.87841],[131.43025,31.87942]],[[131.4479,31.81328],[131.44549,31.81279],[131.44458,31.81274],[131.44389,31.81291],[131.44292,31.81371],[131.44256,31.81436],[131.44244,31.81482],[131.4423,31.81699],[131.44246,31.81927]],[[131.46638,31.7381],[131.46761,31.73868],[131.46803,31.73913],[131.46836,31.73982],[131.46858,31.74136],[131.46857,31.74242],[131.46789,31.74385],[131.4678,31.74419],[131.4677,31.74772],[131.4675,31.74857],[131.46746,31.74956],[131.46752,31.75089],[131.46768,31.75205],[131.46783,31.7527],[131.4688,31.75534],[131.46894,31.75601],[131.46889,31.75637],[131.46862,31.75685],[131.46762,31.75823]],[[131.46755,31.78977],[131.4678,31.79132],[131.46789,31.79348],[131.46729,31.79711],[131.46729,31.79835],[131.4672,31.79908]],[[131.38187,31.55663],[131.38131,31.55586],[131.38053,31.55431],[131.3802,31.55325],[131.38003,31.5515],[131.38034,31.54717],[131.38139,31.54456],[131.38146,31.54408],[131.38137,31.54362],[131.38069,31.54275],[131.37988,31.54214],[131.37958,31.54182],[131.37842,31.53998],[131.37766,31.53923],[131.37393,31.53666],[131.37301,31.53612],[131.37249,31.53595]],[[131.24336,31.48331],[131.24286,31.48279]],[[131.42213,31.89451],[131.42359,31.89607]],[[131.42196,31.89433],[131.42213,31.89451]]]}}