{"type":"Feature","properties":{"id":"九州旅客鉄道_山陽線","name":"山陽線","operator":"九州旅客鉄道","railType":"普通鉄道(JR)","operatorType":"JR在来線","category":"rail","attribution":"国土数値情報（鉄道データ）国土交通省"},"geometry":{"type":"MultiLineString","coordinates":[[[130.93349,33.90554],[130.93134,33.90317]],[[130.92106,33.94829],[130.91967,33.94566],[130.9163,33.93778],[130.91608,33.93683],[130.91609,33.93604],[130.91625,33.93512],[130.91655,33.93433],[130.91693,33.93373],[130.9245,33.92728],[130.93564,33.91993],[130.93604,33.91958],[130.93654,33.91885],[130.93715,33.91765],[130.93731,33.91714],[130.93781,33.91427],[130.93774,33.91366],[130.93726,33.91214],[130.93649,33.91031],[130.93528,33.90809],[130.93349,33.90554]],[[130.92233,33.95029],[130.92106,33.94829]]]}}