{"type":"Feature","properties":{"id":"九州旅客鉄道_香椎線","name":"香椎線","operator":"九州旅客鉄道","railType":"普通鉄道(JR)","operatorType":"JR在来線","category":"rail","attribution":"国土数値情報（鉄道データ）国土交通省"},"geometry":{"type":"MultiLineString","coordinates":[[[130.41256,33.68666],[130.4119,33.68633]],[[130.45237,33.65016],[130.44883,33.65377],[130.44759,33.65474],[130.44576,33.65591],[130.44503,33.65661],[130.44461,33.65714],[130.4443,33.65775],[130.44421,33.65887]],[[130.5051,33.5869],[130.50497,33.58799]],[[130.47754,33.61305],[130.47392,33.62051]],[[130.51346,33.56956],[130.51359,33.571],[130.51358,33.57194],[130.51345,33.57362],[130.5132,33.5744],[130.51253,33.5756],[130.51021,33.57762],[130.50902,33.57891]],[[130.46678,33.63481],[130.46549,33.63542]],[[130.49778,33.59709],[130.49687,33.59775],[130.49598,33.59823],[130.48693,33.60236]],[[130.4119,33.68633],[130.40951,33.6852],[130.4032,33.68387]],[[130.50902,33.57891],[130.50855,33.57945]],[[130.47392,33.62051],[130.47337,33.62159]],[[130.44432,33.66017],[130.44454,33.66376],[130.4445,33.66511],[130.44352,33.66887],[130.44336,33.66995],[130.44187,33.67512],[130.44137,33.67634],[130.44093,33.6771],[130.43896,33.67927],[130.43008,33.68847]],[[130.48693,33.60236],[130.48574,33.60287]],[[130.42938,33.68912],[130.42865,33.68974],[130.42707,33.69037],[130.42545,33.69064],[130.42386,33.69055],[130.41827,33.68935],[130.41256,33.68666]],[[130.47809,33.61193],[130.47754,33.61305]],[[130.46549,33.63542],[130.46192,33.63719],[130.46089,33.63784],[130.45991,33.63866],[130.45918,33.63949],[130.45592,33.64417]],[[130.47337,33.62159],[130.47221,33.62417],[130.47041,33.63088],[130.47,33.63205],[130.4696,33.63275],[130.46895,33.63347],[130.46802,33.63415],[130.46678,33.63481]],[[130.4032,33.68387],[130.40239,33.68368]],[[130.50855,33.57945],[130.50601,33.58236],[130.50537,33.58333],[130.5052,33.58379],[130.50508,33.58455],[130.5051,33.5869]],[[130.51337,33.5689],[130.51346,33.56956]],[[130.44421,33.65887],[130.44432,33.66017]],[[130.453,33.64915],[130.45237,33.65016]],[[130.50497,33.58799],[130.5048,33.58856],[130.50416,33.58962],[130.49927,33.59564],[130.49836,33.59657]],[[130.45592,33.64417],[130.45527,33.64521]],[[130.43008,33.68847],[130.42938,33.68912]],[[130.45527,33.64521],[130.453,33.64915]],[[130.48574,33.60287],[130.48281,33.60425],[130.48201,33.60482],[130.48134,33.60551],[130.48105,33.60594],[130.47809,33.61193]],[[130.49836,33.59657],[130.49778,33.59709]],[[130.51327,33.56757],[130.51337,33.5689]],[[130.36127,33.66386],[130.36166,33.6644]],[[130.35822,33.65121],[130.35889,33.65347],[130.36007,33.65833],[130.36028,33.65963],[130.3604,33.66126],[130.36066,33.66257],[130.36106,33.66355],[130.36127,33.66386]],[[130.35792,33.65006],[130.35822,33.65121]],[[130.40239,33.68368],[130.39599,33.68231],[130.39506,33.68192],[130.39009,33.67943],[130.38871,33.67864],[130.37882,33.67228],[130.37267,33.6695],[130.37073,33.66872],[130.36396,33.66625],[130.3625,33.66527],[130.36166,33.6644]]]}}