{"type":"Feature","properties":{"id":"九州旅客鉄道_筑肥線","name":"筑肥線","operator":"九州旅客鉄道","railType":"普通鉄道(JR)","operatorType":"JR在来線","category":"rail","attribution":"国土数値情報（鉄道データ）国土交通省"},"geometry":{"type":"MultiLineString","coordinates":[[[129.97901,33.33789],[129.9784,33.3374]],[[130.07937,33.5014],[130.07834,33.50113],[130.07654,33.50092],[130.07545,33.50115],[130.07342,33.50182],[130.07166,33.50185],[130.07077,33.50178],[130.06957,33.50152],[130.06874,33.50114],[130.06676,33.50004],[130.06498,33.49872],[130.06267,33.49736],[130.06145,33.49696],[130.05944,33.49654],[130.05743,33.49584],[130.05554,33.49544],[130.05419,33.49502],[130.05324,33.49461],[130.05273,33.49433],[130.05244,33.49407],[130.05209,33.49358],[130.05173,33.49288],[130.05075,33.49036],[130.05046,33.48921],[130.05042,33.48841],[130.0505,33.48748],[130.05036,33.48666],[130.04969,33.48579],[130.04849,33.48481]],[[130.01684,33.44105],[130.01581,33.44093]],[[130.27508,33.57932],[130.27327,33.57923]],[[130.19845,33.55693],[130.19421,33.55641],[130.19346,33.55621],[130.19248,33.55578],[130.19148,33.55506],[130.18972,33.55309],[130.18626,33.55051]],[[129.97094,33.29535],[129.97105,33.29594]],[[130.16788,33.53408],[130.14923,33.52375],[130.14733,33.52233],[130.14056,33.51611]],[[130.2473,33.57107],[130.24549,33.57038]],[[129.96966,33.44565],[129.97228,33.44485],[129.97318,33.44413],[129.97349,33.44366],[129.97563,33.43911],[129.97649,33.43825],[129.9776,33.43769],[129.97832,33.43747]],[[129.97832,33.43747],[129.98018,33.43718]],[[130.17624,33.54312],[130.17115,33.53627],[130.17029,33.53546],[130.16875,33.53453]],[[129.99984,33.35553],[130.00046,33.35591]],[[130.0367,33.44676],[130.03487,33.44585],[130.03428,33.44542],[130.03255,33.44382],[130.03119,33.44298],[130.02984,33.44271],[130.01684,33.44105]],[[130.16875,33.53453],[130.16788,33.53408]],[[130.1999,33.5571],[130.19845,33.55693]],[[129.97633,33.30701],[129.977,33.30779]],[[129.97238,33.31907],[129.97248,33.31823],[129.97264,33.31784],[129.97288,33.31739],[129.9735,33.31673],[129.97402,33.31644],[129.97449,33.31629],[129.97821,33.31527],[129.97872,33.31502],[129.97906,33.31475],[129.97935,33.31447],[129.97972,33.31393],[129.97987,33.31342],[129.97989,33.31271],[129.97979,33.31168],[129.97959,33.31111],[129.9793,33.31052],[129.977,33.30779]],[[129.9784,33.3374],[129.97812,33.33723],[129.97735,33.33705],[129.97599,33.33697],[129.97425,33.33702],[129.97313,33.33688],[129.97228,33.33645],[129.97181,33.33605],[129.97122,33.33532],[129.97099,33.33432],[129.97096,33.3337],[129.97104,33.33319],[129.97133,33.33253],[129.9722,33.33169],[129.97444,33.32988],[129.97488,33.3294],[129.97511,33.3289],[129.97529,33.32816],[129.97549,33.32685],[129.97547,33.32616],[129.97528,33.32571],[129.97294,33.32325],[129.97243,33.32241],[129.97237,33.3222],[129.9724,33.31977]],[[129.99055,33.34785],[129.99035,33.34713]],[[129.97238,33.31907],[129.9724,33.31977]],[[130.04735,33.484],[130.04483,33.48209],[130.0445,33.48177],[130.04433,33.48146],[130.04366,33.47987],[130.043,33.47896],[130.04266,33.47823],[130.04261,33.47782],[130.04279,33.47605],[130.04264,33.47502],[130.04224,33.47349],[130.04141,33.4722],[130.04104,33.47049],[130.04009,33.46925],[130.0376,33.46671],[130.03724,33.4662],[130.03705,33.46574],[130.03686,33.46487],[130.0372,33.46259],[130.03774,33.4613],[130.03825,33.46083],[130.03951,33.45992],[130.04019,33.45883],[130.0417,33.4574],[130.04239,33.45629],[130.04472,33.45108],[130.04476,33.45021],[130.04466,33.4498],[130.04406,33.44889],[130.04367,33.44852],[130.04286,33.44809],[130.03991,33.44734],[130.03792,33.44702]],[[130.13905,33.51475],[130.1377,33.51361],[130.13656,33.51297],[130.13586,33.51278],[130.1346,33.51263],[130.13199,33.51253],[130.1308,33.51227],[130.13013,33.51197],[130.12784,33.51013],[130.12737,33.50984],[130.12505,33.50925],[130.1227,33.50833],[130.12163,33.50818],[130.11958,33.50749],[130.1172,33.50741],[130.11516,33.50716],[130.11412,33.50716],[130.11326,33.50738],[130.11285,33.5076],[130.11139,33.50867],[130.11069,33.5089],[130.11003,33.50895],[130.10758,33.50868],[130.10618,33.50876]],[[130.22555,33.56358],[130.21423,33.56099]],[[130.10618,33.50876],[130.10499,33.50886]],[[130.17731,33.54452],[130.17624,33.54312]],[[129.97633,33.30701],[129.9743,33.30405],[129.97253,33.30099],[129.97177,33.2991],[129.97105,33.29594]],[[129.99663,33.43934],[129.99753,33.43963]],[[130.04849,33.48481],[130.04735,33.484]],[[130.27327,33.57923],[130.26735,33.57885],[130.2591,33.57807]],[[129.98113,33.43695],[129.98581,33.43582],[129.98651,33.43571],[129.98762,33.43573],[129.98819,33.43587],[129.99018,33.43661],[129.99545,33.43891],[129.99663,33.43934]],[[129.9673,33.44632],[129.96966,33.44565]],[[129.95624,33.27175],[129.95709,33.27192]],[[130.30765,33.58143],[130.30433,33.57868],[130.30374,33.5783],[130.30277,33.57795],[130.3019,33.57783],[130.30103,33.57788],[130.29999,33.57807],[130.29537,33.57929],[130.29331,33.57956],[130.28909,33.58097],[130.28793,33.58108],[130.28624,33.58097],[130.28126,33.57974],[130.27884,33.57947],[130.27508,33.57932]],[[129.97094,33.29535],[129.97029,33.29223],[129.97008,33.29037],[129.96991,33.2866],[129.96968,33.28582],[129.96799,33.28209],[129.96769,33.28176],[129.96664,33.28102],[129.96389,33.27997],[129.96306,33.27936],[129.96282,33.27909],[129.96228,33.27804],[129.96146,33.27514],[129.96043,33.27371],[129.95984,33.27315],[129.95906,33.27262],[129.95781,33.27211],[129.95709,33.27192]],[[130.22714,33.56394],[130.22555,33.56358]],[[129.98018,33.43718],[129.98113,33.43695]],[[130.32417,33.58363],[130.31204,33.58422],[130.31128,33.58405],[130.31037,33.58365],[130.30838,33.58204]],[[129.99753,33.43963],[129.99918,33.44008],[130.00004,33.44011],[130.00058,33.44004],[130.00408,33.43907],[130.00491,33.43898],[130.00571,33.43903],[130.00906,33.43946],[130.01386,33.44069],[130.01581,33.44093]],[[130.2591,33.57807],[130.25783,33.57793]],[[130.18626,33.55051],[130.18536,33.54983]],[[130.08148,33.50189],[130.07937,33.5014]],[[130.10499,33.50886],[130.10245,33.50894],[130.10095,33.50871],[130.10026,33.50851],[130.09481,33.50585],[130.09021,33.50414],[130.08148,33.50189]],[[130.00046,33.35591],[130.00299,33.3573],[130.00404,33.35816],[130.00453,33.35894],[130.00471,33.35943],[130.00488,33.36064],[130.00536,33.36191],[130.00551,33.36272],[130.00537,33.36332],[130.00508,33.36379],[130.0048,33.36414],[130.00394,33.36476]],[[130.00394,33.36476],[130.00066,33.36774],[129.99138,33.37799],[129.99034,33.37863],[129.98853,33.37939],[129.98823,33.37959],[129.98599,33.38264],[129.98532,33.38341],[129.98388,33.3848],[129.98364,33.3852],[129.98349,33.38566],[129.98346,33.38642],[129.98358,33.38788],[129.98341,33.38901],[129.9827,33.39057],[129.98168,33.39251]],[[130.30838,33.58204],[130.30765,33.58143]],[[130.25783,33.57793],[130.25637,33.57763],[130.25512,33.57719],[130.25454,33.57693],[130.2522,33.57559],[130.25173,33.57526],[130.25114,33.57464],[130.25018,33.57297],[130.24966,33.57234],[130.24883,33.57183],[130.2473,33.57107]],[[130.03792,33.44702],[130.0367,33.44676]],[[130.14056,33.51611],[130.13905,33.51475]],[[129.99055,33.34785],[129.99101,33.35003],[129.99138,33.35101],[129.99172,33.35149],[129.99279,33.35223],[129.99359,33.35256],[129.99503,33.35303],[129.99682,33.35342],[129.99771,33.35371],[129.9982,33.35403],[129.99911,33.35498],[129.99984,33.35553]],[[130.18536,33.54983],[130.18389,33.5488],[130.17886,33.54623],[130.17793,33.54547],[130.17731,33.54452]],[[130.24549,33.57038],[130.23742,33.56723],[130.23263,33.56524],[130.22714,33.56394]],[[129.99035,33.34713],[129.99017,33.34654],[129.98957,33.34595],[129.98725,33.34461],[129.98632,33.34421],[129.98441,33.34357],[129.98214,33.34309],[129.9814,33.34269],[129.98098,33.3423],[129.98047,33.34144],[129.9803,33.34096],[129.98015,33.33982],[129.97999,33.33931],[129.97939,33.33823],[129.97901,33.33789]],[[130.32596,33.58353],[130.32417,33.58363]],[[129.98086,33.39401],[129.98168,33.39251]],[[129.93473,33.26523],[129.93395,33.26474],[129.93219,33.26386],[129.93098,33.26352],[129.92951,33.26333],[129.92879,33.26312],[129.9276,33.26246],[129.92691,33.26217],[129.9262,33.26207],[129.92437,33.26209],[129.92307,33.26193],[129.92161,33.26121],[129.9203,33.26072],[129.91914,33.26057],[129.91824,33.26055],[129.90945,33.26195],[129.90886,33.26214],[129.90576,33.26379],[129.90532,33.26391],[129.9036,33.26395],[129.90311,33.26405],[129.90124,33.26511],[129.90066,33.26531],[129.89966,33.26584],[129.89711,33.26804],[129.89441,33.26932],[129.89295,33.26991]],[[129.95624,33.27175],[129.95387,33.27139],[129.95085,33.27158],[129.94965,33.27148],[129.9432,33.26886],[129.93835,33.26725],[129.93716,33.26678],[129.93659,33.2665],[129.93533,33.26561]],[[129.89213,33.27018],[129.89142,33.2703],[129.89081,33.27027],[129.89014,33.27005],[129.88839,33.26924],[129.88623,33.26837],[129.88568,33.26822],[129.88468,33.26817],[129.88362,33.26844],[129.88274,33.26886],[129.88185,33.26969],[129.88091,33.27094],[129.88071,33.27113],[129.88005,33.27149],[129.87897,33.27171],[129.87733,33.27183]],[[129.89213,33.27018],[129.89295,33.26991]],[[129.93473,33.26523],[129.93533,33.26561]],[[129.8753,33.27199],[129.87733,33.27183]],[[130.21423,33.56099],[130.21295,33.56056]],[[130.21295,33.56056],[130.20445,33.55778],[130.1999,33.5571]]]}}