{"type":"Feature","properties":{"id":"九州旅客鉄道_唐津線","name":"唐津線","operator":"九州旅客鉄道","railType":"普通鉄道(JR)","operatorType":"JR在来線","category":"rail","attribution":"国土数値情報（鉄道データ）国土交通省"},"geometry":{"type":"MultiLineString","coordinates":[[[130.05993,33.32342],[130.04486,33.32404],[130.04436,33.32414],[130.04392,33.3243],[130.04319,33.32473],[130.03974,33.32746],[130.03904,33.32835],[130.03867,33.32902],[130.03843,33.33005],[130.03846,33.33046]],[[130.14246,33.28547],[130.14387,33.28535]],[[129.95753,33.46199],[129.95823,33.46099]],[[130.06067,33.32338],[130.05993,33.32342]],[[130.01868,33.34707],[130.01557,33.34746],[130.01482,33.34763],[130.01377,33.34802],[130.01335,33.3483],[130.01132,33.35015],[130.01094,33.3504],[130.00539,33.3526],[130.0048,33.35293],[130.004,33.35367],[130.0037,33.35407],[130.00335,33.35483],[130.0032,33.35584],[130.00325,33.35647],[130.00366,33.35724],[130.0053,33.35924],[130.00556,33.35973],[130.00571,33.36039],[130.0057,33.36114],[130.00558,33.36189],[130.00494,33.36332],[130.00394,33.36476]],[[130.11266,33.28327],[130.11192,33.28339]],[[130.19998,33.28528],[130.20921,33.283],[130.2104,33.28244],[130.21116,33.28165],[130.21175,33.28077],[130.21234,33.27944],[130.21807,33.262],[130.21972,33.25725],[130.22021,33.25654],[130.22085,33.25594],[130.22204,33.25534],[130.22316,33.25511],[130.2249,33.25507]],[[130.11192,33.28339],[130.11077,33.28371],[130.1072,33.28501],[130.10464,33.28558],[130.10414,33.2858],[130.10211,33.28717],[130.10168,33.28734],[130.09668,33.28831]],[[130.19815,33.28572],[130.19998,33.28528]],[[130.14387,33.28535],[130.1484,33.28489],[130.15272,33.28375],[130.15444,33.28345],[130.15656,33.28334],[130.15783,33.28342],[130.15954,33.28391],[130.16074,33.28443],[130.16125,33.28474],[130.16317,33.28651],[130.16544,33.28763],[130.16728,33.28951],[130.16798,33.28993],[130.16956,33.29024],[130.17427,33.2906],[130.1755,33.29052],[130.18249,33.28958],[130.19815,33.28572]],[[130.09668,33.28831],[130.09588,33.28845]],[[130.03846,33.33046],[130.03853,33.33115]],[[129.98086,33.39401],[129.98168,33.39251]],[[129.98168,33.39251],[129.9827,33.39057],[129.98341,33.38901],[129.98358,33.38788],[129.98346,33.38642],[129.98349,33.38566],[129.98364,33.3852],[129.98388,33.3848],[129.98532,33.38341],[129.98599,33.38264],[129.98823,33.37959],[129.98853,33.37939],[129.99034,33.37863],[129.99138,33.37799],[129.99643,33.3724]],[[130.0208,33.34683],[130.01868,33.34707]],[[129.95823,33.46099],[129.95993,33.45817],[129.96025,33.45722],[129.9603,33.45636],[129.95995,33.45381],[129.95998,33.45202],[129.9605,33.44973],[129.96077,33.44912],[129.96127,33.44852],[129.9625,33.44775],[129.9673,33.44632]],[[129.98721,33.42167],[129.98701,33.42054]],[[130.11266,33.28327],[130.11359,33.28321],[130.11592,33.28326],[130.12681,33.28457],[130.12767,33.28481],[130.13249,33.28676],[130.13324,33.28687],[130.13455,33.28686],[130.14008,33.28561],[130.14246,33.28547]],[[130.03853,33.33115],[130.03876,33.33439],[130.03866,33.33479],[130.03792,33.336],[130.03715,33.33664],[130.02964,33.34209],[130.02389,33.3461],[130.02325,33.34643],[130.02234,33.34667],[130.0208,33.34683]],[[129.97832,33.43747],[129.97932,33.43722],[129.9808,33.43668],[129.98151,33.43617],[129.98197,33.43557],[129.98712,33.42514],[129.98744,33.42411],[129.98755,33.42344],[129.98721,33.42167]],[[130.09588,33.28845],[130.09329,33.28894],[130.09292,33.28914],[130.09199,33.28996],[130.09154,33.29048],[130.08983,33.29524],[130.08848,33.29663],[130.07925,33.30777],[130.07836,33.30839],[130.07692,33.30921],[130.07577,33.31043],[130.07531,33.31077],[130.07451,33.31118],[130.07319,33.31148],[130.07177,33.31151],[130.07051,33.3118],[130.06857,33.31272],[130.06744,33.31358],[130.06694,33.31406],[130.06662,33.31469],[130.06643,33.3156],[130.06601,33.32016],[130.06581,33.32108],[130.06555,33.32159],[130.06506,33.32215],[130.06451,33.32261],[130.06331,33.32314],[130.06222,33.32333],[130.06067,33.32338]],[[129.98701,33.42054],[129.98686,33.41918],[129.98659,33.41828],[129.98275,33.41227],[129.98183,33.41142],[129.97883,33.40897],[129.97746,33.40815],[129.97507,33.40634],[129.97413,33.4053],[129.9738,33.40472],[129.97367,33.40427],[129.97372,33.40304],[129.97391,33.40242],[129.97419,33.40192],[129.9744,33.40164],[129.9788,33.39759],[129.98086,33.39401]],[[129.96966,33.44565],[129.97228,33.44485],[129.97318,33.44413],[129.97349,33.44366],[129.97563,33.43911],[129.97649,33.43825],[129.9776,33.43769],[129.97832,33.43747]],[[129.9673,33.44632],[129.96966,33.44565]],[[130.00394,33.36476],[130.00066,33.36774],[129.99695,33.37183]],[[130.23134,33.25594],[130.22751,33.25544]],[[130.22751,33.25544],[130.2249,33.25507]],[[129.99643,33.3724],[129.99695,33.37183]]]}}