{"type":"Feature","properties":{"id":"九州旅客鉄道_久大線","name":"久大線","operator":"九州旅客鉄道","railType":"普通鉄道(JR)","operatorType":"JR在来線","category":"rail","attribution":"国土数値情報（鉄道データ）国土交通省"},"geometry":{"type":"MultiLineString","coordinates":[[[131.25145,33.24029],[131.24877,33.23975],[131.2473,33.2398],[131.24687,33.23993],[131.24474,33.24104],[131.24382,33.24117],[131.24216,33.24108],[131.24139,33.24117],[131.23836,33.24261],[131.23741,33.24288],[131.23622,33.24281],[131.23105,33.24188],[131.22854,33.24204],[131.22628,33.24147],[131.22476,33.24036],[131.22312,33.23889],[131.22201,33.23833],[131.22157,33.238],[131.22031,33.23621],[131.21883,33.2348],[131.21773,33.23333],[131.21418,33.23116],[131.21382,33.23073],[131.21354,33.23022],[131.2127,33.22756],[131.21223,33.22688],[131.21187,33.22655],[131.21109,33.22612],[131.21067,33.22599],[131.20985,33.22586],[131.20823,33.22579]],[[131.35379,33.19745],[131.35047,33.19849],[131.34771,33.20009],[131.34559,33.20151],[131.34519,33.20208],[131.3445,33.2036],[131.34391,33.20424],[131.34264,33.20527],[131.34196,33.20669],[131.34161,33.20726],[131.34116,33.20779],[131.34052,33.20822],[131.33907,33.20891],[131.33544,33.21123],[131.33471,33.21201],[131.33332,33.21391],[131.33185,33.21548],[131.33172,33.21586],[131.33144,33.21748],[131.33068,33.21869],[131.32899,33.22183],[131.32749,33.22301],[131.32695,33.22359],[131.32658,33.22423],[131.32634,33.22503],[131.32575,33.22903],[131.32564,33.22932],[131.32515,33.23003],[131.32392,33.23114],[131.32339,33.23194],[131.32322,33.23232],[131.32311,33.23356],[131.32297,33.23423],[131.32217,33.23623],[131.32209,33.23664],[131.3221,33.23731],[131.32237,33.23853],[131.32265,33.23938],[131.32307,33.23997],[131.32353,33.24032],[131.32445,33.24069],[131.3252,33.24083],[131.32637,33.24071],[131.32867,33.24002],[131.32954,33.24001],[131.33026,33.24015],[131.33088,33.24049],[131.33295,33.2419]],[[131.51366,33.1966],[131.51447,33.19676]],[[131.33295,33.2419],[131.33376,33.24248]],[[131.20704,33.22578],[131.20449,33.22573],[131.20284,33.22581],[131.19941,33.22645],[131.19804,33.22626],[131.19632,33.22552],[131.19526,33.22513],[131.19441,33.22492],[131.19261,33.22464],[131.19138,33.22459],[131.1906,33.22464],[131.18954,33.22498],[131.18799,33.22585],[131.18447,33.2286]],[[131.5515,33.19536],[131.5528,33.19685],[131.55502,33.19848],[131.55555,33.19895],[131.55822,33.20252],[131.55867,33.20348],[131.5589,33.20426],[131.56002,33.21051],[131.56017,33.21099],[131.56061,33.21155],[131.56234,33.21288]],[[131.43956,33.18664],[131.43825,33.18741]],[[131.45312,33.18495],[131.45209,33.18538]],[[131.18348,33.22939],[131.18267,33.2301],[131.18217,33.2307],[131.18187,33.2312],[131.18165,33.23177],[131.18123,33.23391],[131.18096,33.23437],[131.1802,33.23526],[131.17748,33.23757],[131.17693,33.23775],[131.1754,33.23805],[131.17457,33.23841],[131.17341,33.23955],[131.1726,33.2408],[131.17253,33.24159],[131.17264,33.24271],[131.17342,33.24737],[131.17402,33.25334],[131.17432,33.25461]],[[131.25235,33.24048],[131.25145,33.24029]],[[131.45209,33.18538],[131.45089,33.18566],[131.44948,33.18564],[131.44898,33.1855],[131.44739,33.18453],[131.44662,33.18423],[131.44559,33.18412],[131.44422,33.18411],[131.44334,33.18438],[131.43956,33.18664]],[[131.17452,33.25547],[131.17501,33.25663],[131.17686,33.26011],[131.17728,33.26175],[131.17737,33.26358],[131.17726,33.26447],[131.17688,33.26552],[131.17394,33.27065],[131.17322,33.27164],[131.17194,33.27288],[131.16975,33.27481],[131.16924,33.27537],[131.16804,33.27737],[131.16723,33.27822],[131.16602,33.27875],[131.15657,33.28222]],[[131.25235,33.24048],[131.254,33.24056],[131.25525,33.24044],[131.25777,33.23999],[131.26034,33.23919],[131.26121,33.23921],[131.26465,33.23965],[131.26516,33.23964],[131.26854,33.23876],[131.27059,33.23856],[131.2711,33.23857],[131.27185,33.23873],[131.27313,33.23921],[131.2737,33.23954],[131.2741,33.23987],[131.27538,33.24167],[131.27593,33.24224],[131.27659,33.24262],[131.27704,33.24277],[131.27793,33.24291],[131.29692,33.24153],[131.30165,33.24129],[131.30301,33.24181],[131.30324,33.24197],[131.30854,33.2466],[131.31118,33.24861],[131.31164,33.24909],[131.31271,33.25096],[131.31321,33.25142],[131.31381,33.25176],[131.31533,33.25214],[131.31792,33.25254],[131.3226,33.25312],[131.32725,33.25357],[131.32796,33.25368],[131.32859,33.25388],[131.32927,33.25431],[131.33048,33.25563],[131.33135,33.2564],[131.33206,33.25665],[131.33472,33.25714],[131.33627,33.25756],[131.3376,33.2583],[131.34546,33.26336],[131.34603,33.26364],[131.35081,33.26457],[131.35155,33.26458],[131.35232,33.26442],[131.35312,33.26413],[131.35414,33.26346],[131.35448,33.26311]],[[131.20823,33.22579],[131.20704,33.22578]],[[131.40117,33.18508],[131.39892,33.18485],[131.39739,33.18483],[131.39325,33.18632],[131.39254,33.18648],[131.39183,33.18647],[131.38926,33.18573],[131.38827,33.18571],[131.38731,33.18596],[131.38553,33.18704],[131.38457,33.18739],[131.38395,33.18741],[131.38181,33.18718],[131.38083,33.18727],[131.3802,33.18754],[131.37753,33.18964],[131.37692,33.18989],[131.37467,33.19124],[131.37397,33.19142],[131.36894,33.19211],[131.36816,33.19232],[131.3671,33.1931],[131.366,33.19458],[131.36534,33.19511],[131.36496,33.19529],[131.36397,33.19553],[131.36117,33.19551],[131.36043,33.19572],[131.35901,33.19657],[131.35804,33.19695],[131.35702,33.19715],[131.35523,33.19716],[131.35482,33.19723]],[[131.18447,33.2286],[131.18348,33.22939]],[[131.48571,33.19539],[131.48523,33.19604]],[[131.15657,33.28222],[131.15482,33.28288]],[[131.60794,33.22067],[131.60867,33.22061]],[[131.35535,33.26168],[131.35568,33.26079],[131.35586,33.25997],[131.3559,33.25815],[131.35586,33.25767],[131.35565,33.25699],[131.3551,33.25618],[131.35384,33.25532],[131.35124,33.25407],[131.35059,33.25393],[131.34818,33.25371],[131.34755,33.25351],[131.3465,33.25297],[131.34603,33.25258],[131.34541,33.25185],[131.34448,33.25026],[131.34412,33.24986],[131.34347,33.24948],[131.34144,33.24873],[131.34075,33.24832],[131.34023,33.24783],[131.33896,33.246],[131.3383,33.24543],[131.33376,33.24248]],[[131.58591,33.21409],[131.58666,33.21393]],[[131.58666,33.21393],[131.58901,33.21368],[131.58998,33.21373],[131.59025,33.21382],[131.59079,33.21413],[131.59358,33.21629],[131.5957,33.21732],[131.60207,33.22011],[131.60293,33.22027],[131.60534,33.22039],[131.60676,33.22065],[131.60794,33.22067]],[[131.40265,33.18512],[131.40117,33.18508]],[[131.35448,33.26311],[131.35492,33.2625],[131.35535,33.26168]],[[131.5629,33.21326],[131.56363,33.21369],[131.5696,33.2163],[131.57043,33.21655],[131.57097,33.21662],[131.57262,33.2165],[131.57854,33.2153],[131.58591,33.21409]],[[131.48571,33.19539],[131.48723,33.19246],[131.48752,33.19211],[131.4878,33.19188],[131.48884,33.19143],[131.49002,33.19124],[131.49043,33.19127],[131.49138,33.19154],[131.49674,33.19566],[131.49731,33.19595],[131.49821,33.19621],[131.49896,33.19627],[131.50086,33.19593],[131.50158,33.19592],[131.50641,33.19694],[131.50728,33.19688],[131.50901,33.19634],[131.51046,33.19614],[131.51181,33.19617],[131.51366,33.1966]],[[131.51447,33.19676],[131.5158,33.19707],[131.51787,33.19772],[131.52472,33.20094],[131.52536,33.20109],[131.52663,33.20112],[131.52739,33.20097],[131.53039,33.19996],[131.5311,33.19949],[131.53335,33.19758],[131.53621,33.1959],[131.53693,33.19568],[131.54022,33.19516],[131.54269,33.19457],[131.54356,33.19425],[131.54571,33.19295],[131.54663,33.19263],[131.54785,33.19251],[131.54844,33.1926],[131.54897,33.19282],[131.54975,33.19335],[131.55103,33.1948]],[[131.60867,33.22061],[131.61086,33.22043],[131.61318,33.21974],[131.61444,33.21976],[131.61532,33.21986],[131.61586,33.22005],[131.61646,33.22045],[131.61767,33.22175],[131.61825,33.22271],[131.61843,33.22367],[131.61832,33.22422],[131.61796,33.22496],[131.6174,33.22546],[131.61565,33.2267],[131.61461,33.22755],[131.61393,33.22827],[131.61339,33.22919],[131.61225,33.23024]],[[131.17452,33.25547],[131.17432,33.25461]],[[131.55103,33.1948],[131.5515,33.19536]],[[131.35482,33.19723],[131.35379,33.19745]],[[131.48523,33.19604],[131.48416,33.19719],[131.48324,33.19798],[131.48224,33.19869],[131.48116,33.19929],[131.47928,33.20005],[131.47822,33.20032],[131.47738,33.20038],[131.47474,33.20023],[131.47398,33.20015],[131.47345,33.2],[131.4728,33.19965],[131.47225,33.19918],[131.47185,33.19862],[131.47153,33.1979],[131.47133,33.1971],[131.47126,33.19643],[131.47152,33.19346],[131.47126,33.19275],[131.4706,33.19202],[131.46983,33.19161],[131.46862,33.19121],[131.4673,33.19061],[131.46686,33.19023],[131.46519,33.18822],[131.46217,33.18615],[131.4615,33.18583],[131.45768,33.18432],[131.45674,33.18415],[131.45571,33.18418],[131.45496,33.18433],[131.45312,33.18495]],[[131.56234,33.21288],[131.5629,33.21326]],[[131.43825,33.18741],[131.43734,33.18766],[131.43638,33.18767],[131.43414,33.18698],[131.43345,33.18695],[131.43245,33.187],[131.42994,33.18732],[131.4288,33.18732],[131.41784,33.18515],[131.41549,33.18458],[131.41475,33.1843],[131.41314,33.18334],[131.41236,33.18306],[131.41113,33.18309],[131.41024,33.18332],[131.40958,33.18369],[131.4088,33.18434],[131.40775,33.18487],[131.40539,33.18516],[131.40265,33.18512]],[[131.60731,33.23231],[131.61225,33.23024]],[[131.60731,33.23231],[131.60608,33.23289]],[[130.78872,33.335],[130.78958,33.33508]],[[130.75365,33.34089],[130.752,33.34102]],[[130.93869,33.31727],[130.93758,33.3185]],[[131.00607,33.28416],[131.00839,33.2805],[131.0086,33.27994],[131.00886,33.27803],[131.00887,33.27734],[131.00786,33.27323],[131.00782,33.2726],[131.0082,33.27185],[131.01011,33.26924],[131.01059,33.26843],[131.01349,33.25968],[131.0138,33.25899],[131.01443,33.25824],[131.0166,33.25662],[131.01863,33.25526],[131.01986,33.25461],[131.02034,33.25445],[131.02105,33.25442],[131.02211,33.25454],[131.02315,33.25476]],[[130.81743,33.34715],[130.81978,33.34691],[130.82038,33.34676],[130.82114,33.34645],[130.82826,33.34294],[130.82976,33.34205],[130.83153,33.34077],[130.83301,33.34016],[130.83401,33.34009],[130.83486,33.34017],[130.83935,33.34148],[130.84018,33.3415],[130.84077,33.34133],[130.8443,33.33984],[130.84671,33.3397],[130.84832,33.33924],[130.84978,33.33866],[130.85019,33.33835],[130.85171,33.33666],[130.85344,33.33459],[130.8541,33.33326],[130.8555,33.32986],[130.85608,33.32907],[130.85666,33.3285],[130.86146,33.32447],[130.863,33.32359],[130.86452,33.3225],[130.86494,33.32211],[130.86537,33.32153],[130.86607,33.31992]],[[130.81637,33.34722],[130.81189,33.34746],[130.81057,33.34734],[130.80928,33.34696],[130.80804,33.34621],[130.79442,33.33585],[130.79375,33.33548],[130.79351,33.33544],[130.78958,33.33508]],[[131.06584,33.26446],[131.06507,33.26422]],[[130.93758,33.3185],[130.92943,33.32753],[130.92876,33.32798],[130.92808,33.32828],[130.9275,33.32841],[130.92651,33.32845],[130.92355,33.32781],[130.92065,33.32761]],[[131.10133,33.28208],[131.10052,33.28196]],[[130.95188,33.30562],[130.95113,33.30619]],[[130.91919,33.3276],[130.90965,33.32767],[130.90888,33.32761],[130.90721,33.32726],[130.90457,33.32647],[130.90377,33.32612],[130.90296,33.32563],[130.90188,33.32475],[130.90059,33.32355],[130.9002,33.32307],[130.89913,33.32125],[130.89861,33.32064],[130.8976,33.32],[130.89375,33.31797],[130.8929,33.31716],[130.89045,33.31438],[130.88968,33.31394],[130.88897,33.31371],[130.88495,33.31298],[130.88092,33.31265],[130.87869,33.3126],[130.87578,33.31214],[130.87479,33.3121],[130.87373,33.3123],[130.87232,33.3128],[130.87133,33.31334],[130.87016,33.31417],[130.86963,33.31465],[130.86766,33.317],[130.86636,33.31927]],[[131.02447,33.25492],[131.02315,33.25476]],[[131.00568,33.28476],[131.00607,33.28416]],[[131.00568,33.28476],[131.00452,33.28654],[131.004,33.2869],[131.0033,33.28714],[131.00277,33.2872],[131.00042,33.28698],[130.99994,33.28705],[130.99851,33.28755],[130.99727,33.28765],[130.99453,33.28746],[130.99036,33.2884],[130.98961,33.28868],[130.98922,33.28894],[130.98797,33.29033],[130.9873,33.29081],[130.9798,33.29366],[130.97303,33.29608],[130.97208,33.29669],[130.9716,33.29734],[130.97113,33.2982],[130.97038,33.29898],[130.96459,33.30353],[130.96373,33.30378],[130.96317,33.30383],[130.9564,33.30411],[130.95499,33.30429],[130.95374,33.30469],[130.95188,33.30562]],[[130.75365,33.34089],[130.76397,33.34001],[130.76512,33.33982],[130.7676,33.33901],[130.77913,33.33456],[130.78005,33.33436],[130.78142,33.33432],[130.78872,33.335]],[[131.15482,33.28288],[131.15023,33.2846],[131.14967,33.28475],[131.14915,33.28479],[131.14789,33.28468],[131.14049,33.28348],[131.13798,33.28371],[131.1366,33.28374],[131.13568,33.28369],[131.13228,33.28326],[131.13062,33.28289],[131.12815,33.28201],[131.12398,33.27866],[131.12315,33.27825],[131.12262,33.2781],[131.12195,33.27803],[131.12116,33.27815],[131.12005,33.27846],[131.11523,33.27998],[131.1117,33.28095],[131.10658,33.28194],[131.10394,33.28237],[131.10133,33.28208]],[[130.92065,33.32761],[130.91919,33.3276]],[[130.95113,33.30619],[130.95039,33.30687],[130.94972,33.30764],[130.94786,33.3108],[130.94733,33.31145],[130.94671,33.31192],[130.94585,33.31232],[130.94369,33.31277],[130.943,33.31298],[130.94266,33.31317],[130.94159,33.31409],[130.93869,33.31727]],[[130.81743,33.34715],[130.81637,33.34722]],[[131.10052,33.28196],[131.09892,33.28191],[131.09592,33.28257],[131.09501,33.28266],[131.09259,33.28251],[131.09175,33.28231],[131.09087,33.28195],[131.0885,33.28056],[131.088,33.28016],[131.08537,33.27752],[131.08491,33.27693],[131.08467,33.27642],[131.08444,33.27573],[131.08424,33.27475],[131.08399,33.2742],[131.08111,33.27129],[131.07945,33.26929],[131.07795,33.26855],[131.07663,33.26815],[131.07387,33.26808],[131.07005,33.26767],[131.0692,33.26728],[131.06689,33.26502],[131.06584,33.26446]],[[131.06507,33.26422],[131.06413,33.26414],[131.06218,33.26418],[131.06118,33.26393],[131.06037,33.26347],[131.05836,33.26178],[131.05683,33.26073],[131.0498,33.25853],[131.04924,33.25845],[131.04506,33.25882],[131.04354,33.25865],[131.03523,33.25663],[131.03358,33.25602],[131.03209,33.25518],[131.02845,33.25426],[131.02774,33.25427],[131.02502,33.25487],[131.02447,33.25492]],[[130.86607,33.31992],[130.86636,33.31927]],[[130.752,33.34102],[130.74562,33.34141],[130.73401,33.3409],[130.69912,33.34108],[130.6981,33.34099],[130.6971,33.34074],[130.69328,33.33915]],[[130.56203,33.31258],[130.54802,33.31086]],[[130.64277,33.32213],[130.64159,33.32208]],[[130.69162,33.33845],[130.68726,33.33665],[130.68641,33.33623],[130.67728,33.33007],[130.67657,33.32967],[130.675,33.32901],[130.67387,33.32865],[130.6454,33.32234],[130.64277,33.32213]],[[130.60799,33.31997],[130.60445,33.31977],[130.60346,33.31951],[130.60273,33.31922],[130.59591,33.31587],[130.59257,33.31439],[130.59037,33.31366],[130.58886,33.3133],[130.58628,33.31286],[130.58486,33.31277],[130.56886,33.31241],[130.56786,33.31256],[130.56602,33.31301],[130.56536,33.31301],[130.56329,33.31275]],[[130.69328,33.33915],[130.69162,33.33845]],[[130.64159,33.32208],[130.62266,33.32083],[130.60949,33.32008]],[[130.53291,33.30321],[130.53142,33.30238]],[[130.54718,33.31072],[130.54481,33.31001],[130.54377,33.3096],[130.54233,33.30887],[130.53291,33.30321]],[[130.56329,33.31275],[130.56203,33.31258]],[[130.51736,33.29836],[130.51921,33.29825],[130.52071,33.29846],[130.52165,33.29877],[130.52703,33.30114],[130.52808,33.30146],[130.53001,33.30189],[130.53142,33.30238]],[[130.60949,33.32008],[130.60799,33.31997]],[[130.54802,33.31086],[130.54718,33.31072]],[[130.50109,33.32191],[130.50165,33.31955]],[[130.50165,33.31955],[130.50183,33.31873],[130.50239,33.31455],[130.50335,33.30974],[130.50346,33.30252]],[[130.50346,33.30252],[130.50379,33.3013],[130.5043,33.30053],[130.50493,33.29995],[130.50597,33.29951],[130.50734,33.29926],[130.51683,33.29841]],[[130.51683,33.29841],[130.51736,33.29836]]]}}