{"type":"Feature","properties":{"id":"九州旅客鉄道_日豊線","name":"日豊線","operator":"九州旅客鉄道","railType":"普通鉄道(JR)","operatorType":"JR在来線","category":"rail","attribution":"国土数値情報（鉄道データ）国土交通省"},"geometry":{"type":"MultiLineString","coordinates":[[[131.81104,33.15897],[131.81056,33.16009],[131.80945,33.16197],[131.80911,33.1628],[131.80896,33.16353],[131.80901,33.16489],[131.80953,33.16655],[131.80993,33.16748],[131.81048,33.16833],[131.81106,33.16905],[131.81462,33.17209],[131.81655,33.17332],[131.81689,33.17368],[131.81754,33.17465]],[[131.81119,33.1583],[131.81104,33.15897]],[[131.79536,33.23339],[131.79514,33.234]],[[131.78768,33.13524],[131.78766,33.13588]],[[131.81754,33.17465],[131.81784,33.1752]],[[131.81784,33.1752],[131.81869,33.17754],[131.81909,33.18031],[131.81894,33.18119],[131.81695,33.1855],[131.81653,33.18622],[131.81566,33.18735],[131.81481,33.18812],[131.81206,33.18991],[131.81164,33.19034],[131.81123,33.19093],[131.80503,33.20252],[131.80444,33.20376],[131.80419,33.20441],[131.80415,33.2056],[131.80425,33.20709],[131.80395,33.20899],[131.80406,33.21262],[131.80392,33.21363],[131.80368,33.21421],[131.80332,33.21479],[131.80296,33.21524],[131.80145,33.2167],[131.80043,33.21821],[131.80028,33.21865],[131.80018,33.2194],[131.8003,33.22123],[131.79996,33.22271],[131.79854,33.22646],[131.797,33.22881],[131.79536,33.23339]],[[131.7202,33.24407],[131.72085,33.24375]],[[131.79338,33.11246],[131.79258,33.11255]],[[131.80819,33.11882],[131.8071,33.11831]],[[131.75216,33.23679],[131.75107,33.23665]],[[131.72085,33.24375],[131.72458,33.24196],[131.72735,33.24105],[131.73756,33.23921],[131.73952,33.23877],[131.74106,33.23809],[131.74284,33.23687],[131.74369,33.23639],[131.74468,33.23606],[131.74558,33.23595],[131.74658,33.236],[131.75107,33.23665]],[[131.8071,33.11831],[131.79576,33.11299],[131.79452,33.11257],[131.79338,33.11246]],[[131.78766,33.13588],[131.78756,33.13943],[131.78777,33.14029],[131.78811,33.14094],[131.79544,33.14945],[131.79632,33.15004],[131.79685,33.15029],[131.803,33.15169],[131.80408,33.15209],[131.80983,33.15569],[131.81085,33.15688],[131.81114,33.15769],[131.81119,33.1583]],[[131.79514,33.234],[131.79433,33.23587],[131.79407,33.23636],[131.79375,33.2367],[131.79333,33.23705],[131.79217,33.23766],[131.79072,33.23786],[131.78973,33.23781],[131.78914,33.23766],[131.78269,33.23581],[131.78089,33.23547],[131.77991,33.23537],[131.77819,33.23545],[131.77683,33.23566],[131.76803,33.23822],[131.76585,33.23849],[131.76466,33.23845],[131.75216,33.23679]],[[131.79258,33.11255],[131.79192,33.11276],[131.79125,33.11309],[131.79083,33.11337],[131.79048,33.11373],[131.79008,33.11432],[131.78915,33.1167],[131.78915,33.11728],[131.78927,33.11793],[131.78955,33.1186],[131.79097,33.1202],[131.7913,33.12072],[131.7915,33.12132],[131.79153,33.12234],[131.79142,33.12298],[131.79115,33.12354],[131.79079,33.12404],[131.78866,33.12644],[131.78818,33.12716],[131.78794,33.12777],[131.78777,33.13072],[131.78768,33.13524]],[[131.47583,33.48178],[131.4783,33.48176]],[[131.5186,33.26474],[131.52018,33.26433],[131.52492,33.2634],[131.52619,33.26304],[131.52757,33.26247],[131.52869,33.26189],[131.53043,33.26069],[131.53097,33.26026],[131.53262,33.25865],[131.5334,33.25809],[131.53415,33.25773]],[[131.1731,33.60535],[131.17036,33.60835],[131.16938,33.60922],[131.16711,33.61025],[131.15836,33.61389]],[[131.53006,33.37007],[131.5312,33.37025]],[[131.50066,33.28029],[131.50152,33.28217],[131.50167,33.28313],[131.50047,33.29173],[131.49938,33.3129]],[[131.65536,33.24275],[131.65608,33.24294]],[[131.55707,33.25487],[131.55904,33.25467],[131.56066,33.25422],[131.56319,33.2526],[131.56413,33.25222],[131.56529,33.25188]],[[131.23997,33.58695],[131.23798,33.58848]],[[131.47833,33.48194],[131.48048,33.48176]],[[131.51089,33.26762],[131.51271,33.26694],[131.51568,33.26539],[131.51612,33.26524],[131.5186,33.26474]],[[131.43539,33.50133],[131.43658,33.50062],[131.43973,33.49933],[131.46461,33.49108],[131.46667,33.49037],[131.4681,33.48977],[131.46926,33.48897],[131.46988,33.48839],[131.47105,33.48671],[131.4733,33.48414],[131.47506,33.48282],[131.47617,33.48228]],[[131.51847,33.4381],[131.51903,33.43708],[131.52025,33.43586],[131.5236,33.43318],[131.52562,33.43192],[131.52663,33.43136],[131.52933,33.43028],[131.53119,33.42965],[131.53373,33.42897]],[[131.51016,33.26788],[131.50767,33.26864],[131.50378,33.26902],[131.50257,33.2695],[131.50208,33.26979],[131.5016,33.2702],[131.50115,33.27076],[131.50087,33.27128],[131.49908,33.27599],[131.49913,33.27676],[131.49985,33.27865]],[[131.60731,33.23231],[131.60608,33.23289]],[[131.50251,33.36238],[131.50571,33.36365],[131.52063,33.36908],[131.5236,33.36958],[131.52833,33.36987],[131.53006,33.37007]],[[131.23798,33.58848],[131.23201,33.59298],[131.2313,33.59334],[131.2306,33.59354],[131.22889,33.59362],[131.21771,33.59319],[131.21616,33.59328],[131.21524,33.59354],[131.20942,33.59589],[131.20519,33.59747],[131.20416,33.5976],[131.19762,33.5975],[131.19622,33.59777],[131.19222,33.59885]],[[131.56529,33.25188],[131.56862,33.25152],[131.57101,33.25065]],[[131.57456,33.38321],[131.57626,33.384]],[[131.42854,33.50494],[131.43055,33.50392]],[[131.41278,33.5302],[131.41779,33.51789],[131.41846,33.51665],[131.42132,33.51219],[131.42445,33.50751],[131.42513,33.50683],[131.42557,33.50653],[131.42854,33.50494]],[[131.53519,33.25731],[131.5368,33.25697],[131.53888,33.2568]],[[131.58279,33.24487],[131.5819,33.24559],[131.57984,33.24772],[131.57922,33.24812],[131.57867,33.24835],[131.57652,33.24895],[131.57484,33.24976],[131.57365,33.25021],[131.57101,33.25065]],[[131.49291,33.33148],[131.49283,33.33404],[131.49263,33.33631],[131.49306,33.33979],[131.49314,33.34291],[131.49369,33.34624],[131.49493,33.35042],[131.49631,33.35463],[131.49729,33.35798],[131.49743,33.35878],[131.49802,33.35994],[131.49862,33.36069],[131.49927,33.3611],[131.50031,33.36154]],[[131.26887,33.57195],[131.27348,33.57181],[131.27469,33.57153],[131.27663,33.57064],[131.28815,33.56496],[131.28966,33.56453],[131.29023,33.56444],[131.2917,33.56449]],[[131.54718,33.25466],[131.54801,33.25457],[131.54894,33.25461],[131.55187,33.25497],[131.55707,33.25487]],[[131.68765,33.24278],[131.69442,33.24248],[131.69721,33.24209],[131.70175,33.24192],[131.70275,33.24209],[131.70351,33.24232],[131.71048,33.24563],[131.71177,33.24611],[131.71306,33.24635],[131.71504,33.24625],[131.71593,33.24604],[131.71705,33.24558],[131.7202,33.24407]],[[131.4783,33.48176],[131.48048,33.48176]],[[131.29431,33.56479],[131.31481,33.567],[131.31704,33.567],[131.32145,33.56659]],[[131.50676,33.44817],[131.50916,33.44695],[131.5103,33.44647],[131.51419,33.44526],[131.51488,33.44493],[131.51614,33.44406],[131.51684,33.44341],[131.51726,33.44283],[131.51774,33.44189],[131.51787,33.44152],[131.51826,33.43859],[131.51847,33.4381]],[[131.47617,33.48228],[131.47701,33.48208],[131.47833,33.48194]],[[131.17394,33.60448],[131.1731,33.60535]],[[131.57697,33.41082],[131.57439,33.4112]],[[131.49938,33.3129],[131.49933,33.31363]],[[131.49313,33.33002],[131.49291,33.33148]],[[131.5312,33.37025],[131.53529,33.37094],[131.53619,33.37097],[131.5373,33.37073],[131.54179,33.36939]],[[131.53415,33.25773],[131.53519,33.25731]],[[131.54442,33.36856],[131.54894,33.36727],[131.5521,33.36656],[131.55361,33.3665],[131.55491,33.36678],[131.55575,33.36723],[131.55661,33.36801],[131.56058,33.37432],[131.56177,33.37599],[131.56236,33.37661],[131.56357,33.37723],[131.56601,33.37768],[131.56735,33.37802],[131.56906,33.37877],[131.57022,33.37947],[131.57082,33.37995],[131.57338,33.38253],[131.57456,33.38321]],[[131.60731,33.23231],[131.61225,33.23024]],[[131.61225,33.23024],[131.61393,33.22961],[131.61533,33.22929],[131.61732,33.22927],[131.61926,33.22952]],[[131.61926,33.22952],[131.62099,33.22993],[131.62802,33.23085],[131.62924,33.23114],[131.63031,33.23163],[131.63129,33.23228],[131.63497,33.23516],[131.63752,33.23694]],[[131.38226,33.56512],[131.38323,33.56467],[131.38417,33.56411]],[[131.15836,33.61389],[131.15594,33.61484]],[[131.58351,33.24443],[131.58938,33.24085],[131.59214,33.23942],[131.5971,33.2371],[131.6035,33.23424],[131.60608,33.23289]],[[131.36049,33.5649],[131.3492,33.56429],[131.34641,33.56423],[131.34136,33.56461],[131.32452,33.56629]],[[131.49933,33.31363],[131.49909,33.31806],[131.49888,33.31898],[131.49759,33.32142],[131.49458,33.32669],[131.49342,33.32905],[131.49313,33.33002]],[[131.43539,33.50133],[131.43592,33.50074],[131.43672,33.49956],[131.4371,33.49838],[131.43758,33.49577],[131.43947,33.4929],[131.44082,33.49105],[131.44108,33.49075],[131.44219,33.49015],[131.44345,33.48983],[131.44488,33.48978],[131.44635,33.49024],[131.44834,33.49065],[131.4542,33.49093],[131.45809,33.49051],[131.46274,33.48946],[131.46387,33.48886],[131.46435,33.48847],[131.4671,33.48465],[131.46793,33.48363],[131.46862,33.48291],[131.46927,33.4825],[131.46992,33.48218],[131.47084,33.48191],[131.47236,33.48182],[131.47583,33.48178]],[[131.54718,33.25466],[131.54804,33.25468],[131.54865,33.25479],[131.5492,33.25495],[131.55124,33.2558],[131.55287,33.2561],[131.55341,33.2561],[131.55395,33.25599],[131.55569,33.25524],[131.55707,33.25487]],[[131.53519,33.25731],[131.53692,33.25728],[131.53888,33.2568]],[[131.63818,33.23731],[131.64115,33.23878],[131.64359,33.23968],[131.65536,33.24275]],[[131.58351,33.24443],[131.58279,33.24487]],[[131.18963,33.59954],[131.17642,33.60302],[131.17498,33.60363],[131.17394,33.60448]],[[131.23997,33.58695],[131.24173,33.5854],[131.24258,33.58441],[131.24736,33.5773],[131.24795,33.57674],[131.24878,33.57619],[131.24983,33.57582],[131.26122,33.5725],[131.26349,33.57215],[131.26685,33.57202]],[[131.43055,33.50392],[131.43426,33.502],[131.43539,33.50133]],[[131.57439,33.4112],[131.56632,33.41228],[131.56449,33.41234],[131.55522,33.41226],[131.5537,33.41272],[131.55301,33.41311],[131.55249,33.41355],[131.55183,33.41457],[131.55159,33.41541],[131.55157,33.41679],[131.55148,33.41741],[131.55109,33.41853],[131.55047,33.41956],[131.54937,33.42083],[131.54348,33.42607],[131.54194,33.42716],[131.54075,33.42759],[131.53947,33.4279],[131.5381,33.42795],[131.53762,33.42804],[131.53371,33.42898]],[[131.56529,33.25188],[131.56752,33.25127],[131.56984,33.25076],[131.57101,33.25065]],[[131.49985,33.27865],[131.50066,33.28029]],[[131.19222,33.59885],[131.18963,33.59954]],[[131.2917,33.56449],[131.29431,33.56479]],[[131.51847,33.4381],[131.51896,33.43756],[131.51955,33.4371],[131.5199,33.43687],[131.52073,33.43661],[131.52121,33.43658],[131.5247,33.43681],[131.52814,33.43616],[131.5295,33.43573],[131.53062,33.4349],[131.53103,33.43441],[131.53156,33.43311],[131.53177,33.43157],[131.5322,33.43036],[131.5324,33.43001],[131.53291,33.42944],[131.53373,33.42897]],[[131.32145,33.56659],[131.32452,33.56629]],[[131.63752,33.23694],[131.63818,33.23731]],[[131.54179,33.36939],[131.54442,33.36856]],[[131.48048,33.48176],[131.48475,33.48161],[131.48616,33.48133],[131.48747,33.4808],[131.49424,33.47555],[131.49491,33.47482],[131.49576,33.47337],[131.49715,33.46952],[131.49758,33.46852],[131.49856,33.46688],[131.50036,33.46345],[131.50083,33.46227],[131.50086,33.46166],[131.49951,33.45393],[131.49954,33.45317],[131.49982,33.4524],[131.5002,33.45184],[131.50078,33.45129],[131.50129,33.45095],[131.50471,33.4492]],[[131.36491,33.56516],[131.37846,33.56589],[131.38033,33.56567],[131.38129,33.56547],[131.38226,33.56512]],[[131.51089,33.26762],[131.51016,33.26788]],[[131.50676,33.44817],[131.50471,33.4492]],[[131.50031,33.36154],[131.50251,33.36238]],[[131.57626,33.384],[131.57907,33.38527],[131.57971,33.38572],[131.5805,33.38667],[131.58098,33.38769],[131.5813,33.38876],[131.58133,33.38927],[131.58117,33.39134],[131.5813,33.39234],[131.5814,33.3926],[131.58187,33.39322],[131.58452,33.39548],[131.58496,33.39598],[131.58516,33.39634],[131.58557,33.39789],[131.58583,33.40138],[131.58568,33.40215],[131.58543,33.40286],[131.5838,33.40443],[131.58295,33.4059],[131.58258,33.40689],[131.58237,33.40817],[131.58205,33.40886],[131.58159,33.4094],[131.581,33.40986],[131.57997,33.41031],[131.57865,33.41061],[131.57697,33.41082]],[[131.41184,33.53269],[131.41278,33.5302]],[[131.5186,33.26474],[131.52224,33.26481],[131.52397,33.26503],[131.52508,33.26483],[131.52577,33.26454],[131.52818,33.26319],[131.52869,33.26272],[131.52967,33.2616],[131.53165,33.25999],[131.53415,33.25773]],[[131.53888,33.2568],[131.54088,33.25669],[131.54242,33.25647],[131.54343,33.25612],[131.54552,33.25506],[131.54619,33.25483],[131.54718,33.25466]],[[131.65608,33.24294],[131.65931,33.2437],[131.66007,33.24382],[131.66142,33.24389],[131.6862,33.24285]],[[131.6862,33.24285],[131.68765,33.24278]],[[131.26685,33.57202],[131.26887,33.57195]],[[131.36491,33.56516],[131.36049,33.5649]],[[131.38417,33.56411],[131.38529,33.56304],[131.39078,33.55726],[131.39176,33.55592],[131.39222,33.55475],[131.39429,33.54606],[131.39486,33.54461],[131.39541,33.54384],[131.3962,33.54307],[131.39672,33.54273],[131.40179,33.54001],[131.40315,33.53944],[131.40717,33.53839],[131.40785,33.53811],[131.40905,33.53739],[131.40976,33.53675],[131.41013,33.53626],[131.41184,33.53269]],[[130.9053,33.84378],[130.90357,33.84423]],[[130.86589,33.86939],[130.86683,33.86905],[130.86775,33.86883],[130.87168,33.86858],[130.87357,33.86793],[130.87413,33.86754],[130.87493,33.86667],[130.87618,33.86503],[130.87688,33.86427],[130.87749,33.86376],[130.88512,33.85885]],[[130.881,33.88703],[130.87942,33.88746],[130.87528,33.8883]],[[130.8638,33.87083],[130.86476,33.87009],[130.86589,33.86939]],[[130.87309,33.88865],[130.87207,33.88863],[130.87107,33.88836],[130.86924,33.88761],[130.86835,33.88697],[130.86604,33.88379],[130.86513,33.88218],[130.86457,33.88137],[130.86314,33.8794],[130.8621,33.87823],[130.86184,33.87783],[130.86156,33.87694],[130.86155,33.87602],[130.86162,33.8756],[130.86281,33.87219],[130.86311,33.87166],[130.8638,33.87083]],[[130.87528,33.8883],[130.87419,33.88853],[130.87309,33.88865]],[[130.88477,33.88605],[130.88303,33.88659],[130.881,33.88703]],[[130.95408,33.80856],[130.95236,33.81077],[130.94446,33.82441],[130.94381,33.82535],[130.94282,33.82625],[130.93737,33.82988],[130.93595,33.83109]],[[130.90357,33.84423],[130.90093,33.84495],[130.89972,33.8455],[130.89881,33.84623],[130.89805,33.84721],[130.89525,33.85177],[130.8948,33.85236],[130.89381,33.8533],[130.89317,33.85376],[130.89015,33.85566]],[[130.93595,33.83109],[130.93385,33.83326]],[[130.93385,33.83326],[130.93012,33.83683],[130.92888,33.83755],[130.92815,33.83786],[130.9053,33.84378]],[[130.88762,33.85724],[130.89015,33.85566]],[[130.88762,33.85724],[130.88512,33.85885]],[[131.12804,33.62127],[131.12492,33.6213]],[[131.09634,33.62189],[131.09439,33.623]],[[131.00761,33.69586],[131.00906,33.69439]],[[131.00906,33.69439],[131.01935,33.68441],[131.01987,33.68382],[131.02019,33.68333],[131.02057,33.6825],[131.0215,33.67903],[131.02225,33.67789],[131.02337,33.67688],[131.02466,33.67618],[131.02649,33.67567],[131.03168,33.67545],[131.03286,33.67523],[131.03376,33.67493],[131.0367,33.67364]],[[131.03923,33.67253],[131.04193,33.67134],[131.04358,33.67039],[131.04522,33.66913],[131.04954,33.66539],[131.05036,33.66442],[131.05069,33.66384],[131.05102,33.66302],[131.05188,33.66031],[131.05264,33.65887],[131.0533,33.658],[131.05702,33.65433]],[[131.09439,33.623],[131.09035,33.6253],[131.0721,33.63707],[131.07018,33.63953],[131.06523,33.64632],[131.06431,33.64731],[131.06244,33.649],[131.0588,33.65255]],[[130.97206,33.75382],[130.97272,33.75652],[130.97548,33.76596],[130.97641,33.77358],[130.97656,33.77419],[130.97708,33.77556],[130.97899,33.77945],[130.97916,33.77994],[130.97927,33.78045],[130.97931,33.78139],[130.97888,33.784]],[[130.97854,33.78625],[130.97795,33.79002],[130.9773,33.79147],[130.97657,33.79241],[130.96923,33.79803],[130.96808,33.79855],[130.96694,33.79889],[130.96395,33.79952],[130.96264,33.80022],[130.96059,33.80159],[130.95945,33.80237],[130.9584,33.80328],[130.95551,33.8068]],[[130.95551,33.8068],[130.95408,33.80856]],[[131.15594,33.61484],[131.14779,33.61816],[131.14646,33.61863],[131.14223,33.61983],[131.13665,33.62112],[131.13464,33.62124],[131.12804,33.62127]],[[130.97145,33.75145],[130.97206,33.75382]],[[130.98195,33.71588],[130.98737,33.71278],[130.99361,33.70822],[130.99787,33.70583],[130.99952,33.7043],[131.00761,33.69586]],[[130.98047,33.71674],[130.97476,33.72003],[130.97386,33.72083],[130.97355,33.72128]],[[130.97355,33.72128],[130.972,33.72499],[130.97074,33.72759]],[[130.98195,33.71588],[130.98047,33.71674]],[[131.0588,33.65255],[131.05702,33.65433]],[[131.0367,33.67364],[131.03923,33.67253]],[[130.96977,33.72991],[130.96906,33.73177],[130.96866,33.73306],[130.96841,33.73443],[130.96841,33.73532],[130.97145,33.75145]],[[130.97888,33.784],[130.97854,33.78625]],[[131.12492,33.6213],[131.12166,33.62134],[131.12068,33.62128],[131.11954,33.62104],[131.11866,33.62056],[131.11462,33.61763],[131.11405,33.61729],[131.11278,33.61681],[131.11214,33.61666],[131.11064,33.61652],[131.10371,33.61682],[131.1024,33.61702],[131.10097,33.61749],[131.1001,33.61802],[131.09972,33.61836],[131.0972,33.62121],[131.09686,33.62155],[131.09634,33.62189]],[[130.97074,33.72759],[130.96977,33.72991]],[[131.85442,33.07736],[131.85705,33.07665],[131.85784,33.07635],[131.86113,33.07412],[131.86262,33.07325]],[[131.60276,32.3265],[131.60449,32.32866],[131.60542,32.33],[131.60573,32.3309],[131.60596,32.3321],[131.60664,32.33741],[131.60694,32.33803],[131.60749,32.33886],[131.60821,32.33957],[131.60923,32.34028],[131.61002,32.34064],[131.61161,32.34104],[131.61366,32.34139],[131.61453,32.34148],[131.61546,32.34145],[131.61855,32.34087],[131.61979,32.34096],[131.6206,32.34115],[131.62232,32.34194],[131.62365,32.34273],[131.62464,32.34356],[131.62515,32.34433],[131.62542,32.34528],[131.62545,32.34607],[131.6253,32.34671],[131.62516,32.34707],[131.62102,32.3537],[131.62052,32.35505],[131.62022,32.35618],[131.62006,32.35767],[131.62014,32.35894],[131.62109,32.36312],[131.62146,32.36396],[131.62296,32.36564],[131.62751,32.36966]],[[131.91937,33.04387],[131.91984,33.04437],[131.92117,33.04522],[131.92363,33.0458],[131.92448,33.04617],[131.92504,33.04662],[131.92617,33.0485],[131.92722,33.05113],[131.92793,33.05258],[131.92841,33.05313],[131.93109,33.05523],[131.93168,33.05617],[131.93193,33.05705],[131.93201,33.0577],[131.93196,33.05831],[131.93173,33.05888],[131.93127,33.05951],[131.927,33.06348],[131.92621,33.06435],[131.92525,33.06498],[131.92379,33.06567]],[[131.5818,32.28977],[131.57663,32.27922],[131.57283,32.26055],[131.57235,32.25946],[131.5703,32.25641],[131.56951,32.25497],[131.56892,32.25345],[131.5685,32.25142]],[[131.70667,32.78599],[131.7067,32.78423],[131.70632,32.78314],[131.70598,32.78259],[131.70557,32.78212],[131.70367,32.78038],[131.69933,32.77835],[131.69826,32.77779],[131.69796,32.77755],[131.69763,32.77721],[131.69661,32.77581],[131.69559,32.77493],[131.69535,32.77463],[131.69456,32.77342],[131.6944,32.77302],[131.69434,32.77255],[131.69449,32.77115],[131.69478,32.7703],[131.69567,32.76948],[131.69651,32.76835],[131.69727,32.76411],[131.69749,32.76355],[131.69809,32.76298],[131.69936,32.7622],[131.69973,32.76183],[131.70026,32.76062],[131.70174,32.75861],[131.7024,32.75721],[131.70335,32.75558],[131.70364,32.75475],[131.70444,32.7534],[131.70543,32.75005],[131.70535,32.74932],[131.70466,32.74731],[131.70462,32.74697],[131.70472,32.74598],[131.70493,32.74534],[131.7055,32.74453],[131.70609,32.74405],[131.70648,32.74384],[131.70803,32.74337],[131.70889,32.74283],[131.70924,32.74246],[131.70957,32.74177],[131.70966,32.7412],[131.70937,32.73935],[131.70941,32.73868],[131.70955,32.73819],[131.71005,32.73738],[131.71117,32.73632],[131.71168,32.73572],[131.7121,32.73505],[131.71232,32.73451],[131.71235,32.73397],[131.71223,32.73353],[131.71159,32.73282],[131.71109,32.73203],[131.71063,32.73066],[131.71024,32.72894]],[[131.6977,32.68987],[131.69783,32.68749],[131.69814,32.68621],[131.69869,32.68461],[131.69821,32.68326],[131.69808,32.68146],[131.69811,32.68075],[131.6985,32.67968],[131.69957,32.67803],[131.70041,32.67704],[131.7014,32.67638],[131.70242,32.67588],[131.70384,32.67546],[131.70478,32.67494],[131.70545,32.67431],[131.70571,32.67347],[131.70572,32.67293],[131.70553,32.67207],[131.70372,32.66706],[131.70307,32.66619],[131.70067,32.66457]],[[131.67253,32.59085],[131.6725,32.58967],[131.6726,32.58907]],[[131.6977,32.68987],[131.69762,32.69099]],[[131.8082,32.92872],[131.80729,32.9277]],[[131.86092,32.95596],[131.85869,32.95496],[131.85669,32.95424],[131.85546,32.95408],[131.85321,32.95423],[131.8521,32.95409],[131.85071,32.95378],[131.84862,32.95316],[131.84664,32.95243],[131.84543,32.95185],[131.84436,32.95119],[131.84226,32.94969],[131.83969,32.94741],[131.83132,32.93814],[131.83031,32.93734],[131.82932,32.93679],[131.82829,32.93635],[131.82731,32.93576],[131.8261,32.93471],[131.82501,32.93357],[131.82412,32.93297],[131.82362,32.93281],[131.82252,32.93264],[131.81798,32.93254],[131.81192,32.93188],[131.81134,32.93163],[131.81056,32.93112],[131.80965,32.93031],[131.8082,32.92872]],[[131.53362,32.12158],[131.53425,32.12373]],[[131.5025,32.07298],[131.50687,32.07627],[131.50741,32.07679],[131.50845,32.07818],[131.52063,32.09861],[131.5325,32.11877],[131.53286,32.11953],[131.53362,32.12158]],[[131.5025,32.07298],[131.50069,32.07164]],[[131.60276,32.3265],[131.60186,32.32534]],[[131.71027,32.72762],[131.71024,32.72894]],[[131.86262,33.07325],[131.86322,33.07301]],[[131.86227,32.95656],[131.86092,32.95596]],[[131.91905,33.04327],[131.91892,33.0429],[131.91884,33.04214],[131.91891,33.03973],[131.91917,33.03756],[131.91971,33.03458],[131.91937,33.03343],[131.91842,33.03196],[131.91836,33.03171],[131.91824,33.03073],[131.91842,33.0274],[131.9182,33.02656],[131.91781,33.02592],[131.91726,33.02531],[131.91445,33.02266],[131.91335,33.02188],[131.91252,33.0214],[131.91155,33.0205],[131.91068,33.01954],[131.90973,33.01802],[131.9092,33.0175],[131.90847,33.0171],[131.90609,33.01626],[131.9051,33.01562]],[[131.85767,33.07903],[131.85497,33.07856],[131.85343,33.07794],[131.85298,33.07788]],[[131.9051,33.01562],[131.90453,33.01511]],[[131.85298,33.07788],[131.85404,33.07756],[131.85442,33.07736]],[[131.70666,32.78669],[131.70667,32.78599]],[[131.67599,32.50838],[131.67946,32.51062],[131.68086,32.51173],[131.68182,32.51287],[131.6821,32.51354],[131.68222,32.51429],[131.68218,32.51707],[131.68225,32.51779],[131.68305,32.51996],[131.68315,32.52098],[131.68299,32.52207],[131.68143,32.52815]],[[131.80729,32.9277],[131.80596,32.92625],[131.8051,32.92551],[131.80431,32.92513],[131.80326,32.92487],[131.80277,32.92461],[131.8022,32.92409],[131.80189,32.92352],[131.80162,32.92239],[131.80149,32.9207],[131.80153,32.92005],[131.80222,32.91815],[131.80224,32.91784],[131.80192,32.9131],[131.80167,32.91202],[131.80107,32.91041],[131.79955,32.90797],[131.7992,32.90761],[131.79821,32.90697],[131.79566,32.90596],[131.79475,32.90538],[131.79441,32.90499],[131.79369,32.90367],[131.79289,32.9026],[131.79059,32.89986],[131.78995,32.89935],[131.78826,32.8991],[131.78469,32.90013],[131.78329,32.90038],[131.78257,32.9004],[131.78198,32.90032],[131.78134,32.90005],[131.78019,32.8993],[131.77975,32.89892]],[[131.69762,32.69099],[131.6976,32.69312],[131.69778,32.69421],[131.69798,32.69459],[131.70021,32.69738],[131.70055,32.69807],[131.70078,32.69895],[131.7008,32.6996],[131.7003,32.7015],[131.70028,32.70202],[131.70036,32.70236],[131.70141,32.70464],[131.70238,32.70605],[131.70423,32.70813],[131.7045,32.70872],[131.70449,32.70944],[131.70365,32.71236],[131.70278,32.7142],[131.7027,32.71512],[131.70279,32.71562],[131.70325,32.71648],[131.70355,32.71687],[131.70426,32.71741],[131.70622,32.71865],[131.70668,32.71912],[131.70765,32.7207],[131.70935,32.72216],[131.70975,32.7227],[131.71023,32.72389],[131.71043,32.72466],[131.7105,32.72602],[131.71027,32.72762]],[[131.69072,32.63156],[131.68964,32.63017]],[[131.6726,32.58907],[131.6731,32.58675],[131.67617,32.5787],[131.67644,32.57735],[131.67739,32.56995],[131.6774,32.56856],[131.67694,32.56067]],[[131.62763,32.40553],[131.62762,32.40617]],[[131.91903,33.0662],[131.92033,33.06617],[131.92205,33.06601],[131.92379,33.06567]],[[131.92379,33.06567],[131.92254,33.06607],[131.92058,33.06638],[131.91977,33.06642],[131.91903,33.0662]],[[131.55339,32.19266],[131.55363,32.1939],[131.55379,32.19663],[131.55404,32.19767],[131.55651,32.20297],[131.55767,32.20611],[131.56226,32.21702],[131.56518,32.22314],[131.56609,32.22573],[131.5665,32.22747],[131.56686,32.22852],[131.56731,32.2294],[131.56976,32.2329],[131.57035,32.23414],[131.57044,32.23474],[131.5704,32.23547],[131.56834,32.24848],[131.5683,32.24932],[131.56841,32.25074]],[[131.58227,32.29073],[131.5818,32.28977]],[[131.65442,32.47796],[131.65707,32.48147],[131.66122,32.48562],[131.66226,32.48711],[131.6625,32.48766],[131.66263,32.48826],[131.66268,32.48927],[131.66273,32.49345],[131.66199,32.49605],[131.66191,32.4968],[131.66199,32.49759],[131.66227,32.49894],[131.66257,32.50002],[131.66297,32.50097],[131.66351,32.5016],[131.66411,32.50204],[131.66547,32.50264],[131.66769,32.50334],[131.66918,32.50404],[131.67426,32.50728]],[[131.65442,32.47796],[131.65379,32.47712]],[[131.53425,32.12373],[131.53714,32.13685],[131.54263,32.15717],[131.5449,32.16367],[131.54575,32.16774],[131.54641,32.16943],[131.54748,32.17092],[131.54954,32.17423],[131.55015,32.17555],[131.55075,32.1774],[131.5512,32.17948],[131.55156,32.18606],[131.55175,32.18738],[131.55223,32.18915],[131.55322,32.19206]],[[131.67426,32.50728],[131.67599,32.50838]],[[131.67283,32.59266],[131.67258,32.59171],[131.67253,32.59085]],[[131.62784,32.42687],[131.62782,32.42497]],[[131.86262,33.07325],[131.86308,33.07285],[131.8639,33.07262],[131.8648,33.0726],[131.86535,33.07275]],[[131.70666,32.78669],[131.70672,32.78822],[131.70693,32.7892],[131.7073,32.79019],[131.70766,32.79083],[131.70814,32.79144],[131.70864,32.79187],[131.7108,32.79315],[131.71136,32.79338],[131.71399,32.79403],[131.71501,32.79463],[131.71603,32.79551],[131.71654,32.79626],[131.71691,32.79698],[131.71716,32.79787],[131.7173,32.79922],[131.71741,32.7995],[131.71767,32.80006],[131.71853,32.80125],[131.7188,32.80195],[131.71863,32.80279],[131.71769,32.80424],[131.71752,32.80471],[131.71738,32.80763],[131.71721,32.80822],[131.71676,32.8092],[131.71664,32.80968],[131.71653,32.81202],[131.71612,32.81324],[131.71609,32.81359],[131.71611,32.81413],[131.71642,32.81529],[131.71749,32.81753],[131.71756,32.81812],[131.7175,32.81849],[131.71738,32.81889],[131.71717,32.81924],[131.7163,32.82024],[131.71556,32.82138],[131.71478,32.82333],[131.71462,32.82426],[131.71477,32.82519],[131.71529,32.82649],[131.7154,32.8272],[131.71504,32.83135],[131.71529,32.83312],[131.71561,32.8346],[131.71593,32.83549],[131.71669,32.83712],[131.71664,32.83746],[131.71569,32.83996]],[[131.62751,32.36966],[131.62811,32.37017]],[[131.77975,32.89892],[131.77928,32.89841]],[[131.71569,32.83996],[131.7155,32.84065]],[[131.60186,32.32534],[131.59505,32.31659],[131.59445,32.31558],[131.59213,32.31048],[131.59098,32.3084],[131.58227,32.29073]],[[131.68143,32.52815],[131.68125,32.52879]],[[131.86322,33.07301],[131.86421,33.07277]],[[131.62782,32.42497],[131.62769,32.42128],[131.62762,32.40617]],[[131.91835,33.06606],[131.91903,33.0662]],[[131.70067,32.66457],[131.69961,32.66389]],[[131.62811,32.37017],[131.62958,32.37156],[131.63014,32.37236],[131.63035,32.37295],[131.63043,32.37387],[131.63031,32.37461],[131.62993,32.37538],[131.62962,32.37586],[131.62908,32.37646],[131.6281,32.37723],[131.62758,32.37777],[131.62703,32.37877],[131.62685,32.37955],[131.62688,32.3816],[131.62728,32.38914],[131.62748,32.39102],[131.62763,32.40553]],[[131.86535,33.07275],[131.86632,33.07297],[131.86697,33.07329],[131.86986,33.0755],[131.87054,33.07588],[131.87218,33.0762],[131.87569,33.07664],[131.87801,33.07626],[131.87835,33.07614],[131.87918,33.07564],[131.88085,33.07441],[131.88175,33.07398],[131.88946,33.0708],[131.89351,33.0695],[131.89491,33.06929],[131.90644,33.06857],[131.90811,33.06839],[131.9088,33.06818],[131.91138,33.06651],[131.91271,33.0661],[131.9171,33.06585],[131.91835,33.06606]],[[131.68125,32.52879],[131.67641,32.54756],[131.6763,32.54871],[131.67632,32.55002],[131.67683,32.5586]],[[131.90149,32.97359],[131.9011,32.97449],[131.90054,32.9753],[131.90008,32.97566],[131.89718,32.97749],[131.89617,32.97829],[131.89416,32.98126],[131.88965,32.98829],[131.88855,32.99031],[131.88821,32.99135],[131.88798,32.99259],[131.88794,32.99563]],[[131.88794,32.99563],[131.88792,32.99653]],[[131.86421,33.07277],[131.86535,33.07275]],[[131.7155,32.84065],[131.71547,32.84114],[131.71573,32.8421],[131.71633,32.84352],[131.71695,32.84451],[131.71735,32.84498],[131.71822,32.84566],[131.7196,32.84631],[131.7199,32.8464],[131.72069,32.84645],[131.72446,32.8465],[131.725,32.84662],[131.72687,32.84734],[131.73151,32.84791],[131.73266,32.84842],[131.7333,32.84906],[131.73384,32.84976],[131.73432,32.85007],[131.738,32.85114],[131.74094,32.85146],[131.74171,32.85144],[131.74413,32.85061],[131.74535,32.85034],[131.74622,32.85038],[131.74654,32.85047],[131.74782,32.85111],[131.74821,32.85158],[131.74844,32.85256],[131.74863,32.85421],[131.74857,32.85549],[131.74838,32.85603],[131.74802,32.85664],[131.7468,32.85789],[131.74621,32.85872],[131.74602,32.85914],[131.74597,32.85997],[131.74606,32.86039],[131.74644,32.86132],[131.74701,32.86223],[131.74758,32.86275],[131.74874,32.86328],[131.74918,32.86366],[131.74985,32.86449],[131.75028,32.86573],[131.75067,32.86804],[131.75153,32.86964],[131.75162,32.86994],[131.75166,32.87022],[131.75151,32.8717],[131.75153,32.87216],[131.75167,32.87283],[131.75201,32.87349],[131.75492,32.87636],[131.75587,32.87717],[131.75741,32.87815],[131.75985,32.879],[131.76062,32.87954],[131.76104,32.87999],[131.76132,32.88038],[131.76162,32.8813],[131.76198,32.88524],[131.76259,32.88692],[131.76346,32.88889],[131.76398,32.88967],[131.76609,32.89137],[131.76649,32.89179],[131.76711,32.89284],[131.76736,32.89312],[131.76772,32.89338],[131.76853,32.89375],[131.77095,32.89482],[131.77164,32.89502],[131.77268,32.8951],[131.77433,32.89466],[131.77499,32.89456],[131.77561,32.89457],[131.77664,32.89488],[131.77715,32.89512],[131.77757,32.89545],[131.77795,32.89594],[131.7786,32.89731],[131.77928,32.89841]],[[131.80819,33.11882],[131.811,33.12012],[131.81197,33.12046],[131.81811,33.12138],[131.82035,33.122],[131.82155,33.12208],[131.82221,33.122],[131.82283,33.12177],[131.82858,33.11896],[131.83486,33.11746],[131.83624,33.1166],[131.83714,33.11569],[131.83736,33.11537],[131.83763,33.11455],[131.83764,33.11404],[131.83761,33.11351],[131.8375,33.11314],[131.83646,33.11157],[131.83611,33.11077],[131.83602,33.10987],[131.83632,33.10873],[131.84367,33.09566],[131.84448,33.09455],[131.84622,33.09249],[131.8465,33.09177],[131.8467,33.09093],[131.84648,33.08971],[131.8459,33.08887],[131.84161,33.08603],[131.84067,33.0851],[131.84023,33.08422],[131.84015,33.08381],[131.84018,33.08295],[131.84049,33.0821],[131.84069,33.08177],[131.8412,33.08123],[131.84244,33.08051],[131.85442,33.07736]],[[131.65379,32.47712],[131.64989,32.472],[131.64797,32.47047],[131.64741,32.46985],[131.64521,32.46622],[131.64495,32.46534],[131.64491,32.46438],[131.6455,32.46172],[131.64543,32.46032],[131.64505,32.45894],[131.64464,32.4578],[131.64407,32.45657],[131.64364,32.45591],[131.63961,32.45061],[131.63897,32.45003],[131.63783,32.44942],[131.63157,32.44666],[131.63082,32.44609],[131.63034,32.44553],[131.62694,32.43997],[131.62679,32.43918],[131.62679,32.43838],[131.62721,32.43653],[131.62741,32.43487],[131.62778,32.42911],[131.62784,32.42687]],[[131.90214,32.9717],[131.90149,32.97359]],[[131.56841,32.25074],[131.5685,32.25142]],[[131.91937,33.04387],[131.91905,33.04327]],[[131.88792,32.99653],[131.88804,32.99813],[131.88856,32.99985],[131.88979,33.00338],[131.89057,33.00507],[131.89091,33.00547],[131.89179,33.00632],[131.89229,33.00666],[131.8933,33.00712],[131.89444,33.0075],[131.89819,33.00851],[131.89892,33.00879],[131.89934,33.00905],[131.90011,33.00983],[131.90453,33.01511]],[[131.67683,32.5586],[131.67694,32.56067]],[[131.69961,32.66389],[131.69727,32.66232],[131.69391,32.66083],[131.6925,32.66003],[131.69203,32.65962],[131.69057,32.65803],[131.68854,32.65637],[131.68811,32.65564],[131.68802,32.65533],[131.68795,32.65469],[131.6881,32.65388],[131.68847,32.65329],[131.6893,32.65231],[131.68989,32.6514],[131.69019,32.65054],[131.6902,32.65002],[131.69011,32.64955],[131.68991,32.64913],[131.68888,32.64798],[131.6879,32.64652],[131.6875,32.64543],[131.68727,32.64434],[131.68726,32.64337],[131.6876,32.64078],[131.68795,32.63981],[131.68845,32.63921],[131.68936,32.63852],[131.69022,32.63763],[131.69125,32.63677],[131.69186,32.63592],[131.69231,32.63496],[131.69233,32.63412],[131.69215,32.63352],[131.69174,32.63285],[131.69072,32.63156]],[[131.84785,33.07932],[131.85298,33.07788]],[[131.55322,32.19206],[131.55339,32.19266]],[[131.86227,32.95656],[131.87125,32.96049],[131.87226,32.96083],[131.88563,32.96242],[131.88635,32.96262],[131.89166,32.96503],[131.8923,32.96514],[131.89671,32.96526],[131.89769,32.96537],[131.90092,32.96679],[131.90149,32.96724],[131.90197,32.9678],[131.90226,32.96838],[131.90254,32.96941],[131.90242,32.97093],[131.90214,32.9717]],[[131.68964,32.63017],[131.68681,32.62517],[131.6853,32.62412],[131.68496,32.62376],[131.68442,32.62297],[131.68414,32.62217],[131.68396,32.62087],[131.68372,32.62019],[131.6834,32.61946],[131.68205,32.61734],[131.68156,32.61629],[131.6788,32.60714],[131.6787,32.60652],[131.67891,32.60341],[131.67882,32.60255],[131.67872,32.60227],[131.67844,32.60175],[131.67396,32.59524],[131.67356,32.5945],[131.67283,32.59266]],[[131.03461,31.71824],[131.0332,31.71872]],[[131.45858,31.99169],[131.47031,32.00251],[131.47142,32.00371],[131.47604,32.01007],[131.47637,32.01065],[131.4765,32.01122],[131.47693,32.0173],[131.47734,32.02172]],[[131.44314,31.96044],[131.44232,31.95971]],[[131.38844,31.85806],[131.38935,31.85973]],[[130.96055,31.74474],[130.95951,31.74522]],[[131.45718,31.99041],[131.45568,31.98904],[131.45474,31.98803],[131.45409,31.98697],[131.45356,31.98559],[131.45137,31.96924],[131.45122,31.9684],[131.45098,31.96777],[131.4506,31.96717],[131.45033,31.96689],[131.44314,31.96044]],[[131.11862,31.73342],[131.11648,31.73298],[131.11512,31.73295],[131.10102,31.73518],[131.0964,31.7355],[131.07492,31.73656]],[[130.87382,31.7824],[130.87245,31.78313],[130.87199,31.78366],[130.87166,31.78445],[130.8716,31.78481],[130.87176,31.786],[130.8724,31.78795],[130.87249,31.78843],[130.87252,31.78965],[130.87236,31.7908],[130.87221,31.79117],[130.8718,31.79173],[130.87137,31.79204],[130.87033,31.79258],[130.86643,31.79436],[130.86478,31.79537],[130.86391,31.79565],[130.86168,31.7961],[130.85994,31.79687],[130.85532,31.79948],[130.85456,31.79998],[130.8538,31.80058],[130.85254,31.80215],[130.84915,31.8042],[130.84837,31.80446],[130.84549,31.80474],[130.84482,31.80495],[130.84419,31.80533],[130.84214,31.80763],[130.84034,31.81034],[130.83982,31.81161],[130.83905,31.81569],[130.83885,31.81617],[130.83834,31.81696],[130.83762,31.81772]],[[131.38935,31.85973],[131.39203,31.86472],[131.39248,31.86608],[131.39265,31.867],[131.39273,31.86847],[131.39286,31.86901],[131.39304,31.86948],[131.39338,31.87003],[131.39377,31.87042],[131.3942,31.87079],[131.39479,31.87113],[131.39565,31.87148],[131.39912,31.87194],[131.40014,31.87228],[131.40594,31.87591]],[[130.67181,31.73905],[130.66954,31.73945]],[[130.83762,31.81772],[130.8363,31.81869]],[[131.21869,31.82782],[131.21762,31.82793]],[[131.05729,31.72426],[131.05671,31.7224]],[[131.50069,32.07164],[131.47723,32.05412],[131.47636,32.05338],[131.47564,32.05258],[131.47474,32.05106],[131.47182,32.04343],[131.47155,32.0423],[131.4715,32.04159],[131.47156,32.04072],[131.47178,32.03971],[131.47214,32.03872],[131.47669,32.02753],[131.47738,32.02567],[131.47753,32.02502],[131.4775,32.02333]],[[131.06866,31.73689],[131.06746,31.7366],[131.06697,31.73639],[131.0662,31.7359],[131.05937,31.72917],[131.0589,31.72859],[131.05833,31.7276],[131.05729,31.72426]],[[131.0731,31.73664],[131.06866,31.73689]],[[131.30501,31.83793],[131.30355,31.83885]],[[131.45858,31.99169],[131.45718,31.99041]],[[131.30355,31.83885],[131.2915,31.84649],[131.29045,31.84688],[131.28902,31.8469],[131.28296,31.84565],[131.28089,31.84515],[131.27846,31.84436],[131.27738,31.8443],[131.2766,31.8445],[131.27576,31.84497],[131.27536,31.84531],[131.27478,31.84609],[131.27429,31.84723],[131.2738,31.848],[131.27171,31.84989],[131.27138,31.85041],[131.27005,31.85358],[131.26959,31.85429],[131.26894,31.85483],[131.26833,31.85514],[131.26734,31.85538],[131.2664,31.85532],[131.2656,31.85504],[131.26468,31.85454],[131.26398,31.854],[131.263,31.85302],[131.26207,31.85169],[131.26146,31.85065],[131.26101,31.84964],[131.25963,31.84538],[131.25839,31.84332],[131.25757,31.84175],[131.25757,31.84023],[131.25723,31.83882],[131.25684,31.83824],[131.25556,31.83712],[131.25484,31.83633],[131.25371,31.83552],[131.25269,31.83509],[131.25201,31.83491],[131.25047,31.83483],[131.24872,31.83487],[131.24831,31.83495],[131.24632,31.83583],[131.2458,31.83616],[131.24494,31.83676],[131.24249,31.83881],[131.24207,31.83896],[131.24114,31.83909],[131.24004,31.83913],[131.23922,31.83903],[131.23849,31.83877],[131.23746,31.83821],[131.2319,31.83407],[131.23053,31.83339],[131.22893,31.83278],[131.22761,31.83183],[131.22698,31.83029],[131.22621,31.82935],[131.22568,31.8289],[131.22494,31.82857],[131.22432,31.82844],[131.22241,31.8283],[131.21998,31.8278],[131.21924,31.82776],[131.21869,31.82782]],[[130.74379,31.747],[130.74104,31.7445]],[[130.76228,31.74308],[130.76072,31.74258],[130.75914,31.74235],[130.75758,31.7424],[130.75651,31.74256],[130.75508,31.74297],[130.75372,31.74364],[130.75117,31.74545],[130.749,31.74712],[130.74794,31.74762],[130.74723,31.74785],[130.74606,31.74787],[130.7451,31.74764],[130.74379,31.747]],[[130.66954,31.73945],[130.66873,31.73958],[130.66537,31.73977],[130.66208,31.73981],[130.66117,31.73973],[130.65395,31.73713]],[[130.74104,31.7445],[130.73938,31.74303]],[[131.0332,31.71872],[131.00323,31.72862],[131.00182,31.72888],[130.99996,31.72899],[130.99243,31.72879]],[[131.43212,31.91495],[131.43189,31.91668]],[[131.21762,31.82793],[131.21677,31.8283],[131.21536,31.82925],[131.21462,31.82956],[131.21373,31.8297],[131.21322,31.82968],[131.21222,31.82949],[131.20749,31.8279],[131.20003,31.82523],[131.19729,31.82437],[131.19356,31.82252],[131.19161,31.8218],[131.19034,31.8211],[131.18993,31.82076],[131.18951,31.82016],[131.18934,31.81967],[131.18931,31.81924],[131.18942,31.81831],[131.19029,31.81539],[131.1901,31.81314],[131.19065,31.8108],[131.19065,31.81035],[131.19039,31.8086],[131.19015,31.80813],[131.18973,31.8077],[131.18855,31.80697],[131.18799,31.80681],[131.18731,31.80678],[131.18682,31.80682],[131.18613,31.807],[131.18527,31.8074],[131.18448,31.80788],[131.18193,31.80956],[131.1811,31.8099],[131.18034,31.8101],[131.17704,31.8106],[131.17504,31.81058],[131.17373,31.81046],[131.17276,31.81026],[131.17215,31.81005],[131.17143,31.80968],[131.17065,31.80903],[131.16863,31.80659],[131.15461,31.78823],[131.15378,31.78677],[131.15352,31.78588],[131.15294,31.78313]],[[131.07492,31.73656],[131.0731,31.73664]],[[131.40594,31.87591],[131.40711,31.87662]],[[131.15294,31.78313],[131.15268,31.78196]],[[130.8363,31.81869],[130.83564,31.81903],[130.83507,31.81922],[130.83417,31.8193],[130.8328,31.81906],[130.83177,31.81871],[130.83041,31.81793],[130.82805,31.81624],[130.8218,31.81262],[130.82069,31.81211],[130.8197,31.81181],[130.81836,31.81159],[130.81652,31.81155],[130.81537,31.81174],[130.81168,31.81263],[130.81092,31.81271],[130.81033,31.81267],[130.80957,31.81228],[130.80862,31.81156],[130.80325,31.80644],[130.80254,31.80587],[130.80223,31.80571],[130.7979,31.80448],[130.79678,31.80429],[130.79597,31.80439],[130.79363,31.80496],[130.79244,31.80498],[130.79188,31.80486],[130.78694,31.80325],[130.78627,31.80297],[130.78583,31.8026],[130.78552,31.8022],[130.77644,31.78633],[130.7762,31.78455],[130.77626,31.78397],[130.77693,31.78205],[130.77696,31.78163],[130.77676,31.78084],[130.77529,31.77698],[130.77479,31.77608],[130.77401,31.77515],[130.77211,31.77349],[130.7717,31.77302],[130.77137,31.77241],[130.76898,31.7639],[130.76892,31.76333],[130.76899,31.76293],[130.76997,31.7613],[130.77025,31.76053],[130.77023,31.75989],[130.77011,31.75944],[130.76926,31.75757],[130.76913,31.7569],[130.76914,31.75589],[130.76927,31.75476],[130.76974,31.75304],[130.76985,31.75215],[130.76967,31.7508],[130.76925,31.7498],[130.76833,31.74847],[130.76444,31.74438]],[[131.34478,31.84211],[131.34629,31.84407],[131.34731,31.84504],[131.34873,31.84591],[131.35091,31.84705],[131.35447,31.85001],[131.35505,31.85033],[131.35613,31.85066],[131.35756,31.85085],[131.36031,31.85091],[131.36222,31.85111],[131.3629,31.85134],[131.36433,31.85206],[131.36531,31.85266],[131.36582,31.85308],[131.36623,31.8536],[131.36856,31.85729],[131.36924,31.85793],[131.37007,31.85846],[131.37078,31.85871],[131.3716,31.85885],[131.37265,31.85885],[131.37347,31.85873],[131.37958,31.85578],[131.38274,31.85472],[131.38381,31.85457],[131.38533,31.8548],[131.38611,31.85511],[131.38675,31.85556],[131.38743,31.85628],[131.38844,31.85806]],[[131.4309,31.93939],[131.43037,31.93798]],[[130.99063,31.72876],[130.98718,31.72872],[130.98598,31.729],[130.97965,31.73218],[130.97868,31.73287],[130.97545,31.7358],[130.97327,31.73702],[130.97265,31.73752],[130.97178,31.73829],[130.97006,31.74018],[130.96796,31.74187],[130.96706,31.74244],[130.96433,31.74369],[130.96055,31.74474]],[[130.92508,31.77277],[130.92348,31.7728]],[[130.61439,31.70328],[130.61574,31.7058],[130.62281,31.71473]],[[130.6038,31.64677],[130.60456,31.6481]],[[130.65395,31.73713],[130.65265,31.73663]],[[131.12027,31.7341],[131.11862,31.73342]],[[131.43189,31.91668],[131.43137,31.91959],[131.42968,31.93108],[131.4293,31.9342],[131.42946,31.93549],[131.43037,31.93798]],[[130.63348,31.72777],[130.63214,31.72615]],[[131.34478,31.84211],[131.34394,31.84089]],[[130.95951,31.74522],[130.95862,31.74575],[130.9574,31.74672],[130.95646,31.74753],[130.95559,31.74847],[130.95513,31.74947],[130.95469,31.75231],[130.95321,31.75457],[130.95167,31.7565],[130.95114,31.75692],[130.95018,31.75742],[130.9469,31.75824],[130.94551,31.75875],[130.94465,31.75932],[130.94237,31.76166],[130.94212,31.76207],[130.94205,31.76238],[130.94166,31.76542],[130.93901,31.7695],[130.93841,31.77023],[130.93784,31.77077],[130.93708,31.77129],[130.93642,31.77158],[130.93266,31.7725],[130.93059,31.77267],[130.92508,31.77277]],[[131.47734,32.02172],[131.4775,32.02333]],[[130.56512,31.60276],[130.56413,31.60209],[130.56339,31.60172]],[[131.15268,31.78196],[131.15131,31.77615],[131.15111,31.77572],[131.15052,31.77495],[131.14305,31.76573],[131.1388,31.76063],[131.13777,31.75976],[131.13319,31.75733]],[[131.13214,31.75672],[131.13023,31.75559],[131.12968,31.75502],[131.12937,31.75452],[131.1291,31.75389],[131.12868,31.75249],[131.1258,31.7423],[131.1234,31.7373],[131.12275,31.73619],[131.12209,31.73545],[131.12139,31.73484],[131.12027,31.7341]],[[131.34394,31.84089],[131.34234,31.83884],[131.3418,31.83832],[131.34074,31.83781],[131.33989,31.83761],[131.3391,31.83754],[131.33847,31.83755],[131.33772,31.83769],[131.3319,31.83996],[131.33059,31.84036],[131.32903,31.84056],[131.32772,31.84048],[131.3269,31.84029],[131.32003,31.83721],[131.31893,31.83662],[131.31812,31.83588],[131.31762,31.83516],[131.31636,31.83277],[131.31586,31.83201],[131.31506,31.83148],[131.31452,31.83127],[131.31382,31.83113],[131.31296,31.83116],[131.31249,31.83128],[131.31127,31.83191],[131.30816,31.83573],[131.30723,31.83648],[131.30501,31.83793]],[[131.05671,31.7224],[131.0561,31.72016],[131.05579,31.71938],[131.05554,31.71891],[131.05455,31.7178],[131.05276,31.71654],[131.05163,31.7159],[131.04956,31.71499],[131.04852,31.71478],[131.04758,31.71468],[131.04679,31.71469],[131.04536,31.71484],[131.04433,31.71507],[131.04297,31.71546],[131.03461,31.71824]],[[130.6038,31.64677],[130.60297,31.64536],[130.60265,31.64452],[130.6025,31.64347],[130.60242,31.64204],[130.60184,31.6402],[130.60187,31.6399],[130.60226,31.63876],[130.60233,31.6381],[130.60211,31.63683],[130.60137,31.63423],[130.60155,31.63275],[130.60152,31.63216],[130.60136,31.63181],[130.60062,31.63076],[130.60011,31.63016],[130.59928,31.62946],[130.59751,31.62867],[130.59501,31.62645],[130.59428,31.62592],[130.59389,31.62571],[130.59175,31.625],[130.58651,31.6226],[130.58614,31.62234],[130.58452,31.61991],[130.58265,31.61872],[130.58144,31.61805],[130.57826,31.61754],[130.57763,31.61735],[130.57547,31.61566],[130.57348,31.61493],[130.57135,31.6135],[130.57077,31.6127],[130.56997,31.60989],[130.56875,31.60725],[130.56811,31.60606],[130.56742,31.60505],[130.56648,31.60402],[130.56512,31.60276]],[[130.63214,31.72615],[130.62366,31.71576]],[[131.42359,31.89607],[131.42628,31.89885],[131.42696,31.89966],[131.4295,31.90451],[131.43175,31.90909],[131.43221,31.91071],[131.43229,31.91155],[131.43212,31.91495]],[[130.61388,31.70229],[130.61439,31.70328]],[[131.40711,31.87662],[131.40809,31.87726],[131.40891,31.878],[131.41827,31.89035],[131.42196,31.89433]],[[131.42196,31.89433],[131.42213,31.89451]],[[131.13319,31.75733],[131.13214,31.75672]],[[130.65265,31.73663],[130.63744,31.73123],[130.63609,31.73054],[130.6355,31.73013],[130.63348,31.72777]],[[130.62366,31.71576],[130.62281,31.71473]],[[130.60456,31.6481],[130.60565,31.64992],[130.60796,31.65302],[130.60864,31.65379],[130.61086,31.65575],[130.61163,31.6561],[130.61435,31.65699],[130.61477,31.65722],[130.61533,31.65787],[130.61566,31.65868],[130.61571,31.65935],[130.61565,31.66011],[130.61473,31.66253],[130.6142,31.66357],[130.61305,31.66485],[130.61268,31.66549],[130.61246,31.66678],[130.6119,31.66857],[130.61179,31.67015],[130.61148,31.67157],[130.6113,31.6721],[130.6109,31.67283],[130.61063,31.67367],[130.61068,31.67471],[130.61063,31.67532],[130.61045,31.67586],[130.60938,31.6781],[130.6091,31.67888],[130.60893,31.67996],[130.60907,31.68113],[130.60971,31.68448],[130.61005,31.6856],[130.61049,31.68657],[130.611,31.68749],[130.61159,31.68834],[130.61395,31.69096],[130.61467,31.69189],[130.6147,31.69234],[130.61457,31.69296],[130.61417,31.69399],[130.61273,31.69903],[130.61276,31.69966],[130.61298,31.70049],[130.61388,31.70229]],[[131.44232,31.95971],[131.43772,31.95543],[131.43651,31.9538],[131.43557,31.95182],[131.4309,31.93939]],[[130.99243,31.72879],[130.99063,31.72876]],[[130.8753,31.78175],[130.87382,31.7824]],[[130.76444,31.74438],[130.76358,31.74374],[130.76228,31.74308]],[[130.92348,31.7728],[130.92004,31.77289],[130.91729,31.77344],[130.91612,31.7734],[130.91402,31.77314],[130.91224,31.77221],[130.91169,31.77198],[130.91098,31.77181],[130.90895,31.77149],[130.90765,31.77161],[130.90696,31.77191],[130.90645,31.77232],[130.90475,31.77429],[130.90338,31.77507],[130.90153,31.77629],[130.90072,31.77721],[130.89965,31.77815],[130.89521,31.77989],[130.89427,31.78002],[130.89131,31.77968],[130.89067,31.77968],[130.89022,31.77977],[130.8847,31.78216],[130.88345,31.78241],[130.88226,31.78222],[130.87995,31.78094],[130.87944,31.78078],[130.87865,31.78069],[130.87802,31.78072],[130.87712,31.78095],[130.8753,31.78175]],[[130.73938,31.74303],[130.73514,31.73944],[130.73409,31.73886],[130.73327,31.73867],[130.70015,31.73794],[130.69649,31.7378],[130.69566,31.73788],[130.6951,31.73802],[130.69193,31.73899],[130.69106,31.73912],[130.68982,31.73917],[130.68861,31.73904],[130.68754,31.73877],[130.6854,31.73792],[130.68421,31.73769],[130.67934,31.73799],[130.67524,31.73845],[130.67181,31.73905]],[[131.42213,31.89451],[131.42359,31.89607]]]}}