{"type":"Feature","properties":{"id":"九州旅客鉄道_九州新幹線","name":"九州新幹線","operator":"九州旅客鉄道","railType":"普通鉄道(JR)","operatorType":"JR新幹線","category":"shinkansen","attribution":"国土数値情報（鉄道データ）国土交通省"},"geometry":{"type":"MultiLineString","coordinates":[[[130.42823,32.21025],[130.4293,32.21104]],[[130.35879,32.08873],[130.35798,32.09045]],[[130.63538,32.51669],[130.63468,32.51849]],[[130.35798,32.09045],[130.35449,32.09885],[130.35334,32.10234],[130.35273,32.10478],[130.35244,32.10674],[130.3522,32.11012],[130.35238,32.11418],[130.35269,32.11659],[130.35343,32.1197],[130.35436,32.12211],[130.36423,32.14501],[130.36612,32.14956],[130.36689,32.15115],[130.36847,32.15399],[130.37086,32.15768],[130.37272,32.16],[130.38524,32.17261],[130.38741,32.17511],[130.39252,32.18049],[130.39621,32.18415],[130.40119,32.18848],[130.41597,32.20021],[130.42823,32.21025]],[[130.4293,32.21104],[130.43041,32.21186],[130.43435,32.21526],[130.4382,32.21812],[130.44003,32.21968],[130.44166,32.22127],[130.44808,32.22823],[130.4556,32.23679],[130.45676,32.23796],[130.45829,32.23921],[130.46005,32.24053],[130.46158,32.24155],[130.46568,32.24372],[130.46868,32.24509],[130.49935,32.25733],[130.50307,32.25893],[130.50535,32.26007],[130.50784,32.26151],[130.51097,32.26342],[130.51313,32.26498],[130.51583,32.26723],[130.51774,32.26898],[130.52522,32.27612],[130.53742,32.28746],[130.54555,32.29521],[130.56243,32.31099],[130.57501,32.32295],[130.58598,32.33304],[130.5966,32.34267],[130.59976,32.346],[130.60887,32.35508],[130.61489,32.36094],[130.61827,32.36465],[130.61989,32.36678],[130.62177,32.36959],[130.62335,32.37227],[130.62535,32.37691],[130.62611,32.37898],[130.62671,32.38098],[130.62737,32.38375],[130.62807,32.38728],[130.62858,32.3911],[130.6287,32.39341],[130.62836,32.39896],[130.6281,32.40087],[130.6278,32.40291],[130.62711,32.40642],[130.62632,32.40972],[130.62492,32.41437],[130.61963,32.42918],[130.61791,32.43503],[130.61753,32.4367],[130.61725,32.43818],[130.61702,32.44001],[130.61697,32.44346],[130.61735,32.44817],[130.61767,32.44991],[130.61838,32.45235],[130.619,32.45418],[130.61978,32.45611],[130.62223,32.46036],[130.62729,32.46725],[130.62848,32.46871],[130.63269,32.47452],[130.63387,32.47648],[130.63445,32.47763],[130.6362,32.48178],[130.63674,32.48334],[130.63732,32.48576],[130.63781,32.48867],[130.63812,32.49277],[130.63829,32.49654],[130.63828,32.50023],[130.63806,32.50512],[130.63756,32.50884],[130.63649,32.51351],[130.63538,32.51669]],[[130.53948,31.58398],[130.53426,31.58473],[130.52972,31.58553],[130.52689,31.58626],[130.52531,31.58678],[130.52171,31.58842],[130.51725,31.59069],[130.51026,31.59461],[130.50537,31.59718],[130.50183,31.59885],[130.49939,31.59976],[130.49582,31.6009],[130.48633,31.60327],[130.48081,31.6048],[130.47813,31.60576],[130.47376,31.60758],[130.47208,31.60844],[130.45455,31.61878],[130.45066,31.62095],[130.44747,31.62299],[130.43982,31.62744],[130.42987,31.63364],[130.42278,31.63987],[130.39364,31.6666],[130.38777,31.67193],[130.38488,31.67444],[130.37702,31.68209],[130.37311,31.68649],[130.37121,31.68906],[130.36968,31.69131],[130.36822,31.69386],[130.3628,31.70531],[130.35136,31.73126],[130.34822,31.73798],[130.34715,31.74057],[130.32907,31.7812],[130.32741,31.78449],[130.32545,31.78769],[130.32343,31.79058],[130.31944,31.79559],[130.3178,31.79793],[130.31701,31.7992],[130.31564,31.80238],[130.31393,31.80756],[130.31317,31.81033],[130.31263,31.81268]],[[130.31218,31.81435],[130.3091,31.82438],[130.30854,31.82658],[130.30801,31.8292],[130.30749,31.83315],[130.30719,31.8345],[130.30673,31.83598],[130.30542,31.83934],[130.30275,31.84512],[130.29894,31.85233],[130.29503,31.85944],[130.2934,31.8635],[130.29134,31.86908],[130.29057,31.87211],[130.29007,31.87501],[130.2897,31.88133],[130.28978,31.88409],[130.29008,31.8877],[130.29049,31.89128],[130.2941,31.91235],[130.29759,31.93434],[130.29984,31.94755],[130.3009,31.95507],[130.30253,31.96436],[130.30473,31.97774],[130.30569,31.98169],[130.30682,31.98467],[130.3081,31.98728],[130.31037,31.99114],[130.31166,31.99286],[130.32038,32.00525],[130.33882,32.0306],[130.34139,32.0346],[130.34813,32.0443],[130.35442,32.05271],[130.35948,32.05872],[130.36086,32.06066],[130.36219,32.0628],[130.36332,32.06514],[130.36444,32.06794],[130.36492,32.06947],[130.36518,32.07065],[130.36529,32.07215],[130.36504,32.07604],[130.36463,32.07763],[130.36402,32.07946],[130.36286,32.08221],[130.36199,32.08398],[130.36022,32.08623],[130.35879,32.08873]],[[130.31218,31.81435],[130.31263,31.81268]],[[130.53948,31.58398],[130.54258,31.58357]],[[130.42108,33.58776],[130.42083,33.58458],[130.42081,33.58295],[130.42111,33.58147],[130.42175,33.57997],[130.42252,33.57881],[130.4267,33.57411],[130.42831,33.57236],[130.43207,33.56856],[130.4326,33.56787],[130.4336,33.5664],[130.43434,33.56498],[130.43598,33.56119],[130.43655,33.55932],[130.43686,33.55712],[130.43689,33.55591],[130.43671,33.55416],[130.43644,33.55284],[130.43541,33.54949],[130.43421,33.54498],[130.43286,33.5371],[130.43264,33.53529],[130.4326,33.53325],[130.43283,33.53096],[130.43315,33.52929],[130.43394,33.52659]],[[130.68801,32.78957],[130.68741,32.78865],[130.68558,32.78498],[130.68544,32.78454],[130.68536,32.78353],[130.68605,32.78101],[130.68617,32.78001],[130.68617,32.77897],[130.68549,32.77525],[130.68469,32.77177],[130.67991,32.74677],[130.67964,32.74492],[130.67856,32.73523],[130.67809,32.73302],[130.67596,32.72582],[130.6749,32.72192],[130.6672,32.6846],[130.66647,32.68204],[130.66572,32.67988],[130.66247,32.67218],[130.66156,32.66919],[130.66117,32.66747],[130.6609,32.66569],[130.66072,32.66406],[130.66067,32.66028],[130.66087,32.65805],[130.66123,32.6557],[130.66177,32.6535],[130.66238,32.65152],[130.66353,32.64872],[130.66701,32.64108],[130.66779,32.63887],[130.66821,32.63737],[130.66879,32.63451],[130.66909,32.63214],[130.66917,32.63],[130.6691,32.62787],[130.66866,32.62429],[130.66832,32.62276],[130.66735,32.61936],[130.66666,32.61766],[130.66586,32.61589],[130.6643,32.61306],[130.66171,32.60924],[130.63212,32.56714],[130.62927,32.5628],[130.62786,32.56008],[130.62703,32.55811],[130.62634,32.55614],[130.62582,32.55427],[130.62542,32.55242],[130.62515,32.55048],[130.62492,32.54805],[130.62491,32.54604],[130.62511,32.54348],[130.62535,32.54177],[130.62572,32.53995],[130.62614,32.5384],[130.62752,32.53449],[130.63269,32.52354],[130.63468,32.51849]],[[130.68918,32.79123],[130.68801,32.78957]],[[130.5744,32.94193],[130.5769,32.93999],[130.58079,32.93755],[130.60324,32.92498],[130.60584,32.92323],[130.61358,32.91687],[130.67035,32.86925],[130.6731,32.86652],[130.67569,32.86334],[130.67794,32.85974],[130.69066,32.83746],[130.699,32.82277],[130.69946,32.82159],[130.69955,32.82098],[130.69954,32.8195],[130.6991,32.81787],[130.69841,32.816],[130.69477,32.807],[130.69451,32.80597],[130.69412,32.79983],[130.69323,32.79616],[130.69305,32.79562],[130.69246,32.79472],[130.68918,32.79123]],[[130.57275,32.94326],[130.5744,32.94193]],[[130.48855,33.07226],[130.48896,33.07038]],[[130.48896,33.07038],[130.49257,33.05396],[130.49327,33.05146],[130.49458,33.04776],[130.4958,33.04491],[130.49715,33.04218],[130.49847,33.03986],[130.50291,33.03322],[130.53632,32.98417],[130.53814,32.9817],[130.53991,32.97957],[130.54814,32.97026],[130.56927,32.94651],[130.57275,32.94326]],[[130.49227,33.17672],[130.49217,33.1743],[130.49227,33.1712],[130.49406,33.14796],[130.49396,33.14374],[130.49349,33.13954],[130.49018,33.11439],[130.48708,33.09997],[130.48633,33.0959],[130.48587,33.09131],[130.48591,33.08722],[130.48632,33.08295],[130.48713,33.07848],[130.48855,33.07226]],[[130.49252,33.17866],[130.49227,33.17672]],[[130.50089,33.32153],[130.5013,33.31965]],[[130.5013,33.31965],[130.50321,33.31025],[130.50341,33.30849],[130.50359,33.30563],[130.50357,33.28505],[130.50292,33.27387],[130.50287,33.26296],[130.50244,33.2589],[130.50187,33.25527],[130.50137,33.25122],[130.50125,33.24907],[130.50066,33.2286],[130.50043,33.22557],[130.49998,33.22254],[130.49477,33.19227],[130.49252,33.17866]],[[130.49059,33.37131],[130.49161,33.36957]],[[130.49161,33.36957],[130.49487,33.36389],[130.49562,33.36213],[130.49613,33.36043],[130.49632,33.35947],[130.49644,33.35875],[130.49657,33.35577],[130.49623,33.34868],[130.49618,33.34574],[130.49673,33.33178],[130.497,33.33037],[130.49729,33.32954],[130.49794,33.32828],[130.49957,33.32558],[130.50015,33.32446],[130.50037,33.32382],[130.50089,33.32153]],[[130.42108,33.58776],[130.42127,33.59139]],[[130.43394,33.52659],[130.4404,33.5046],[130.44139,33.50185],[130.44468,33.49491],[130.44614,33.49145],[130.44716,33.48812],[130.44751,33.48617],[130.44779,33.48406],[130.44793,33.482],[130.44792,33.47986],[130.44776,33.47761],[130.44726,33.47451],[130.44519,33.46513],[130.44479,33.4625],[130.44453,33.45912],[130.44442,33.4541],[130.44436,33.4454],[130.44453,33.4427],[130.44475,33.44063],[130.44517,33.43791],[130.44574,33.43534],[130.44647,33.43273],[130.44703,33.4311],[130.44824,33.42801],[130.4498,33.4247],[130.45106,33.42246],[130.45224,33.42057],[130.45413,33.41788],[130.45564,33.41591],[130.47642,33.39212],[130.48059,33.38714],[130.48208,33.38518],[130.48472,33.38135],[130.48705,33.3775],[130.49059,33.37131]]]}}