{"type":"Feature","properties":{"id":"九州旅客鉄道_鹿児島線","name":"鹿児島線","operator":"九州旅客鉄道","railType":"普通鉄道(JR)","operatorType":"JR在来線","category":"rail","attribution":"国土数値情報（鉄道データ）国土交通省"},"geometry":{"type":"MultiLineString","coordinates":[[[130.93852,33.91546],[130.9378,33.91315],[130.93697,33.91086],[130.93626,33.9094],[130.9354,33.90793],[130.9337,33.90544]],[[130.80504,33.87055],[130.80286,33.86949],[130.8019,33.86915],[130.80139,33.86906],[130.79943,33.86901],[130.79655,33.86918]],[[130.81296,33.87954],[130.81276,33.87883]],[[130.88477,33.88605],[130.8873,33.88496],[130.88808,33.88472],[130.88889,33.88461]],[[130.87281,33.88898],[130.87001,33.88966],[130.86719,33.89088],[130.8607,33.8943],[130.85722,33.89581],[130.85379,33.89797],[130.8526,33.89864],[130.85147,33.89894],[130.84153,33.90028]],[[130.79655,33.86918],[130.79406,33.86932]],[[130.76503,33.86682],[130.76097,33.86656]],[[130.81276,33.87883],[130.81241,33.87806],[130.81186,33.87727],[130.81099,33.87632],[130.80877,33.87358],[130.80764,33.87233],[130.80711,33.87187]],[[130.75136,33.86693],[130.74845,33.86722],[130.74407,33.86789]],[[130.80711,33.87187],[130.80504,33.87055]],[[130.93134,33.90317],[130.93087,33.90269],[130.93016,33.90221],[130.92597,33.89975],[130.92484,33.89897],[130.91914,33.89339],[130.91875,33.89307],[130.91811,33.89272],[130.917,33.89236],[130.91645,33.8923],[130.91246,33.89259],[130.91058,33.89261],[130.90847,33.89229],[130.90551,33.8916],[130.90387,33.89094],[130.89964,33.88884],[130.89842,33.88813],[130.89771,33.88762],[130.8953,33.88536],[130.89498,33.88515],[130.89439,33.88489],[130.89357,33.88471],[130.89156,33.88454],[130.8903,33.88457]],[[130.93173,33.90294],[130.93032,33.90129],[130.92785,33.89905],[130.92699,33.89837],[130.92436,33.89691],[130.92367,33.89635],[130.92035,33.89318],[130.91924,33.89251],[130.9187,33.89233],[130.91731,33.8921],[130.91153,33.89227],[130.91066,33.89223],[130.90723,33.89178],[130.90554,33.89141],[130.90381,33.8907],[130.90226,33.8899],[130.90079,33.88816],[130.90019,33.88757],[130.89844,33.88641],[130.89625,33.88535],[130.89508,33.88485],[130.89423,33.88458]],[[130.74407,33.86789],[130.7428,33.86809]],[[130.95968,33.94318],[130.95916,33.94272],[130.95732,33.94157],[130.95234,33.93941],[130.9487,33.938],[130.94797,33.93752],[130.94741,33.93691],[130.94364,33.93049],[130.94337,33.92954],[130.94328,33.92843],[130.94341,33.92611],[130.94328,33.92528],[130.94299,33.92443],[130.94037,33.91993],[130.93956,33.91842],[130.93923,33.91757]],[[130.93923,33.91757],[130.93852,33.91546]],[[130.74285,33.86828],[130.74413,33.86809]],[[130.76097,33.86656],[130.76209,33.86679],[130.76814,33.86726],[130.77032,33.86712]],[[130.79406,33.86932],[130.79135,33.86924],[130.78895,33.86907],[130.78643,33.86857],[130.78512,33.86842],[130.78348,33.86841],[130.78076,33.86858],[130.77926,33.86854],[130.77718,33.86824],[130.77309,33.86736],[130.77164,33.86716],[130.77032,33.86712]],[[130.9337,33.90544],[130.93173,33.90294]],[[130.76809,33.86701],[130.77032,33.86712]],[[130.88497,33.88641],[130.88811,33.88514],[130.8903,33.88457]],[[130.81996,33.89696],[130.81838,33.89607],[130.81766,33.89546],[130.81721,33.89499],[130.81666,33.89423],[130.81604,33.89293],[130.81538,33.89115],[130.81499,33.88854],[130.81494,33.88741],[130.81463,33.88567],[130.81371,33.88264],[130.81296,33.87954]],[[130.76809,33.86701],[130.76503,33.86682]],[[130.88497,33.88641],[130.8832,33.88703],[130.88159,33.88733]],[[130.84153,33.90028],[130.83879,33.90064]],[[130.96133,33.94493],[130.95968,33.94318]],[[130.87531,33.88846],[130.88159,33.88733]],[[130.87531,33.88846],[130.87281,33.88898]],[[130.8903,33.88457],[130.89114,33.88442],[130.89237,33.88437],[130.89423,33.88458]],[[130.88889,33.88461],[130.8903,33.88457]],[[130.82187,33.89787],[130.81996,33.89696]],[[130.74413,33.86809],[130.75136,33.86693]],[[130.75136,33.86693],[130.75601,33.86631],[130.75692,33.8663],[130.76097,33.86656]],[[130.83879,33.90064],[130.83235,33.90156],[130.83067,33.90155],[130.82924,33.90119],[130.82632,33.9],[130.82187,33.89787]],[[130.93349,33.90554],[130.93134,33.90317]],[[130.695,33.85222],[130.67499,33.84711]],[[130.59159,33.80836],[130.59327,33.80859],[130.59465,33.80847],[130.59616,33.80823],[130.59722,33.80825],[130.59882,33.80873],[130.60039,33.80953],[130.60165,33.81035],[130.6022,33.81086],[130.60295,33.81183],[130.60479,33.8154],[130.60496,33.81596],[130.60501,33.81661],[130.60491,33.81746],[130.60463,33.8186]],[[130.62508,33.84027],[130.62343,33.84011],[130.62244,33.83987]],[[130.71037,33.86326],[130.7097,33.86259],[130.70882,33.86067],[130.70807,33.8598],[130.7054,33.85814],[130.70133,33.85496],[130.70017,33.85414],[130.69902,33.85349],[130.69757,33.85295]],[[130.62244,33.83987],[130.62144,33.83949],[130.62053,33.83898],[130.61964,33.83836],[130.61559,33.83513],[130.60873,33.82756]],[[130.71499,33.8639],[130.71436,33.86379]],[[130.60463,33.8186],[130.60473,33.81992],[130.60597,33.82272],[130.60804,33.82652],[130.60873,33.82756]],[[130.71251,33.86424],[130.71147,33.86393],[130.71083,33.8636],[130.71037,33.86326]],[[130.57121,33.80814],[130.56797,33.80832]],[[130.71436,33.86379],[130.71338,33.86325],[130.71308,33.863],[130.71235,33.86214],[130.71197,33.86151]],[[130.58903,33.80799],[130.58587,33.80773],[130.58127,33.80774],[130.57447,33.80796],[130.57121,33.80814]],[[130.7428,33.86809],[130.7373,33.8689],[130.73582,33.86892],[130.73427,33.86875],[130.7331,33.86845],[130.73137,33.86766],[130.7267,33.86425],[130.72598,33.86389],[130.72542,33.86373],[130.72478,33.8636],[130.72304,33.86356],[130.71499,33.8639]],[[130.74285,33.86828],[130.73736,33.86911],[130.73597,33.86914],[130.73391,33.8689],[130.73203,33.86827],[130.73126,33.86787],[130.7269,33.86464],[130.72621,33.86425],[130.72533,33.86394],[130.72461,33.86383],[130.72401,33.8638],[130.7133,33.86429],[130.71251,33.86424]],[[130.69757,33.85295],[130.695,33.85222]],[[130.59159,33.80836],[130.58903,33.80799]],[[130.60463,33.8186],[130.60452,33.819],[130.60447,33.82156],[130.6048,33.82248],[130.60645,33.82509],[130.60873,33.82756]],[[130.67227,33.84639],[130.65853,33.84286],[130.65691,33.84275],[130.65607,33.84287],[130.6548,33.84329],[130.64908,33.84663],[130.64811,33.84707],[130.64668,33.84739],[130.64503,33.84738],[130.64337,33.84704],[130.63844,33.84498],[130.63743,33.84412],[130.63635,33.84247],[130.63573,33.84183],[130.63468,33.84121],[130.63405,33.84098],[130.62508,33.84027]],[[130.67499,33.84711],[130.67227,33.84639]],[[130.4233,33.60601],[130.42309,33.60537],[130.42221,33.60348],[130.4215,33.60094],[130.42133,33.59976],[130.42098,33.59441]],[[130.45715,33.7208],[130.4543,33.71886],[130.45311,33.71773],[130.44992,33.71276]],[[130.52989,33.79515],[130.52779,33.79383]],[[130.48826,33.76429],[130.48616,33.76322]],[[130.47687,33.75005],[130.47583,33.74806]],[[130.42411,33.60839],[130.4233,33.60601]],[[130.44134,33.69938],[130.43982,33.69761]],[[130.50917,33.77295],[130.50591,33.77088],[130.50515,33.77047],[130.50435,33.77021],[130.50252,33.76987],[130.50048,33.76994],[130.49898,33.7699],[130.49766,33.76966],[130.49571,33.76912],[130.49481,33.76874],[130.49368,33.76812],[130.49153,33.76632],[130.48961,33.76506],[130.48826,33.76429]],[[130.47583,33.74806],[130.47535,33.74739],[130.47213,33.74396],[130.47143,33.74306],[130.47058,33.74135],[130.46834,33.73513],[130.46768,33.73386]],[[130.44137,33.67342],[130.44249,33.67167],[130.44274,33.67111],[130.4441,33.666],[130.44438,33.66448],[130.44413,33.66125]],[[130.4206,33.591],[130.42085,33.59158],[130.42098,33.59441]],[[130.42098,33.59441],[130.42046,33.59144],[130.4206,33.591]],[[130.44094,33.67404],[130.44137,33.67342]],[[130.42052,33.58899],[130.42064,33.58847],[130.42052,33.5844]],[[130.42052,33.5844],[130.4203,33.58821],[130.42052,33.58899]],[[130.44413,33.66125],[130.44391,33.65822]],[[130.43068,33.56953],[130.42685,33.57351],[130.42246,33.57844],[130.4216,33.5796],[130.42111,33.58053],[130.4207,33.58178],[130.42051,33.58292],[130.42052,33.5844]],[[130.56797,33.80832],[130.56324,33.80857],[130.56204,33.80857],[130.56157,33.80854],[130.56021,33.80822],[130.54077,33.80011],[130.53512,33.79717],[130.53165,33.79604],[130.52989,33.79515]],[[130.44391,33.65822],[130.44371,33.6568],[130.44343,33.65566],[130.44267,33.65415],[130.44214,33.65205],[130.44175,33.65092],[130.44125,33.65011]],[[130.48616,33.76322],[130.48384,33.7619],[130.48269,33.76097],[130.48206,33.76025],[130.47687,33.75005]],[[130.4206,33.591],[130.42052,33.58899]],[[130.42679,33.6191],[130.42744,33.62204],[130.42751,33.62285],[130.42645,33.63546],[130.4265,33.63629],[130.42665,33.63681],[130.42836,33.63958],[130.42935,33.6406],[130.43218,33.64245],[130.436,33.64444],[130.43704,33.64525],[130.44011,33.64871]],[[130.44125,33.65011],[130.44011,33.64871]],[[130.46768,33.73386],[130.4661,33.73126]],[[130.42679,33.6191],[130.42631,33.61695]],[[130.43982,33.69761],[130.43554,33.69252],[130.43494,33.6916],[130.43474,33.69111],[130.4346,33.69025],[130.43506,33.68497],[130.43542,33.6834],[130.43583,33.68205],[130.43686,33.68022],[130.44094,33.67404]],[[130.42411,33.60839],[130.42468,33.6107]],[[130.42468,33.6107],[130.42528,33.61266],[130.42631,33.61695]],[[130.51224,33.77476],[130.50917,33.77295]],[[130.52779,33.79383],[130.52694,33.79316],[130.52576,33.79189],[130.52498,33.79061],[130.52436,33.78927],[130.5242,33.78731],[130.52443,33.78025],[130.52427,33.77933],[130.52374,33.77831],[130.52338,33.7779],[130.52253,33.77728],[130.52172,33.77691],[130.52108,33.77672],[130.51929,33.77657],[130.51699,33.77679],[130.51555,33.77657],[130.5148,33.7763],[130.51224,33.77476]],[[130.50109,33.32191],[130.50165,33.31955]],[[130.46872,33.53522],[130.46129,33.54146]],[[130.53907,33.45015],[130.53855,33.44834],[130.53817,33.44754],[130.53621,33.44489],[130.53596,33.44442],[130.53529,33.44263],[130.53436,33.441],[130.53349,33.43918],[130.53327,33.43822],[130.53323,33.43718],[130.53332,33.43484]],[[130.52873,33.40313],[130.52853,33.40217]],[[130.53237,33.42013],[130.53212,33.41938],[130.53077,33.41262],[130.52873,33.40313]],[[130.47939,33.52571],[130.47645,33.52872],[130.47004,33.53411]],[[130.5076,33.50267],[130.50581,33.50363]],[[130.44824,33.55393],[130.44757,33.55491],[130.44662,33.55605],[130.44325,33.55951],[130.44091,33.56179],[130.44002,33.56253],[130.43536,33.56562],[130.43263,33.56775]],[[130.43263,33.56775],[130.43068,33.56953]],[[130.49608,33.35053],[130.49612,33.34901]],[[130.53113,33.48099],[130.53274,33.47886],[130.53624,33.47367],[130.53769,33.47145],[130.53813,33.47054],[130.53829,33.4682],[130.53846,33.45901],[130.53856,33.4571],[130.53899,33.45524]],[[130.53899,33.45524],[130.53941,33.45335]],[[130.47004,33.53411],[130.46872,33.53522]],[[130.52448,33.38373],[130.52052,33.37563]],[[130.48075,33.52422],[130.47939,33.52571]],[[130.53003,33.48223],[130.51977,33.49355]],[[130.49747,33.20871],[130.49781,33.21097]],[[130.49612,33.34901],[130.49688,33.33156],[130.49697,33.33086],[130.4972,33.33005],[130.49755,33.32931],[130.49998,33.32524],[130.50065,33.32347],[130.50109,33.32191]],[[130.51977,33.49355],[130.51808,33.49536]],[[130.48943,33.51807],[130.48675,33.51878],[130.48537,33.51948],[130.48453,33.52024],[130.48075,33.52422]],[[130.49109,33.51744],[130.49034,33.51779],[130.48943,33.51807]],[[130.50269,33.27583],[130.50277,33.27119],[130.5027,33.26277],[130.50121,33.2517],[130.50104,33.24685]],[[130.49781,33.21097],[130.50041,33.22639],[130.50099,33.24559]],[[130.52523,33.38533],[130.52448,33.38373]],[[130.46129,33.54146],[130.45942,33.54288]],[[130.50346,33.30252],[130.50344,33.28561],[130.50336,33.28475],[130.50275,33.28124],[130.5027,33.27787]],[[130.49747,33.20871],[130.49711,33.20696],[130.49424,33.18971],[130.49382,33.18759],[130.49175,33.18009],[130.49169,33.17875]],[[130.48464,33.15601],[130.48625,33.15796]],[[130.5027,33.27787],[130.50269,33.27583]],[[130.50099,33.24559],[130.50104,33.24685]],[[130.48625,33.15796],[130.49115,33.16415],[130.49153,33.16482],[130.49188,33.16577],[130.49208,33.16727],[130.49172,33.17707]],[[130.50581,33.50363],[130.50454,33.50432],[130.50288,33.50551],[130.50137,33.50699],[130.49766,33.51089],[130.49307,33.51583],[130.49165,33.51709],[130.49109,33.51744]],[[130.44914,33.55259],[130.44824,33.55393]],[[130.47168,33.13448],[130.47349,33.13861],[130.48048,33.15088],[130.481,33.15166],[130.48464,33.15601]],[[130.45942,33.54288],[130.45196,33.54884],[130.45101,33.54982],[130.44914,33.55259]],[[130.5334,33.43339],[130.53346,33.43129],[130.53157,33.42614],[130.53144,33.4255],[130.53147,33.4247],[130.53219,33.42229]],[[130.53332,33.43484],[130.5334,33.43339]],[[130.53219,33.42229],[130.53232,33.42137],[130.53237,33.42013]],[[130.52853,33.40217],[130.52743,33.39696],[130.52736,33.39591],[130.52805,33.39178],[130.52801,33.39111],[130.52751,33.3898],[130.52523,33.38533]],[[130.47075,33.13225],[130.47168,33.13448]],[[130.51808,33.49536],[130.51576,33.49786],[130.51458,33.49878],[130.5076,33.50267]],[[130.53941,33.45335],[130.53947,33.45269],[130.53939,33.45153],[130.53907,33.45015]],[[130.53113,33.48099],[130.53003,33.48223]],[[130.51678,33.37023],[130.51552,33.36924],[130.49767,33.35763],[130.49693,33.35707],[130.49629,33.35629],[130.49601,33.35566],[130.49589,33.35516],[130.49589,33.35361],[130.49608,33.35053]],[[130.51919,33.37292],[130.51861,33.3721],[130.51678,33.37023]],[[130.52052,33.37563],[130.51919,33.37292]],[[130.63372,32.51754],[130.63274,32.51644],[130.63166,32.51541],[130.6299,32.51415],[130.62857,32.51349],[130.62602,32.51269],[130.61976,32.51157],[130.61898,32.5113],[130.6182,32.51086],[130.6174,32.51006],[130.61701,32.50947],[130.61685,32.50889],[130.61688,32.50762],[130.61727,32.50687],[130.61814,32.50597],[130.61983,32.50508]],[[130.4431,33.02836],[130.44459,33.03042]],[[130.43311,32.96681],[130.43271,32.97546],[130.4327,32.97806],[130.43319,32.98256],[130.43457,32.99331]],[[130.70047,32.85422],[130.69985,32.85494]],[[130.65308,32.89965],[130.65204,32.90124],[130.65163,32.90164],[130.65024,32.90272],[130.64824,32.90399],[130.64785,32.90442],[130.64728,32.9053],[130.64645,32.90772],[130.64587,32.90865],[130.64053,32.9141],[130.63973,32.91485],[130.63919,32.91521],[130.63748,32.91586],[130.63611,32.91603],[130.63469,32.91581],[130.63294,32.91532],[130.63175,32.91519],[130.6292,32.91525],[130.62801,32.91553],[130.62722,32.91587]],[[130.46054,33.05435],[130.46127,33.05547]],[[130.54997,32.92604],[130.54743,32.92591]],[[130.64637,32.53347],[130.64501,32.53176]],[[130.46127,33.05547],[130.46643,33.06343],[130.46713,33.06484],[130.46736,33.06555],[130.46745,33.06665],[130.4674,33.06732],[130.46646,33.07508]],[[130.69426,32.60048],[130.69483,32.59846],[130.69499,32.59743],[130.69502,32.59606],[130.69489,32.59511],[130.69473,32.59464],[130.69053,32.58782],[130.6782,32.5689],[130.67775,32.56834],[130.67722,32.56783],[130.6764,32.56729],[130.67304,32.56541],[130.67087,32.56337]],[[130.63372,32.51754],[130.63492,32.51903]],[[130.68586,32.78437],[130.6858,32.78335],[130.68632,32.78005],[130.68621,32.77846],[130.68461,32.77011],[130.68313,32.76287]],[[130.68767,32.78786],[130.6864,32.78572],[130.68586,32.78437]],[[130.69392,32.60208],[130.69426,32.60048]],[[130.64501,32.53176],[130.63492,32.51903]],[[130.67087,32.65358],[130.67011,32.65148]],[[130.6799,32.8798],[130.67454,32.87832]],[[130.6989,32.8169],[130.69498,32.80717],[130.69478,32.80647],[130.69452,32.80467],[130.69433,32.79976],[130.69318,32.79543],[130.69281,32.79472],[130.69239,32.79422],[130.69088,32.79278],[130.68964,32.79076]],[[130.43457,32.99331],[130.43488,32.99574]],[[130.46043,33.09844],[130.45977,33.10067]],[[130.66983,32.56231],[130.66834,32.56084],[130.64637,32.53347]],[[130.67011,32.65148],[130.66982,32.6508],[130.66968,32.65018],[130.66972,32.64777],[130.66997,32.64704],[130.67066,32.64616],[130.6713,32.64569],[130.67397,32.64405],[130.67454,32.64342],[130.69111,32.61302],[130.69166,32.61177],[130.69197,32.6107],[130.69304,32.60631],[130.69392,32.60208]],[[130.62722,32.91587],[130.62547,32.91686]],[[130.65332,32.89902],[130.65429,32.89632],[130.65467,32.89544],[130.65493,32.89503],[130.65897,32.89012]],[[130.45671,32.93473],[130.45448,32.93556]],[[130.69488,32.83114],[130.69479,32.83279],[130.69484,32.83465],[130.69492,32.83529],[130.69515,32.83606],[130.69548,32.83671],[130.69607,32.83743],[130.69834,32.83921],[130.69874,32.83967],[130.6993,32.84052],[130.70108,32.84511],[130.70232,32.84755],[130.70268,32.84867],[130.70276,32.85],[130.70253,32.85111],[130.70194,32.85232],[130.70161,32.85282],[130.70047,32.85422]],[[130.44459,33.03042],[130.45046,33.03885],[130.45914,33.05205],[130.46054,33.05435]],[[130.66835,32.69123],[130.6655,32.67672],[130.6653,32.67547],[130.66529,32.67462],[130.66553,32.6736],[130.66692,32.67036],[130.66935,32.66535],[130.67213,32.65925],[130.67226,32.65854],[130.67212,32.65715],[130.67087,32.65358]],[[130.66899,32.69383],[130.66835,32.69123]],[[130.43488,32.99574],[130.43639,33.0078],[130.43836,33.01409],[130.43842,33.01461],[130.43837,33.01566],[130.43811,33.01726],[130.438,33.01883],[130.43808,33.02005],[130.43825,33.02073],[130.43843,33.02131],[130.43899,33.02254],[130.44067,33.02507],[130.4431,33.02836]],[[130.65332,32.89902],[130.65308,32.89965]],[[130.67982,32.74456],[130.67962,32.74248]],[[130.45977,33.10067],[130.45908,33.10327],[130.45913,33.10433],[130.45934,33.10509],[130.46349,33.11512],[130.47075,33.13225]],[[130.46634,33.07598],[130.46583,33.0784],[130.46332,33.08668],[130.46232,33.09181],[130.46043,33.09844]],[[130.68189,32.88034],[130.6799,32.8798]],[[130.45448,32.93556],[130.45331,32.93589],[130.45251,32.93597],[130.44791,32.93543],[130.44653,32.93539],[130.44506,32.93554],[130.44352,32.93603],[130.44246,32.93664],[130.44169,32.93726],[130.44075,32.93839],[130.44002,32.93974],[130.43978,32.94045],[130.43351,32.96115],[130.43328,32.96207],[130.43315,32.96485]],[[130.58746,32.91315],[130.58609,32.91338]],[[130.62547,32.91686],[130.62401,32.91767],[130.62312,32.91804],[130.62219,32.91833],[130.62087,32.91848],[130.61941,32.91815],[130.61436,32.91677],[130.61296,32.91657],[130.61087,32.91673],[130.60619,32.91729],[130.60447,32.91729],[130.60334,32.91704],[130.60257,32.91671],[130.59844,32.91387],[130.59661,32.91321],[130.59301,32.91266],[130.5917,32.91256],[130.59111,32.91257],[130.58746,32.91315]],[[130.65897,32.89012],[130.65939,32.88905],[130.65947,32.88843],[130.65942,32.88784],[130.65897,32.88668],[130.65862,32.88512],[130.65854,32.8832],[130.65864,32.88264],[130.659,32.88167],[130.65936,32.88103],[130.6603,32.87999],[130.66099,32.87945],[130.66219,32.87877],[130.66305,32.87857],[130.67083,32.87757],[130.67149,32.87758],[130.67235,32.87772],[130.67454,32.87832]],[[130.67962,32.74248],[130.67949,32.74074],[130.67937,32.73563],[130.67925,32.73478],[130.67867,32.73339],[130.67627,32.72933],[130.67581,32.72831],[130.67472,32.72312],[130.67434,32.72066],[130.67377,32.71776],[130.67331,32.71607],[130.6729,32.71407]],[[130.69924,32.81781],[130.6989,32.8169]],[[130.50338,32.92154],[130.50566,32.9213],[130.50697,32.92133],[130.5122,32.92183],[130.5141,32.92212],[130.51577,32.92228],[130.51644,32.92228],[130.51896,32.92188],[130.51964,32.9219],[130.52253,32.92247],[130.52965,32.9242],[130.53395,32.92513],[130.53659,32.9254],[130.54743,32.92591]],[[130.61983,32.50508],[130.62254,32.50375]],[[130.66915,32.69487],[130.66899,32.69383]],[[130.69488,32.83114],[130.69499,32.83047]],[[130.68767,32.78786],[130.68964,32.79076]],[[130.50148,32.92176],[130.49646,32.92242],[130.48149,32.92686],[130.47972,32.92756],[130.47411,32.93059],[130.47379,32.9307],[130.47261,32.93095],[130.46732,32.93163],[130.46597,32.93188],[130.45671,32.93473]],[[130.69499,32.83047],[130.69529,32.82965],[130.69872,32.82361],[130.69962,32.82187],[130.69978,32.82116],[130.69975,32.81936],[130.69959,32.81864],[130.69924,32.81781]],[[130.43315,32.96485],[130.43311,32.96681]],[[130.58609,32.91338],[130.58288,32.91395],[130.58176,32.91424],[130.57475,32.91756],[130.57386,32.91828],[130.57315,32.91907],[130.57158,32.92129],[130.57014,32.92246],[130.56925,32.92292],[130.56862,32.92313],[130.56526,32.92389],[130.55434,32.92601],[130.55272,32.92616],[130.54997,32.92604]],[[130.69985,32.85494],[130.69862,32.85636],[130.6982,32.85716],[130.69763,32.85866],[130.69672,32.8599],[130.69548,32.8609],[130.69251,32.86248],[130.69139,32.86332],[130.69085,32.86395],[130.69033,32.86475],[130.69005,32.86541],[130.68989,32.86613],[130.68989,32.8667],[130.69011,32.86813],[130.69036,32.86886],[130.69171,32.87097],[130.69216,32.87241],[130.69222,32.87311],[130.69207,32.87437],[130.69056,32.8782],[130.69025,32.87864],[130.68966,32.87923],[130.6888,32.87986],[130.6883,32.8801],[130.68709,32.88045],[130.68655,32.88054],[130.68461,32.88058],[130.68328,32.88054],[130.68189,32.88034]],[[130.65897,32.89012],[130.66693,32.88063],[130.66825,32.87943],[130.66974,32.87861],[130.67086,32.87824],[130.67193,32.87811],[130.67272,32.87811],[130.67454,32.87832]],[[130.67087,32.56337],[130.66983,32.56231]],[[130.46646,33.07508],[130.46634,33.07598]],[[130.50338,32.92154],[130.50148,32.92176]],[[130.3486,31.65447],[130.34718,31.65552]],[[130.33597,31.67424],[130.32535,31.67837],[130.3248,31.67849],[130.32252,31.67849],[130.32098,31.67868],[130.31634,31.67993],[130.31124,31.68156],[130.31011,31.68204],[130.30936,31.68256],[130.30893,31.68297],[130.30601,31.68652],[130.30335,31.68951]],[[130.30813,31.76686],[130.30819,31.76879],[130.30797,31.76963],[130.30745,31.77068],[130.30618,31.77225],[130.3058,31.77294],[130.30562,31.77373],[130.30563,31.77473],[130.30553,31.77549],[130.30406,31.77841],[130.30383,31.77966],[130.30387,31.78067],[130.30412,31.78156],[130.30554,31.78432],[130.30599,31.78552],[130.30645,31.78855],[130.30677,31.79131],[130.30693,31.79201]],[[130.30335,31.68951],[130.30248,31.69035]],[[130.46092,31.59337],[130.46526,31.59125],[130.46653,31.59074],[130.46783,31.59041],[130.46829,31.59042],[130.46877,31.59057],[130.47098,31.59193],[130.47154,31.59215],[130.47228,31.59228],[130.47301,31.59228],[130.47359,31.59219],[130.47428,31.59194],[130.47532,31.59125],[130.47591,31.59097],[130.47647,31.59075],[130.47726,31.59057],[130.47856,31.59052],[130.48053,31.59086],[130.48177,31.59072]],[[130.41476,31.61464],[130.41588,31.61439],[130.4179,31.61354],[130.41852,31.61337],[130.42102,31.61325],[130.42196,31.61311],[130.42405,31.61242],[130.42478,31.61204],[130.42519,31.61173],[130.42661,31.61002],[130.42741,31.60944]],[[130.53969,31.57754],[130.5387,31.57678],[130.53736,31.5762],[130.53648,31.57598],[130.53567,31.57591],[130.53035,31.57607],[130.52257,31.57648],[130.51852,31.57755],[130.51793,31.57763],[130.51361,31.57673],[130.5087,31.57587],[130.50814,31.57583],[130.50607,31.576],[130.5045,31.57652]],[[130.30801,31.76538],[130.30813,31.76686]],[[130.39687,31.62982],[130.39946,31.62894],[130.39998,31.62858],[130.40041,31.62809],[130.40112,31.6257],[130.40225,31.62098],[130.4026,31.62053],[130.40408,31.61914],[130.40533,31.61839],[130.41476,31.61464]],[[130.2742,31.72123],[130.27472,31.72245]],[[130.43964,31.60511],[130.43805,31.60565]],[[130.56339,31.60172],[130.562,31.60133],[130.56055,31.60118],[130.55742,31.60165],[130.55658,31.60163],[130.55609,31.60151],[130.54743,31.5974],[130.54589,31.59656],[130.54518,31.59589],[130.54466,31.59521],[130.5443,31.5945],[130.54404,31.59358],[130.54294,31.58822],[130.54221,31.58511]],[[130.33764,31.6736],[130.33597,31.67424]],[[130.45961,31.59398],[130.45903,31.59416],[130.45806,31.59428]],[[130.48177,31.59072],[130.48252,31.59041],[130.48783,31.58733],[130.48895,31.58682],[130.49041,31.58638],[130.49252,31.58605]],[[130.30248,31.69035],[130.29845,31.69401],[130.28644,31.70049],[130.28581,31.70111],[130.28422,31.70347]],[[130.34718,31.65552],[130.34356,31.6582],[130.34273,31.65918],[130.34223,31.66031],[130.34222,31.66067],[130.34288,31.66302],[130.34366,31.66718],[130.3436,31.6681],[130.34344,31.66872],[130.34325,31.66911],[130.3427,31.67014],[130.34181,31.67148],[130.34123,31.67206],[130.34048,31.67245],[130.33764,31.6736]],[[130.43805,31.60565],[130.42741,31.60944]],[[130.39687,31.62982],[130.39475,31.6305]],[[130.41476,31.61464],[130.4248,31.61041],[130.42741,31.60944]],[[130.30693,31.79201],[130.30722,31.79314]],[[130.45961,31.59398],[130.46092,31.59337]],[[130.49252,31.58605],[130.49489,31.58557],[130.49546,31.58534],[130.49626,31.58482],[130.49733,31.58394],[130.49841,31.58255],[130.50022,31.57963],[130.50136,31.57831],[130.50228,31.57754]],[[130.49252,31.58605],[130.49404,31.5856],[130.49458,31.5853],[130.49503,31.58482],[130.49545,31.58405],[130.49593,31.58221],[130.4964,31.58123],[130.49882,31.57839],[130.49965,31.57783],[130.5001,31.57764],[130.50065,31.57747],[130.50292,31.57711],[130.50358,31.57691]],[[130.39475,31.6305],[130.39429,31.63073],[130.3913,31.63272],[130.39036,31.63321],[130.38933,31.63362],[130.38859,31.6338],[130.38427,31.63427],[130.38087,31.6348],[130.37997,31.63506],[130.37929,31.63535],[130.37385,31.63843],[130.37056,31.63993],[130.36956,31.64056],[130.36714,31.64234],[130.36551,31.64391],[130.36268,31.64801],[130.36229,31.6484],[130.35744,31.65075],[130.35452,31.65173],[130.35096,31.65271],[130.3486,31.65447]],[[130.30722,31.79314],[130.30816,31.7965],[130.30829,31.79757],[130.30782,31.80284],[130.30783,31.80346],[130.30794,31.80401],[130.30827,31.80471],[130.30857,31.8051],[130.30945,31.80589],[130.31,31.80618],[130.31166,31.80676],[130.31223,31.80707],[130.31272,31.80753],[130.31314,31.8082],[130.31329,31.8092],[130.31247,31.81275]],[[130.46092,31.59337],[130.4645,31.5923],[130.46699,31.59205],[130.46807,31.59202],[130.46903,31.59209],[130.47209,31.59258],[130.47407,31.59264],[130.47582,31.59255],[130.47743,31.59233],[130.47853,31.59205],[130.48073,31.59126],[130.48177,31.59072]],[[130.45806,31.59428],[130.45662,31.59449],[130.45571,31.59471],[130.4549,31.59503],[130.45374,31.5957],[130.45202,31.59698],[130.44988,31.59822],[130.44923,31.59889],[130.44811,31.60066],[130.44724,31.60143],[130.44355,31.60371],[130.43964,31.60511]],[[130.56512,31.60276],[130.56413,31.60209],[130.56339,31.60172]],[[130.53969,31.57754],[130.54039,31.5783],[130.54096,31.57925],[130.54138,31.58069],[130.54181,31.58288]],[[130.54221,31.58511],[130.54181,31.58288]],[[130.31247,31.81275],[130.31193,31.81451]],[[130.27472,31.72245],[130.27613,31.72477],[130.27827,31.72863],[130.27868,31.72954],[130.2793,31.73179],[130.28079,31.73436],[130.28093,31.73516],[130.28116,31.73819],[130.28164,31.73951],[130.28321,31.74289],[130.28402,31.74363],[130.28526,31.74446],[130.28583,31.74477],[130.28779,31.74554],[130.28845,31.7461],[130.29029,31.74814],[130.29114,31.74882],[130.29471,31.75101]],[[130.29471,31.75101],[130.29565,31.75141],[130.2994,31.75239],[130.30028,31.75288],[130.30075,31.75333]],[[130.29471,31.75101],[130.29656,31.7521],[130.29935,31.75272],[130.30075,31.75333]],[[130.30075,31.75333],[130.30179,31.75424],[130.30547,31.75784],[130.30676,31.75924],[130.30721,31.7599],[130.30744,31.76041],[130.30761,31.76126],[130.30801,31.76538]],[[130.5045,31.57652],[130.50228,31.57754]],[[130.45752,33.72105],[130.45715,33.7208]],[[130.4661,33.73126],[130.46132,33.72385],[130.46039,33.723],[130.45752,33.72105]],[[130.44992,33.71276],[130.44897,33.71129]],[[130.44897,33.71129],[130.44585,33.70636],[130.44322,33.70202],[130.44178,33.69991],[130.44134,33.69938]],[[130.28378,31.70415],[130.27493,31.71756],[130.27442,31.71869],[130.27417,31.71954],[130.27409,31.72046],[130.2742,31.72123]],[[130.28422,31.70347],[130.28378,31.70415]],[[130.49172,33.17707],[130.49169,33.17875]],[[130.50165,33.31955],[130.50183,33.31873],[130.50239,33.31455],[130.50335,33.30974],[130.50346,33.30252]],[[130.6729,32.71407],[130.67277,32.71333]],[[130.67277,32.71333],[130.66935,32.69616],[130.66915,32.69487]],[[130.68313,32.76287],[130.68299,32.76215]],[[130.68299,32.76215],[130.68179,32.75537],[130.68061,32.74942],[130.67982,32.74456]]]}}