{"type":"Feature","properties":{"id":"九州旅客鉄道_後藤寺線","name":"後藤寺線","operator":"九州旅客鉄道","railType":"普通鉄道(JR)","operatorType":"JR在来線","category":"rail","attribution":"国土数値情報（鉄道データ）国土交通省"},"geometry":{"type":"MultiLineString","coordinates":[[[130.7671,33.62989],[130.76777,33.63053]],[[130.73918,33.61629],[130.74266,33.6154],[130.74363,33.61525],[130.75563,33.61638],[130.75631,33.61649],[130.75693,33.61672],[130.76011,33.61863],[130.76194,33.61985],[130.76239,33.62024],[130.76253,33.62073],[130.76254,33.62128],[130.76221,33.62332],[130.76221,33.62461],[130.76239,33.62552],[130.76256,33.62592],[130.76276,33.62623],[130.76314,33.62655],[130.76581,33.62805],[130.7664,33.62868],[130.7671,33.62989]],[[130.76777,33.63053],[130.76883,33.6311],[130.7702,33.63153],[130.77459,33.63285],[130.77636,33.63329],[130.7769,33.63334],[130.77809,33.63329],[130.78433,33.63214],[130.78574,33.632],[130.79517,33.63359],[130.79595,33.63363],[130.79664,33.63351],[130.79839,33.63292],[130.79886,33.63265],[130.79931,33.63217],[130.79987,33.63107]],[[130.73806,33.61636],[130.73918,33.61629]],[[130.79987,33.63107],[130.79992,33.63095]],[[130.79992,33.63095],[130.80051,33.62977]],[[130.69418,33.6438],[130.69351,33.64179]],[[130.69445,33.64475],[130.69418,33.6438]],[[130.72871,33.61458],[130.73132,33.61344],[130.73214,33.61333],[130.73289,33.61339],[130.73375,33.61366],[130.73434,33.61399],[130.73607,33.61559],[130.73679,33.61611],[130.73727,33.61628],[130.73806,33.61636]],[[130.71365,33.62261],[130.71409,33.62185]],[[130.72798,33.61489],[130.72871,33.61458]],[[130.71409,33.62185],[130.71456,33.62095],[130.715,33.61979],[130.71586,33.61659],[130.71624,33.61599],[130.71671,33.6155],[130.71751,33.61501],[130.71863,33.61466],[130.71992,33.61462],[130.72537,33.61545],[130.72634,33.61542],[130.727,33.61526],[130.72798,33.61489]],[[130.69351,33.64179],[130.69349,33.64128],[130.69371,33.6404],[130.69391,33.64],[130.6944,33.63936],[130.71145,33.6251],[130.71296,33.6236],[130.71365,33.62261]]]}}