{"type":"Feature","properties":{"id":"九州旅客鉄道_宮崎空港線","name":"宮崎空港線","operator":"九州旅客鉄道","railType":"普通鉄道(JR)","operatorType":"JR在来線","category":"rail","attribution":"国土数値情報（鉄道データ）国土交通省"},"geometry":{"type":"MultiLineString","coordinates":[[[131.44029,31.87243],[131.43949,31.87246],[131.43875,31.87259]],[[131.43875,31.87259],[131.43712,31.87281],[131.43367,31.87266],[131.43302,31.87289],[131.43236,31.8733],[131.43201,31.87364],[131.43158,31.87432]],[[131.43057,31.87841],[131.43025,31.87942]],[[131.43158,31.87432],[131.43112,31.87651],[131.43057,31.87841]]]}}