{"type":"Feature","properties":{"id":"九州旅客鉄道_篠栗線","name":"篠栗線","operator":"九州旅客鉄道","railType":"普通鉄道(JR)","operatorType":"JR在来線","category":"rail","attribution":"国土数値情報（鉄道データ）国土交通省"},"geometry":{"type":"MultiLineString","coordinates":[[[130.66129,33.58471],[130.65765,33.585]],[[130.66354,33.58459],[130.66129,33.58471]],[[130.65765,33.585],[130.65561,33.58518],[130.65466,33.58542],[130.65221,33.58624],[130.65001,33.58667],[130.64815,33.5865],[130.64633,33.58606],[130.64476,33.58587],[130.64231,33.58603],[130.63855,33.58672],[130.63615,33.58728],[130.63538,33.58756],[130.63065,33.58974]],[[130.57175,33.61808],[130.57032,33.61843],[130.56907,33.61854],[130.56709,33.61854],[130.56634,33.61868],[130.56547,33.61894],[130.56352,33.61987],[130.5598,33.62146],[130.55757,33.62211]],[[130.55757,33.62211],[130.55686,33.62228]],[[130.61282,33.59252],[130.61203,33.59232]],[[130.63065,33.58974],[130.62914,33.59053]],[[130.57243,33.61784],[130.57175,33.61808]],[[130.62914,33.59053],[130.62761,33.59185],[130.62603,33.59373],[130.62494,33.59459],[130.62431,33.59488],[130.62187,33.59562],[130.62135,33.59571],[130.62009,33.59579],[130.61924,33.59571],[130.61835,33.59552],[130.6179,33.59535],[130.61694,33.59481],[130.615,33.59336],[130.61431,33.59303],[130.61282,33.59252]],[[130.61203,33.59232],[130.61007,33.59199],[130.60758,33.5919],[130.6053,33.59195],[130.60247,33.59233],[130.5993,33.59309],[130.59783,33.5936],[130.59544,33.59463],[130.59387,33.59549],[130.59182,33.59696],[130.58939,33.59918],[130.58343,33.60592],[130.57388,33.61692],[130.5732,33.61744],[130.57243,33.61784]],[[130.42411,33.60839],[130.42468,33.6107]],[[130.42411,33.60839],[130.4233,33.60601]],[[130.44332,33.61336],[130.43002,33.61405],[130.42907,33.61387],[130.42787,33.61334],[130.42564,33.61179],[130.42509,33.61129],[130.42468,33.6107]],[[130.47215,33.61201],[130.47026,33.6117]],[[130.52481,33.62398],[130.52329,33.62387]],[[130.47892,33.61432],[130.47765,33.61339]],[[130.55686,33.62228],[130.55396,33.62301],[130.55219,33.62313],[130.5507,33.62295],[130.54364,33.62158],[130.54241,33.62152],[130.541,33.62169],[130.53996,33.62194],[130.53635,33.62356],[130.53491,33.62395],[130.5333,33.62423],[130.53034,33.62435],[130.52481,33.62398]],[[130.47026,33.6117],[130.46631,33.61108],[130.46502,33.61104],[130.46431,33.61112],[130.46341,33.61136],[130.46191,33.61209],[130.46061,33.61242],[130.45541,33.6127],[130.45241,33.61296],[130.445,33.6133]],[[130.445,33.6133],[130.44332,33.61336]],[[130.52329,33.62387],[130.5049,33.6227],[130.50374,33.6225],[130.49669,33.6207]],[[130.49669,33.6207],[130.4952,33.62029]],[[130.4952,33.62029],[130.49388,33.61993],[130.49016,33.61811],[130.48834,33.61752],[130.48552,33.61639],[130.48487,33.61627],[130.48266,33.61637],[130.48217,33.61633],[130.48144,33.61613],[130.48047,33.61556],[130.47892,33.61432]],[[130.47765,33.61339],[130.47708,33.61307],[130.47598,33.61268],[130.47215,33.61201]]]}}