{"type":"Feature","properties":{"id":"九州旅客鉄道_大村線","name":"大村線","operator":"九州旅客鉄道","railType":"普通鉄道(JR)","operatorType":"JR在来線","category":"rail","attribution":"国土数値情報（鉄道データ）国土交通省"},"geometry":{"type":"MultiLineString","coordinates":[[[129.7992,33.13257],[129.79947,33.13568]],[[130.0412,32.85228],[130.04181,32.85019]],[[130.04057,32.85503],[130.0412,32.85228]],[[129.95338,32.93942],[129.95268,32.9407]],[[129.94542,33.01272],[129.94482,33.01166],[129.94462,33.01108],[129.94454,33.01045],[129.94462,33.00985],[129.94497,33.00908],[129.94692,33.00738],[129.94727,33.00698],[129.94762,33.00629],[129.94785,33.00523],[129.94782,33.0049],[129.94753,33.00411],[129.94536,33.00103],[129.94506,33.00021],[129.94508,32.9999],[129.94527,32.99932],[129.94584,32.99837],[129.94788,32.99652],[129.94837,32.99582],[129.94856,32.99493],[129.9486,32.99254],[129.94882,32.99154],[129.94911,32.99094],[129.95096,32.98788],[129.95113,32.98708],[129.95093,32.98613],[129.95032,32.98529],[129.94787,32.98381],[129.94749,32.98349],[129.94704,32.98294],[129.94671,32.98232],[129.94649,32.98153],[129.94633,32.97813]],[[129.91529,33.03955],[129.91966,33.03756],[129.92108,33.03681],[129.92162,33.03641],[129.92273,33.03533],[129.92371,33.03411],[129.92586,33.03104],[129.92686,33.02985],[129.92782,33.02894],[129.92879,33.0282],[129.92936,33.02788],[129.93144,33.02718],[129.93221,33.02669],[129.93334,33.02578],[129.93419,33.0253],[129.93468,33.02511],[129.93711,33.0245],[129.93784,33.02417],[129.93817,33.02393],[129.93879,33.02331],[129.9393,33.02249],[129.94012,33.02012],[129.94079,33.0191],[129.9418,33.01827],[129.94505,33.01612],[129.94561,33.01556],[129.94581,33.01524],[129.94598,33.0146],[129.94596,33.01405],[129.94579,33.01342]],[[129.83413,33.06401],[129.83112,33.06682],[129.8301,33.06754],[129.82926,33.06792],[129.82544,33.06889],[129.82404,33.06935],[129.82345,33.06969],[129.82158,33.07144],[129.82099,33.07176],[129.81916,33.07234],[129.81704,33.07403],[129.81655,33.07449],[129.81601,33.07528],[129.81581,33.07588],[129.81553,33.07831],[129.81522,33.07926],[129.815,33.07969],[129.81413,33.08083],[129.81319,33.08169],[129.80172,33.08672]],[[129.86504,33.06843],[129.86313,33.06831]],[[129.91408,33.04009],[129.91529,33.03955]],[[129.80172,33.08672],[129.80062,33.08727]],[[129.98086,32.89073],[129.98168,32.89041]],[[129.98168,32.89041],[129.986,32.88874],[129.98819,32.8882],[130.00358,32.88676],[130.0053,32.8865],[130.01783,32.88276],[130.01923,32.88215],[130.02074,32.88137],[130.02165,32.88064],[130.02242,32.87962],[130.02339,32.8779],[130.02526,32.87421],[130.026,32.87325],[130.02897,32.87087],[130.03215,32.86873],[130.0352,32.86651],[130.03682,32.86482],[130.03746,32.86399],[130.03813,32.86271],[130.04057,32.85503]],[[129.83472,33.06344],[129.83413,33.06401]],[[129.95338,32.93942],[129.95937,32.92857],[129.95949,32.92824],[129.96021,32.92395]],[[129.86313,33.06831],[129.85875,33.06793],[129.85771,33.06763],[129.85693,33.06716],[129.85631,33.0666],[129.85582,33.06585],[129.8542,33.06185],[129.85385,33.06115],[129.85288,33.06038],[129.85124,33.0594],[129.84882,33.05708],[129.84817,33.05668],[129.84736,33.05642],[129.84632,33.05637],[129.84561,33.05643],[129.84267,33.05675],[129.84212,33.05693],[129.84077,33.05792],[129.83885,33.05893],[129.8379,33.05963],[129.83721,33.06049],[129.83628,33.06192],[129.83472,33.06344]],[[129.95268,32.9407],[129.94429,32.95591],[129.94396,32.95665],[129.94367,32.95761],[129.94363,32.95838],[129.94374,32.95894],[129.94549,32.96317],[129.94565,32.96395],[129.94589,32.96721],[129.94631,32.97678]],[[129.96033,32.92329],[129.96021,32.92395]],[[129.94579,33.01342],[129.94542,33.01272]],[[129.79594,33.09272],[129.79307,33.0968],[129.79261,33.09793],[129.79256,33.0991],[129.79269,33.09975],[129.79408,33.1042],[129.79495,33.10589],[129.79546,33.10707],[129.79556,33.10767],[129.79542,33.10961],[129.79555,33.11018],[129.79605,33.11114],[129.79695,33.1124],[129.79911,33.11902],[129.79914,33.12185],[129.79903,33.12869],[129.7992,33.13257]],[[129.96212,32.91237],[129.96241,32.91049]],[[129.80062,33.08727],[129.79959,33.08782],[129.7989,33.0884],[129.79773,33.08988],[129.79716,33.09097],[129.79663,33.09174]],[[129.86504,33.06843],[129.86778,33.06862],[129.86914,33.06863],[129.87055,33.06845],[129.87142,33.06818],[129.873,33.06739],[129.87548,33.06518],[129.87621,33.06464],[129.88425,33.06056],[129.88603,33.05937],[129.88713,33.05891],[129.89099,33.05782],[129.89177,33.05757],[129.8923,33.05731],[129.89289,33.0569],[129.89337,33.05639],[129.89466,33.05417],[129.89538,33.05346],[129.89632,33.05298],[129.8992,33.05181],[129.89997,33.05134],[129.90157,33.04946],[129.90261,33.04853],[129.90324,33.04817],[129.9078,33.04613],[129.90874,33.04562],[129.90979,33.04468],[129.91134,33.04188],[129.91183,33.04128],[129.91246,33.04083],[129.91408,33.04009]],[[129.96033,32.92329],[129.96212,32.91237]],[[129.79663,33.09174],[129.79594,33.09272]],[[129.94631,32.97678],[129.94633,32.97813]],[[129.96241,32.91049],[129.96293,32.90681],[129.96278,32.9059],[129.96203,32.90357],[129.96194,32.90256],[129.96228,32.90105],[129.96339,32.89894],[129.96426,32.89749],[129.96624,32.89572],[129.96685,32.89472],[129.9676,32.89308],[129.96886,32.89168],[129.96984,32.8908],[129.97089,32.89041],[129.97184,32.89038],[129.97272,32.89054],[129.97463,32.89138],[129.97594,32.89179],[129.97686,32.89191],[129.97758,32.89188],[129.97835,32.8917],[129.98086,32.89073]]]}}