{"type":"Feature","properties":{"id":"九州旅客鉄道_指宿枕崎線","name":"指宿枕崎線","operator":"九州旅客鉄道","railType":"普通鉄道(JR)","operatorType":"JR在来線","category":"rail","attribution":"国土数値情報（鉄道データ）国土交通省"},"geometry":{"type":"MultiLineString","coordinates":[[[130.46835,31.25224],[130.46416,31.2546],[130.46314,31.25504],[130.45014,31.25749],[130.44703,31.25906],[130.44629,31.25928],[130.4456,31.25938]],[[130.37659,31.25712],[130.37581,31.25716]],[[130.50024,31.22934],[130.49774,31.23503],[130.49767,31.23534],[130.49734,31.23601],[130.49698,31.23653],[130.49407,31.24022],[130.49334,31.24065],[130.49176,31.24108]],[[130.50753,31.50005],[130.50779,31.50103]],[[130.53969,31.57754],[130.54039,31.5783],[130.54096,31.57925],[130.54138,31.58069],[130.54181,31.58288]],[[130.54169,31.56602],[130.54055,31.56768],[130.54012,31.56855],[130.53919,31.57191],[130.53884,31.57346],[130.53875,31.57473],[130.53894,31.57646],[130.53913,31.57683],[130.53969,31.57754]],[[130.53459,31.39433],[130.53551,31.39323]],[[130.59863,31.29086],[130.59643,31.29197],[130.59522,31.29223],[130.59485,31.29243],[130.59432,31.29294],[130.59395,31.29372],[130.59382,31.29518],[130.59365,31.29549],[130.59252,31.29636],[130.59211,31.29686],[130.59189,31.29742],[130.59161,31.29861],[130.59104,31.29959],[130.59064,31.30004],[130.59029,31.30019],[130.58743,31.3009],[130.58459,31.30181],[130.5822,31.30361],[130.57812,31.30686]],[[130.5652,31.19495],[130.56126,31.19696],[130.55023,31.20082]],[[130.57606,31.1903],[130.57518,31.19032],[130.57427,31.19048],[130.57327,31.19081],[130.56585,31.19461]],[[130.41376,31.25776],[130.41309,31.25813]],[[130.52273,31.42157],[130.52266,31.42437],[130.52257,31.42477],[130.52022,31.43167],[130.52025,31.43398],[130.51991,31.43468],[130.519,31.43584],[130.51777,31.43764],[130.51774,31.43797],[130.51793,31.43911],[130.51787,31.43962],[130.51732,31.44063],[130.51691,31.44212],[130.51706,31.44282],[130.51759,31.4442],[130.51753,31.44478],[130.51718,31.44533],[130.51528,31.44688],[130.51395,31.44882]],[[130.43086,31.25737],[130.43026,31.25694]],[[130.50052,31.22873],[130.50024,31.22934]],[[130.53848,31.37206],[130.53918,31.37061]],[[130.59926,31.29051],[130.59863,31.29086]],[[130.59907,31.19469],[130.59719,31.19173],[130.59632,31.19111],[130.59525,31.19078],[130.57683,31.19031]],[[130.54228,31.56526],[130.54169,31.56602]],[[130.64231,31.23744],[130.63531,31.24904],[130.63435,31.25027],[130.63035,31.25405]],[[130.50631,31.51741],[130.51209,31.52351],[130.51365,31.52504],[130.51411,31.52536],[130.51514,31.5258],[130.51834,31.52687]],[[130.54221,31.58511],[130.54181,31.58288]],[[130.43026,31.25694],[130.42855,31.25567],[130.42718,31.25499],[130.4228,31.25395],[130.42131,31.25382],[130.42038,31.25391],[130.41979,31.25406],[130.41856,31.25465],[130.41376,31.25776]],[[130.62,31.27695],[130.61943,31.27733]],[[130.55023,31.20082],[130.54952,31.20105]],[[130.51867,31.20465],[130.51824,31.20672],[130.51801,31.20737],[130.51729,31.20877],[130.51646,31.20986],[130.51098,31.21468],[130.50847,31.21792],[130.50806,31.21835],[130.50503,31.22007],[130.50464,31.22048],[130.50291,31.22338],[130.50052,31.22873]],[[130.50445,31.47467],[130.50372,31.4758]],[[130.57709,31.30767],[130.57368,31.31024],[130.57206,31.31174],[130.56763,31.31674],[130.56624,31.31896],[130.56536,31.31976],[130.56359,31.32411],[130.5632,31.32592],[130.56243,31.32717],[130.56119,31.32882],[130.56065,31.33014],[130.56033,31.3318],[130.56038,31.33442],[130.55784,31.34208],[130.55753,31.34277]],[[130.53671,31.54456],[130.53886,31.54675],[130.53918,31.54718],[130.54212,31.55166],[130.5434,31.55433]],[[130.61943,31.27733],[130.61891,31.27792],[130.61851,31.27868],[130.61804,31.28044],[130.61748,31.28096],[130.61692,31.28124],[130.6166,31.28131],[130.61486,31.28135],[130.61373,31.28154],[130.611,31.28305],[130.60991,31.28394],[130.60953,31.28434],[130.60939,31.28466],[130.60934,31.28502],[130.60942,31.28668],[130.60922,31.28719],[130.60881,31.28765],[130.60817,31.28799],[130.60672,31.28844],[130.60138,31.28951],[130.59926,31.29051]],[[130.35627,31.25689],[130.35425,31.25739],[130.33985,31.26153],[130.33403,31.2624],[130.33146,31.2623]],[[130.57683,31.19031],[130.57606,31.1903]],[[130.33146,31.2623],[130.3307,31.26225]],[[130.50535,31.51641],[130.50631,31.51741]],[[130.49107,31.24126],[130.48907,31.24174],[130.48865,31.24175],[130.48508,31.24111],[130.48398,31.24121],[130.48319,31.24153],[130.48029,31.24384],[130.47841,31.24619],[130.47787,31.24675],[130.47713,31.24732],[130.46896,31.25192]],[[130.53437,31.20406],[130.53102,31.20477],[130.53,31.20483],[130.52889,31.20476],[130.52741,31.20431],[130.52388,31.20282],[130.52285,31.20229],[130.52235,31.20214],[130.52158,31.2021],[130.52051,31.20223],[130.51958,31.20274],[130.51901,31.20346],[130.51883,31.204]],[[130.46896,31.25192],[130.46835,31.25224]],[[130.64301,31.23632],[130.64231,31.23744]],[[130.55704,31.3433],[130.55753,31.34277]],[[130.50779,31.50103],[130.50886,31.50422],[130.50899,31.50494],[130.50892,31.50546],[130.50856,31.50607],[130.50674,31.50754],[130.50594,31.50832],[130.50362,31.5133],[130.5036,31.51373],[130.50403,31.51486],[130.50448,31.5155],[130.50535,31.51641]],[[130.4456,31.25938],[130.44481,31.25933]],[[130.51373,31.44952],[130.51359,31.45391],[130.5126,31.45639],[130.51236,31.45719],[130.51234,31.45752],[130.51263,31.45911],[130.51266,31.45985],[130.51198,31.46167],[130.51173,31.46336],[130.51153,31.46406],[130.51135,31.46449],[130.51101,31.4649],[130.50829,31.46682],[130.50765,31.4675],[130.50731,31.46845],[130.50656,31.47125],[130.50445,31.47467]],[[130.6303,31.21184],[130.632,31.21285],[130.63288,31.21367],[130.63353,31.21402],[130.63911,31.21637],[130.64076,31.21726],[130.6413,31.21733],[130.64541,31.21729],[130.64597,31.21738],[130.64708,31.21775],[130.64779,31.21807],[130.64837,31.21844],[130.64888,31.2189],[130.64948,31.21957],[130.65001,31.22044],[130.65032,31.2213],[130.65056,31.22267],[130.65055,31.22336],[130.65022,31.22434],[130.6499,31.22499],[130.64301,31.23632]],[[130.56585,31.19461],[130.5652,31.19495]],[[130.59944,31.19528],[130.60028,31.1965],[130.60097,31.19713],[130.60193,31.19759],[130.60254,31.19766],[130.6036,31.19755],[130.60732,31.19593],[130.60798,31.1958],[130.60861,31.1958],[130.61297,31.1966],[130.62273,31.19734],[130.62316,31.19742],[130.62378,31.19769],[130.62424,31.19805],[130.62484,31.19918],[130.62746,31.20765],[130.62869,31.20961],[130.62908,31.21077],[130.6297,31.21139]],[[130.59944,31.19528],[130.59907,31.19469]],[[130.50372,31.4758],[130.50266,31.47732],[130.5022,31.47822],[130.50202,31.47888],[130.50205,31.47968],[130.50361,31.48442],[130.50683,31.49786],[130.50753,31.50005]],[[130.53593,31.54377],[130.53671,31.54456]],[[130.37581,31.25716],[130.37368,31.25728],[130.37275,31.25749],[130.37181,31.25793],[130.36993,31.25909],[130.36878,31.25967],[130.36798,31.25992],[130.36681,31.26009],[130.36599,31.26007],[130.36523,31.25994],[130.35774,31.25692],[130.35703,31.25685]],[[130.6297,31.21139],[130.6303,31.21184]],[[130.53551,31.39323],[130.53714,31.39115],[130.53751,31.39045],[130.53775,31.38952],[130.5377,31.38786],[130.53747,31.38714],[130.53692,31.38601],[130.53677,31.38543],[130.53688,31.38088],[130.53715,31.37531],[130.53748,31.37405],[130.53848,31.37206]],[[130.41309,31.25813],[130.41169,31.25862],[130.4102,31.25861],[130.40842,31.25804],[130.40357,31.25622],[130.40264,31.25603],[130.40133,31.25597],[130.39919,31.25615],[130.39789,31.25648],[130.39689,31.25711],[130.39549,31.25845],[130.39498,31.25875]],[[130.5438,31.55527],[130.54464,31.55714],[130.54543,31.5582],[130.54587,31.55898],[130.54593,31.55992],[130.54572,31.56041],[130.54484,31.56176],[130.54228,31.56526]],[[130.49176,31.24108],[130.49107,31.24126]],[[130.63035,31.25405],[130.62985,31.25459]],[[130.53918,31.37061],[130.54154,31.36585],[130.54521,31.36246],[130.54638,31.36089],[130.54728,31.36027],[130.549,31.35981],[130.55033,31.35929],[130.55066,31.35911],[130.55103,31.35876],[130.55344,31.3532],[130.55404,31.35161],[130.55453,31.34959],[130.55474,31.34812],[130.55468,31.34657],[130.55484,31.34558],[130.55519,31.345],[130.55653,31.34385],[130.55704,31.3433]],[[130.57812,31.30686],[130.57709,31.30767]],[[130.39498,31.25875],[130.39435,31.25903]],[[130.35703,31.25685],[130.35627,31.25689]],[[130.62985,31.25459],[130.6295,31.25519],[130.62911,31.25639],[130.627,31.26744],[130.62612,31.27145],[130.6259,31.27186],[130.62373,31.27455],[130.62273,31.27542],[130.62157,31.27601],[130.62,31.27695]],[[130.52274,31.42087],[130.52273,31.42157]],[[130.52274,31.42087],[130.52285,31.41943],[130.5239,31.41526],[130.52467,31.41377],[130.5248,31.41336],[130.52504,31.41184],[130.52573,31.40954],[130.52618,31.4084],[130.52642,31.40797],[130.52717,31.40704],[130.52914,31.40587],[130.52972,31.40526],[130.53016,31.40448],[130.53071,31.40185],[130.53155,31.39968],[130.53366,31.39554],[130.53459,31.39433]],[[130.39435,31.25903],[130.39325,31.25932],[130.39268,31.25938],[130.3899,31.25944],[130.38907,31.25938],[130.38822,31.25917],[130.38458,31.2574],[130.38312,31.25694],[130.38257,31.25688],[130.37659,31.25712]],[[130.54952,31.20105],[130.54726,31.20151],[130.54047,31.20262],[130.5351,31.20389]],[[130.51962,31.52731],[130.52069,31.52777],[130.5212,31.52822],[130.52323,31.53031],[130.53234,31.54012],[130.53593,31.54377]],[[130.51395,31.44882],[130.51373,31.44952]],[[130.29962,31.27177],[130.29924,31.27245]],[[130.5351,31.20389],[130.53437,31.20406]],[[130.51834,31.52687],[130.51962,31.52731]],[[130.51883,31.204],[130.51867,31.20465]],[[130.44481,31.25933],[130.44377,31.25907],[130.44127,31.25805],[130.44073,31.2579],[130.43273,31.25809],[130.43169,31.25786],[130.43086,31.25737]],[[130.5434,31.55433],[130.5438,31.55527]],[[130.3307,31.26225],[130.32169,31.26149],[130.32043,31.26157],[130.31998,31.26168],[130.3188,31.26227],[130.31021,31.26738],[130.30831,31.26809],[130.3033,31.2693],[130.30139,31.26986],[130.30046,31.27054],[130.29962,31.27177]]]}}