{"type":"Feature","properties":{"id":"井原鉄道_井原線","name":"井原線","operator":"井原鉄道","railType":"普通鉄道","operatorType":"第三セクター","category":"rail","attribution":"国土数値情報（鉄道データ）国土交通省"},"geometry":{"type":"MultiLineString","coordinates":[[[133.45024,34.58792],[133.44799,34.58759],[133.44592,34.58713],[133.43372,34.5819]],[[133.50818,34.59679],[133.5074,34.59657]],[[133.66221,34.62167],[133.669,34.62288],[133.66994,34.62313],[133.67245,34.62414],[133.67353,34.62433],[133.67525,34.62425],[133.67875,34.62338],[133.68064,34.62339],[133.68894,34.62537],[133.69035,34.6259],[133.69171,34.62658]],[[133.4696,34.59294],[133.46856,34.59261]],[[133.3866,34.55267],[133.38512,34.55198],[133.37966,34.54971],[133.37902,34.54928],[133.37824,34.54859],[133.37759,34.54766],[133.37715,34.54668],[133.37699,34.54561],[133.3772,34.54375]],[[133.54208,34.60582],[133.54037,34.60474],[133.53852,34.60335],[133.53735,34.6028],[133.53638,34.60244],[133.53078,34.60075],[133.52722,34.60023],[133.52535,34.59982],[133.51129,34.59753],[133.50818,34.59679]],[[133.5074,34.59657],[133.50048,34.59472],[133.49738,34.59408],[133.49191,34.59462],[133.49095,34.59464],[133.48991,34.59461],[133.48114,34.59366],[133.48034,34.59381],[133.47829,34.59451],[133.4769,34.59476],[133.47595,34.59476],[133.47513,34.59467],[133.47448,34.5945],[133.4696,34.59294]],[[133.62003,34.61641],[133.62165,34.61645],[133.62416,34.61669],[133.63711,34.61838],[133.63796,34.61855],[133.63938,34.61902],[133.64203,34.62041],[133.64297,34.62083],[133.64452,34.62133],[133.65254,34.62267],[133.65496,34.62285],[133.6561,34.62279],[133.65734,34.62251],[133.65991,34.62174],[133.66042,34.62164],[133.66138,34.6216]],[[133.62003,34.61641],[133.61922,34.61645]],[[133.58982,34.62929],[133.58823,34.62923],[133.58639,34.62893],[133.58548,34.62859],[133.58453,34.62802],[133.58362,34.6272],[133.57902,34.62191],[133.57846,34.62136],[133.57753,34.62059],[133.5754,34.61925],[133.57286,34.61811],[133.5649,34.61495],[133.55837,34.61176],[133.55466,34.61005],[133.54612,34.60755],[133.54408,34.60681],[133.54274,34.60621]],[[133.43372,34.5819],[133.43293,34.58156]],[[133.61922,34.61645],[133.61711,34.61669],[133.61493,34.61721],[133.61242,34.61814],[133.61134,34.61863],[133.60896,34.61996],[133.6053,34.62257],[133.60079,34.626],[133.59892,34.62726],[133.59779,34.62785],[133.59583,34.62865],[133.5933,34.62932],[133.59234,34.62938],[133.59065,34.62932]],[[133.43293,34.58156],[133.42166,34.57659],[133.41061,34.57155],[133.40884,34.57023],[133.40256,34.56499]],[[133.46856,34.59261],[133.46556,34.59163],[133.46471,34.59154],[133.46161,34.59158],[133.46058,34.59141],[133.45369,34.58865],[133.45277,34.58835],[133.45105,34.58803]],[[133.38732,34.55301],[133.3866,34.55267]],[[133.59065,34.62932],[133.58982,34.62929]],[[133.54274,34.60621],[133.54208,34.60582]],[[133.66138,34.6216],[133.66221,34.62167]],[[133.69171,34.62658],[133.69241,34.62694]],[[133.40197,34.56449],[133.39255,34.55643],[133.39091,34.55511],[133.38895,34.55382],[133.38732,34.55301]],[[133.45105,34.58803],[133.45024,34.58792]],[[133.71543,34.63236],[133.72187,34.6315],[133.72321,34.63142],[133.72387,34.63142],[133.72583,34.63165],[133.72713,34.63188],[133.72817,34.63216],[133.72896,34.63242],[133.73026,34.63302],[133.7311,34.63363],[133.73149,34.63404],[133.73203,34.63481],[133.73219,34.63524],[133.73235,34.63605],[133.73243,34.63716]],[[133.71461,34.63246],[133.71543,34.63236]],[[133.69241,34.62694],[133.69784,34.62964],[133.69938,34.63005],[133.70211,34.63036],[133.70375,34.63089],[133.70714,34.63224],[133.70873,34.63245],[133.71124,34.63258],[133.71247,34.63259],[133.71461,34.63246]],[[133.40256,34.56499],[133.40197,34.56449]],[[133.3772,34.54375],[133.37797,34.54083],[133.37861,34.53776]],[[133.37861,34.53776],[133.37871,34.53712]],[[133.73337,34.64317],[133.73364,34.6449]],[[133.73243,34.63716],[133.73337,34.64317]],[[133.73798,34.67296],[133.73833,34.6754]],[[133.73364,34.6449],[133.73798,34.67296]]]}}