{"type":"Feature","properties":{"id":"京浜急行電鉄_本線","name":"本線","operator":"京浜急行電鉄","railType":"普通鉄道","operatorType":"民営","category":"rail","attribution":"国土数値情報（鉄道データ）国土交通省"},"geometry":{"type":"MultiLineString","coordinates":[[[139.73543,35.58811],[139.73589,35.59143],[139.73619,35.59256],[139.73879,35.59817]],[[139.73219,35.57279],[139.73183,35.57221]],[[139.7152,35.55006],[139.71487,35.54949]],[[139.74166,35.61586],[139.74137,35.6173]],[[139.73826,35.62841],[139.73814,35.63374],[139.7384,35.63483]],[[139.73925,35.62285],[139.73917,35.6243],[139.73903,35.62465],[139.73856,35.62524],[139.73807,35.62689]],[[139.73807,35.62689],[139.73796,35.62751],[139.73799,35.62774],[139.73819,35.62802],[139.73826,35.62841]],[[139.72794,35.5665],[139.72629,35.56453],[139.72516,35.56287]],[[139.73941,35.62205],[139.73925,35.62285]],[[139.71487,35.54949],[139.71298,35.54686],[139.70846,35.54148],[139.70781,35.54081]],[[139.74324,35.60864],[139.74303,35.60974]],[[139.73183,35.57221],[139.73107,35.57094],[139.7284,35.56707]],[[139.72346,35.56054],[139.71707,35.55284],[139.71644,35.55201],[139.7152,35.55006]],[[139.73879,35.59817],[139.7391,35.59884]],[[139.73524,35.58705],[139.73513,35.58531],[139.73523,35.58395],[139.73553,35.58193],[139.73546,35.58084],[139.73519,35.5795]],[[139.74275,35.60545],[139.74335,35.60631],[139.74353,35.60695],[139.74349,35.60754],[139.74324,35.60864]],[[139.7284,35.56707],[139.72794,35.5665]],[[139.70781,35.54081],[139.70732,35.54025]],[[139.74137,35.6173],[139.74097,35.61907],[139.74075,35.61972],[139.73974,35.62135],[139.73941,35.62205]],[[139.74303,35.60974],[139.74166,35.61586]],[[139.73519,35.5795],[139.73495,35.57862],[139.73464,35.5779]],[[139.73524,35.58705],[139.73543,35.58811]],[[139.7391,35.59884],[139.7412,35.60332],[139.74214,35.60469]],[[139.73464,35.5779],[139.73387,35.57658],[139.73241,35.57313],[139.73219,35.57279]],[[139.74214,35.60469],[139.74275,35.60545]],[[139.7384,35.63483],[139.73938,35.63746]],[[139.73938,35.63746],[139.74008,35.6388]],[[139.68635,35.26351],[139.68772,35.26279]],[[139.68772,35.26279],[139.6878,35.26276]],[[139.70132,35.53338],[139.70056,35.53264]],[[139.64238,35.28673],[139.64338,35.2866]],[[139.6946,35.26133],[139.69614,35.26068]],[[139.67611,35.27041],[139.67748,35.26947]],[[139.64435,35.48433],[139.64572,35.48478]],[[139.64572,35.48478],[139.6469,35.48503],[139.64999,35.48532],[139.65132,35.48555],[139.6529,35.48603],[139.65536,35.48703]],[[139.68677,35.51801],[139.68621,35.51717]],[[139.69614,35.26068],[139.6993,35.25942],[139.69997,35.25922],[139.70061,35.25913],[139.70214,35.25913],[139.70546,35.2596],[139.70699,35.25958]],[[139.715,35.25261],[139.71479,35.25329],[139.71389,35.25511],[139.7133,35.25662],[139.71253,35.25781],[139.71124,35.25881],[139.71049,35.25921],[139.70884,35.25954]],[[139.67708,35.50604],[139.67431,35.50183],[139.67387,35.50127],[139.6732,35.50063]],[[139.66319,35.28034],[139.66563,35.28014],[139.66672,35.27994],[139.66937,35.27902]],[[139.64338,35.2866],[139.64439,35.28623],[139.64514,35.28575],[139.64755,35.28397],[139.64856,35.28332],[139.64883,35.28303],[139.65012,35.2821],[139.652,35.28092]],[[139.71502,35.25112],[139.71507,35.2519],[139.715,35.25261]],[[139.67748,35.26947],[139.68242,35.26671],[139.68474,35.26449],[139.68635,35.26351]],[[139.70699,35.25958],[139.70884,35.25954]],[[139.67072,35.27837],[139.67246,35.27724],[139.67303,35.27663],[139.67397,35.27539],[139.67428,35.27492],[139.67443,35.2744],[139.6745,35.27293],[139.67469,35.27215],[139.67525,35.27124],[139.67611,35.27041]],[[139.65306,35.28041],[139.65387,35.28027],[139.65834,35.28019],[139.66184,35.28029]],[[139.70056,35.53264],[139.69172,35.52331]],[[139.66937,35.27902],[139.67072,35.27837]],[[139.66776,35.49596],[139.67252,35.50002]],[[139.65634,35.48741],[139.65847,35.48849],[139.66085,35.49012],[139.66691,35.49524]],[[139.67252,35.50002],[139.6732,35.50063]],[[139.66691,35.49524],[139.66776,35.49596]],[[139.68621,35.51717],[139.68303,35.51208],[139.6825,35.51137],[139.68102,35.50992],[139.67884,35.50802],[139.67811,35.50725]],[[139.70732,35.54025],[139.70274,35.53491],[139.70132,35.53338]],[[139.69172,35.52331],[139.69118,35.52274]],[[139.65536,35.48703],[139.65634,35.48741]],[[139.652,35.28092],[139.65306,35.28041]],[[139.66184,35.28029],[139.66319,35.28034]],[[139.6878,35.26276],[139.68942,35.26217],[139.6933,35.26188],[139.6946,35.26133]],[[139.69118,35.52274],[139.68677,35.51801]],[[139.67811,35.50725],[139.67708,35.50604]],[[139.62014,35.33047],[139.62011,35.33179]],[[139.61978,35.32749],[139.62007,35.32895],[139.62014,35.33047]],[[139.59703,35.42371],[139.59752,35.42201],[139.59781,35.42058],[139.5976,35.41863],[139.59662,35.41431],[139.59654,35.41345],[139.59658,35.41026]],[[139.62165,35.34277],[139.62017,35.33731],[139.62011,35.33179]],[[139.62652,35.44591],[139.62685,35.44522]],[[139.59987,35.43373],[139.59829,35.43339],[139.59749,35.43303],[139.59665,35.43233],[139.59643,35.43204],[139.59605,35.43125],[139.59591,35.43061],[139.5961,35.42731],[139.59652,35.42534],[139.59679,35.42449]],[[139.63956,35.48104],[139.64078,35.48199]],[[139.62482,35.30146],[139.62557,35.30059]],[[139.62983,35.36619],[139.62969,35.36723]],[[139.62557,35.30059],[139.62612,35.29974],[139.62647,35.2988],[139.62721,35.29422],[139.62744,35.29336],[139.628,35.29214],[139.6288,35.29108],[139.62932,35.29063],[139.63388,35.28727],[139.63495,35.28676],[139.63735,35.28632],[139.63863,35.28621],[139.64126,35.28667],[139.64238,35.28673]],[[139.62237,35.46528],[139.62388,35.46722]],[[139.64078,35.48199],[139.64346,35.48381],[139.64435,35.48433]],[[139.60997,35.39458],[139.61091,35.39368]],[[139.62764,35.47151],[139.62906,35.47313],[139.63444,35.47718]],[[139.61976,35.45619],[139.62059,35.45429],[139.62151,35.45107],[139.62179,35.45063],[139.62288,35.44947],[139.62558,35.44718],[139.62621,35.44648],[139.62652,35.44591]],[[139.63444,35.47718],[139.63541,35.47793]],[[139.613,35.43679],[139.60823,35.43598],[139.60451,35.43476],[139.60118,35.43402]],[[139.60118,35.43402],[139.59987,35.43373]],[[139.61976,35.45619],[139.61936,35.45713]],[[139.62315,35.4399],[139.62197,35.43951]],[[139.62891,35.35988],[139.62806,35.35818],[139.62793,35.35764],[139.62799,35.354],[139.62749,35.35225],[139.62692,35.3513],[139.6251,35.34973],[139.62485,35.34943],[139.62314,35.34664],[139.62233,35.34547],[139.62189,35.34372]],[[139.62719,35.47099],[139.62764,35.47151]],[[139.63541,35.47793],[139.63956,35.48104]],[[139.62197,35.43951],[139.61651,35.43764],[139.61564,35.43725],[139.61427,35.43699]],[[139.59664,35.40843],[139.59677,35.40629],[139.59713,35.4051],[139.59856,35.40234],[139.59909,35.4016],[139.60128,35.39983],[139.60255,35.3981],[139.60337,35.39738],[139.60415,35.39706],[139.60675,35.39649],[139.60811,35.39607],[139.60909,35.39538],[139.60997,35.39458]],[[139.62189,35.34372],[139.62165,35.34277]],[[139.61978,35.32749],[139.61897,35.32478],[139.61882,35.32389],[139.61894,35.32301],[139.61922,35.32221],[139.62076,35.31964],[139.62123,35.31905],[139.62172,35.31858],[139.62385,35.31713],[139.62459,35.31632]],[[139.59658,35.41026],[139.59664,35.40843]],[[139.61581,35.38354],[139.61837,35.37861],[139.61911,35.37741],[139.61946,35.37706],[139.62073,35.37611],[139.62263,35.37497],[139.624,35.3743],[139.62645,35.37367],[139.62701,35.3733],[139.62859,35.37194],[139.62891,35.37128],[139.62909,35.37062],[139.62969,35.36723]],[[139.62947,35.36119],[139.62936,35.36075],[139.62891,35.35988]],[[139.62947,35.36119],[139.62991,35.36543],[139.62983,35.36619]],[[139.59679,35.42449],[139.59703,35.42371]],[[139.62459,35.31632],[139.62489,35.31585],[139.6251,35.31493]],[[139.62685,35.44522],[139.62697,35.44448],[139.62687,35.44389],[139.62541,35.44148],[139.62466,35.44075],[139.624,35.44032],[139.62315,35.4399]],[[139.61936,35.45713],[139.61873,35.45835],[139.61861,35.45877],[139.61861,35.45912],[139.61892,35.45968],[139.61992,35.46068],[139.62179,35.4628],[139.622,35.46336],[139.62196,35.46451],[139.62211,35.46494],[139.62237,35.46528]],[[139.6251,35.31493],[139.62505,35.31433],[139.62393,35.31069],[139.62401,35.30719],[139.62397,35.30667],[139.62359,35.30538],[139.62351,35.30438],[139.62365,35.30367],[139.62405,35.3026],[139.62482,35.30146]],[[139.61091,35.39368],[139.61215,35.39231],[139.61275,35.3913],[139.61322,35.39],[139.61366,35.38808],[139.61407,35.38688],[139.61541,35.38427]],[[139.62388,35.46722],[139.62719,35.47099]],[[139.61427,35.43699],[139.613,35.43679]],[[139.61541,35.38427],[139.61581,35.38354]],[[139.72516,35.56287],[139.72346,35.56054]]]}}