{"type":"Feature","properties":{"id":"京成電鉄_東成田線","name":"東成田線","operator":"京成電鉄","railType":"普通鉄道","operatorType":"民営","category":"rail","attribution":"国土数値情報（鉄道データ）国土交通省"},"geometry":{"type":"MultiLineString","coordinates":[[[140.31612,35.77671],[140.31481,35.77583]],[[140.37806,35.77581],[140.37439,35.77707],[140.37171,35.77789],[140.36923,35.77808],[140.36806,35.77804],[140.36684,35.77789],[140.36587,35.77767],[140.35966,35.77592],[140.3568,35.77532],[140.34343,35.77417],[140.34048,35.77401],[140.33823,35.77407],[140.3359,35.77429],[140.33462,35.77449],[140.33256,35.77492],[140.33043,35.77551],[140.32773,35.77651],[140.32291,35.77874],[140.32231,35.77891],[140.32131,35.77902],[140.31997,35.77891],[140.3188,35.77851],[140.31612,35.77671]],[[140.38774,35.76902],[140.38676,35.77035]],[[140.38676,35.77035],[140.3846,35.77315],[140.38389,35.77373],[140.38217,35.77452],[140.37806,35.77581]]]}}