{"type":"Feature","properties":{"id":"京成電鉄_本線","name":"本線","operator":"京成電鉄","railType":"普通鉄道","operatorType":"民営","category":"rail","attribution":"国土数値情報（鉄道データ）国土交通省"},"geometry":{"type":"MultiLineString","coordinates":[[[140.3871,35.76693],[140.388,35.76828],[140.38893,35.77001],[140.3889,35.77096],[140.38846,35.77178]],[[140.38846,35.77178],[140.38676,35.77414]],[[140.38551,35.76452],[140.3871,35.76693]],[[140.38676,35.77414],[140.38449,35.77733]],[[140.25102,35.73008],[140.25339,35.73128],[140.26797,35.735],[140.26876,35.73549],[140.2697,35.73644]],[[140.23072,35.72524],[140.22901,35.72517]],[[140.31612,35.77671],[140.31481,35.77583]],[[140.37806,35.77581],[140.37439,35.77707],[140.37171,35.77789],[140.36923,35.77808],[140.36806,35.77804],[140.36684,35.77789],[140.36587,35.77767],[140.35966,35.77592],[140.3568,35.77532],[140.34343,35.77417],[140.34048,35.77401],[140.33823,35.77407],[140.3359,35.77429],[140.33462,35.77449],[140.33256,35.77492],[140.33043,35.77551],[140.32773,35.77651],[140.32291,35.77874],[140.32231,35.77891],[140.32131,35.77902],[140.31997,35.77891],[140.3188,35.77851],[140.31612,35.77671]],[[140.38449,35.77733],[140.38381,35.77766],[140.38308,35.77779],[140.38269,35.77778],[140.38211,35.77762],[140.38177,35.77744],[140.3804,35.77646],[140.3797,35.7761],[140.37915,35.7759],[140.37806,35.77581]],[[140.31481,35.77583],[140.31229,35.77375],[140.31085,35.77218],[140.31028,35.77167],[140.30947,35.77119],[140.30767,35.77051],[140.30337,35.76593],[140.30295,35.76566],[140.30188,35.76536],[140.30071,35.76486],[140.30017,35.76444],[140.29852,35.7625],[140.2977,35.76176],[140.29643,35.76082],[140.29486,35.76033]],[[140.2811,35.75274],[140.2824,35.75419],[140.28367,35.75583],[140.28475,35.75683],[140.28531,35.75721],[140.28628,35.75765],[140.29403,35.76009]],[[140.2697,35.73644],[140.27065,35.73739]],[[140.25042,35.72978],[140.25102,35.73008]],[[140.23072,35.72524],[140.23232,35.72533],[140.23494,35.72571],[140.24259,35.72594],[140.24372,35.72609],[140.24483,35.7264],[140.24614,35.72696],[140.24672,35.72731],[140.24752,35.72799],[140.24883,35.72893],[140.25042,35.72978]],[[140.29403,35.76009],[140.29486,35.76033]],[[140.28031,35.75196],[140.2811,35.75274]],[[140.27065,35.73739],[140.27129,35.73814],[140.27179,35.73903],[140.27305,35.74294],[140.27425,35.74537],[140.27491,35.74646],[140.27575,35.74741],[140.28031,35.75196]],[[140.14453,35.71734],[140.12685,35.71547]],[[140.10925,35.71259],[140.11283,35.71395],[140.11381,35.71418],[140.12524,35.71531]],[[140.10925,35.71259],[140.10801,35.71213]],[[139.98443,35.69985],[139.98357,35.69999],[139.98079,35.70085],[139.98023,35.70111],[139.97967,35.70161],[139.9787,35.7031],[139.97784,35.70382],[139.97693,35.70411],[139.97405,35.70462],[139.97347,35.70487],[139.97213,35.70569]],[[140.14453,35.71734],[140.14533,35.71747]],[[139.95927,35.71146],[139.95842,35.71192]],[[139.99155,35.69365],[139.99119,35.69429]],[[140.0259,35.68343],[140.02558,35.68349]],[[140.04804,35.68593],[140.04542,35.68589],[140.04401,35.68568],[140.04298,35.68529],[140.03742,35.68247],[140.03616,35.68195],[140.03295,35.68098],[140.03198,35.68079],[140.03133,35.68077],[140.0303,35.68098],[140.02748,35.68273],[140.0259,35.68343]],[[140.04917,35.68592],[140.04804,35.68593]],[[140.06875,35.68697],[140.06741,35.68673]],[[140.00695,35.68566],[140.00849,35.68487]],[[140.15698,35.72197],[140.15535,35.72158]],[[140.10801,35.71213],[140.10378,35.71038],[140.09912,35.70804],[140.09135,35.70182]],[[139.97144,35.70616],[139.96475,35.71038],[139.96408,35.71062],[139.96036,35.71094],[139.95927,35.71146]],[[139.99119,35.69429],[139.991,35.69489],[139.99099,35.69554],[139.99173,35.69895],[139.99163,35.69958],[139.99121,35.70025],[139.99056,35.70063],[139.98879,35.70089],[139.98818,35.70087],[139.98751,35.70074],[139.98591,35.70029]],[[140.02307,35.68399],[140.02134,35.6843],[140.02023,35.6844],[140.01051,35.68442],[140.00949,35.68456],[140.00849,35.68487]],[[140.02411,35.68379],[140.02307,35.68399]],[[140.02558,35.68349],[140.02411,35.68379]],[[140.00695,35.68566],[140.00211,35.68821],[139.99884,35.68928]],[[140.09019,35.70089],[140.0859,35.6974],[140.0788,35.68951],[140.07818,35.68897],[140.07746,35.68865],[140.06875,35.68697]],[[139.99733,35.68993],[139.99884,35.68928]],[[140.12685,35.71547],[140.12524,35.71531]],[[140.22901,35.72517],[140.22697,35.72509],[140.22581,35.72536],[140.2215,35.72734],[140.21477,35.72998],[140.2139,35.73072],[140.2114,35.7338],[140.21057,35.73443],[140.20237,35.73901],[140.20194,35.73918],[140.2013,35.73929],[140.20065,35.73926],[140.19968,35.73902],[140.18667,35.73553],[140.18624,35.73534],[140.18549,35.73484],[140.1813,35.73053]],[[139.98591,35.70029],[139.98479,35.69989],[139.98443,35.69985]],[[139.99733,35.68993],[139.99268,35.69252],[139.99197,35.69311],[139.99155,35.69365]],[[140.1813,35.73053],[140.18031,35.72952]],[[140.09135,35.70182],[140.09019,35.70089]],[[140.15698,35.72197],[140.1703,35.72507],[140.17691,35.72671],[140.17822,35.72749],[140.17864,35.72782],[140.18031,35.72952]],[[140.06741,35.68673],[140.06383,35.68606],[140.06211,35.68591],[140.04917,35.68592]],[[139.97213,35.70569],[139.97144,35.70616]],[[140.14533,35.71747],[140.14636,35.7178],[140.14751,35.71836],[140.15007,35.72016],[140.15068,35.72043],[140.15535,35.72158]],[[139.79749,35.74227],[139.79875,35.74188],[139.79933,35.74178],[139.80033,35.74181],[139.80284,35.74262],[139.80356,35.74277],[139.80581,35.743],[139.80975,35.74372],[139.81144,35.74393]],[[139.88419,35.74182],[139.88304,35.74261]],[[139.85669,35.74642],[139.85792,35.7479],[139.85848,35.74827],[139.86531,35.75076],[139.86572,35.75083]],[[139.86746,35.75091],[139.86572,35.75083]],[[139.81226,35.744],[139.81341,35.74412],[139.81401,35.74428],[139.82325,35.74746],[139.82706,35.74765]],[[139.9531,35.7143],[139.95217,35.71454]],[[139.9383,35.71955],[139.93743,35.71998]],[[139.94493,35.71673],[139.94383,35.71717]],[[139.77086,35.72854],[139.77015,35.7292],[139.76973,35.72972],[139.76903,35.73103],[139.76867,35.73203],[139.7686,35.73276],[139.76868,35.73334],[139.76894,35.73386],[139.76956,35.73439],[139.77348,35.73693]],[[139.90282,35.73644],[139.89646,35.73772]],[[139.91233,35.73095],[139.91123,35.73162]],[[139.77462,35.73761],[139.77825,35.73982],[139.78108,35.74197]],[[139.83944,35.74768],[139.84033,35.74755]],[[139.78108,35.74197],[139.78197,35.74264]],[[139.78197,35.74264],[139.78256,35.74294],[139.78368,35.74329],[139.78485,35.74347],[139.78583,35.74373],[139.78806,35.74383],[139.79069,35.74464],[139.79158,35.74471],[139.79289,35.74441],[139.79329,35.74424],[139.79529,35.74305],[139.79661,35.74255]],[[139.94383,35.71717],[139.93991,35.71876],[139.9383,35.71955]],[[139.90426,35.73618],[139.90282,35.73644]],[[139.93743,35.71998],[139.93451,35.72147],[139.93159,35.72205],[139.93055,35.72238],[139.92854,35.72362]],[[139.77348,35.73693],[139.77462,35.73761]],[[139.9278,35.7241],[139.92687,35.72468],[139.9253,35.72547],[139.91994,35.72802]],[[139.85585,35.74532],[139.85669,35.74642]],[[139.77215,35.72748],[139.77086,35.72854]],[[139.91885,35.72853],[139.91703,35.72927],[139.91233,35.73095]],[[139.89646,35.73772],[139.89506,35.73799]],[[139.88304,35.74261],[139.87354,35.74906],[139.87175,35.75045],[139.87121,35.75066],[139.87061,35.75078]],[[139.87061,35.75078],[139.86945,35.75099],[139.86876,35.75098]],[[139.86876,35.75098],[139.86746,35.75091]],[[139.92854,35.72362],[139.9278,35.7241]],[[139.89506,35.73799],[139.88973,35.73919],[139.88723,35.73991],[139.88646,35.7403],[139.88419,35.74182]],[[139.84033,35.74755],[139.84371,35.747],[139.8482,35.74613],[139.84906,35.74589],[139.85326,35.74435],[139.85396,35.74433],[139.85451,35.74446],[139.85558,35.74497]],[[139.85558,35.74497],[139.85585,35.74532]],[[139.77362,35.71081],[139.7734,35.71181]],[[139.95842,35.71192],[139.95635,35.71315],[139.95531,35.71367],[139.9531,35.7143]],[[139.82802,35.74765],[139.83784,35.74786],[139.83944,35.74768]],[[139.79661,35.74255],[139.79749,35.74227]],[[139.91994,35.72802],[139.91885,35.72853]],[[139.7734,35.71181],[139.77306,35.71284],[139.77296,35.71349],[139.77323,35.71442],[139.77235,35.71642],[139.77226,35.7169],[139.77235,35.71745],[139.77254,35.71783],[139.77397,35.71923],[139.7743,35.71973],[139.77436,35.72013],[139.77365,35.72152],[139.77367,35.72185],[139.77412,35.72306],[139.77467,35.72386],[139.77485,35.72425],[139.77493,35.72483],[139.77488,35.72504],[139.77453,35.72548],[139.77215,35.72748]],[[139.95217,35.71454],[139.9473,35.71588],[139.94493,35.71673]],[[139.82706,35.74765],[139.82802,35.74765]],[[139.81144,35.74393],[139.81226,35.744]],[[139.91123,35.73162],[139.90783,35.73506],[139.90755,35.73526],[139.90653,35.73569],[139.90426,35.73618]]]}}