{"type":"Feature","properties":{"id":"京成電鉄_成田空港線","name":"成田空港線","operator":"京成電鉄","railType":"普通鉄道","operatorType":"民営","category":"rail","attribution":"国土数値情報（鉄道データ）国土交通省"},"geometry":{"type":"MultiLineString","coordinates":[[[140.32547,35.79628],[140.31556,35.79727],[140.314,35.79756],[140.30996,35.79875],[140.30816,35.7992],[140.30702,35.79943],[140.30516,35.79968],[140.30361,35.79977],[140.2923,35.79958]],[[140.29066,35.79954],[140.28523,35.79945],[140.28287,35.7992],[140.27833,35.79827],[140.268,35.79598],[140.26578,35.79524],[140.23861,35.78389],[140.23623,35.7832],[140.23334,35.78272],[140.23154,35.78258],[140.22838,35.78271],[140.22667,35.78293],[140.2099,35.78578],[140.20736,35.78642],[140.20304,35.78772]],[[140.2923,35.79958],[140.29066,35.79954]],[[140.38449,35.77733],[140.37902,35.78484],[140.3781,35.78588],[140.37691,35.78699],[140.37545,35.78817],[140.37263,35.78995],[140.37171,35.7904],[140.36789,35.79186],[140.36605,35.79236],[140.36312,35.79282],[140.32547,35.79628]],[[140.38676,35.77414],[140.38449,35.77733]],[[140.38846,35.77178],[140.38676,35.77414]],[[140.3871,35.76693],[140.388,35.76828],[140.38893,35.77001],[140.3889,35.77096],[140.38846,35.77178]],[[140.38551,35.76452],[140.3871,35.76693]],[[139.86746,35.75091],[139.86572,35.75083]],[[140.20304,35.78772],[140.20248,35.78791]],[[139.99932,35.77989],[140.00689,35.78163],[140.01333,35.78356],[140.0153,35.78403],[140.01957,35.78426],[140.05027,35.78465],[140.05615,35.78479],[140.06302,35.78542],[140.07262,35.78653],[140.07687,35.78713],[140.08149,35.78746],[140.08791,35.78833],[140.09055,35.78883],[140.09211,35.78923],[140.09317,35.78955],[140.09626,35.79079],[140.09863,35.79208],[140.10454,35.79587],[140.10715,35.79729],[140.10977,35.79826],[140.11538,35.79994]],[[139.99739,35.77933],[139.99617,35.77894],[139.99484,35.77834],[139.9893,35.7766],[139.98695,35.77599],[139.98491,35.77563],[139.98187,35.77545],[139.97238,35.77511],[139.96459,35.77494],[139.96294,35.77499],[139.95887,35.7754],[139.95668,35.77529],[139.9552,35.77493],[139.94741,35.77231],[139.94376,35.77038]],[[140.17323,35.80153],[140.17127,35.80241],[140.16861,35.80326],[140.16647,35.80378],[140.15972,35.80517],[140.15443,35.80566],[140.1476,35.80585],[140.14405,35.80577],[140.14104,35.80548],[140.13582,35.80479],[140.12628,35.80319],[140.12357,35.80252],[140.11702,35.80046]],[[140.17323,35.80153],[140.17702,35.79926],[140.17884,35.79842]],[[140.11538,35.79994],[140.11702,35.80046]],[[139.99739,35.77933],[139.99932,35.77989]],[[140.17323,35.80153],[140.17446,35.80108],[140.17643,35.80007],[140.17722,35.7996],[140.17884,35.79842]],[[140.20248,35.78791],[140.19551,35.78995],[140.19269,35.79102],[140.18795,35.79328],[140.17884,35.79842]],[[139.87061,35.75078],[139.86945,35.75099],[139.86876,35.75098]],[[139.86876,35.75098],[139.86746,35.75091]],[[139.94228,35.76952],[139.94029,35.76833],[139.93771,35.767],[139.93444,35.76594],[139.93229,35.76555],[139.91768,35.76346],[139.9132,35.76269],[139.91115,35.76221],[139.90991,35.76173],[139.90788,35.76079],[139.90291,35.75833],[139.90138,35.75775],[139.89973,35.75726],[139.89822,35.75695],[139.89339,35.75654],[139.89047,35.75584],[139.88283,35.75284],[139.88053,35.75173],[139.87686,35.74967],[139.87575,35.74925],[139.87525,35.74917],[139.87433,35.74917],[139.87326,35.74937],[139.87281,35.74957],[139.87175,35.75027],[139.87061,35.75078]],[[139.94376,35.77038],[139.94228,35.76952]]]}}