{"type":"Feature","properties":{"id":"京成電鉄_押上線","name":"押上線","operator":"京成電鉄","railType":"普通鉄道","operatorType":"民営","category":"rail","attribution":"国土数値情報（鉄道データ）国土交通省"},"geometry":{"type":"MultiLineString","coordinates":[[[139.82093,35.71916],[139.82264,35.72067],[139.82779,35.72665]],[[139.83398,35.73126],[139.83533,35.73217]],[[139.84734,35.73804],[139.84898,35.73834]],[[139.82889,35.72774],[139.82937,35.72815],[139.83398,35.73126]],[[139.82889,35.72774],[139.82827,35.7272],[139.82779,35.72665]],[[139.81158,35.70972],[139.81324,35.71072]],[[139.83533,35.73217],[139.84089,35.736],[139.84222,35.7368],[139.84286,35.73709],[139.84418,35.73747],[139.84734,35.73804]],[[139.84898,35.73834],[139.85028,35.73871],[139.85096,35.73912],[139.85558,35.74497]],[[139.81324,35.71072],[139.81508,35.7121],[139.81561,35.71269],[139.81816,35.71681],[139.81875,35.71742],[139.81963,35.71812]],[[139.81963,35.71812],[139.82093,35.71916]],[[139.85585,35.74532],[139.85669,35.74642]],[[139.85558,35.74497],[139.85585,35.74532]]]}}