{"type":"Feature","properties":{"id":"京成電鉄_千原線","name":"千原線","operator":"京成電鉄","railType":"普通鉄道","operatorType":"民営","category":"rail","attribution":"国土数値情報（鉄道データ）国土交通省"},"geometry":{"type":"MultiLineString","coordinates":[[[140.16995,35.53259],[140.17025,35.5345]],[[140.14992,35.58371],[140.14922,35.58427]],[[140.15851,35.56109],[140.15952,35.566],[140.16015,35.57102],[140.16032,35.57394],[140.1602,35.57463],[140.15987,35.57565],[140.15932,35.57651],[140.15874,35.57714],[140.1574,35.57813],[140.15502,35.57966],[140.14992,35.58371]],[[140.14922,35.58427],[140.14411,35.58842],[140.14355,35.58875],[140.14214,35.58938],[140.14153,35.58951],[140.13928,35.58971],[140.1337,35.59001],[140.13274,35.5902]],[[140.15828,35.55982],[140.15851,35.56109]],[[140.17025,35.5345],[140.17052,35.53604],[140.17146,35.54325],[140.17156,35.5447],[140.17145,35.54585],[140.17103,35.54693],[140.17007,35.54811],[140.16825,35.54928],[140.16708,35.54975]],[[140.16708,35.54975],[140.16561,35.55028]],[[140.16561,35.55028],[140.161,35.55192],[140.15944,35.553],[140.15856,35.55398],[140.15818,35.55461],[140.15789,35.55563],[140.1578,35.5567],[140.1579,35.55771],[140.15828,35.55982]],[[140.1316,35.59052],[140.12521,35.59304],[140.12478,35.59328],[140.12414,35.59382],[140.12372,35.59436],[140.12334,35.5953],[140.12275,35.59737],[140.12157,35.59956],[140.11814,35.60674]],[[140.13274,35.5902],[140.1316,35.59052]],[[140.11739,35.60821],[140.11814,35.60674]]]}}