{"type":"Feature","properties":{"id":"京浜急行電鉄_久里浜線","name":"久里浜線","operator":"京浜急行電鉄","railType":"普通鉄道","operatorType":"民営","category":"rail","attribution":"国土数値情報（鉄道データ）国土交通省"},"geometry":{"type":"MultiLineString","coordinates":[[[139.70233,35.23214],[139.70281,35.23505],[139.70258,35.23642],[139.70232,35.23692],[139.70195,35.2374],[139.70109,35.23824],[139.7003,35.23888],[139.69889,35.23989],[139.69531,35.24222],[139.69399,35.24277],[139.68905,35.24428],[139.68782,35.24495],[139.68733,35.24549],[139.68681,35.24656],[139.68639,35.24838]],[[139.65401,35.18877],[139.65765,35.19176],[139.66081,35.19508],[139.66173,35.19585],[139.66428,35.19767]],[[139.7021,35.2308],[139.70233,35.23214]],[[139.68635,35.26351],[139.68772,35.26279]],[[139.65274,35.1878],[139.65401,35.18877]],[[139.67352,35.20524],[139.67473,35.20565]],[[139.68564,35.21319],[139.68754,35.21628],[139.68817,35.21698],[139.68887,35.21743],[139.69062,35.21814],[139.6962,35.22191],[139.69745,35.223],[139.69946,35.22569],[139.70058,35.2269],[139.7013,35.22785],[139.70147,35.22814],[139.70175,35.229],[139.7021,35.2308]],[[139.6878,35.26276],[139.6893,35.26166],[139.68968,35.26128],[139.69007,35.26071],[139.69045,35.25947],[139.69049,35.25813],[139.6904,35.25755]],[[139.68772,35.26279],[139.6878,35.26276]],[[139.68647,35.2498],[139.68663,35.25043],[139.68687,35.25086],[139.68867,35.25296],[139.68916,35.254],[139.68994,35.25623]],[[139.67473,35.20565],[139.67637,35.20621],[139.67799,35.20694],[139.68149,35.20864],[139.68237,35.20914],[139.68362,35.2102],[139.68487,35.21195]],[[139.66428,35.19767],[139.66542,35.19857]],[[139.6904,35.25755],[139.68994,35.25623]],[[139.68487,35.21195],[139.68564,35.21319]],[[139.68639,35.24838],[139.68634,35.24905],[139.68647,35.2498]],[[139.66542,35.19857],[139.67207,35.20448],[139.67292,35.20499],[139.67352,35.20524]],[[139.63385,35.17871],[139.63551,35.17999],[139.63676,35.18078],[139.63791,35.18139],[139.64036,35.18238],[139.64938,35.18568],[139.65099,35.18652],[139.65274,35.1878]],[[139.63286,35.17768],[139.63385,35.17871]]]}}