{"type":"Feature","properties":{"id":"京成電鉄_金町線","name":"金町線","operator":"京成電鉄","railType":"普通鉄道","operatorType":"民営","category":"rail","attribution":"国土数値情報（鉄道データ）国土交通省"},"geometry":{"type":"MultiLineString","coordinates":[[[139.86876,35.75098],[139.86959,35.75126],[139.8714,35.75235],[139.87219,35.75295],[139.8731,35.75384],[139.87503,35.75606]],[[139.87503,35.75606],[139.87552,35.75681]],[[139.87049,35.76815],[139.87021,35.76875]],[[139.87552,35.75681],[139.87573,35.75756],[139.87581,35.75819],[139.87579,35.75852],[139.87561,35.75902],[139.87292,35.76362],[139.8712,35.76632],[139.87074,35.76729],[139.87049,35.76815]],[[139.86746,35.75091],[139.86572,35.75083]],[[139.86876,35.75098],[139.86746,35.75091]]]}}