{"type":"Feature","properties":{"id":"京福電気鉄道_北野線","name":"北野線","operator":"京福電気鉄道","railType":"軌道","operatorType":"民営","category":"tram","attribution":"国土数値情報（鉄道データ）国土交通省"},"geometry":{"type":"MultiLineString","coordinates":[[[135.7148,35.02625],[135.71398,35.02646]],[[135.70947,35.02708],[135.70856,35.02671],[135.70634,35.02446],[135.7059,35.02384]],[[135.7059,35.02384],[135.7057,35.02322]],[[135.70079,35.01518],[135.70058,35.01517]],[[135.7047,35.02006],[135.70353,35.01644],[135.70292,35.01583]],[[135.72102,35.02784],[135.72024,35.02776],[135.71944,35.02746],[135.71819,35.02645]],[[135.71029,35.02703],[135.70947,35.02708]],[[135.73042,35.02746],[135.72698,35.02773],[135.72406,35.02783]],[[135.72406,35.02783],[135.7233,35.02783]],[[135.71398,35.02646],[135.7124,35.02679],[135.71029,35.02703]],[[135.7049,35.02068],[135.7047,35.02006]],[[135.7233,35.02783],[135.72184,35.02783]],[[135.72184,35.02783],[135.72102,35.02784]],[[135.71751,35.02611],[135.71718,35.02598],[135.71642,35.02589],[135.7148,35.02625]],[[135.7312,35.02739],[135.73042,35.02746]],[[135.7057,35.02322],[135.7049,35.02068]],[[135.71819,35.02645],[135.71751,35.02611]],[[135.70058,35.01517],[135.70005,35.01512]],[[135.70292,35.01583],[135.70256,35.01559]],[[135.70256,35.01559],[135.70172,35.01527],[135.70079,35.01518]]]}}