{"type":"Feature","properties":{"id":"京王電鉄_動物園線","name":"動物園線","operator":"京王電鉄","railType":"普通鉄道","operatorType":"民営","category":"rail","attribution":"国土数値情報（鉄道データ）国土交通省"},"geometry":{"type":"MultiLineString","coordinates":[[[139.41503,35.66142],[139.41397,35.66188]],[[139.40644,35.65004],[139.40784,35.65076],[139.40834,35.6512],[139.40852,35.65143],[139.40917,35.65292],[139.4095,35.65341],[139.41067,35.65439],[139.41167,35.65593],[139.41232,35.65654],[139.41317,35.65717],[139.4145,35.65761],[139.4153,35.65805],[139.41561,35.65895],[139.41571,35.66001],[139.41568,35.66037],[139.41547,35.66097],[139.41503,35.66142]],[[139.4046,35.64901],[139.40644,35.65004]],[[139.41397,35.66188],[139.41223,35.66267]]]}}