{"type":"Feature","properties":{"id":"京福電気鉄道_嵐山本線","name":"嵐山本線","operator":"京福電気鉄道","railType":"軌道","operatorType":"民営","category":"tram","attribution":"国土数値情報（鉄道データ）国土交通省"},"geometry":{"type":"MultiLineString","coordinates":[[[135.70058,35.01517],[135.70005,35.01512]],[[135.70079,35.01518],[135.70058,35.01517]],[[135.71508,35.00994],[135.71615,35.00891],[135.71678,35.00847],[135.71722,35.00834],[135.71791,35.00827],[135.72294,35.00832]],[[135.69442,35.01518],[135.69361,35.0152]],[[135.70795,35.01336],[135.70874,35.01319]],[[135.70874,35.01319],[135.70946,35.01289],[135.7126,35.01192]],[[135.72294,35.00832],[135.72349,35.00832]],[[135.69361,35.0152],[135.69295,35.01527],[135.69233,35.01548],[135.69062,35.01645],[135.68946,35.01672]],[[135.6786,35.01548],[135.67783,35.01525]],[[135.68486,35.01707],[135.68374,35.01697],[135.68218,35.01663]],[[135.68946,35.01672],[135.68863,35.01679]],[[135.70079,35.01518],[135.70138,35.01489],[135.70217,35.01465],[135.70514,35.0141],[135.70669,35.01355],[135.70795,35.01336]],[[135.68218,35.01663],[135.68142,35.01637]],[[135.7126,35.01192],[135.71335,35.01149]],[[135.68863,35.01679],[135.68564,35.01702]],[[135.68142,35.01637],[135.6786,35.01548]],[[135.74836,35.00323],[135.74812,35.00306]],[[135.74812,35.00306],[135.74772,35.00298],[135.74442,35.00288],[135.74368,35.00295],[135.73509,35.00298],[135.73446,35.00309]],[[135.70005,35.01512],[135.69785,35.01496],[135.69442,35.01518]],[[135.73232,35.00806],[135.73274,35.00773]],[[135.73407,35.00332],[135.73446,35.00309]],[[135.73274,35.00773],[135.73321,35.00717],[135.73327,35.00431],[135.7335,35.00383],[135.73407,35.00332]],[[135.72349,35.00832],[135.72829,35.0083],[135.72961,35.00843],[135.73154,35.00845],[135.73181,35.00841],[135.73232,35.00806]],[[135.68564,35.01702],[135.68486,35.01707]],[[135.71335,35.01149],[135.7145,35.01048]],[[135.7145,35.01048],[135.71508,35.00994]]]}}