{"type":"Feature","properties":{"id":"京王電鉄_京王線","name":"京王線","operator":"京王電鉄","railType":"普通鉄道","operatorType":"民営","category":"rail","attribution":"国土数値情報（鉄道データ）国土交通省"},"geometry":{"type":"MultiLineString","coordinates":[[[139.69932,35.68871],[139.69791,35.68815]],[[139.68792,35.68114],[139.68628,35.68013],[139.68246,35.67874],[139.67946,35.67727],[139.67821,35.6769]],[[139.68862,35.6817],[139.68792,35.68114]],[[139.65112,35.66852],[139.64999,35.6682]],[[139.62263,35.66897],[139.6242,35.66872]],[[139.64098,35.66622],[139.64229,35.66606],[139.64308,35.66613]],[[139.69917,35.69047],[139.69925,35.6895]],[[139.66789,35.67388],[139.67349,35.67578]],[[139.64098,35.66622],[139.63231,35.66751]],[[139.69791,35.68815],[139.69509,35.687],[139.69407,35.68642],[139.69072,35.68402],[139.68896,35.682],[139.68862,35.6817]],[[139.61506,35.66999],[139.6139,35.67016]],[[139.63231,35.66751],[139.63062,35.66777]],[[139.61506,35.66999],[139.62263,35.66897]],[[139.64999,35.6682],[139.64308,35.66613]],[[139.67723,35.67662],[139.67416,35.6759],[139.67384,35.67576],[139.67349,35.67578]],[[139.67821,35.6769],[139.67723,35.67662]],[[139.66789,35.67388],[139.66646,35.67344]],[[139.6242,35.66872],[139.63062,35.66777]],[[139.66005,35.67131],[139.65874,35.67084]],[[139.65874,35.67084],[139.65706,35.67026],[139.65112,35.66852]],[[139.66646,35.67344],[139.66005,35.67131]],[[139.54289,35.65231],[139.54356,35.65211]],[[139.54356,35.65211],[139.54591,35.65143]],[[139.41503,35.66142],[139.41397,35.66188]],[[139.41397,35.66188],[139.41223,35.66267]],[[139.45845,35.65966],[139.46363,35.66052],[139.4645,35.66082],[139.46571,35.66161],[139.46629,35.66214],[139.4668,35.66296],[139.46701,35.66346],[139.46816,35.66739]],[[139.36507,35.6428],[139.36669,35.64276]],[[139.59948,35.66751],[139.60127,35.66816]],[[139.51209,35.66396],[139.51683,35.66308],[139.52288,35.66034]],[[139.39213,35.65473],[139.39095,35.65365],[139.39042,35.65327],[139.38718,35.65156],[139.3818,35.64894],[139.38057,35.64794]],[[139.44616,35.65068],[139.44544,35.65064],[139.44486,35.65074],[139.43856,35.65217],[139.43746,35.6525],[139.43656,35.65328],[139.43489,35.65512],[139.43339,35.65657],[139.43287,35.65692],[139.43193,35.65723]],[[139.57434,35.65762],[139.57604,35.65838]],[[139.55907,35.65045],[139.56589,35.65365]],[[139.5858,35.66257],[139.59948,35.66751]],[[139.60755,35.67037],[139.60127,35.66816]],[[139.44776,35.65092],[139.44876,35.65125],[139.44904,35.65144],[139.44951,35.65202],[139.44985,35.65277],[139.4515,35.6575],[139.45176,35.65796],[139.45207,35.65825],[139.4527,35.65867],[139.45319,35.65882],[139.45694,35.65941]],[[139.41503,35.66142],[139.41592,35.66111],[139.41778,35.66063],[139.43082,35.65752]],[[139.56589,35.65365],[139.56736,35.65433]],[[139.52444,35.65963],[139.52866,35.65772]],[[139.60896,35.67065],[139.60755,35.67037]],[[139.41223,35.66267],[139.41087,35.66322],[139.41006,35.66343],[139.40744,35.66374],[139.4057,35.66384],[139.40486,35.66377],[139.4022,35.66249],[139.39864,35.66054],[139.39302,35.65555]],[[139.45694,35.65941],[139.45845,35.65966]],[[139.49602,35.66854],[139.49478,35.669]],[[139.51052,35.66431],[139.51209,35.66396]],[[139.6139,35.67016],[139.61052,35.67067],[139.60896,35.67065]],[[139.37922,35.64668],[139.37555,35.64363],[139.37458,35.64295],[139.374,35.64268],[139.37314,35.64259],[139.36669,35.64276]],[[139.43082,35.65752],[139.43193,35.65723]],[[139.55108,35.64993],[139.55235,35.64979]],[[139.38057,35.64794],[139.37922,35.64668]],[[139.50117,35.6667],[139.50307,35.66602]],[[139.55779,35.64992],[139.55907,35.65045]],[[139.57604,35.65838],[139.58112,35.66079],[139.58468,35.66218]],[[139.54591,35.65143],[139.55108,35.64993]],[[139.46816,35.66739],[139.46857,35.66881]],[[139.52866,35.65772],[139.53035,35.65692]],[[139.47941,35.67234],[139.47609,35.67293],[139.47516,35.67294],[139.47395,35.67278],[139.47067,35.67205],[139.47003,35.67171],[139.46946,35.67111],[139.46906,35.67029],[139.46857,35.66881]],[[139.53035,35.65692],[139.53465,35.65489],[139.53572,35.65446],[139.54289,35.65231]],[[139.50307,35.66602],[139.50514,35.66541],[139.51052,35.66431]],[[139.39302,35.65555],[139.39213,35.65473]],[[139.58468,35.66218],[139.5858,35.66257]],[[139.44616,35.65068],[139.44776,35.65092]],[[139.49602,35.66854],[139.50117,35.6667]],[[139.49376,35.66935],[139.49207,35.6699],[139.49034,35.67027],[139.48079,35.67204]],[[139.49478,35.669],[139.49376,35.66935]],[[139.55235,35.64979],[139.55633,35.64953],[139.55691,35.64962],[139.55779,35.64992]],[[139.56736,35.65433],[139.57434,35.65762]],[[139.48079,35.67204],[139.47941,35.67234]],[[139.52288,35.66034],[139.52444,35.65963]],[[139.34246,35.65849],[139.34365,35.65755]],[[139.35528,35.64402],[139.35738,35.64319],[139.3583,35.64301],[139.36507,35.6428]],[[139.34365,35.65755],[139.3456,35.65628],[139.34624,35.65567],[139.34718,35.65336],[139.34921,35.64771],[139.34937,35.6474],[139.34997,35.64665],[139.35131,35.64565]],[[139.35131,35.64565],[139.35308,35.64495]],[[139.35308,35.64495],[139.35528,35.64402]],[[139.69925,35.6895],[139.69931,35.68838],[139.69895,35.68813],[139.69655,35.68709],[139.69567,35.68688],[139.69516,35.68657],[139.69407,35.68577],[139.69255,35.68437],[139.69191,35.68391],[139.68948,35.68264],[139.68762,35.68117],[139.68636,35.68036],[139.68575,35.68006],[139.68239,35.67891],[139.6794,35.67741],[139.6775,35.67684],[139.67519,35.67635],[139.67349,35.67578]]]}}