{"type":"Feature","properties":{"id":"京王電鉄_高尾線","name":"高尾線","operator":"京王電鉄","railType":"普通鉄道","operatorType":"民営","category":"rail","attribution":"国土数値情報（鉄道データ）国土交通省"},"geometry":{"type":"MultiLineString","coordinates":[[[139.29295,35.64074],[139.29434,35.64044]],[[139.2695,35.63192],[139.27013,35.63284]],[[139.29434,35.64044],[139.29594,35.64033],[139.29764,35.64058],[139.30383,35.6421],[139.30777,35.6434]],[[139.33739,35.64424],[139.33971,35.64367],[139.34075,35.64366],[139.3416,35.64382],[139.34292,35.64441],[139.34488,35.64587],[139.34553,35.64625],[139.34636,35.64652],[139.34745,35.64671],[139.34824,35.64673],[139.34883,35.64662],[139.35131,35.64565]],[[139.35131,35.64565],[139.35308,35.64495]],[[139.35308,35.64495],[139.35528,35.64402]],[[139.28248,35.64182],[139.28396,35.642],[139.28605,35.64153],[139.28897,35.6417],[139.29295,35.64074]],[[139.33653,35.64448],[139.33739,35.64424]],[[139.30777,35.6434],[139.30916,35.64385]],[[139.32115,35.64433],[139.3236,35.64422],[139.32874,35.64537],[139.33064,35.64561],[139.33176,35.64558],[139.33323,35.64537],[139.33653,35.64448]],[[139.30916,35.64385],[139.31141,35.64455],[139.31349,35.64482],[139.32036,35.64438]],[[139.32036,35.64438],[139.32115,35.64433]],[[139.28094,35.64149],[139.28248,35.64182]],[[139.27013,35.63284],[139.2706,35.63365],[139.27172,35.63597],[139.27191,35.63661],[139.27189,35.63806],[139.27209,35.63869],[139.27247,35.63914],[139.27344,35.63976],[139.27481,35.6404],[139.27944,35.64115],[139.28094,35.64149]]]}}