{"type":"Feature","properties":{"id":"京阪電気鉄道_中之島線","name":"中之島線","operator":"京阪電気鉄道","railType":"普通鉄道","operatorType":"民営","category":"rail","attribution":"国土数値情報（鉄道データ）国土交通省"},"geometry":{"type":"MultiLineString","coordinates":[[[135.51552,34.6904],[135.51257,34.6908],[135.51077,34.69131],[135.50855,34.69209]],[[135.4884,34.69203],[135.48739,34.69136]],[[135.49532,34.69397],[135.49346,34.69372],[135.49072,34.69314],[135.48891,34.69237],[135.4884,34.69203]],[[135.49649,34.69412],[135.49532,34.69397]],[[135.49999,34.69436],[135.49765,34.69428],[135.49649,34.69412]],[[135.50195,34.69436],[135.49999,34.69436]],[[135.50743,34.69248],[135.50665,34.69276],[135.50439,34.69387],[135.50319,34.69418],[135.50195,34.69436]],[[135.50855,34.69209],[135.50743,34.69248]],[[135.51552,34.6904],[135.51707,34.69039]]]}}