{"type":"Feature","properties":{"id":"京阪電気鉄道_宇治線","name":"宇治線","operator":"京阪電気鉄道","railType":"普通鉄道","operatorType":"民営","category":"rail","attribution":"国土数値情報（鉄道データ）国土交通省"},"geometry":{"type":"MultiLineString","coordinates":[[[135.79609,34.92578],[135.7961,34.92666]],[[135.78396,34.93109],[135.78306,34.93096]],[[135.76055,34.92667],[135.75956,34.92661]],[[135.76106,34.92674],[135.76055,34.92667]],[[135.76852,34.928],[135.76738,34.92756],[135.76649,34.92697],[135.7616,34.92683],[135.76106,34.92674]],[[135.79374,34.93183],[135.79273,34.93212]],[[135.80315,34.91354],[135.80299,34.914],[135.80272,34.91438]],[[135.76939,34.9283],[135.76852,34.928]],[[135.80272,34.91438],[135.80218,34.91475],[135.80079,34.91525],[135.80042,34.91548],[135.8001,34.9158],[135.79675,34.92117],[135.79632,34.922],[135.7961,34.92277],[135.79609,34.92578]],[[135.79273,34.93212],[135.79215,34.93219],[135.79086,34.93214],[135.78396,34.93109]],[[135.7961,34.92666],[135.79611,34.92955],[135.79586,34.93011],[135.79566,34.93044],[135.7948,34.93123],[135.79374,34.93183]],[[135.78306,34.93096],[135.77848,34.93029],[135.77693,34.92966],[135.77542,34.92882],[135.775,34.92871],[135.77202,34.92888],[135.77072,34.92869],[135.76939,34.9283]],[[135.8062,34.89945],[135.80565,34.90117],[135.80547,34.90212],[135.8055,34.90264],[135.80603,34.90434],[135.80605,34.90506],[135.80315,34.91354]],[[135.80633,34.89473],[135.80634,34.89559]],[[135.80654,34.89847],[135.8062,34.89945]],[[135.80634,34.89559],[135.80665,34.89717],[135.80665,34.89804],[135.80654,34.89847]]]}}