{"type":"Feature","properties":{"id":"京阪電気鉄道_交野線","name":"交野線","operator":"京阪電気鉄道","railType":"普通鉄道","operatorType":"民営","category":"rail","attribution":"国土数値情報（鉄道データ）国土交通省"},"geometry":{"type":"MultiLineString","coordinates":[[[135.68544,34.77411],[135.68587,34.77355]],[[135.65653,34.81409],[135.65685,34.81326]],[[135.66019,34.80713],[135.66391,34.80222]],[[135.65946,34.80806],[135.66019,34.80713]],[[135.68665,34.76796],[135.68648,34.76731]],[[135.67534,34.78731],[135.67594,34.78652]],[[135.67011,34.79416],[135.67534,34.78731]],[[135.66391,34.80222],[135.66448,34.8015]],[[135.66967,34.79474],[135.67011,34.79416]],[[135.66448,34.8015],[135.66967,34.79474]],[[135.68587,34.77355],[135.68652,34.7723],[135.68691,34.77039],[135.68694,34.76936],[135.68665,34.76796]],[[135.67594,34.78652],[135.68544,34.77411]],[[135.65685,34.81326],[135.65818,34.80989],[135.65849,34.80934],[135.65946,34.80806]],[[135.6495,34.81674],[135.65031,34.81693],[135.65116,34.8169],[135.65169,34.81674],[135.65318,34.81604],[135.65482,34.8156],[135.6553,34.81537],[135.65587,34.81496],[135.65627,34.81453],[135.65653,34.81409]],[[135.64823,34.81561],[135.6495,34.81674]]]}}