{"type":"Feature","properties":{"id":"京阪電気鉄道_石山坂本線","name":"石山坂本線","operator":"京阪電気鉄道","railType":"軌道","operatorType":"民営","category":"tram","attribution":"国土数値情報（鉄道データ）国土交通省"},"geometry":{"type":"MultiLineString","coordinates":[[[135.87131,35.00752],[135.87062,35.00788]],[[135.85568,35.02274],[135.85572,35.0273]],[[135.89431,34.98845],[135.89355,34.98852],[135.89313,34.98864],[135.89251,34.98905],[135.89198,34.9895],[135.8917,34.98985],[135.89158,34.99006],[135.89153,34.99051]],[[135.88904,34.99535],[135.88774,34.99658],[135.88606,34.99747]],[[135.88548,34.99778],[135.88201,34.99967],[135.88176,34.99976],[135.88115,34.99977]],[[135.89155,34.99113],[135.89157,34.99212],[135.89147,34.99275],[135.88942,34.99495]],[[135.9034,34.96763],[135.90304,34.97303]],[[135.90347,34.96697],[135.9034,34.96763]],[[135.85777,35.03685],[135.85914,35.04323]],[[135.86466,35.05535],[135.86511,35.05585]],[[135.85617,35.02909],[135.85648,35.0297]],[[135.89153,34.99051],[135.89155,34.99113]],[[135.89497,34.9882],[135.89431,34.98845]],[[135.85933,35.04387],[135.86088,35.04961],[135.86135,35.05104],[135.86188,35.052],[135.86466,35.05535]],[[135.89937,34.97967],[135.89693,34.98012],[135.89638,34.98046],[135.89623,34.9807],[135.89568,34.98443]],[[135.85566,35.01806],[135.85565,35.01869]],[[135.85967,35.01306],[135.8589,35.01369],[135.85746,35.01399],[135.85707,35.01415],[135.85621,35.01481],[135.85597,35.01509],[135.85573,35.01589],[135.85566,35.01806]],[[135.85572,35.0273],[135.85576,35.02783]],[[135.90304,34.97303],[135.90297,34.97371]],[[135.89558,34.98511],[135.89516,34.98769],[135.89497,34.9882]],[[135.85591,35.02873],[135.85617,35.02909]],[[135.8702,35.06519],[135.87045,35.0657]],[[135.87129,35.07034],[135.87128,35.07083]],[[135.87062,35.00788],[135.86436,35.01114]],[[135.85576,35.02783],[135.85591,35.02873]],[[135.88115,34.99977],[135.88057,34.99979]],[[135.85617,35.02909],[135.85631,35.02973]],[[135.85565,35.01869],[135.85568,35.02213]],[[135.85914,35.04323],[135.85933,35.04387]],[[135.85568,35.02213],[135.85568,35.02274]],[[135.89568,34.98443],[135.89558,34.98511]],[[135.87045,35.0657],[135.87098,35.06741],[135.87129,35.07034]],[[135.86366,35.01145],[135.86436,35.01114]],[[135.89937,34.97967],[135.89996,34.97956]],[[135.88057,34.99979],[135.87907,35.00062],[135.87865,35.00093],[135.87582,35.00445]],[[135.88606,34.99747],[135.88548,34.99778]],[[135.85591,35.02873],[135.8576,35.03615]],[[135.88942,34.99495],[135.88904,34.99535]],[[135.86005,35.01266],[135.85967,35.01306]],[[135.90297,34.97371],[135.90265,34.978],[135.90256,34.97818],[135.90146,34.9786],[135.90068,34.97937],[135.89996,34.97956]],[[135.87582,35.00445],[135.87526,35.00502]],[[135.87526,35.00502],[135.87398,35.00601],[135.87277,35.00676],[135.87131,35.00752]],[[135.8576,35.03615],[135.85777,35.03685]],[[135.8634,35.01152],[135.86177,35.01189],[135.86062,35.0123],[135.86005,35.01266]],[[135.86366,35.01145],[135.8634,35.01152]],[[135.86511,35.05585],[135.86647,35.05758],[135.86726,35.05891],[135.8702,35.06519]]]}}