{"type":"Feature","properties":{"id":"京阪電気鉄道_鴨東線","name":"鴨東線","operator":"京阪電気鉄道","railType":"普通鉄道","operatorType":"民営","category":"rail","attribution":"国土数値情報（鉄道データ）国土交通省"},"geometry":{"type":"MultiLineString","coordinates":[[[135.77233,35.00821],[135.77234,35.00937]],[[135.77241,35.02906],[135.77223,35.02225],[135.77224,35.01902]],[[135.77289,35.0307],[135.77255,35.02996],[135.77241,35.02906]],[[135.77224,35.01902],[135.77225,35.0177]],[[135.77225,35.0177],[135.77237,35.01193],[135.77234,35.00937]]]}}