{"type":"Feature","properties":{"id":"京阪電気鉄道_京阪本線","name":"京阪本線","operator":"京阪電気鉄道","railType":"普通鉄道","operatorType":"民営","category":"rail","attribution":"国土数値情報（鉄道データ）国土交通省"},"geometry":{"type":"MultiLineString","coordinates":[[[135.76055,34.92667],[135.75956,34.92661]],[[135.76106,34.92674],[135.76055,34.92667]],[[135.76927,34.96844],[135.76926,34.9673],[135.76996,34.96554],[135.77012,34.96473]],[[135.76845,34.99597],[135.76792,34.99429],[135.7676,34.99146],[135.7676,34.99065]],[[135.76436,34.93282],[135.76436,34.93219]],[[135.77233,35.00821],[135.77234,35.00937]],[[135.7676,34.99065],[135.76767,34.98955]],[[135.7699,34.98191],[135.77012,34.98095]],[[135.76539,34.93825],[135.76528,34.93674],[135.76451,34.93491],[135.76442,34.93439],[135.76436,34.93282]],[[135.7702,34.95614],[135.76962,34.95168],[135.76959,34.95007],[135.76921,34.94851]],[[135.76104,34.92698],[135.75985,34.92682]],[[135.77233,35.00821],[135.77229,35.00544],[135.77208,35.00398]],[[135.76767,34.98955],[135.76783,34.98813],[135.76905,34.98666],[135.76947,34.98568],[135.76963,34.98292],[135.7699,34.98191]],[[135.77012,34.98095],[135.77044,34.97961],[135.77049,34.97908],[135.77025,34.97848],[135.76983,34.97777],[135.76966,34.97692],[135.76996,34.97546],[135.77,34.97447]],[[135.77,34.97317],[135.7694,34.97074],[135.76934,34.96982]],[[135.76934,34.96982],[135.76927,34.96844]],[[135.76545,34.93959],[135.76539,34.93825]],[[135.769,34.94783],[135.76727,34.94263],[135.76686,34.94195],[135.76569,34.94056],[135.76545,34.93959]],[[135.77024,34.95762],[135.7702,34.95614]],[[135.76106,34.92674],[135.7616,34.92721]],[[135.77175,35.00275],[135.77196,35.00323],[135.77208,35.00398]],[[135.77016,34.9633],[135.77024,34.95762]],[[135.77175,35.00275],[135.77099,35.00103],[135.76983,34.99908],[135.76895,34.99716]],[[135.76921,34.94851],[135.769,34.94783]],[[135.75985,34.92682],[135.75888,34.92675]],[[135.75956,34.92661],[135.75888,34.92675]],[[135.76104,34.92698],[135.7616,34.92721]],[[135.77,34.97447],[135.77,34.97317]],[[135.76895,34.99716],[135.76845,34.99597]],[[135.76436,34.93219],[135.76429,34.93018],[135.76407,34.92936],[135.76356,34.92863],[135.76287,34.928],[135.7616,34.92721]],[[135.77012,34.96473],[135.77016,34.9633]],[[135.63105,34.78518],[135.63083,34.78394]],[[135.60179,34.74273],[135.60338,34.7432]],[[135.72198,34.90734],[135.72001,34.90569]],[[135.67579,34.86265],[135.67505,34.86132]],[[135.60338,34.7432],[135.60833,34.74618],[135.61049,34.74717]],[[135.65421,34.82946],[135.65378,34.82887]],[[135.63988,34.81221],[135.63911,34.81104]],[[135.72198,34.90734],[135.72303,34.90809],[135.72499,34.90893],[135.72611,34.9092],[135.73028,34.90976],[135.73096,34.90992],[135.73261,34.91047],[135.7354,34.91168],[135.73644,34.91229],[135.7369,34.91265],[135.73784,34.91359],[135.74068,34.91838],[135.74095,34.91863],[135.74242,34.91938],[135.74694,34.9208],[135.74956,34.92238],[135.75667,34.92633],[135.75719,34.92656],[135.75888,34.92675]],[[135.61049,34.74717],[135.61195,34.74783]],[[135.62006,34.76331],[135.62145,34.76461]],[[135.62998,34.79742],[135.62963,34.7958],[135.62956,34.79477],[135.62964,34.79374],[135.63009,34.79252],[135.63127,34.79004],[135.63142,34.78958],[135.63156,34.78861],[135.63145,34.7875],[135.63105,34.78518]],[[135.72001,34.90569],[135.71757,34.90377],[135.71426,34.90197],[135.71055,34.90009],[135.70777,34.89839],[135.707,34.89771],[135.7066,34.8972],[135.70635,34.8967],[135.70611,34.89573],[135.70609,34.89524],[135.70631,34.89439],[135.70732,34.89164],[135.70743,34.89038],[135.70718,34.88946],[135.70662,34.88864],[135.70392,34.88566],[135.70362,34.88542],[135.70195,34.88464],[135.70078,34.88455]],[[135.66515,34.84332],[135.66422,34.84172],[135.66315,34.8388],[135.66266,34.83796],[135.66189,34.83696],[135.66151,34.83657],[135.65704,34.83366],[135.65591,34.83283],[135.6556,34.8325],[135.65505,34.83165],[135.65421,34.82946]],[[135.65378,34.82887],[135.65099,34.82596],[135.65029,34.82513],[135.65009,34.82477],[135.64984,34.82388],[135.64983,34.82322],[135.65045,34.82135],[135.65048,34.82012],[135.64997,34.81858],[135.64921,34.81687]],[[135.67505,34.86132],[135.67277,34.85636],[135.67155,34.85398],[135.67124,34.85305],[135.67093,34.85093],[135.67077,34.85028],[135.67052,34.84969],[135.66789,34.84676],[135.66595,34.84434]],[[135.68377,34.88147],[135.68304,34.88071],[135.68221,34.88006],[135.68155,34.87942],[135.68073,34.87811],[135.68042,34.87629],[135.68017,34.87555],[135.67963,34.87444],[135.67787,34.87135],[135.67732,34.86995],[135.67707,34.86845],[135.67714,34.86671],[135.67709,34.86548],[135.67688,34.86475],[135.67579,34.86265]],[[135.61195,34.74783],[135.61248,34.74815],[135.61309,34.74874],[135.61769,34.75433],[135.61789,34.75481],[135.61799,34.75571],[135.61789,34.75735],[135.61792,34.75825],[135.6195,34.76248],[135.62006,34.76331]],[[135.68465,34.88251],[135.68377,34.88147]],[[135.63911,34.81104],[135.63763,34.80843],[135.63611,34.80475],[135.6356,34.80392],[135.63432,34.80237],[135.63105,34.79902],[135.63036,34.7981]],[[135.63036,34.7981],[135.62998,34.79742]],[[135.70078,34.88455],[135.70004,34.88463],[135.699,34.88492]],[[135.699,34.88492],[135.69704,34.88603],[135.69622,34.88636],[135.69549,34.8865],[135.69417,34.88649],[135.69325,34.88628],[135.69002,34.88517],[135.68784,34.88474],[135.68662,34.88434],[135.68596,34.88394],[135.68533,34.8834],[135.68465,34.88251]],[[135.64921,34.81687],[135.64823,34.81561]],[[135.63083,34.78394],[135.63046,34.78275],[135.62981,34.78133],[135.62586,34.77458],[135.62554,34.77392],[135.62537,34.77275],[135.62523,34.76905],[135.62493,34.76815],[135.62427,34.76723],[135.62145,34.76461]],[[135.64823,34.81561],[135.64757,34.81514],[135.64599,34.81455],[135.64504,34.81442],[135.64273,34.81433],[135.64166,34.814],[135.64099,34.81357],[135.64059,34.81317],[135.63988,34.81221]],[[135.66595,34.84434],[135.66515,34.84332]],[[135.53329,34.69738],[135.53412,34.69782],[135.53637,34.69845],[135.53691,34.69868],[135.53769,34.69919],[135.53845,34.70013],[135.54298,34.70678]],[[135.59218,34.74033],[135.59391,34.74098],[135.59779,34.7422],[135.59912,34.74248],[135.60179,34.74273]],[[135.56427,34.73451],[135.56606,34.73599]],[[135.56024,34.73104],[135.56427,34.73451]],[[135.57685,34.73714],[135.57852,34.7372],[135.58205,34.73795]],[[135.55933,34.73023],[135.56024,34.73104]],[[135.56606,34.73599],[135.56746,34.73685],[135.56846,34.73727],[135.56972,34.73762],[135.57054,34.73772],[135.57259,34.73775],[135.57493,34.73754]],[[135.54671,34.71223],[135.54369,34.70782]],[[135.57493,34.73754],[135.57685,34.73714]],[[135.53154,34.69666],[135.53329,34.69738]],[[135.5544,34.72344],[135.55205,34.72001]],[[135.58395,34.73825],[135.58846,34.73886],[135.58969,34.73915],[135.5906,34.73953]],[[135.55776,34.72839],[135.55837,34.72922],[135.55933,34.73023]],[[135.58205,34.73795],[135.58395,34.73825]],[[135.55131,34.7189],[135.55205,34.72001]],[[135.5544,34.72344],[135.55524,34.72467]],[[135.54726,34.71302],[135.55131,34.7189]],[[135.54671,34.71223],[135.54726,34.71302]],[[135.55524,34.72467],[135.55713,34.72741]],[[135.54298,34.70678],[135.54369,34.70782]],[[135.5906,34.73953],[135.59218,34.74033]],[[135.55713,34.72741],[135.55776,34.72839]],[[135.50829,34.69125],[135.51028,34.69067],[135.51552,34.6904]],[[135.50689,34.69176],[135.50829,34.69125]],[[135.50122,34.69251],[135.50423,34.69208]],[[135.51552,34.6904],[135.51707,34.69039]],[[135.51707,34.69039],[135.51809,34.69045],[135.51915,34.69066],[135.52015,34.69098],[135.52287,34.69246],[135.52645,34.69395],[135.53034,34.69608],[135.53154,34.69666]],[[135.50423,34.69208],[135.50655,34.69187],[135.50689,34.69176]]]}}