{"type":"Feature","properties":{"id":"仙台市_東西線","name":"東西線","operator":"仙台市","railType":"普通鉄道","operatorType":"公営","category":"rail","attribution":"国土数値情報（鉄道データ）国土交通省"},"geometry":{"type":"MultiLineString","coordinates":[[[140.94933,38.24482],[140.94749,38.24497]],[[140.94749,38.24497],[140.94626,38.24512],[140.94589,38.24535],[140.94569,38.24559],[140.94562,38.24644],[140.94579,38.24936],[140.94562,38.24978],[140.94546,38.24995],[140.94474,38.25046],[140.94394,38.25062],[140.93615,38.25091]],[[140.93615,38.25091],[140.93522,38.25094]],[[140.92044,38.25158],[140.91212,38.25187],[140.91159,38.25168],[140.91097,38.25127],[140.91073,38.25081],[140.91049,38.24977],[140.90999,38.24928],[140.9092,38.24915],[140.9065,38.24951]],[[140.9065,38.24951],[140.90562,38.24964]],[[140.90562,38.24964],[140.90418,38.24971],[140.89978,38.2496],[140.89858,38.24991],[140.89717,38.2506],[140.89631,38.25077],[140.89369,38.25108]],[[140.89369,38.25108],[140.89278,38.2512]],[[140.89278,38.2512],[140.89181,38.25131],[140.89104,38.25158],[140.89061,38.25198],[140.89041,38.25228],[140.89031,38.25272],[140.89068,38.25446],[140.89062,38.25476],[140.89044,38.25512],[140.89007,38.25552],[140.88951,38.25581],[140.88639,38.25618],[140.88603,38.25638],[140.88572,38.25673],[140.88568,38.25736],[140.88575,38.25769]],[[140.88575,38.25769],[140.88589,38.2584]],[[140.88589,38.2584],[140.88591,38.25905],[140.88578,38.25932],[140.88546,38.25959],[140.885,38.25977],[140.88316,38.26019],[140.88238,38.26021],[140.88071,38.25989]],[[140.88071,38.25989],[140.87967,38.25964]],[[140.87251,38.25975],[140.87161,38.25959]],[[140.87967,38.25964],[140.87644,38.25889],[140.87577,38.25908],[140.87488,38.2598],[140.87448,38.25997],[140.87378,38.25997],[140.87251,38.25975]],[[140.87161,38.25959],[140.86775,38.25878],[140.86675,38.25873],[140.86504,38.25888]],[[140.86504,38.25888],[140.86413,38.25898]],[[140.86413,38.25898],[140.86199,38.25923],[140.8607,38.2597],[140.85998,38.25987],[140.85747,38.26014]],[[140.85747,38.26014],[140.8562,38.26026]],[[140.8562,38.26026],[140.8556,38.26034],[140.85491,38.26056],[140.85356,38.26144],[140.85294,38.26165],[140.85205,38.26157],[140.85079,38.261]],[[140.85079,38.261],[140.84995,38.26066]],[[140.84995,38.26066],[140.84648,38.25922],[140.84216,38.25781],[140.84129,38.25775],[140.83921,38.25806],[140.83821,38.25792],[140.83701,38.25742],[140.8363,38.25696],[140.83607,38.25667],[140.83548,38.2555]],[[140.83548,38.2555],[140.83519,38.25481]],[[140.8444,38.24354],[140.84364,38.24312]],[[140.83519,38.25481],[140.83482,38.25384],[140.83474,38.25324],[140.83495,38.25257],[140.83541,38.25204],[140.83616,38.25163],[140.84606,38.24766],[140.84651,38.24738],[140.84685,38.24705],[140.84716,38.24642],[140.8472,38.2461],[140.84713,38.2456],[140.84698,38.2453],[140.84651,38.24477],[140.8444,38.24354]],[[140.93522,38.25094],[140.92137,38.25152]],[[140.92137,38.25152],[140.92044,38.25158]]]}}