{"type":"Feature","properties":{"id":"仙台市_南北線","name":"南北線","operator":"仙台市","railType":"普通鉄道","operatorType":"公営","category":"rail","attribution":"国土数値情報（鉄道データ）国土交通省"},"geometry":{"type":"MultiLineString","coordinates":[[[140.88372,38.29653],[140.88369,38.29531]],[[140.8876,38.24117],[140.88671,38.24353],[140.88637,38.24397],[140.88284,38.24688],[140.88218,38.24717]],[[140.87083,38.21475],[140.87094,38.2153],[140.87101,38.21841],[140.87096,38.21857],[140.87102,38.21867],[140.87116,38.22231],[140.87129,38.22276],[140.87147,38.22302],[140.8719,38.22337],[140.87292,38.22396],[140.87627,38.22459]],[[140.8685,38.28191],[140.86789,38.28089],[140.86734,38.2796],[140.86729,38.27926],[140.86747,38.27831],[140.86896,38.2726]],[[140.88029,38.25907],[140.87956,38.26034]],[[140.88472,38.31234],[140.8875,38.30966],[140.88819,38.30874],[140.88841,38.30811],[140.88846,38.30733],[140.88829,38.30656],[140.88777,38.30553],[140.8866,38.30365]],[[140.86896,38.2726],[140.86926,38.2716]],[[140.88121,38.25238],[140.88167,38.25496],[140.88174,38.25594],[140.88154,38.25663],[140.88112,38.25761],[140.88029,38.25907]],[[140.87092,38.2672],[140.87148,38.26626]],[[140.88799,38.24009],[140.8876,38.24117]],[[140.88596,38.30264],[140.88387,38.29917],[140.88378,38.29872],[140.88372,38.29653]],[[140.88067,38.32387],[140.88066,38.32206]],[[140.86916,38.28297],[140.8685,38.28191]],[[140.87956,38.26034],[140.87815,38.26273],[140.87776,38.26292],[140.87638,38.26288]],[[140.88218,38.24717],[140.88099,38.24759]],[[140.88099,38.24759],[140.88046,38.24785],[140.8803,38.24805],[140.88026,38.24846],[140.88099,38.25122]],[[140.87638,38.26288],[140.87489,38.26281]],[[140.88099,38.25122],[140.88121,38.25238]],[[140.88066,38.32206],[140.88076,38.3174],[140.88089,38.31666],[140.88118,38.31606],[140.88158,38.31554],[140.8835,38.31354]],[[140.87771,38.22484],[140.8811,38.22554],[140.8841,38.22632],[140.88437,38.22645],[140.88465,38.22674],[140.88474,38.22702],[140.88476,38.22794]],[[140.88724,38.23379],[140.88777,38.2348]],[[140.87774,38.28773],[140.87718,38.28728],[140.87668,38.287],[140.87553,38.28654],[140.87229,38.2855],[140.87094,38.28492],[140.87023,38.28442],[140.86984,38.28401],[140.86916,38.28297]],[[140.87879,38.28881],[140.87774,38.28773]],[[140.88369,38.29531],[140.88363,38.29481],[140.88326,38.29395],[140.8821,38.29229],[140.87879,38.28881]],[[140.87083,38.21475],[140.87037,38.21354]],[[140.88777,38.2348],[140.88841,38.23595],[140.88855,38.23675],[140.88843,38.23857],[140.88799,38.24009]],[[140.86926,38.2716],[140.87016,38.26848],[140.87092,38.2672]],[[140.8866,38.30365],[140.88596,38.30264]],[[140.87148,38.26626],[140.87335,38.26303],[140.8737,38.26282],[140.87489,38.26281]],[[140.88476,38.22794],[140.88479,38.22901]],[[140.88479,38.22901],[140.88487,38.22961],[140.88724,38.23379]],[[140.87627,38.22459],[140.87771,38.22484]],[[140.8835,38.31354],[140.88472,38.31234]]]}}