{"type":"Feature","properties":{"id":"仙台空港鉄道_仙台空港線","name":"仙台空港線","operator":"仙台空港鉄道","railType":"普通鉄道","operatorType":"第三セクター","category":"rail","attribution":"国土数値情報（鉄道データ）国土交通省"},"geometry":{"type":"MultiLineString","coordinates":[[[140.91784,38.15958],[140.92207,38.15832],[140.92398,38.15735],[140.92544,38.1563],[140.92666,38.15509],[140.92805,38.1532],[140.93115,38.14849],[140.93378,38.14322],[140.93394,38.14265],[140.934,38.14145],[140.93394,38.14088],[140.93352,38.14009],[140.9322,38.13807],[140.93159,38.13765],[140.93065,38.13736]],[[140.89556,38.16544],[140.89635,38.1653]],[[140.89635,38.1653],[140.89726,38.16513],[140.91703,38.1598]],[[140.93065,38.13736],[140.92887,38.13719]],[[140.88288,38.171],[140.88302,38.16895],[140.88321,38.16813],[140.88373,38.16722],[140.8842,38.16681],[140.88457,38.1666],[140.88507,38.1664],[140.88599,38.16621],[140.89556,38.16544]],[[140.88288,38.171],[140.88281,38.17201]],[[140.88281,38.17201],[140.88269,38.17419]],[[140.91703,38.1598],[140.91784,38.15958]]]}}