{"type":"Feature","properties":{"id":"伊予鉄道_城北線","name":"城北線","operator":"伊予鉄道","railType":"普通鉄道","operatorType":"民営","category":"rail","attribution":"国土数値情報（鉄道データ）国土交通省"},"geometry":{"type":"MultiLineString","coordinates":[[[132.77431,33.84791],[132.77459,33.84752]],[[132.75623,33.85212],[132.75641,33.85274],[132.75682,33.85324],[132.75714,33.85337],[132.75781,33.85343]],[[132.76059,33.85355],[132.76137,33.8533]],[[132.76137,33.8533],[132.7621,33.85291],[132.76222,33.85271],[132.76233,33.85209]],[[132.76851,33.84835],[132.76932,33.84822]],[[132.75865,33.85349],[132.7603,33.85362],[132.76059,33.85355]],[[132.76233,33.85209],[132.76246,33.85141]],[[132.7728,33.84812],[132.77406,33.84805],[132.77431,33.84791]],[[132.76466,33.84917],[132.76641,33.8489],[132.76851,33.84835]],[[132.76246,33.85141],[132.76269,33.85003],[132.7628,33.84979],[132.76336,33.84946],[132.76386,33.84931]],[[132.75621,33.85144],[132.75623,33.85212]],[[132.75518,33.84728],[132.75483,33.84666]],[[132.77196,33.84811],[132.7728,33.84812]],[[132.76932,33.84822],[132.76969,33.84815],[132.77196,33.84811]],[[132.76386,33.84931],[132.76466,33.84917]],[[132.75574,33.84872],[132.75636,33.8504],[132.75636,33.8508],[132.75621,33.85144]],[[132.75518,33.84728],[132.75574,33.84872]],[[132.75781,33.85343],[132.75865,33.85349]]]}}