{"type":"Feature","properties":{"id":"伊予鉄道_大手町線","name":"大手町線","operator":"伊予鉄道","railType":"軌道","operatorType":"民営","category":"tram","attribution":"国土数値情報（鉄道データ）国土交通省"},"geometry":{"type":"MultiLineString","coordinates":[[[132.75518,33.84728],[132.75483,33.84666]],[[132.7557,33.84031],[132.75524,33.84032]],[[132.75779,33.8403],[132.7557,33.84031]],[[132.75524,33.84032],[132.75277,33.84034],[132.75254,33.84037],[132.75235,33.84051]],[[132.75235,33.84051],[132.75233,33.84094]],[[132.75442,33.84601],[132.75378,33.84487],[132.75288,33.84413]],[[132.75483,33.84666],[132.75442,33.84601]],[[132.75233,33.84094],[132.75228,33.84353],[132.75234,33.84371]],[[132.75234,33.84371],[132.75288,33.84413]],[[132.75838,33.8403],[132.75779,33.8403]]]}}