{"type":"Feature","properties":{"id":"伊予鉄道_郡中線","name":"郡中線","operator":"伊予鉄道","railType":"普通鉄道","operatorType":"民営","category":"rail","attribution":"国土数値情報（鉄道データ）国土交通省"},"geometry":{"type":"MultiLineString","coordinates":[[[132.76227,33.83556],[132.76143,33.8357]],[[132.72457,33.79944],[132.72601,33.80147],[132.7265,33.80267],[132.72787,33.80666],[132.72973,33.80983]],[[132.71747,33.79265],[132.71956,33.79361],[132.72043,33.79432],[132.72125,33.79515],[132.72415,33.79889]],[[132.73007,33.81041],[132.73371,33.81596]],[[132.75627,33.83254],[132.76022,33.83536],[132.76088,33.83562],[132.76143,33.8357]],[[132.73371,33.81596],[132.7341,33.81655]],[[132.75567,33.83212],[132.75627,33.83254]],[[132.72415,33.79889],[132.72457,33.79944]],[[132.72973,33.80983],[132.73007,33.81041]],[[132.7341,33.81655],[132.73456,33.81717],[132.73554,33.8182],[132.7438,33.8239]],[[132.71676,33.79232],[132.71747,33.79265]],[[132.7438,33.8239],[132.7444,33.8243]],[[132.7444,33.8243],[132.74838,33.82711],[132.75229,33.82965],[132.75567,33.83212]],[[132.70444,33.7718],[132.70436,33.77252]],[[132.70434,33.78036],[132.70424,33.78363],[132.70442,33.78465],[132.70481,33.78562]],[[132.70424,33.76102],[132.70417,33.76647],[132.70444,33.7718]],[[132.70191,33.75605],[132.70238,33.75659]],[[132.70519,33.7862],[132.70557,33.78669],[132.70706,33.78778],[132.71676,33.79232]],[[132.70405,33.76039],[132.70424,33.76102]],[[132.70433,33.77965],[132.70434,33.78036]],[[132.70238,33.75659],[132.7031,33.75763],[132.70405,33.76039]],[[132.70436,33.77252],[132.70412,33.77651],[132.70431,33.77841],[132.70433,33.77965]],[[132.70481,33.78562],[132.70519,33.7862]]]}}