{"type":"Feature","properties":{"id":"伊予鉄道_本町線","name":"本町線","operator":"伊予鉄道","railType":"軌道","operatorType":"民営","category":"tram","attribution":"国土数値情報（鉄道データ）国土交通省"},"geometry":{"type":"MultiLineString","coordinates":[[[132.75865,33.84102],[132.75868,33.84487]],[[132.75865,33.84049],[132.75865,33.84102]],[[132.75874,33.85059],[132.75876,33.85102]],[[132.75873,33.84783],[132.75873,33.84828]],[[132.75871,33.84538],[132.75873,33.84783]],[[132.75876,33.85102],[132.75883,33.85292]],[[132.75873,33.84828],[132.75874,33.85059]],[[132.75883,33.85292],[132.75885,33.85334]],[[132.75868,33.84487],[132.75871,33.84538]]]}}