{"type":"Feature","properties":{"id":"伊予鉄道_城南線","name":"城南線","operator":"伊予鉄道","railType":"軌道","operatorType":"民営","category":"tram","attribution":"国土数値情報（鉄道データ）国土交通省"},"geometry":{"type":"MultiLineString","coordinates":[[[132.75865,33.84049],[132.75865,33.84102]],[[132.77543,33.84661],[132.77537,33.84488]],[[132.76939,33.84124],[132.76663,33.84118]],[[132.75865,33.8403],[132.75865,33.84049]],[[132.76091,33.83945],[132.75867,33.83958],[132.75865,33.8403]],[[132.77536,33.84436],[132.7753,33.84211],[132.77526,33.84192],[132.77509,33.84179]],[[132.76465,33.84018],[132.7646,33.83972]],[[132.7798,33.84739],[132.77924,33.84739]],[[132.76606,33.84116],[132.76487,33.8411],[132.76476,33.84098],[132.76465,33.84018]],[[132.76994,33.84126],[132.76939,33.84124]],[[132.77544,33.84701],[132.77545,33.84724]],[[132.78497,33.85058],[132.78512,33.85013]],[[132.77509,33.84179],[132.77455,33.84171]],[[132.7616,33.83943],[132.76091,33.83945]],[[132.7646,33.83972],[132.76446,33.83943],[132.76426,33.83936],[132.7616,33.83943]],[[132.78486,33.84812],[132.78411,33.84767],[132.78329,33.84744],[132.7798,33.84739]],[[132.77544,33.84701],[132.77543,33.84661]],[[132.78504,33.84855],[132.78486,33.84812]],[[132.77924,33.84739],[132.77555,33.84737],[132.77545,33.84724]],[[132.77537,33.84488],[132.77536,33.84436]],[[132.78512,33.85013],[132.78523,33.84941],[132.78504,33.84855]],[[132.76663,33.84118],[132.76606,33.84116]],[[132.77455,33.84171],[132.7716,33.84136],[132.76994,33.84126]],[[132.75865,33.8403],[132.75838,33.8403]],[[132.75838,33.8403],[132.75779,33.8403]]]}}