{"type":"Feature","properties":{"id":"伊予鉄道_高浜線","name":"高浜線","operator":"伊予鉄道","railType":"普通鉄道","operatorType":"民営","category":"rail","attribution":"国土数値情報（鉄道データ）国土交通省"},"geometry":{"type":"MultiLineString","coordinates":[[[132.75483,33.84666],[132.75442,33.84601]],[[132.75518,33.84728],[132.75483,33.84666]],[[132.75518,33.84728],[132.75574,33.84872]],[[132.76227,33.83556],[132.76143,33.8357]],[[132.75442,33.84601],[132.75423,33.84546],[132.75416,33.84469],[132.75515,33.84008]],[[132.71378,33.86963],[132.71302,33.86952]],[[132.71982,33.86408],[132.71775,33.86825],[132.71712,33.86902],[132.71622,33.86957],[132.71572,33.86971],[132.71495,33.86978],[132.71378,33.86963]],[[132.73437,33.85032],[132.73365,33.85044]],[[132.73365,33.85044],[132.73021,33.85103],[132.7287,33.85152],[132.72824,33.85176],[132.72717,33.85255],[132.7244,33.85536]],[[132.72393,33.8559],[132.72354,33.85654],[132.72009,33.86347]],[[132.74436,33.85248],[132.74361,33.85242]],[[132.72009,33.86347],[132.71982,33.86408]],[[132.74361,33.85242],[132.74247,33.85223],[132.73625,33.85044],[132.73515,33.8503],[132.73437,33.85032]],[[132.76143,33.8357],[132.75779,33.83703],[132.75623,33.83774],[132.75569,33.83822],[132.75531,33.83941]],[[132.7244,33.85536],[132.72393,33.8559]],[[132.74436,33.85248],[132.74674,33.8525],[132.7518,33.85233],[132.75278,33.85228],[132.75368,33.85212],[132.75452,33.85173],[132.75501,33.85133],[132.75535,33.85092],[132.75567,33.85038],[132.75578,33.85002],[132.75583,33.84935],[132.75574,33.84872]],[[132.75515,33.84008],[132.75531,33.83941]],[[132.70745,33.87491],[132.7066,33.87606],[132.70586,33.8766],[132.70496,33.87708],[132.70393,33.87812],[132.70342,33.87882],[132.70253,33.88041],[132.70223,33.88131],[132.70221,33.88312]],[[132.71302,33.86952],[132.71223,33.86953],[132.71157,33.86972],[132.71069,33.87028],[132.71009,33.87094],[132.70781,33.87433]],[[132.70221,33.88312],[132.70217,33.88377]],[[132.70781,33.87433],[132.70745,33.87491]]]}}