{"type":"Feature","properties":{"id":"伊賀鉄道_伊賀線","name":"伊賀線","operator":"伊賀鉄道","railType":"普通鉄道","operatorType":"第三セクター","category":"rail","attribution":"国土数値情報（鉄道データ）国土交通省"},"geometry":{"type":"MultiLineString","coordinates":[[[136.15136,34.67431],[136.15278,34.67367]],[[136.15278,34.67367],[136.15435,34.67319],[136.15584,34.67284],[136.15687,34.67275],[136.15754,34.67287],[136.1582,34.67314],[136.15897,34.67378],[136.15986,34.67492],[136.16044,34.6759]],[[136.16044,34.6759],[136.16082,34.67659]],[[136.16082,34.67659],[136.16232,34.67938],[136.16435,34.68394],[136.16469,34.68443],[136.16745,34.68736],[136.16805,34.68838],[136.16816,34.68896],[136.1681,34.68935],[136.1675,34.69056],[136.16701,34.69147],[136.16652,34.69204],[136.16163,34.69458],[136.16125,34.69494]],[[136.16125,34.69494],[136.16089,34.6955]],[[136.16089,34.6955],[136.15885,34.6992],[136.1577,34.70153],[136.15762,34.70198],[136.15783,34.70354],[136.15759,34.7041]],[[136.15759,34.7041],[136.15734,34.70469]],[[136.15734,34.70469],[136.15706,34.70537],[136.156,34.70714],[136.15522,34.71093],[136.15403,34.71282],[136.15321,34.7151]],[[136.15321,34.7151],[136.15299,34.71573]],[[136.15299,34.71573],[136.15232,34.71792],[136.15102,34.7216],[136.14961,34.72505],[136.14894,34.72617]],[[136.14856,34.72675],[136.14646,34.72836],[136.14359,34.73095],[136.14312,34.73145],[136.14069,34.73482]],[[136.14894,34.72617],[136.14856,34.72675]],[[136.14033,34.73533],[136.13942,34.73665],[136.13871,34.73894],[136.1394,34.74254],[136.13941,34.74342],[136.13915,34.74389],[136.13765,34.74595],[136.13701,34.74817]],[[136.14069,34.73482],[136.14033,34.73533]],[[136.13655,34.75446],[136.13609,34.75637],[136.13505,34.7593],[136.135,34.75966],[136.13507,34.76026],[136.13556,34.76125]],[[136.13666,34.75386],[136.13655,34.75446]],[[136.13556,34.76125],[136.13583,34.76185]],[[136.13583,34.76185],[136.13613,34.76262],[136.13618,34.76313],[136.13602,34.76441],[136.13569,34.76518],[136.13505,34.76604],[136.13467,34.76681]],[[136.13467,34.76681],[136.13418,34.76733]],[[136.13418,34.76733],[136.13343,34.76777],[136.13291,34.76793],[136.132,34.76796],[136.1301,34.76777]],[[136.1301,34.76777],[136.12878,34.76758]],[[136.12878,34.76758],[136.12502,34.76697]],[[136.12502,34.76697],[136.1243,34.76686]],[[136.1243,34.76686],[136.12329,34.76687],[136.12204,34.76706],[136.12099,34.7676],[136.12064,34.76812],[136.12048,34.76882],[136.12051,34.76952],[136.12175,34.77337],[136.12188,34.77476],[136.12173,34.77568],[136.12132,34.77685],[136.11623,34.78428],[136.11594,34.78509],[136.11583,34.78603]],[[136.11602,34.78671],[136.1164,34.78731],[136.11681,34.78775],[136.11741,34.78814],[136.11829,34.78852],[136.11939,34.78873],[136.12245,34.78889]],[[136.11583,34.78603],[136.11602,34.78671]],[[136.12245,34.78889],[136.12318,34.78893]],[[136.13692,34.74854],[136.13621,34.75174],[136.13623,34.7521],[136.13661,34.75325],[136.13666,34.75386]],[[136.13701,34.74817],[136.13692,34.74854]]]}}