{"type":"Feature","properties":{"id":"伊豆箱根鉄道_大雄山線","name":"大雄山線","operator":"伊豆箱根鉄道","railType":"普通鉄道","operatorType":"民営","category":"rail","attribution":"国土数値情報（鉄道データ）国土交通省"},"geometry":{"type":"MultiLineString","coordinates":[[[139.14904,35.27962],[139.14852,35.2801]],[[139.11779,35.31601],[139.11863,35.31588]],[[139.1099,35.31761],[139.11481,35.31647],[139.11779,35.31601]],[[139.10911,35.3178],[139.1099,35.31761]],[[139.15737,35.26929],[139.15731,35.26972],[139.15737,35.27106],[139.15805,35.2724],[139.15811,35.27296],[139.15799,35.2733],[139.15761,35.27384],[139.15595,35.27491]],[[139.13962,35.28767],[139.13902,35.28814]],[[139.13902,35.28814],[139.13429,35.292]],[[139.10414,35.31895],[139.10911,35.3178]],[[139.12691,35.30112],[139.12653,35.30157]],[[139.12859,35.29909],[139.12691,35.30112]],[[139.14852,35.2801],[139.14625,35.28215],[139.13962,35.28767]],[[139.15595,35.27491],[139.15517,35.27542]],[[139.13429,35.292],[139.13352,35.29269]],[[139.15517,35.27542],[139.15483,35.27561],[139.15243,35.27644],[139.14904,35.27962]],[[139.15742,35.26865],[139.15737,35.26929]],[[139.10328,35.31913],[139.10414,35.31895]],[[139.12903,35.29857],[139.12859,35.29909]],[[139.13352,35.29269],[139.13323,35.29295],[139.12903,35.29857]],[[139.12653,35.30157],[139.12593,35.30226],[139.1258,35.30253],[139.12574,35.30766],[139.12558,35.3091],[139.12521,35.31012],[139.1222,35.31477],[139.12104,35.31542],[139.11863,35.31588]],[[139.1567,35.25668],[139.15757,35.25801],[139.15844,35.259]],[[139.15844,35.259],[139.15878,35.25954]],[[139.15878,35.25954],[139.15905,35.25999],[139.15905,35.26042],[139.15776,35.26517],[139.15742,35.26865]],[[139.15631,35.25613],[139.1567,35.25668]]]}}