{"type":"Feature","properties":{"id":"伊豆急行_伊豆急行線","name":"伊豆急行線","operator":"伊豆急行","railType":"普通鉄道","operatorType":"民営","category":"rail","attribution":"国土数値情報（鉄道データ）国土交通省"},"geometry":{"type":"MultiLineString","coordinates":[[[138.94902,34.72127],[138.94978,34.72285]],[[139.0043,34.75358],[139.00351,34.75333],[139.00185,34.75257],[139.00053,34.75178],[138.99806,34.74963],[138.99661,34.74815]],[[139.12581,34.95083],[139.12386,34.95094]],[[139.09239,34.97566],[139.09182,34.97401]],[[139.07406,34.84296],[139.07396,34.83956],[139.07305,34.83322],[139.07291,34.83183],[139.07288,34.83048],[139.07298,34.83],[139.07336,34.82948],[139.07547,34.82753]],[[139.07406,34.84296],[139.07408,34.84374]],[[139.07408,34.84374],[139.07413,34.84484],[139.07444,34.84566],[139.07618,34.84797],[139.07955,34.85294],[139.08391,34.85892],[139.08543,34.86056],[139.08591,34.8609],[139.09188,34.86399],[139.09281,34.86476],[139.0936,34.86573],[139.09584,34.87057],[139.09657,34.87155],[139.09716,34.87207],[139.09857,34.87276],[139.10002,34.87327],[139.10346,34.87361],[139.1042,34.87378],[139.10488,34.87406],[139.10559,34.87445],[139.10605,34.87481],[139.10753,34.87664]],[[139.03834,34.77467],[139.0364,34.77444]],[[139.10882,34.87828],[139.11016,34.88],[139.1107,34.88051],[139.1193,34.88715],[139.12073,34.88855],[139.12144,34.88952]],[[139.13229,34.91068],[139.133,34.91157],[139.13361,34.91253],[139.13414,34.91369],[139.13417,34.91467],[139.13407,34.91541],[139.13309,34.91911],[139.133,34.91998],[139.13316,34.92081],[139.13329,34.92108],[139.13539,34.92319],[139.13566,34.92371],[139.13584,34.92441],[139.13594,34.92946],[139.13763,34.93645],[139.13776,34.93747],[139.13768,34.93841],[139.13738,34.93901],[139.13625,34.9406],[139.1361,34.94095],[139.13576,34.944],[139.13537,34.94479],[139.13188,34.94796],[139.12922,34.95016],[139.12816,34.95056],[139.12581,34.95083]],[[139.10753,34.87664],[139.10882,34.87828]],[[139.12144,34.88952],[139.12233,34.89072]],[[139.12233,34.89072],[139.12284,34.89141],[139.1237,34.89302],[139.12923,34.90726],[139.12992,34.90823],[139.13108,34.9094]],[[139.0364,34.77444],[139.03528,34.77426],[139.03434,34.77393],[139.03352,34.77351],[139.0315,34.77211],[139.02912,34.77013],[139.02804,34.76914],[139.0274,34.76842],[139.02711,34.76796],[139.02677,34.76726],[139.02602,34.76517],[139.02577,34.76481],[139.02484,34.76385],[139.02183,34.76175],[139.01863,34.76006],[139.01048,34.75611],[139.0082,34.7551],[139.00504,34.75385]],[[139.13108,34.9094],[139.13229,34.91068]],[[139.00504,34.75385],[139.0043,34.75358]],[[139.08779,34.95716],[139.08828,34.95835]],[[138.94443,34.68033],[138.94414,34.67905]],[[139.08828,34.95835],[139.08947,34.96088],[139.0897,34.96187],[139.08959,34.96451],[139.08917,34.96793],[139.08922,34.96855],[139.09052,34.97071],[139.09182,34.97401]],[[138.94978,34.72285],[138.95034,34.72407],[138.95133,34.72569],[138.95369,34.72867],[138.95491,34.72977],[138.95659,34.73084],[138.96818,34.7374],[138.97721,34.74263],[138.97866,34.74335],[138.98085,34.7441],[138.98253,34.74424],[138.98466,34.74379],[138.98579,34.74377],[138.9864,34.74383],[138.99271,34.74508],[138.99348,34.74537],[138.99411,34.74577],[138.99522,34.74672]],[[139.07547,34.82753],[139.07598,34.82702]],[[138.94132,34.70046],[138.94135,34.70196],[138.94147,34.70266],[138.9419,34.70346],[138.94223,34.70378],[138.94405,34.70476],[138.94492,34.70532],[138.94542,34.70597],[138.94563,34.70648],[138.9466,34.71061],[138.94689,34.71152],[138.94815,34.71378],[138.94824,34.71425],[138.9482,34.71768],[138.94829,34.71897],[138.94859,34.72028],[138.94902,34.72127]],[[138.99522,34.74672],[138.99661,34.74815]],[[139.06111,34.8025],[139.06133,34.8012]],[[139.12386,34.95094],[139.12113,34.9509],[139.1152,34.94964],[139.10952,34.94852],[139.10858,34.94841],[139.10768,34.94852],[139.10701,34.94879],[139.10644,34.94913],[139.10471,34.95043],[139.10434,34.95059],[139.10315,34.9508],[139.09823,34.95057],[139.0929,34.94983],[139.09211,34.94989],[139.09055,34.95035],[139.0897,34.95086],[139.08879,34.95189],[139.08734,34.95381],[139.08699,34.95489],[139.08701,34.95525],[139.08716,34.95579],[139.08779,34.95716]],[[139.06133,34.8012],[139.06175,34.79879],[139.06193,34.79526],[139.06152,34.79156],[139.06131,34.79087],[139.06095,34.79015],[139.06056,34.78966],[139.05754,34.7869],[139.05571,34.78508],[139.0478,34.77884],[139.04552,34.77726],[139.04332,34.77605],[139.04212,34.77558],[139.04108,34.77526],[139.03834,34.77467]],[[138.94126,34.69847],[138.94138,34.69238],[138.9415,34.69148],[138.9419,34.69072],[138.94262,34.68994],[138.94373,34.68853],[138.94406,34.688],[138.94437,34.68706],[138.94481,34.68243],[138.94479,34.68186],[138.94443,34.68033]],[[138.94126,34.69847],[138.94132,34.70046]],[[139.06997,34.81764],[139.06862,34.81652]],[[139.07598,34.82702],[139.07643,34.82614],[139.07663,34.82499],[139.07645,34.82374],[139.07602,34.82278],[139.06997,34.81764]],[[139.06862,34.81652],[139.06698,34.81493],[139.06589,34.81338],[139.06289,34.80793],[139.06144,34.80519],[139.06129,34.80477],[139.06107,34.8037],[139.06111,34.8025]]]}}