{"type":"Feature","properties":{"id":"伊豆箱根鉄道_駿豆線","name":"駿豆線","operator":"伊豆箱根鉄道","railType":"普通鉄道","operatorType":"民営","category":"rail","attribution":"国土数値情報（鉄道データ）国土交通省"},"geometry":{"type":"MultiLineString","coordinates":[[[138.95044,34.9791],[138.9515,34.97944]],[[138.91144,35.11898],[138.91099,35.11971]],[[138.94146,35.0794],[138.94167,35.07811]],[[138.94596,35.01528],[138.94559,35.01385]],[[138.94567,35.05238],[138.9474,35.04048]],[[138.95443,34.98922],[138.95441,34.99006],[138.95423,34.99057],[138.95396,34.9909],[138.95359,34.99118],[138.95288,34.99145],[138.94367,34.99349],[138.94291,34.99347],[138.94241,34.99336],[138.94217,34.99326],[138.94129,34.9926],[138.94073,34.99231],[138.93988,34.99218],[138.93935,34.99222],[138.9385,34.99253],[138.93795,34.99293],[138.93764,34.99337],[138.93748,34.99392]],[[138.91934,35.11586],[138.91843,35.1163],[138.91764,35.11652]],[[138.93953,35.09131],[138.93923,35.09309]],[[138.94358,35.06623],[138.94383,35.06475]],[[138.94559,35.01385],[138.9429,35.00395],[138.94254,35.00293],[138.94182,35.0016],[138.93791,34.99616],[138.9375,34.99518],[138.93744,34.99481]],[[138.92646,35.11064],[138.92541,35.11142]],[[138.9474,35.04048],[138.94762,35.03913]],[[138.92541,35.11142],[138.91934,35.11586]],[[138.9515,34.97944],[138.95221,34.97975],[138.95342,34.98051],[138.95392,34.981],[138.9542,34.9816],[138.95427,34.9819],[138.95441,34.98849]],[[138.94383,35.06475],[138.94537,35.05419]],[[138.94167,35.07811],[138.94358,35.06623]],[[138.93923,35.09309],[138.93811,35.10003],[138.93757,35.10165],[138.93696,35.1026],[138.93556,35.10402],[138.92646,35.11064]],[[138.91099,35.11971],[138.91051,35.12025],[138.9098,35.12073],[138.90793,35.12134],[138.90743,35.1216],[138.90689,35.12205],[138.90668,35.12233],[138.90644,35.12296],[138.9064,35.12366],[138.90655,35.12407],[138.90689,35.12464],[138.90724,35.12496],[138.90794,35.12538],[138.90989,35.12572]],[[138.93953,35.09131],[138.94146,35.0794]],[[138.95441,34.98849],[138.95443,34.98922]],[[138.91764,35.11652],[138.91375,35.11728],[138.91289,35.11758],[138.912,35.11819],[138.91144,35.11898]],[[138.94537,35.05419],[138.94567,35.05238]],[[138.94762,35.03913],[138.94784,35.03808],[138.94929,35.03372],[138.94955,35.03209],[138.94958,35.03146],[138.94946,35.03057],[138.94913,35.02914],[138.94846,35.02699],[138.9478,35.02221],[138.94596,35.01528]],[[138.93748,34.99392],[138.93744,34.99481]],[[138.90989,35.12572],[138.91138,35.12599]]]}}