{"type":"Feature","properties":{"id":"信楽高原鐵道_信楽線","name":"信楽線","operator":"信楽高原鐵道","railType":"普通鉄道","operatorType":"第三セクター","category":"rail","attribution":"国土数値情報（鉄道データ）国土交通省"},"geometry":{"type":"MultiLineString","coordinates":[[[136.08417,34.91092],[136.08453,34.91156]],[[136.08778,34.91569],[136.08805,34.91641]],[[136.08453,34.91156],[136.08543,34.91305],[136.08778,34.91569]],[[136.15697,34.95],[136.15702,34.94934],[136.15686,34.94873],[136.15659,34.94831],[136.15602,34.94785],[136.14535,34.94283],[136.1438,34.94201],[136.14311,34.94138],[136.14162,34.93786],[136.14143,34.93754],[136.1411,34.93721],[136.13905,34.93603],[136.13879,34.93575],[136.13853,34.93525],[136.13799,34.93473],[136.13753,34.93448],[136.13384,34.93327],[136.13365,34.93308],[136.13342,34.93268],[136.13326,34.93216],[136.13325,34.93154],[136.13395,34.93065],[136.13562,34.9293],[136.13651,34.92711],[136.13662,34.92656],[136.13663,34.92625],[136.13651,34.92577],[136.13633,34.92538],[136.13605,34.92507],[136.13565,34.92474],[136.13408,34.9238],[136.13371,34.92369],[136.13268,34.92371],[136.13056,34.92412],[136.12953,34.92408],[136.12792,34.92387],[136.12739,34.92392],[136.12647,34.92444],[136.12504,34.92571],[136.12452,34.92603],[136.12365,34.9263],[136.12328,34.92631],[136.11842,34.92615],[136.10922,34.9254],[136.10824,34.92515],[136.10672,34.92426],[136.10582,34.92404],[136.10522,34.92402],[136.10309,34.92429],[136.10181,34.92433],[136.09894,34.92416],[136.09762,34.92398],[136.09593,34.92328],[136.09487,34.92299],[136.09391,34.92287],[136.09106,34.92285],[136.09053,34.92276],[136.08964,34.92243],[136.08888,34.92198],[136.08798,34.92097],[136.08775,34.92043],[136.08771,34.91991],[136.08805,34.91641]],[[136.15255,34.95264],[136.15578,34.95127]],[[136.15578,34.95127],[136.15638,34.95087],[136.15673,34.95046],[136.15697,34.95]],[[136.06159,34.87758],[136.06398,34.88187],[136.06456,34.88255],[136.06494,34.88285],[136.06832,34.88443],[136.06904,34.88496]],[[136.07293,34.89334],[136.07333,34.89399]],[[136.06904,34.88496],[136.06952,34.88551]],[[136.06952,34.88551],[136.06989,34.8863],[136.07031,34.88855],[136.07058,34.88943],[136.07293,34.89334]],[[136.07333,34.89399],[136.07356,34.89447],[136.07397,34.89576],[136.0747,34.89878],[136.07492,34.89935],[136.07517,34.89974],[136.08195,34.90693],[136.08226,34.90736],[136.08417,34.91092]],[[136.06116,34.87684],[136.06159,34.87758]]]}}