{"type":"Feature","properties":{"id":"六甲山観光_六甲ケーブル線","name":"六甲ケーブル線","operator":"六甲山観光","railType":"鋼索鉄道","operatorType":"民営","category":"cable","attribution":"国土数値情報（鉄道データ）国土交通省"},"geometry":{"type":"MultiLineString","coordinates":[[[135.23698,34.75159],[135.23683,34.75198]],[[135.23374,34.73761],[135.23416,34.73853],[135.23461,34.74096],[135.23571,34.74345],[135.23585,34.746],[135.2361,34.74663],[135.23733,34.74869],[135.23759,34.74938],[135.23751,34.75033],[135.23736,34.75082],[135.23698,34.75159]],[[135.23355,34.7372],[135.23374,34.73761]]]}}