{"type":"Feature","properties":{"id":"函館市_本線","name":"本線","operator":"函館市","railType":"軌道","operatorType":"公営","category":"tram","attribution":"国土数値情報（鉄道データ）国土交通省"},"geometry":{"type":"MultiLineString","coordinates":[[[140.7184,41.76401],[140.71897,41.76415]],[[140.70939,41.77002],[140.71147,41.76723],[140.7122,41.76678]],[[140.72569,41.76938],[140.72706,41.77098],[140.72785,41.77213]],[[140.72262,41.76631],[140.72304,41.76668]],[[140.7122,41.76678],[140.71264,41.76653]],[[140.70478,41.77287],[140.70523,41.77259]],[[140.71897,41.76415],[140.72062,41.76479],[140.72119,41.76516],[140.72262,41.76631]],[[140.72785,41.77213],[140.72809,41.7725]],[[140.72534,41.76899],[140.72569,41.76938]],[[140.72304,41.76668],[140.72534,41.76899]],[[140.71264,41.76653],[140.71612,41.76439],[140.71671,41.7641],[140.71746,41.76394],[140.71835,41.764]],[[140.71835,41.764],[140.7184,41.76401]],[[140.70523,41.77259],[140.70889,41.77035]],[[140.70889,41.77035],[140.70939,41.77002]]]}}