{"type":"Feature","properties":{"id":"函館市_宝来・谷地頭線","name":"宝来・谷地頭線","operator":"函館市","railType":"軌道","operatorType":"公営","category":"tram","attribution":"国土数値情報（鉄道データ）国土交通省"},"geometry":{"type":"MultiLineString","coordinates":[[[140.71662,41.75341],[140.71647,41.753]],[[140.7202,41.76076],[140.72102,41.75961],[140.72109,41.75945],[140.72105,41.75924],[140.72072,41.75853],[140.72041,41.75809],[140.71889,41.75669]],[[140.71835,41.764],[140.71994,41.76119]],[[140.71994,41.76119],[140.7202,41.76076]],[[140.71889,41.75669],[140.7185,41.75634]],[[140.7185,41.75634],[140.7173,41.75522],[140.71662,41.75341]],[[140.71835,41.764],[140.7184,41.76401]],[[140.7184,41.76401],[140.71897,41.76415]]]}}