{"type":"Feature","properties":{"id":"函館市_湯の川線","name":"湯の川線","operator":"函館市","railType":"軌道","operatorType":"公営","category":"tram","attribution":"国土数値情報（鉄道データ）国土交通省"},"geometry":{"type":"MultiLineString","coordinates":[[[140.74146,41.77826],[140.74386,41.78017]],[[140.76965,41.78721],[140.77017,41.78703]],[[140.76515,41.78793],[140.76569,41.78788]],[[140.77587,41.78445],[140.77892,41.78333]],[[140.78523,41.77997],[140.78586,41.77976],[140.7864,41.77981],[140.78886,41.78066],[140.78985,41.78109]],[[140.75235,41.78923],[140.7551,41.78894],[140.75918,41.78864]],[[140.73351,41.77159],[140.73521,41.77327]],[[140.7754,41.78465],[140.77587,41.78445]],[[140.74106,41.77793],[140.74146,41.77826]],[[140.74386,41.78017],[140.74426,41.78048]],[[140.74426,41.78048],[140.74643,41.78234],[140.7485,41.78398]],[[140.75102,41.78678],[140.75112,41.78721]],[[140.75918,41.78864],[140.75975,41.78858]],[[140.73846,41.77587],[140.74106,41.77793]],[[140.73312,41.7712],[140.73351,41.77159]],[[140.77892,41.78333],[140.77942,41.78313]],[[140.78985,41.78109],[140.79034,41.78122]],[[140.7356,41.77358],[140.73808,41.77554]],[[140.75112,41.78721],[140.75164,41.78927],[140.75182,41.78929]],[[140.78195,41.78211],[140.78249,41.78189]],[[140.77942,41.78313],[140.78195,41.78211]],[[140.76569,41.78788],[140.76818,41.7876],[140.76965,41.78721]],[[140.7485,41.78398],[140.74886,41.78425]],[[140.75182,41.78929],[140.75235,41.78923]],[[140.75975,41.78858],[140.76515,41.78793]],[[140.77017,41.78703],[140.7754,41.78465]],[[140.73521,41.77327],[140.7356,41.77358]],[[140.7848,41.78024],[140.78523,41.77997]],[[140.73808,41.77554],[140.73846,41.77587]],[[140.74886,41.78425],[140.75079,41.78584],[140.75102,41.78678]],[[140.78249,41.78189],[140.78392,41.78107],[140.7848,41.78024]]]}}