{"type":"Feature","properties":{"id":"北九州高速鉄道_小倉線","name":"小倉線","operator":"北九州高速鉄道","railType":"跨座式モノレール(軌道)","operatorType":"第三セクター","category":"monorail","attribution":"国土数値情報（鉄道データ）国土交通省"},"geometry":{"type":"MultiLineString","coordinates":[[[130.8797,33.85882],[130.87955,33.85808]],[[130.882,33.88629],[130.8813,33.88341]],[[130.878,33.84859],[130.87669,33.84318]],[[130.88012,33.86584],[130.88006,33.86511]],[[130.86389,33.82501],[130.86441,33.82612],[130.86482,33.82677],[130.86742,33.83007]],[[130.87796,33.81955],[130.878,33.81953]],[[130.88047,33.88087],[130.87991,33.88037]],[[130.86776,33.8307],[130.86846,33.83215],[130.86884,33.83275],[130.87277,33.83629]],[[130.88006,33.86511],[130.87996,33.86341],[130.87998,33.86121],[130.8797,33.85882]],[[130.88056,33.87282],[130.88012,33.86584]],[[130.87814,33.84958],[130.878,33.84859]],[[130.87991,33.88037],[130.87947,33.87985],[130.87945,33.87972],[130.87972,33.87882],[130.88071,33.87634],[130.88079,33.87587],[130.88062,33.87355]],[[130.86742,33.83007],[130.86776,33.8307]],[[130.86364,33.82439],[130.86389,33.82501]],[[130.88062,33.87355],[130.88056,33.87282]],[[130.87321,33.83687],[130.87277,33.83629]],[[130.87955,33.85808],[130.87814,33.84958]],[[130.87174,33.82237],[130.87725,33.81986]],[[130.87107,33.82266],[130.86958,33.82327],[130.86876,33.82345],[130.86764,33.82348],[130.86481,33.82333],[130.86403,33.82342],[130.8637,33.82361],[130.86354,33.82388],[130.86364,33.82439]],[[130.87725,33.81986],[130.87796,33.81955]],[[130.87669,33.84318],[130.87653,33.84256]],[[130.88213,33.88679],[130.882,33.88629]],[[130.87174,33.82237],[130.87107,33.82266]],[[130.87653,33.84256],[130.87622,33.84152],[130.87591,33.84082],[130.87537,33.8399],[130.87321,33.83687]],[[130.8813,33.88341],[130.88108,33.88247]],[[130.88108,33.88247],[130.88074,33.88122],[130.88047,33.88087]]]}}