{"type":"Feature","properties":{"id":"北大阪急行電鉄_南北線","name":"南北線","operator":"北大阪急行電鉄","railType":"普通鉄道","operatorType":"第三セクター","category":"rail","attribution":"国土数値情報（鉄道データ）国土交通省"},"geometry":{"type":"MultiLineString","coordinates":[[[135.49686,34.79414],[135.49752,34.79243]],[[135.49515,34.81122],[135.4952,34.80942]],[[135.49752,34.79243],[135.4975,34.78231],[135.49719,34.78083],[135.49532,34.77529]],[[135.4952,34.80942],[135.49514,34.80884],[135.49471,34.80723],[135.49431,34.80649],[135.49343,34.80536],[135.49317,34.80491],[135.4929,34.80432],[135.49285,34.80401],[135.49321,34.80253],[135.49686,34.79414]],[[135.49716,34.75961],[135.49703,34.75789]],[[135.49525,34.77438],[135.49535,34.77312],[135.4955,34.77229],[135.49692,34.76867],[135.4975,34.76638],[135.49756,34.76517],[135.49716,34.75961]],[[135.49525,34.77438],[135.49532,34.77529]]]}}