{"type":"Feature","properties":{"id":"北海道旅客鉄道_根室線","name":"根室線","operator":"北海道旅客鉄道","railType":"普通鉄道(JR)","operatorType":"JR在来線","category":"rail","attribution":"国土数値情報（鉄道データ）国土交通省"},"geometry":{"type":"MultiLineString","coordinates":[[[144.41044,42.99519],[144.41231,42.99501]],[[143.45231,42.92388],[143.44849,42.93241]],[[144.29417,43.00935],[144.28994,43.00909],[144.27479,43.0091]],[[144.84252,43.05622],[144.83996,43.05631]],[[145.19491,43.19617],[145.19409,43.19651]],[[143.86404,42.85243],[143.86553,42.8532],[143.86743,42.85472],[143.86783,42.85529],[143.86893,42.85748],[143.86984,42.85901],[143.87111,42.8605],[143.87338,42.86258],[143.87429,42.86317],[143.87553,42.86375],[143.87654,42.86412],[143.8774,42.86429],[143.88087,42.86424],[143.88822,42.86548],[143.89007,42.86539],[143.89128,42.86506],[143.89242,42.86487],[143.89404,42.865],[143.89618,42.86534],[143.89841,42.86575],[143.90086,42.8664],[143.90183,42.86699],[143.90392,42.8689]],[[145.32235,43.20443],[145.31753,43.20289],[145.31623,43.20272],[145.31478,43.20278],[145.31319,43.20302],[145.31229,43.2033],[145.30479,43.20621],[145.30317,43.2064],[145.30116,43.20615],[145.29999,43.20609],[145.29938,43.20612],[145.29819,43.20636],[145.2974,43.20671],[145.29333,43.20941],[145.29243,43.20969],[145.29116,43.20991],[145.28663,43.21035],[145.28461,43.21123],[145.28333,43.21203],[145.27527,43.21796],[145.27448,43.21869],[145.27412,43.21923],[145.27402,43.21954],[145.27353,43.22258],[145.27336,43.22314],[145.27286,43.22415],[145.2724,43.22481],[145.27184,43.22537],[145.27111,43.22591],[145.27038,43.22631],[145.26254,43.22956],[145.262,43.22975],[145.26103,43.22994],[145.25941,43.23005],[145.25821,43.23003],[145.25293,43.22839]],[[144.61322,43.0331],[144.63503,43.03761],[144.63773,43.03786],[144.63829,43.03783],[144.63953,43.03754],[144.64019,43.03722],[144.64073,43.03682],[144.64116,43.03627],[144.64194,43.03451],[144.64255,43.03379],[144.64289,43.03354],[144.64337,43.03328],[144.64402,43.03308],[144.64544,43.03297],[144.64641,43.03311],[144.64747,43.03348],[144.65334,43.03682],[144.65421,43.03716],[144.65487,43.0373],[144.65619,43.03741],[144.65753,43.03724],[144.65887,43.03678],[144.66101,43.03581],[144.66189,43.0356],[144.66299,43.03555],[144.66434,43.0358],[144.66641,43.03676],[144.66709,43.03699],[144.67144,43.03768],[144.67422,43.03868],[144.67547,43.03902],[144.67721,43.03907],[144.67783,43.03897],[144.67925,43.03848],[144.68035,43.03776],[144.69617,43.01995],[144.69673,43.01951],[144.69745,43.0191],[144.69835,43.01876],[144.6991,43.01859],[144.70021,43.01849],[144.70336,43.0185]],[[145.54224,43.22886],[145.54272,43.22828]],[[145.58195,43.32667],[145.58413,43.32692]],[[145.09994,43.15799],[145.09953,43.15734]],[[143.50065,42.85609],[143.49838,42.85967],[143.49658,42.86202],[143.49613,42.86287],[143.49556,42.86371],[143.49518,42.86409],[143.49409,42.86492],[143.49,42.86972],[143.48929,42.87042],[143.48871,42.87092],[143.48648,42.87247],[143.48605,42.87291],[143.4851,42.87546],[143.48453,42.87638],[143.48411,42.87675],[143.48365,42.87699],[143.4805,42.87801],[143.47971,42.87839],[143.47103,42.88446],[143.47034,42.88501],[143.46949,42.88597],[143.46518,42.8933],[143.46442,42.89527],[143.46248,42.89776],[143.46165,42.89898],[143.46048,42.90342],[143.46033,42.90665],[143.46013,42.90753],[143.4596,42.9086],[143.45817,42.91064],[143.45393,42.92026]],[[143.35858,42.90709],[143.36018,42.90868]],[[143.90392,42.8689],[143.90458,42.86949]],[[143.60876,42.77797],[143.60783,42.77852]],[[145.54184,43.26858],[145.54194,43.26751]],[[145.54194,43.26751],[145.54339,43.25193],[145.54346,43.25032],[145.54324,43.24953],[145.54287,43.24888],[145.5421,43.24817],[145.54143,43.24779],[145.5397,43.24725],[145.53879,43.24682],[145.53817,43.24639],[145.53755,43.24566],[145.53731,43.24507],[145.53719,43.24429],[145.53769,43.24131],[145.53772,43.24064],[145.53667,43.23739],[145.53655,43.23674],[145.53669,43.23568],[145.5371,43.23489],[145.54224,43.22886]],[[143.45393,42.92026],[143.45231,42.92388]],[[143.44849,42.93241],[143.44775,42.93317],[143.44656,42.93395],[143.4451,42.9345],[143.44363,42.93474],[143.44237,42.93477],[143.44144,42.93466],[143.44038,42.93434],[143.43623,42.93274],[143.43515,42.93244],[143.43366,42.93225],[143.43254,42.93229],[143.43137,42.93251],[143.4253,42.93445]],[[144.46871,42.99441],[144.47062,42.99417]],[[143.5392,42.81729],[143.5383,42.81767]],[[144.27479,43.0091],[144.273,43.0091]],[[145.32314,43.20469],[145.32235,43.20443]],[[143.65159,42.81114],[143.65202,42.81423],[143.65239,42.81545],[143.6614,42.83137],[143.66289,42.83484],[143.663,42.83527],[143.66301,42.83588],[143.66237,42.83766],[143.66239,42.83828],[143.6625,42.83862],[143.66285,42.83909],[143.66344,42.83955],[143.66789,42.84208],[143.66904,42.84249],[143.67498,42.84334],[143.67548,42.84338],[143.67653,42.84328],[143.67811,42.84282],[143.68458,42.84027],[143.68515,42.83998],[143.68587,42.83935],[143.68661,42.83808],[143.68715,42.83738],[143.68969,42.83529],[143.69321,42.83087],[143.69348,42.83058],[143.69403,42.83021],[143.69469,42.82991],[143.69563,42.82965],[143.69892,42.82909],[143.70111,42.82893],[143.70599,42.82713],[143.70726,42.82659],[143.70794,42.82617],[143.70937,42.82506],[143.70997,42.82474],[143.71101,42.82439],[143.71225,42.82416],[143.71337,42.82409],[143.71418,42.8242],[143.71531,42.82454],[143.71638,42.82502],[143.71733,42.82555],[143.71858,42.82655],[143.71956,42.82716],[143.726,42.831],[143.72697,42.83139],[143.72849,42.83152],[143.73533,42.83092],[143.736,42.83092],[143.73787,42.83124],[143.74274,42.83257],[143.74362,42.83265],[143.74583,42.83265],[143.74925,42.83197]],[[143.60783,42.77852],[143.59238,42.78734],[143.58553,42.79222],[143.58422,42.79307],[143.54684,42.81397],[143.54525,42.81474],[143.5392,42.81729]],[[143.60876,42.77797],[143.61179,42.77622],[143.61307,42.77567],[143.61425,42.77543],[143.61564,42.77546],[143.6386,42.78082],[143.63988,42.78127],[143.64073,42.7818],[143.64141,42.78246],[143.64789,42.78975],[143.64841,42.79045],[143.64877,42.79118],[143.64903,42.79225],[143.65138,42.80972]],[[145.25293,43.22839],[145.25179,43.22805]],[[144.42526,42.99192],[144.42606,42.99162]],[[143.90458,42.86949],[143.90786,42.87246],[143.9089,42.87307],[143.91038,42.8736],[143.91154,42.87387],[143.91246,42.87398],[143.91541,42.87406],[143.91698,42.87432],[143.91903,42.87507],[143.92081,42.87611],[143.92128,42.87653],[143.92203,42.87756],[143.92243,42.87797],[143.92334,42.87861],[143.92517,42.87965],[143.92561,42.88012],[143.92576,42.88054],[143.92574,42.88114],[143.92545,42.88164],[143.9244,42.88304],[143.92428,42.88337],[143.92424,42.88386],[143.92434,42.88426],[143.92638,42.88748],[143.92682,42.88783],[143.92719,42.88801],[143.93161,42.88885]],[[143.7504,42.83175],[143.74925,42.83197]],[[145.02863,43.12967],[145.02751,43.12872]],[[144.61322,43.0331],[144.61167,43.03278]],[[144.07606,42.95624],[144.072,42.95655],[144.07054,42.95653],[144.06453,42.95596],[144.06183,42.9561],[144.05968,42.95603],[144.05874,42.95581],[144.05759,42.95541],[144.05154,42.95259],[144.05106,42.95243],[144.04979,42.95218],[144.0432,42.95163],[144.04197,42.9516],[144.04101,42.95171],[144.04041,42.95187],[144.0252,42.95667],[144.02313,42.95705],[144.02218,42.95713],[144.02139,42.9571],[144.02043,42.95695],[144.01981,42.95675],[144.01871,42.95622],[144.01779,42.95563],[144.01473,42.95342],[144.01071,42.95027],[144.00967,42.94927],[144.00877,42.94816]],[[145.02751,43.12872],[145.0189,43.12133],[145.01742,43.12043],[145.01567,43.11976],[145.01095,43.11901],[145.00979,43.11898],[145.00928,43.11904],[145.00866,43.11917],[145.00768,43.11951],[145.00563,43.12066],[145.00207,43.12168],[144.9986,43.12254],[144.99741,43.12256],[144.99677,43.12246],[144.9956,43.12211],[144.9938,43.1208],[144.99225,43.12017],[144.99128,43.11997],[144.9898,43.11995],[144.9886,43.11984],[144.98767,43.11962],[144.98647,43.11915],[144.98528,43.11843],[144.98477,43.11791],[144.98391,43.11677],[144.9833,43.11619],[144.9824,43.1156],[144.98153,43.1152],[144.98023,43.11492],[144.9778,43.11479],[144.97621,43.11461],[144.97503,43.11435],[144.97353,43.11388],[144.97121,43.11302],[144.97011,43.11253],[144.96904,43.11182],[144.96683,43.11004],[144.96562,43.10936],[144.96457,43.10901],[144.95663,43.10757],[144.95578,43.10734],[144.9546,43.10691],[144.95133,43.10489],[144.95042,43.10445],[144.9497,43.1042],[144.94763,43.10379],[144.94223,43.10315],[144.94081,43.10319],[144.93628,43.10395],[144.93528,43.10403],[144.9332,43.10399],[144.92597,43.1036]],[[144.9251,43.10355],[144.92597,43.1036]],[[143.5383,42.81767],[143.53544,42.81894],[143.52768,42.82699],[143.52487,42.82955],[143.52357,42.83051],[143.52166,42.83156],[143.51966,42.83283],[143.51853,42.83378],[143.51726,42.83537],[143.51592,42.83742],[143.51554,42.83833],[143.51524,42.83944],[143.51493,42.84009],[143.51448,42.84057],[143.5111,42.8426],[143.50971,42.844],[143.50837,42.84577],[143.50724,42.84678],[143.50691,42.84722],[143.50559,42.84994],[143.50514,42.85043],[143.50304,42.8523],[143.50244,42.85316],[143.50103,42.85551]],[[144.41524,42.99469],[144.41824,42.99437],[144.41922,42.99419],[144.42526,42.99192]],[[144.41231,42.99501],[144.41524,42.99469]],[[144.29536,43.00941],[144.29417,43.00935]],[[145.42429,43.21851],[145.42295,43.21833]],[[145.57611,43.29536],[145.57457,43.29526]],[[143.65138,42.80972],[143.65159,42.81114]],[[145.59703,43.32384],[145.59743,43.32327]],[[143.93333,42.88918],[143.94933,42.8922],[143.95047,42.89258],[143.95784,42.89655],[143.95928,42.89744],[143.96086,42.89826],[143.96174,42.89886],[143.96536,42.90063],[143.97656,42.90654],[143.97769,42.90728],[143.98581,42.91132],[143.98646,42.91192],[143.98681,42.91242],[143.98788,42.91637],[143.98826,42.91829],[143.98909,42.9248],[143.98942,42.9256],[143.99595,42.93583],[143.99694,42.93715],[143.99771,42.93797],[143.99944,42.9395],[143.99993,42.94005],[144.00128,42.9421],[144.00225,42.94321],[144.00292,42.94375],[144.00615,42.94541],[144.00695,42.9459],[144.00744,42.94637],[144.00835,42.94755]],[[144.35166,43.00135],[144.35856,42.99938],[144.36312,42.99742],[144.36878,42.99539],[144.37213,42.99373],[144.3735,42.99317],[144.38045,42.99107]],[[143.86404,42.85243],[143.8633,42.85203]],[[144.42606,42.99162],[144.43151,42.9896],[144.43305,42.98937],[144.4341,42.98941],[144.43491,42.98957],[144.43783,42.99082],[144.44319,42.99328],[144.44543,42.99448],[144.44666,42.99481],[144.44797,42.99476],[144.44901,42.99455],[144.4497,42.99426],[144.45029,42.99381],[144.45106,42.9929],[144.45228,42.99078],[144.45286,42.99009],[144.45392,42.98946],[144.45446,42.98927],[144.45507,42.98916],[144.45593,42.98914],[144.45647,42.98918],[144.45739,42.98946],[144.4584,42.99005],[144.45878,42.99042],[144.45901,42.99077],[144.45948,42.99192],[144.46,42.99285],[144.46045,42.99326],[144.46114,42.9936],[144.4652,42.99469],[144.46671,42.99466],[144.46871,42.99441]],[[144.38045,42.99107],[144.38362,42.99007]],[[145.59743,43.32327],[145.59777,43.32251],[145.59799,43.31828],[145.59462,43.30739],[145.59397,43.30548],[145.59372,43.30505],[145.59311,43.30437],[145.5914,43.30296],[145.58412,43.29713],[145.58341,43.29665],[145.58232,43.29616],[145.58059,43.29564],[145.57965,43.29551],[145.57611,43.29536]],[[145.19409,43.19651],[145.1888,43.19864],[145.1879,43.1989],[145.18621,43.19912],[145.18424,43.19906],[145.16925,43.19803],[145.16695,43.19763],[145.16532,43.19709],[145.16423,43.19654],[145.16183,43.19488],[145.14863,43.18546],[145.14771,43.18471],[145.14714,43.1841],[145.14681,43.18361],[145.14642,43.18265],[145.14635,43.18198],[145.14658,43.18029],[145.1465,43.17948],[145.14637,43.17904],[145.14595,43.17829],[145.14571,43.17801],[145.14483,43.17734],[145.13301,43.17035],[145.13137,43.16945],[145.13022,43.16903],[145.12882,43.16884],[145.12701,43.16884],[145.12621,43.16893],[145.12575,43.16903],[145.12429,43.16965],[145.12282,43.17013],[145.12187,43.17033],[145.11961,43.17048],[145.11773,43.17026],[145.1086,43.16845],[145.1072,43.16802],[145.10614,43.16745],[145.10545,43.16682],[145.09994,43.15799]],[[145.54272,43.22828],[145.54329,43.22729],[145.54344,43.22676],[145.54346,43.22622],[145.54325,43.22537],[145.54172,43.22071],[145.54146,43.21999],[145.54105,43.21933],[145.54075,43.21895],[145.53995,43.21828],[145.52917,43.21187],[145.528,43.21107],[145.52695,43.21017],[145.5259,43.20895],[145.52545,43.20825],[145.5231,43.20424],[145.51984,43.19894]],[[144.78373,43.05733],[144.78172,43.0578]],[[144.38362,42.99007],[144.39055,42.98815],[144.39113,42.98805],[144.39231,42.98813],[144.39805,42.98894],[144.39909,42.9892],[144.39962,42.98943],[144.40012,42.98976],[144.40054,42.99016],[144.40118,42.99093],[144.40278,42.99377],[144.40351,42.99451],[144.40419,42.99494],[144.40542,42.9954],[144.40639,42.99554],[144.4079,42.99546],[144.41044,42.99519]],[[145.42295,43.21833],[145.41487,43.21724],[145.41341,43.21731],[145.41055,43.21801],[145.4087,43.21829],[145.40704,43.21826],[145.40305,43.21774],[145.37095,43.21298],[145.36839,43.21234],[145.35377,43.20716],[145.35206,43.20672],[145.35077,43.20655],[145.34953,43.20661],[145.33801,43.20824],[145.33656,43.20836],[145.3349,43.20835],[145.33392,43.2082],[145.33304,43.20796],[145.32314,43.20469]],[[144.13033,42.97669],[144.13429,42.98116],[144.13542,42.98194],[144.13925,42.98426],[144.14011,42.98464],[144.14111,42.98486],[144.14227,42.98481],[144.14292,42.98463],[144.14544,42.98364],[144.14632,42.98342],[144.14703,42.98338],[144.14909,42.98352]],[[143.50103,42.85551],[143.50065,42.85609]],[[144.273,43.0091],[144.27167,43.00908],[144.26995,43.00889],[144.26122,43.00726],[144.24942,43.0031],[144.24707,43.00244],[144.23219,43.0003],[144.22845,42.99967],[144.19639,42.99323],[144.19219,42.9923],[144.17098,42.98673],[144.16896,42.98626],[144.15951,42.98447],[144.15726,42.98414],[144.15093,42.98366]],[[143.93161,42.88885],[143.93333,42.88918]],[[144.47062,42.99417],[144.47363,42.99376],[144.47512,42.99408],[144.47597,42.99452],[144.4763,42.99479],[144.47736,42.99595],[144.47795,42.99648],[144.47868,42.99692],[144.47934,42.99717],[144.48271,42.99737],[144.4908,42.99757],[144.49184,42.99762],[144.49248,42.99776],[144.49449,42.99857],[144.49759,42.99953],[144.50108,43.00077],[144.50169,43.0012],[144.50289,43.00278],[144.50359,43.0034],[144.50451,43.00378],[144.50571,43.004],[144.5071,43.00407],[144.50792,43.00398],[144.50929,43.00351],[144.51122,43.00256],[144.51212,43.00237],[144.51325,43.00239],[144.51514,43.00277],[144.51653,43.0027],[144.51745,43.00245],[144.5201,43.00111],[144.52047,43.00099],[144.52108,43.00095],[144.52194,43.00111],[144.52282,43.00154],[144.52314,43.00187],[144.52341,43.00242],[144.52333,43.0056],[144.52365,43.00629],[144.52451,43.00711],[144.52625,43.00803],[144.527,43.00831],[144.52806,43.00852],[144.52937,43.00845],[144.5305,43.00828],[144.53383,43.00764],[144.53496,43.00764],[144.53613,43.008],[144.5369,43.00853],[144.53753,43.0093],[144.54035,43.01325],[144.54101,43.01405],[144.54157,43.01444],[144.54236,43.01478],[144.54505,43.01548],[144.54574,43.01552],[144.54632,43.01544],[144.54735,43.01513],[144.548,43.01479],[144.54857,43.01431],[144.54936,43.01347],[144.54988,43.01312],[144.55068,43.01281],[144.55138,43.01267],[144.55236,43.01261],[144.555,43.01267],[144.5557,43.0125],[144.55727,43.01188],[144.55804,43.0117],[144.55882,43.01162],[144.55993,43.01174],[144.56136,43.01226],[144.5617,43.01255],[144.56356,43.01533],[144.56485,43.01694],[144.56558,43.01763],[144.56636,43.01811],[144.57056,43.02019],[144.57202,43.02061],[144.57291,43.02073],[144.57541,43.02052],[144.5766,43.02057],[144.57769,43.02081],[144.57918,43.02158],[144.57982,43.02181],[144.58093,43.02206],[144.58257,43.02223],[144.58405,43.02197],[144.58519,43.02145],[144.58625,43.02084],[144.58726,43.02051],[144.5888,43.02048],[144.59003,43.02072],[144.59132,43.02127],[144.59204,43.02179],[144.59258,43.0224],[144.5936,43.02439],[144.59387,43.02466],[144.59426,43.02489],[144.5952,43.02527],[144.596,43.02542],[144.60023,43.02541],[144.60118,43.02553],[144.60228,43.02588],[144.60381,43.02668],[144.60511,43.02775],[144.60558,43.02853],[144.6065,43.03069],[144.60711,43.0313],[144.60786,43.03179],[144.6088,43.03216],[144.61167,43.03278]],[[143.42338,42.93508],[143.41992,42.93618],[143.41874,42.93647],[143.41726,42.9365],[143.41606,42.93628],[143.40048,42.93071],[143.37467,42.92246],[143.37415,42.92223],[143.37295,42.9214],[143.36018,42.90868]],[[143.81374,42.80979],[143.81105,42.81077],[143.80985,42.81129],[143.80915,42.81172],[143.80853,42.81222],[143.80681,42.81462],[143.80491,42.81696],[143.80195,42.81964],[143.80164,42.8202],[143.80144,42.8211],[143.80083,42.82269],[143.79995,42.82384],[143.79954,42.82416],[143.79894,42.82445],[143.79795,42.82468],[143.79699,42.82476],[143.79286,42.82449],[143.79165,42.82456],[143.79083,42.82476],[143.78748,42.82601],[143.7861,42.82665],[143.78499,42.82738],[143.78209,42.82957],[143.78075,42.83033],[143.77969,42.83069],[143.7771,42.83084],[143.77546,42.83121],[143.77464,42.83169],[143.77342,42.83272],[143.77277,42.83316],[143.77205,42.83341],[143.77042,42.83344],[143.76863,42.83311],[143.76291,42.83309],[143.76007,42.8327],[143.75382,42.83147],[143.75254,42.83141],[143.7504,42.83175]],[[144.70434,43.01849],[144.71559,43.01852],[144.71681,43.0187],[144.71844,43.01926],[144.71938,43.01977],[144.72037,43.02055],[144.72102,43.02158],[144.72697,43.04011],[144.72739,43.04105],[144.72768,43.04146],[144.72821,43.04205],[144.72901,43.04262],[144.73279,43.04424],[144.73409,43.045],[144.73464,43.04555],[144.73674,43.04911],[144.73714,43.04961],[144.74387,43.05509],[144.74513,43.05588],[144.74601,43.05633],[144.74694,43.0568],[144.75582,43.06044],[144.75664,43.06064],[144.75774,43.06078],[144.75946,43.06072],[144.77221,43.0585],[144.77341,43.05838],[144.77453,43.05838],[144.77774,43.05856],[144.77842,43.05853],[144.78172,43.0578]],[[144.84252,43.05622],[144.84512,43.05613],[144.84595,43.05618],[144.84708,43.0565],[144.84787,43.05696],[144.84855,43.0577],[144.84934,43.05974],[144.85181,43.06374],[144.85209,43.06459],[144.85199,43.06561],[144.85163,43.06629],[144.85008,43.06809],[144.84981,43.06888],[144.8498,43.06967],[144.84996,43.07025],[144.85066,43.07191],[144.85066,43.07383],[144.85082,43.07455],[144.85099,43.07488],[144.85174,43.07578],[144.85283,43.07683],[144.85316,43.07734],[144.85332,43.07776],[144.85355,43.07912],[144.85418,43.08497],[144.8546,43.08644],[144.85526,43.0877],[144.85584,43.08856],[144.85951,43.09327],[144.86102,43.09466],[144.86232,43.09551],[144.86552,43.09733],[144.86654,43.09781],[144.86795,43.09832],[144.8694,43.0986],[144.87146,43.0987],[144.88416,43.09794],[144.88712,43.09792],[144.8878,43.09798],[144.90816,43.10072],[144.91028,43.10124],[144.91358,43.10239],[144.91599,43.10298],[144.9251,43.10355]],[[145.58413,43.32692],[145.59013,43.3277],[145.59112,43.3277],[145.59221,43.32757],[145.59301,43.32729],[145.59397,43.32676],[145.59703,43.32384]],[[145.51984,43.19894],[145.51908,43.19771]],[[145.51908,43.19771],[145.51713,43.19435],[145.5166,43.19362],[145.51614,43.1932],[145.51551,43.19279],[145.51458,43.19241],[145.51145,43.19185],[145.51033,43.19145],[145.5098,43.19116],[145.50719,43.18908],[145.50613,43.1885],[145.50503,43.18819],[145.50366,43.18808],[145.50308,43.18811],[145.5006,43.18868],[145.4994,43.18879],[145.4981,43.18878],[145.49709,43.1886],[145.4913,43.18682],[145.49006,43.18674],[145.48863,43.18694],[145.48262,43.18844],[145.48136,43.189],[145.47935,43.19029],[145.47758,43.19077],[145.4751,43.19136],[145.47354,43.19156],[145.47262,43.19152],[145.47083,43.19128],[145.4698,43.19132],[145.46849,43.19165],[145.46734,43.19216],[145.46666,43.1927],[145.46512,43.19476],[145.46458,43.19519],[145.46253,43.19635],[145.46176,43.19709],[145.46149,43.19752],[145.46122,43.19825],[145.46092,43.20022],[145.46076,43.20066],[145.46026,43.20138],[145.45949,43.20208],[145.45898,43.20242],[145.4583,43.2027],[145.44956,43.20472],[145.44829,43.20522],[145.44724,43.20603],[145.44672,43.20685],[145.44373,43.21495],[145.44343,43.21544],[145.44293,43.21602],[145.44223,43.21664],[145.44148,43.21711],[145.44065,43.21745],[145.4397,43.21769],[145.43152,43.21907],[145.42905,43.21912],[145.42429,43.21851]],[[145.09953,43.15734],[145.0975,43.15414],[145.0966,43.15336],[145.09599,43.15299],[145.09521,43.15267],[145.07229,43.14737],[145.07,43.14704],[145.04957,43.14475],[145.04823,43.14448],[145.04642,43.14393],[145.04424,43.14288],[145.04298,43.14195],[145.02863,43.12967]],[[143.4253,42.93445],[143.42338,42.93508]],[[144.07774,42.9561],[144.0797,42.95593],[144.08132,42.95567],[144.08328,42.95513],[144.08598,42.95405],[144.08847,42.95341],[144.08948,42.95335],[144.09026,42.95351],[144.09155,42.95422],[144.09396,42.9562],[144.09495,42.95667],[144.10543,42.9594],[144.10682,42.95993],[144.11185,42.96231],[144.11275,42.96301],[144.11472,42.9651],[144.11631,42.96648],[144.12662,42.9727],[144.12772,42.97374],[144.1293,42.97556]],[[144.70336,43.0185],[144.70434,43.01849]],[[145.57457,43.29526],[145.56173,43.29453],[145.55968,43.29401],[145.55895,43.29372],[145.55795,43.29311],[145.55661,43.29179],[145.55217,43.28684],[145.54316,43.2771],[145.54272,43.27651],[145.54223,43.27575],[145.54205,43.27533],[145.54176,43.27436],[145.54159,43.27336],[145.54153,43.27188],[145.54184,43.26858]],[[145.25179,43.22805],[145.24397,43.22577],[145.24289,43.22542],[145.24116,43.22461],[145.24007,43.22387],[145.23727,43.22169],[145.21735,43.20601],[145.21626,43.2049],[145.21561,43.20374],[145.21352,43.19824],[145.21284,43.19681],[145.21221,43.19612],[145.21113,43.19532],[145.21012,43.19484],[145.20896,43.19455],[145.20453,43.19392],[145.20246,43.1938],[145.20116,43.19393],[145.19958,43.19432],[145.19491,43.19617]],[[144.1293,42.97556],[144.13033,42.97669]],[[144.14909,42.98352],[144.15093,42.98366]],[[144.07774,42.9561],[144.07606,42.95624]],[[144.34995,43.00185],[144.34328,43.00368],[144.33674,43.00537],[144.336,43.00549],[144.3214,43.00648],[144.32006,43.00686],[144.31938,43.00714],[144.31417,43.00984],[144.31222,43.01056],[144.31053,43.01098],[144.30929,43.01098],[144.30825,43.01086],[144.30229,43.00984],[144.29536,43.00941]],[[144.00877,42.94816],[144.00835,42.94755]],[[143.81515,42.80925],[143.81374,42.80979]],[[144.35166,43.00135],[144.34995,43.00185]],[[144.83996,43.05631],[144.8377,43.05639],[144.83531,43.05667],[144.82607,43.05917],[144.82437,43.0595],[144.82217,43.05969],[144.81322,43.05994],[144.80974,43.05985],[144.80054,43.05891],[144.7992,43.05873],[144.79103,43.05712],[144.78823,43.05665],[144.78623,43.05677],[144.78373,43.05733]],[[143.8633,42.85203],[143.86195,42.8513],[143.86136,42.85107],[143.86059,42.85094],[143.85768,42.85082],[143.85623,42.85038],[143.84157,42.84326],[143.84055,42.84264],[143.84007,42.8422],[143.8397,42.8417],[143.83948,42.84086],[143.83957,42.83997],[143.83999,42.83882],[143.84006,42.83831],[143.83986,42.83651],[143.83961,42.83533],[143.83961,42.83486],[143.8398,42.83179],[143.83998,42.83121],[143.84086,42.82921],[143.84096,42.82884],[143.84097,42.82831],[143.84084,42.82775],[143.84058,42.82721],[143.8402,42.82678],[143.83982,42.82609],[143.83864,42.82214],[143.83839,42.82171],[143.83795,42.82124],[143.82363,42.8098],[143.82231,42.80887],[143.82062,42.80833],[143.81993,42.8082],[143.81918,42.80818],[143.81714,42.80855],[143.81515,42.80925]],[[142.12647,43.54134],[142.12408,43.54125]],[[142.18574,43.51559],[142.18275,43.51772]],[[142.18275,43.51772],[142.16497,43.5306],[142.16078,43.53275],[142.15957,43.53307],[142.1589,43.5331],[142.15523,43.53287],[142.15456,43.53291],[142.15003,43.53338],[142.14861,43.53366],[142.14688,43.53422],[142.14506,43.53507],[142.13724,43.53949],[142.13515,43.54039],[142.13346,43.54092],[142.13246,43.54114],[142.13058,43.54139],[142.12923,43.54145],[142.12647,43.54134]],[[142.39072,43.3486],[142.3887,43.3526]],[[142.39214,43.3458],[142.39072,43.3486]],[[142.90702,42.95738],[142.9063,42.95767]],[[143.29796,42.9039],[143.3043,42.90287],[143.30561,42.90249],[143.30905,42.90127],[143.31042,42.90105],[143.31365,42.90104],[143.31488,42.90113],[143.31768,42.90198],[143.3188,42.90214],[143.32599,42.9018],[143.33246,42.90186],[143.3332,42.90174],[143.33409,42.90148],[143.33578,42.90074],[143.33978,42.89919],[143.3436,42.89787],[143.34513,42.89756],[143.34619,42.89751],[143.34729,42.89763],[143.34801,42.8978],[143.34927,42.89829],[143.35024,42.89888],[143.35858,42.90709]],[[142.83195,43.08324],[142.83188,43.08279],[142.83199,43.08246],[142.83271,43.0808],[142.83288,43.08064]],[[142.21193,43.48787],[142.21022,43.4892]],[[142.41613,43.13655],[142.41607,43.13786],[142.41613,43.13849],[142.41703,43.1403],[142.4172,43.14083],[142.41724,43.1414],[142.41664,43.14452],[142.41663,43.14498],[142.41674,43.14544],[142.41729,43.14633],[142.41898,43.14849],[142.42254,43.15337],[142.42286,43.15417],[142.42304,43.15532],[142.42401,43.16756],[142.42108,43.18672],[142.42083,43.18748],[142.42046,43.1882],[142.41544,43.1971]],[[142.38128,43.2443],[142.38145,43.24496]],[[143.04639,42.90974],[143.03521,42.90895],[143.03386,42.90879],[143.02397,42.90614],[143.02229,42.90576],[143.02033,42.90575],[143.0189,42.90607],[143.0157,42.90743],[143.0107,42.90992],[142.99152,42.91654],[142.99028,42.91709],[142.98934,42.91768],[142.98839,42.91846],[142.9822,42.92643],[142.98143,42.92713],[142.98041,42.92772],[142.97407,42.92986],[142.97059,42.93168],[142.94253,42.9386],[142.94093,42.93918],[142.93608,42.94223]],[[142.83304,43.08091],[142.83227,43.08275]],[[143.04983,42.90998],[143.04639,42.90974]],[[142.52323,43.16365],[142.5206,43.16143],[142.51986,43.16065],[142.51669,43.15686],[142.51629,43.1565],[142.51493,43.15563],[142.51243,43.15453],[142.51153,43.15401],[142.5079,43.15096],[142.50724,43.15055],[142.50516,43.1496],[142.503,43.14898],[142.50183,43.14878],[142.49621,43.14826],[142.49451,43.14796],[142.49345,43.14758],[142.4909,43.14637],[142.49006,43.14584],[142.48932,43.14513],[142.48751,43.14284],[142.48687,43.1422],[142.48622,43.14172],[142.48481,43.14113],[142.48326,43.14085],[142.48172,43.14088],[142.45742,43.1431],[142.45599,43.14307],[142.45513,43.14293],[142.45305,43.14229],[142.45236,43.142],[142.45121,43.14131],[142.45067,43.14086],[142.44772,43.13716],[142.44689,43.13648],[142.4459,43.13603],[142.44516,43.13584],[142.44406,43.13571],[142.43734,43.13589],[142.43619,43.13578],[142.43515,43.13551],[142.43428,43.13518],[142.43056,43.13327],[142.43015,43.13298],[142.42837,43.13113],[142.42711,43.13041],[142.4263,43.13007],[142.42551,43.12987],[142.42336,43.12961],[142.42186,43.12964],[142.42114,43.12975],[142.41994,43.13009],[142.41867,43.13072],[142.41792,43.13127],[142.41741,43.13186],[142.41675,43.13334],[142.41633,43.13446],[142.41617,43.13586]],[[142.41544,43.1971],[142.41508,43.19772]],[[143.20308,42.9176],[143.20113,42.91854]],[[142.35089,43.37503],[142.35057,43.37426]],[[142.38145,43.24496],[142.38365,43.25246],[142.38724,43.26528],[142.3873,43.2659],[142.38727,43.26921],[142.38743,43.27047],[142.38782,43.27164],[142.38936,43.27546],[142.39007,43.2765],[142.39074,43.27714],[142.39144,43.27763],[142.39535,43.27939],[142.39621,43.28001],[142.39704,43.28097],[142.39763,43.28219],[142.39776,43.28268],[142.3978,43.28327],[142.39772,43.28426],[142.39723,43.28738],[142.39722,43.28836],[142.39752,43.28913],[142.39784,43.28963],[142.39971,43.29146]],[[142.83304,43.08091],[142.83334,43.08019]],[[142.26255,43.47423],[142.26569,43.4733],[142.26712,43.47268],[142.26843,43.47169],[142.26904,43.4709],[142.26933,43.47033],[142.27182,43.45909],[142.27233,43.45749],[142.27337,43.45513],[142.2739,43.45364],[142.27401,43.45227],[142.2739,43.45191],[142.27354,43.45133],[142.27331,43.45066],[142.27324,43.45025],[142.27331,43.44938],[142.2736,43.44873],[142.27497,43.4474],[142.27585,43.44626],[142.27684,43.44453],[142.27768,43.44189],[142.27839,43.44041],[142.27875,43.43995],[142.27971,43.43903],[142.28017,43.4387],[142.28251,43.43733],[142.30204,43.42719],[142.30406,43.42609],[142.30532,43.42528],[142.30625,43.4244],[142.31687,43.41195],[142.33713,43.38759],[142.33888,43.38567],[142.34041,43.38422],[142.34272,43.38249],[142.34319,43.38224],[142.34978,43.37977],[142.35026,43.37953],[142.3511,43.37881],[142.35154,43.37814],[142.35165,43.37786],[142.35169,43.37732],[142.3516,43.37689],[142.35089,43.37503]],[[142.83227,43.08275],[142.83196,43.0835]],[[142.26255,43.47423],[142.26095,43.47471]],[[142.56993,43.16155],[142.56902,43.16164]],[[143.16361,42.92885],[143.16205,42.9287],[143.15987,42.92819],[143.15869,42.928],[143.15659,42.92734],[143.14958,42.9256],[143.12754,42.92401]],[[143.06989,42.91635],[143.06955,42.91573]],[[142.21022,43.4892],[142.20937,43.48985],[142.20843,43.4908],[142.20736,43.49232],[142.20655,43.49372],[142.20599,43.49488],[142.20577,43.49555],[142.20477,43.49926],[142.20447,43.5001],[142.20411,43.50081],[142.20346,43.50159],[142.20306,43.50199],[142.20261,43.5023],[142.20081,43.50321],[142.19486,43.50561],[142.19389,43.50613],[142.19312,43.50694],[142.19007,43.51195],[142.18942,43.51284],[142.18912,43.51313],[142.18574,43.51559]],[[142.66943,43.12482],[142.67184,43.1237],[142.67415,43.12299],[142.6759,43.1226],[142.67689,43.12246],[142.67901,43.12245],[142.68069,43.12212],[142.68159,43.12166],[142.68245,43.12097],[142.68285,43.12046],[142.68322,43.11968],[142.68334,43.11906],[142.68334,43.11725],[142.68353,43.11658],[142.68404,43.11582],[142.68481,43.11512],[142.68586,43.11455],[142.68683,43.11415],[142.68806,43.11332],[142.68874,43.11254],[142.68909,43.1118],[142.68919,43.11082],[142.68902,43.11007],[142.68887,43.10975],[142.6885,43.10919],[142.68707,43.1076],[142.68683,43.1071],[142.68666,43.10618],[142.68672,43.1056],[142.6869,43.105],[142.68756,43.10401],[142.68822,43.10349],[142.6888,43.10315],[142.69007,43.10262],[142.69162,43.10235]],[[142.69162,43.10235],[142.74619,43.10221],[142.76053,43.10236],[142.76227,43.10221],[142.76331,43.10195],[142.76412,43.10165],[142.76608,43.10059],[142.76796,43.09923],[142.7695,43.0976],[142.76985,43.09711],[142.77035,43.09594],[142.77048,43.09525],[142.77049,43.09429],[142.76979,43.09186],[142.76972,43.091],[142.76977,43.09022],[142.77064,43.0877],[142.77277,43.0821],[142.77297,43.08096],[142.77267,43.07821],[142.77284,43.07722],[142.77312,43.07657],[142.774,43.07532],[142.77481,43.07459],[142.77642,43.07364],[142.77892,43.07258],[142.77976,43.07202],[142.78296,43.06945],[142.78408,43.06841],[142.78473,43.06742],[142.78512,43.06616],[142.78517,43.06539],[142.78496,43.06357],[142.78503,43.06256],[142.78534,43.06175],[142.78608,43.06051],[142.78828,43.05811],[142.79127,43.05466],[142.7937,43.05119],[142.7946,43.05004],[142.79546,43.04925],[142.79629,43.04869],[142.79742,43.04827],[142.79866,43.04799],[142.79997,43.04794],[142.80154,43.04822],[142.80286,43.04865],[142.80402,43.04933],[142.80494,43.05014],[142.80544,43.05091],[142.80581,43.05201],[142.80579,43.05305],[142.80559,43.05385],[142.80499,43.05484],[142.80398,43.0557],[142.8034,43.05607],[142.80172,43.05683],[142.79598,43.05911],[142.79482,43.05972],[142.794,43.06032],[142.79367,43.06057],[142.7932,43.0611],[142.79258,43.06195],[142.79222,43.06262],[142.79204,43.0632],[142.79187,43.06433],[142.79186,43.06515],[142.79202,43.06596],[142.79227,43.06668],[142.79347,43.06837],[142.79502,43.06984],[142.79572,43.07081],[142.79658,43.07246],[142.7969,43.07341],[142.79708,43.07425],[142.7971,43.07619],[142.7963,43.08177],[142.79565,43.08341],[142.79421,43.08582],[142.79393,43.08645],[142.79376,43.08721],[142.79371,43.08788],[142.79394,43.08915],[142.79433,43.09003],[142.79506,43.09089],[142.81007,43.10304],[142.81105,43.10374],[142.8123,43.1043],[142.81367,43.10468],[142.81523,43.10484],[142.81723,43.10473],[142.81902,43.10422],[142.81992,43.1038],[142.8225,43.10221],[142.82374,43.10164],[142.82539,43.10103],[142.82833,43.10012],[142.8291,43.09977],[142.83008,43.09913],[142.83069,43.09863],[142.83127,43.09795],[142.83155,43.0975],[142.83199,43.09645],[142.8321,43.09589],[142.83211,43.09507],[142.83195,43.0928],[142.831,43.08722],[142.83096,43.08639],[142.83107,43.08583],[142.83196,43.0835]],[[143.16547,42.92895],[143.16361,42.92885]],[[143.29707,42.90404],[143.29796,42.9039]],[[142.52384,43.16413],[142.52323,43.16365]],[[143.25523,42.91325],[143.25718,42.91218]],[[142.87948,43.01389],[142.87832,43.01808],[142.87557,43.02716],[142.87512,43.02803],[142.87456,43.02869],[142.86532,43.03494],[142.86476,43.03553],[142.86319,43.0381],[142.86273,43.03851],[142.86199,43.03899],[142.8601,43.03984],[142.85849,43.04041],[142.85747,43.04058],[142.85271,43.04102],[142.85131,43.04129],[142.8506,43.04157],[142.84979,43.04205],[142.84884,43.04289],[142.84844,43.04359],[142.83334,43.08019]],[[142.41617,43.13586],[142.41613,43.13655]],[[143.12754,42.92401],[143.12517,42.92386]],[[142.41508,43.19772],[142.40821,43.21004],[142.40752,43.21088],[142.40655,43.21152],[142.40541,43.21192],[142.39519,43.21351],[142.39395,43.21388],[142.39119,43.21502],[142.38973,43.21543],[142.38755,43.21624],[142.38564,43.21656],[142.3785,43.21697],[142.37668,43.2171],[142.37579,43.21725],[142.37449,43.21788],[142.37403,43.21827],[142.37347,43.21897],[142.37122,43.22233],[142.36989,43.22458],[142.3695,43.22571],[142.36946,43.226],[142.36954,43.22682],[142.37001,43.22756],[142.37122,43.22914],[142.37846,43.23772],[142.37958,43.23915],[142.37999,43.23997],[142.38029,43.24086],[142.38128,43.2443]],[[143.25718,42.91218],[143.26045,42.91034],[143.26164,42.90975],[143.26326,42.9092],[143.29707,42.90404]],[[142.93539,42.94267],[142.92122,42.95151],[142.91744,42.95315],[142.90702,42.95738]],[[142.93608,42.94223],[142.93539,42.94267]],[[143.12517,42.92386],[143.08613,42.92101],[143.08458,42.92095],[143.07404,42.9201],[143.07319,42.91987],[143.07238,42.91952],[143.0715,42.91888],[143.07088,42.91813],[143.06989,42.91635]],[[142.40057,43.29226],[142.39971,43.29146]],[[142.56902,43.16164],[142.55918,43.16273],[142.55789,43.16311],[142.55443,43.16442],[142.55321,43.16467],[142.54437,43.16508],[142.54277,43.16528],[142.54115,43.16566],[142.53299,43.16792],[142.53212,43.16799],[142.53081,43.16778],[142.52607,43.16569],[142.52511,43.16511],[142.52384,43.16413]],[[143.20113,42.91854],[143.19735,42.92061],[143.17967,42.92877],[143.17818,42.92937],[143.17713,42.92962],[143.17625,42.92968],[143.16547,42.92895]],[[142.66843,43.12529],[142.65495,43.13152],[142.64676,43.1349],[142.64545,43.13531],[142.63737,43.13624],[142.6364,43.13651],[142.63211,43.13832],[142.63129,43.13857],[142.63033,43.13873],[142.61198,43.13961],[142.6107,43.13974],[142.61009,43.13989],[142.60946,43.14014],[142.60852,43.14071],[142.60647,43.14231],[142.59586,43.14989],[142.57824,43.1601],[142.57728,43.16052],[142.57646,43.16076],[142.56993,43.16155]],[[142.66943,43.12482],[142.66843,43.12529]],[[143.06955,42.91573],[143.06808,42.91303],[143.06772,42.9126],[143.06648,42.9116],[143.06575,42.9112],[143.06487,42.91086],[143.06319,42.91056],[143.05783,42.91057],[143.04983,42.90998]],[[142.87997,43.01214],[142.87948,43.01389]],[[142.9063,42.95767],[142.89255,42.96339],[142.89165,42.964],[142.88806,42.96758],[142.88724,42.9688],[142.8856,42.97324],[142.88552,42.97375],[142.88557,42.97423],[142.88611,42.97521],[142.88661,42.97567],[142.88721,42.97604],[142.88936,42.97707],[142.89045,42.97776],[142.89132,42.97878],[142.89139,42.97915],[142.88982,42.99596],[142.88929,43.00027],[142.88913,43.0009],[142.88852,43.00149],[142.88207,43.00645],[142.88183,43.00673],[142.88152,43.00715],[142.88112,43.00824],[142.87997,43.01214]],[[142.39214,43.3458],[142.40378,43.32288],[142.4041,43.32212],[142.40415,43.32121],[142.404,43.31827],[142.40227,43.29522],[142.40211,43.29449],[142.40183,43.2939],[142.4013,43.29307],[142.40057,43.29226]],[[143.20308,42.9176],[143.21131,42.9143],[143.21247,42.91394],[143.23025,42.91027],[143.23187,42.91023],[143.23332,42.91057],[143.24375,42.91495],[143.24516,42.91535],[143.24672,42.91556],[143.24873,42.91559],[143.2507,42.91535],[143.25239,42.91472],[143.25523,42.91325]],[[142.26095,43.47471],[142.24921,43.47817],[142.24863,43.47845],[142.24733,43.47939],[142.24621,43.47999],[142.24523,43.48023],[142.24373,43.48038],[142.24252,43.4806],[142.23842,43.48234],[142.23749,43.48256],[142.23664,43.48262],[142.23535,43.48254],[142.22852,43.48155],[142.22748,43.48158],[142.22164,43.48216],[142.21975,43.48244],[142.21869,43.48279],[142.21773,43.4833],[142.21193,43.48787]],[[142.35057,43.37426],[142.34885,43.36991],[142.34892,43.36918],[142.34919,43.36853],[142.34974,43.36798],[142.35024,43.36762],[142.3546,43.36529],[142.35553,43.36466],[142.3561,43.36416],[142.35668,43.36344],[142.36148,43.35569],[142.36207,43.35503],[142.36276,43.35444],[142.36323,43.35415],[142.36472,43.35363],[142.36564,43.35355],[142.36748,43.35361],[142.37624,43.3544],[142.38449,43.35397],[142.38595,43.35388],[142.38675,43.35372],[142.38782,43.35323],[142.3887,43.3526]],[[141.89991,43.55354],[141.90166,43.55689]],[[142.04726,43.55555],[142.04363,43.55718],[142.03812,43.55861],[142.03642,43.55926],[142.03565,43.55967],[142.02544,43.56743],[142.0251,43.56781],[142.02266,43.57146],[142.02168,43.57225],[142.02043,43.57278],[142.01989,43.57291],[141.9991,43.57584],[141.99646,43.57627],[141.99469,43.57647],[141.98824,43.57601],[141.98734,43.57584],[141.98229,43.57445]],[[141.98229,43.57445],[141.97854,43.57341]],[[141.9045,43.56252],[141.90518,43.56328],[141.90564,43.56366],[141.90621,43.56399],[141.90693,43.56427],[141.9081,43.56454],[141.9093,43.56458],[141.91007,43.56449],[141.91318,43.56383],[141.91491,43.56368],[141.93604,43.56513],[141.93785,43.56536],[141.96512,43.56974],[141.97854,43.57341]],[[141.90166,43.55689],[141.90281,43.55905],[141.9045,43.56252]],[[142.08328,43.53701],[142.08098,43.5372]],[[142.12408,43.54125],[142.11622,43.5409],[142.11447,43.54076],[142.11338,43.54057],[142.11109,43.53984],[142.10607,43.53755],[142.10394,43.5368],[142.10108,43.53608],[142.09909,43.53577],[142.09759,43.53566],[142.09623,43.53572],[142.0926,43.5368],[142.09185,43.53692],[142.08725,43.53676],[142.08328,43.53701]],[[142.08098,43.5372],[142.07955,43.53734],[142.07544,43.5386],[142.07182,43.53927],[142.07122,43.53949],[142.06929,43.54054],[142.06651,43.54127],[142.06597,43.5415],[142.06558,43.54179],[142.05603,43.55116],[142.05558,43.55147],[142.05006,43.55421]],[[142.05006,43.55421],[142.04726,43.55555]],[[142.83288,43.08064],[142.83334,43.08019]],[[142.83288,43.08064],[142.83201,43.08278],[142.83195,43.08324]],[[142.83195,43.08324],[142.83196,43.0835]]]}}