{"type":"Feature","properties":{"id":"北海道旅客鉄道_日高線","name":"日高線","operator":"北海道旅客鉄道","railType":"普通鉄道(JR)","operatorType":"JR在来線","category":"rail","attribution":"国土数値情報（鉄道データ）国土交通省"},"geometry":{"type":"MultiLineString","coordinates":[[[141.59709,42.63974],[141.59453,42.63885]],[[141.67107,42.66457],[141.62301,42.64845],[141.61841,42.64697],[141.59709,42.63974]],[[141.72734,42.63314],[141.72405,42.63654],[141.70343,42.65895],[141.70212,42.66032],[141.70112,42.66105],[141.69955,42.66186],[141.69805,42.66231],[141.69689,42.66256],[141.67427,42.66484],[141.67291,42.66482],[141.67107,42.66457]],[[141.72797,42.63251],[141.72734,42.63314]],[[141.83647,42.60694],[141.83221,42.60843],[141.83175,42.60868],[141.83103,42.60936],[141.82943,42.61127],[141.82891,42.61166],[141.82767,42.61206],[141.75997,42.62393],[141.73476,42.62764],[141.73311,42.62795],[141.73238,42.62821],[141.73182,42.62857],[141.72797,42.63251]],[[141.88404,42.5906],[141.88316,42.5909]],[[141.92455,42.5789],[141.92336,42.57901]],[[141.83754,42.6066],[141.83647,42.60694]],[[141.88316,42.5909],[141.83754,42.6066]],[[141.92336,42.57901],[141.91824,42.5796],[141.91648,42.57998],[141.90101,42.58476],[141.88404,42.5906]]]}}