{"type":"Feature","properties":{"id":"北海道旅客鉄道_函館線","name":"函館線","operator":"北海道旅客鉄道","railType":"普通鉄道(JR)","operatorType":"JR在来線","category":"rail","attribution":"国土数値情報（鉄道データ）国土交通省"},"geometry":{"type":"MultiLineString","coordinates":[[[142.35949,43.76299],[142.35635,43.76389]],[[142.12766,43.73255],[142.12888,43.73273],[142.13204,43.7327],[142.13286,43.73257]],[[142.32629,43.78866],[142.32544,43.78927],[142.3243,43.78982]],[[142.13184,43.73256],[142.13286,43.73257]],[[142.3243,43.78982],[142.3232,43.79022],[142.32103,43.79082],[142.3203,43.79096],[142.3192,43.79102],[142.31742,43.79092],[142.31199,43.79004],[142.30654,43.78948],[142.30287,43.78966],[142.29944,43.79009],[142.29893,43.79003],[142.29798,43.78976],[142.29681,43.78909],[142.29263,43.78617],[142.2909,43.78513],[142.28777,43.7837],[142.28566,43.78262],[142.28498,43.78219],[142.28077,43.77872],[142.27775,43.77656],[142.27721,43.7761],[142.27684,43.7757],[142.2759,43.77436],[142.27528,43.77306],[142.27485,43.77194],[142.27357,43.76782],[142.27194,43.76383]],[[142.27194,43.76383],[142.27146,43.76258]],[[142.35635,43.76389],[142.34964,43.76571],[142.34863,43.76614],[142.34786,43.76669],[142.34427,43.77028],[142.33989,43.77495],[142.33479,43.78018],[142.33164,43.78308],[142.32889,43.78582],[142.32758,43.78739],[142.32629,43.78866]],[[142.13184,43.73256],[142.12826,43.73255]],[[142.12826,43.73255],[142.12766,43.73255]],[[142.27146,43.76258],[142.27035,43.75992],[142.26975,43.75904],[142.26926,43.75852],[142.26856,43.75789],[142.2681,43.75765],[142.26729,43.75735],[142.26619,43.75707],[142.26318,43.75681],[142.25959,43.75703],[142.25862,43.75715],[142.25538,43.75792],[142.25336,43.75831],[142.25064,43.75864],[142.24689,43.75893],[142.24588,43.75887],[142.24302,43.7582],[142.24231,43.75795],[142.23929,43.75654],[142.23202,43.7524],[142.23032,43.75151],[142.19732,43.73518],[142.1955,43.73441],[142.19224,43.73333],[142.1914,43.73319],[142.18784,43.73302],[142.17489,43.7327],[142.13286,43.73257]],[[141.75754,43.20323],[141.76094,43.20499]],[[141.73462,43.19223],[141.73784,43.1943],[141.74323,43.19707],[141.74396,43.19739],[141.74753,43.19848],[141.74947,43.19918],[141.75497,43.202],[141.75754,43.20323]],[[141.90166,43.55689],[141.90281,43.55905],[141.9045,43.56252]],[[141.89991,43.55354],[141.90166,43.55689]],[[141.86246,43.33178],[141.86275,43.33278]],[[141.53067,43.09324],[141.52894,43.092]],[[141.16082,43.14308],[141.15903,43.14375]],[[141.8618,43.32955],[141.86246,43.33178]],[[140.7697,43.15319],[140.75041,43.13738],[140.74926,43.13679],[140.74678,43.13587],[140.74636,43.13567],[140.74561,43.13514],[140.74485,43.13429],[140.74323,43.1313],[140.74276,43.13067],[140.73752,43.12584]],[[141.96605,43.68971],[141.96725,43.6922]],[[141.87363,43.37076],[141.87406,43.37221]],[[141.6257,43.13693],[141.62994,43.13896],[141.63116,43.13931],[141.63222,43.13944],[141.63587,43.13953]],[[141.55804,43.11092],[141.56131,43.1127],[141.56264,43.11327],[141.56344,43.11349],[141.56419,43.11357],[141.56551,43.11352],[141.56927,43.11272],[141.57099,43.11265],[141.57316,43.11302],[141.57807,43.1147],[141.5791,43.115],[141.58069,43.11526],[141.58283,43.11535],[141.59336,43.11526],[141.59481,43.1154],[141.59556,43.11563],[141.59659,43.11612],[141.59708,43.11647],[141.59774,43.11721],[141.60073,43.12366],[141.60117,43.12442],[141.60187,43.12518],[141.60253,43.12571],[141.62129,43.13475],[141.62383,43.13604]],[[141.62383,43.13604],[141.6257,43.13693]],[[140.99317,43.19808],[140.99419,43.19616]],[[141.90058,43.46264],[141.90086,43.46358]],[[141.00713,43.18704],[141.00865,43.18602]],[[141.24286,43.12072],[141.24082,43.12188],[141.23788,43.12327],[141.23636,43.1238],[141.22549,43.12669],[141.22435,43.12719],[141.22303,43.12801]],[[141.65691,43.15224],[141.6843,43.16598],[141.71409,43.18121]],[[141.93633,43.62851],[141.95428,43.6655]],[[141.02862,43.18075],[141.02933,43.18068],[141.03017,43.18072],[141.03116,43.1809],[141.03294,43.18139],[141.03378,43.18148],[141.03433,43.18139],[141.03716,43.18063],[141.03808,43.17969],[141.03875,43.17921],[141.03946,43.17889],[141.04052,43.17867],[141.04182,43.17871],[141.04721,43.17972],[141.0481,43.17982],[141.051,43.17976],[141.05377,43.17946],[141.0565,43.17932],[141.05748,43.17905],[141.05964,43.17796],[141.06048,43.17763],[141.06302,43.17703]],[[141.90134,43.46512],[141.90183,43.46677]],[[141.25609,43.11272],[141.24484,43.11953]],[[141.9045,43.56252],[141.93551,43.62675]],[[141.81533,43.26528],[141.84373,43.29178]],[[141.87269,43.36751],[141.87345,43.36914],[141.87384,43.37042],[141.87406,43.37221]],[[140.92325,43.20222],[140.92577,43.20265]],[[141.06478,43.17669],[141.0693,43.17566],[141.07035,43.17529],[141.07084,43.17501],[141.07236,43.17364],[141.07357,43.17297],[141.07652,43.17236],[141.07832,43.17175],[141.07945,43.17163],[141.08432,43.17155],[141.08807,43.17108],[141.08926,43.17083],[141.09027,43.1704],[141.09296,43.16886],[141.09503,43.16801],[141.10015,43.16629],[141.10357,43.16505],[141.10625,43.16438],[141.10864,43.16358],[141.11269,43.16248],[141.11325,43.16211],[141.11434,43.16095],[141.11465,43.16072],[141.11833,43.1592],[141.11998,43.15821],[141.12133,43.15722],[141.12197,43.15685],[141.1245,43.15576],[141.12624,43.15466],[141.12688,43.15435],[141.12778,43.15409],[141.12908,43.15389],[141.13096,43.15306],[141.13301,43.15247],[141.13496,43.15222],[141.13925,43.15215],[141.14091,43.15197],[141.1415,43.15179],[141.14315,43.15087],[141.14436,43.15047],[141.14563,43.14988],[141.14872,43.14779],[141.15047,43.1471],[141.15136,43.14686],[141.1531,43.14598],[141.15456,43.14553],[141.15712,43.14439],[141.15903,43.14375]],[[140.85342,43.19636],[140.81642,43.1914],[140.81433,43.19139],[140.80059,43.19175],[140.79898,43.19164],[140.79785,43.19136],[140.79698,43.19101],[140.79637,43.1906],[140.79587,43.19011],[140.7954,43.18939],[140.79494,43.18775]],[[141.90183,43.46677],[141.90928,43.49213]],[[141.64572,43.14524],[141.64869,43.14758],[141.65069,43.14904],[141.65434,43.15096]],[[141.19091,43.1336],[141.16555,43.13989],[141.16478,43.14024],[141.16441,43.14051],[141.16261,43.14215],[141.16082,43.14308]],[[141.33285,43.07034],[141.3391,43.06772],[141.34075,43.06724],[141.34229,43.06706],[141.34342,43.06707],[141.34586,43.06742],[141.34778,43.06784]],[[142.03551,43.71941],[141.98767,43.7045],[141.97422,43.70023],[141.97172,43.69898],[141.97105,43.69852],[141.97009,43.69757],[141.9696,43.69694],[141.9692,43.69619],[141.96725,43.6922]],[[142.03928,43.72058],[142.03551,43.71941]],[[141.32242,43.07483],[141.33099,43.07116]],[[141.30824,43.08102],[141.31003,43.08018],[141.32242,43.07483]],[[140.73691,43.12526],[140.73752,43.12584]],[[141.76094,43.20499],[141.77484,43.21207],[141.77527,43.21232],[141.77676,43.2135],[141.77751,43.21427],[141.77862,43.21586],[141.7791,43.21678],[141.78958,43.23975],[141.79042,43.24155],[141.79099,43.24248],[141.79133,43.24292],[141.79504,43.24643],[141.81403,43.26407]],[[142.04362,43.72192],[142.07515,43.73165],[142.07655,43.73201],[142.0779,43.73224],[142.08065,43.73235],[142.12766,43.73255]],[[141.27742,43.09971],[141.27584,43.10066]],[[141.93551,43.62675],[141.93633,43.62851]],[[141.33285,43.07034],[141.33099,43.07116]],[[141.87406,43.37221],[141.88903,43.42315]],[[141.86249,43.33052],[141.86274,43.33206],[141.86275,43.33278]],[[141.73462,43.19223],[141.72998,43.18941],[141.72312,43.18579],[141.71644,43.18241]],[[140.92577,43.20265],[140.92757,43.20295],[140.92899,43.20337],[140.92986,43.20386],[140.93046,43.20437],[140.93086,43.20486],[140.93125,43.20558],[140.93162,43.20734],[140.93183,43.20782],[140.93249,43.20863],[140.93345,43.20921],[140.93461,43.20943],[140.93722,43.2095],[140.93859,43.20963],[140.94018,43.20992],[140.94079,43.21011],[140.94125,43.21037],[140.94184,43.21095],[140.94221,43.2117],[140.94234,43.21248],[140.94231,43.21418],[140.94261,43.21495],[140.94287,43.21524],[140.94325,43.21554],[140.9453,43.21666],[140.94744,43.21868],[140.94841,43.21914],[140.94955,43.21936],[140.95008,43.21936],[140.95145,43.21909],[140.95567,43.2174],[140.95666,43.2166],[140.95717,43.21603],[140.95785,43.21504],[140.95822,43.21466],[140.96111,43.21287],[140.96378,43.21072],[140.96475,43.21023],[140.96835,43.20867],[140.96955,43.20824],[140.97082,43.20801],[140.97264,43.208],[140.97502,43.20815],[140.97676,43.20808],[140.97832,43.20766],[140.98279,43.20594],[140.98324,43.20566],[140.98386,43.20497],[140.98456,43.20325],[140.98488,43.20275],[140.9853,43.20231],[140.98609,43.20183],[140.98649,43.20172],[140.98688,43.20165],[140.98937,43.20167],[140.9909,43.20123],[140.99165,43.20072],[140.99222,43.2001],[140.99317,43.19808]],[[141.71644,43.18241],[141.71409,43.18121]],[[141.06302,43.17703],[141.06478,43.17669]],[[141.29526,43.08886],[141.29389,43.08967]],[[141.87308,43.36885],[141.87363,43.37076]],[[141.90086,43.46358],[141.90134,43.46512]],[[141.54006,43.09972],[141.53067,43.09324]],[[140.85593,43.19671],[140.86252,43.19762],[140.86449,43.19823],[140.86596,43.19907],[140.86845,43.20097],[140.86954,43.2014],[140.87084,43.20167],[140.8721,43.20182],[140.87417,43.20162],[140.87558,43.20163],[140.87782,43.20212],[140.87938,43.20226],[140.88051,43.20224],[140.88189,43.20192],[140.89049,43.19782],[140.89142,43.1975],[140.89239,43.19737],[140.89297,43.1974],[140.8972,43.19822],[140.89835,43.19866],[140.89927,43.19915],[140.90013,43.19974],[140.90054,43.20015],[140.9048,43.20627],[140.90521,43.20675],[140.90557,43.20702],[140.90642,43.20744],[140.9079,43.20783],[140.90889,43.20793],[140.90981,43.20793],[140.91076,43.20772],[140.91256,43.20693],[140.91405,43.20617],[140.91443,43.20588],[140.91482,43.20544],[140.91669,43.20317],[140.9172,43.20272],[140.91793,43.20232],[140.91926,43.20191],[140.92005,43.20185],[140.92178,43.20197],[140.92325,43.20222]],[[141.63587,43.13953],[141.63713,43.13972],[141.63812,43.13997],[141.63938,43.14043],[141.64061,43.14108],[141.64363,43.14346],[141.64572,43.14524]],[[140.77193,43.15501],[140.7697,43.15319]],[[141.86275,43.33278],[141.87269,43.36751]],[[141.25743,43.1119],[141.25609,43.11272]],[[141.37465,43.06863],[141.37794,43.0689]],[[141.65434,43.15096],[141.65691,43.15224]],[[141.91015,43.49509],[141.91779,43.52086],[141.91791,43.52145],[141.91795,43.52224],[141.91781,43.52369],[141.91745,43.52472],[141.91711,43.5253],[141.91667,43.52596],[141.91611,43.52656],[141.90967,43.53242],[141.90907,43.53317],[141.90754,43.53471],[141.89965,43.54196],[141.89843,43.54347],[141.89775,43.54479],[141.8975,43.54556],[141.89739,43.5463],[141.89738,43.54731],[141.89746,43.54785],[141.89774,43.54872],[141.89891,43.55088],[141.89947,43.55255],[141.89991,43.55354]],[[141.19209,43.13332],[141.19091,43.1336]],[[141.88951,43.42487],[141.90058,43.46264]],[[141.95885,43.67476],[141.96605,43.68971]],[[141.21167,43.13241],[141.20962,43.13214]],[[140.79494,43.18775],[140.79443,43.18503]],[[141.84564,43.29356],[141.85163,43.299],[141.85301,43.30075],[141.85368,43.30205],[141.85558,43.30818],[141.8618,43.32955]],[[141.20962,43.13214],[141.20668,43.13193],[141.20475,43.1319],[141.20303,43.13197],[141.19577,43.13264],[141.19368,43.13297],[141.19209,43.13332]],[[141.02707,43.18107],[141.02798,43.18081],[141.02862,43.18075]],[[141.496,43.07198],[141.49744,43.07246]],[[141.30824,43.08102],[141.30656,43.082]],[[141.27584,43.10066],[141.25743,43.1119]],[[141.55804,43.11092],[141.55511,43.10936]],[[141.95428,43.6655],[141.9544,43.66603],[141.95506,43.66759],[141.95764,43.67268],[141.95885,43.67476]],[[142.04362,43.72192],[142.03928,43.72058]],[[141.88903,43.42315],[141.88951,43.42487]],[[141.48192,43.05737],[141.4826,43.05913],[141.48345,43.06101],[141.48409,43.062],[141.4855,43.06364],[141.49288,43.07029],[141.49363,43.07082],[141.49479,43.07148],[141.496,43.07198]],[[141.22185,43.12879],[141.21736,43.13164],[141.21608,43.13221],[141.2151,43.13247],[141.21441,43.13256],[141.21351,43.13257],[141.21167,43.13241]],[[141.81403,43.26407],[141.81533,43.26528]],[[141.22303,43.12801],[141.22185,43.12879]],[[141.35269,43.06879],[141.34957,43.06839],[141.34778,43.06784]],[[140.79443,43.18503],[140.79293,43.17684],[140.7924,43.17447],[140.79193,43.17313],[140.79116,43.17172],[140.79029,43.17048],[140.78908,43.16908],[140.77193,43.15501]],[[141.84373,43.29178],[141.84564,43.29356]],[[141.24484,43.11953],[141.24286,43.12072]],[[141.00865,43.18602],[141.01241,43.18364],[141.01308,43.18335],[141.01444,43.18321],[141.01724,43.18343],[141.01858,43.18327],[141.02707,43.18107]],[[141.87269,43.36751],[141.87308,43.36885]],[[141.90928,43.49213],[141.91015,43.49509]],[[141.29389,43.08967],[141.27742,43.09971]],[[141.95428,43.6655],[141.95467,43.66599],[141.95636,43.66907],[141.95848,43.6735],[141.95885,43.67476]],[[140.99419,43.19616],[140.99525,43.19438],[140.99555,43.19408],[140.99609,43.19376],[140.99676,43.19354],[140.99765,43.19336],[140.99931,43.19325],[141.00028,43.19289],[141.00084,43.19251],[141.00135,43.19204],[141.00304,43.19032],[141.00713,43.18704]],[[140.85593,43.19671],[140.85342,43.19636]],[[141.63587,43.13953],[141.63881,43.14046],[141.64046,43.1413],[141.64135,43.14191],[141.64446,43.14437],[141.64572,43.14524]],[[141.52894,43.092],[141.50429,43.07495],[141.50235,43.074],[141.49744,43.07246]],[[141.30656,43.082],[141.29526,43.08886]],[[141.35269,43.06879],[141.35498,43.06887],[141.37299,43.06858]],[[141.90058,43.46264],[141.90058,43.46334],[141.90082,43.46472],[141.90141,43.46618],[141.90183,43.46677]],[[141.54134,43.1006],[141.54006,43.09972]],[[141.55511,43.10936],[141.55068,43.107],[141.54134,43.1006]],[[140.37613,42.51385],[140.37798,42.51627]],[[140.3741,42.51118],[140.37613,42.51385]],[[140.27009,42.27865],[140.27222,42.28221],[140.27235,42.28252],[140.27249,42.28355],[140.27238,42.28873],[140.27241,42.29406],[140.27291,42.30342],[140.2732,42.30642],[140.27445,42.31347]],[[140.66932,41.98211],[140.66693,41.98766],[140.66537,41.99193],[140.66508,41.99251],[140.66452,41.99311],[140.65526,41.99928],[140.64746,42.00189],[140.64426,42.0028]],[[140.74557,42.9026],[140.74563,42.90358],[140.74553,42.90567],[140.74516,42.90768],[140.74449,42.90909],[140.74251,42.91261],[140.74181,42.91337],[140.7391,42.91549],[140.73759,42.9168],[140.73446,42.92153],[140.73332,42.92236],[140.73144,42.92353],[140.72858,42.92474],[140.72213,42.92729],[140.72059,42.92807],[140.71891,42.92912],[140.7182,42.9301],[140.7179,42.93102],[140.71782,42.93221],[140.71785,42.93411],[140.71772,42.93465],[140.71554,42.93735],[140.71346,42.94102],[140.71279,42.94158],[140.71189,42.94202],[140.71137,42.94215],[140.70801,42.94261],[140.70607,42.94319],[140.70339,42.9437],[140.70296,42.94387],[140.70249,42.94423],[140.70197,42.94474],[140.70183,42.94499],[140.70174,42.94546],[140.70182,42.94689],[140.70152,42.94772],[140.70087,42.94849],[140.70018,42.9491],[140.69818,42.95035],[140.69708,42.95175],[140.69555,42.95305],[140.69509,42.95395],[140.69507,42.95565],[140.69485,42.95629],[140.69451,42.95684],[140.69355,42.95776],[140.6926,42.95995],[140.69106,42.96164],[140.69032,42.96322],[140.68987,42.96384],[140.68915,42.96437],[140.68805,42.96492],[140.68619,42.96544],[140.68388,42.96588],[140.68281,42.96645],[140.68235,42.96693],[140.68163,42.96855],[140.68138,42.96892],[140.68071,42.96955],[140.67838,42.97136]],[[140.77167,42.06338],[140.77113,42.06534]],[[140.46529,42.7611],[140.46141,42.75797],[140.46057,42.75708],[140.46032,42.75631],[140.46025,42.7558],[140.46013,42.75004],[140.45998,42.74928],[140.45922,42.74787],[140.45648,42.7439],[140.45608,42.74341],[140.45476,42.74236],[140.45342,42.74189],[140.45243,42.74169],[140.45152,42.74162],[140.44817,42.74201],[140.44625,42.74213],[140.44341,42.74211],[140.43517,42.74088],[140.43407,42.74061],[140.43248,42.74001],[140.431,42.73911],[140.43041,42.73869],[140.42822,42.73672],[140.42677,42.73553],[140.42548,42.73467],[140.42382,42.73372],[140.42181,42.73288],[140.41822,42.73203],[140.41724,42.73136],[140.4169,42.73083],[140.41667,42.73004],[140.41668,42.7294],[140.41709,42.72785],[140.41704,42.72713],[140.41684,42.72645],[140.41629,42.72551],[140.41549,42.7246],[140.41412,42.72331],[140.4136,42.72201],[140.41334,42.7216],[140.41289,42.72108],[140.41204,42.72045],[140.41121,42.71958],[140.4109,42.71899],[140.41041,42.71744],[140.40932,42.7154],[140.40918,42.71486],[140.40936,42.71402],[140.4096,42.71363],[140.41009,42.71303],[140.41052,42.71265],[140.41201,42.71152],[140.41237,42.71105],[140.41241,42.71086],[140.41254,42.70818],[140.4125,42.7063],[140.41234,42.70429],[140.41216,42.70323],[140.41217,42.70253],[140.41241,42.70077],[140.41235,42.70007],[140.41206,42.69925],[140.41173,42.69874],[140.41105,42.69834],[140.41014,42.69808],[140.40945,42.69807],[140.40843,42.69823],[140.40766,42.69854],[140.40709,42.69893],[140.40555,42.70038],[140.40519,42.70061],[140.4046,42.70077],[140.4033,42.70076],[140.40263,42.70063],[140.40163,42.70015],[140.40124,42.69978],[140.40087,42.6991],[140.40087,42.69846],[140.40101,42.69801],[140.40135,42.6975],[140.40278,42.69625],[140.40384,42.6951],[140.40406,42.6945],[140.40407,42.69387],[140.4038,42.69305],[140.40268,42.69125],[140.40253,42.68943],[140.40157,42.68741],[140.40134,42.68631],[140.4011,42.68561],[140.40099,42.6854],[140.39996,42.68428],[140.39829,42.6811],[140.39818,42.68074],[140.39811,42.67961],[140.39794,42.67912],[140.39617,42.67674],[140.39516,42.676],[140.39394,42.67544],[140.39001,42.67436],[140.38871,42.6741],[140.38791,42.67403],[140.38632,42.67399],[140.3849,42.6741],[140.37877,42.67532],[140.37556,42.67566]],[[140.32068,42.43914],[140.32107,42.43979],[140.32209,42.44113],[140.33002,42.45095],[140.33179,42.45403],[140.33891,42.46716],[140.34211,42.47284],[140.34305,42.47434],[140.3455,42.47723]],[[140.57241,42.10918],[140.57564,42.10859]],[[140.41981,42.18824],[140.42102,42.18751],[140.42206,42.18718]],[[140.47219,42.15954],[140.47518,42.15724],[140.47614,42.1566],[140.48707,42.15132],[140.48899,42.15072],[140.49183,42.15023],[140.49323,42.14978],[140.4947,42.14901],[140.49643,42.14779],[140.49799,42.14682],[140.49882,42.14601],[140.50141,42.14205],[140.50306,42.14012],[140.50618,42.13599]],[[140.32826,42.23037],[140.32517,42.23186]],[[140.69901,41.99027],[140.70161,41.99117]],[[140.71563,43.04068],[140.71505,43.04122]],[[140.37667,42.21624],[140.37783,42.21491],[140.37943,42.21347],[140.38272,42.21177],[140.38424,42.21119],[140.38718,42.21053],[140.39117,42.20995],[140.39358,42.20987],[140.39719,42.20988],[140.39913,42.20976],[140.40048,42.20941],[140.40193,42.2088],[140.40375,42.20755],[140.40677,42.20494],[140.40823,42.20283],[140.4088,42.20211],[140.40922,42.20173],[140.41085,42.20072],[140.41217,42.20021]],[[140.71734,42.0046],[140.71707,42.00411],[140.71683,42.00387]],[[140.50694,42.13498],[140.50876,42.13304],[140.51286,42.12921],[140.51387,42.12842],[140.51421,42.12826],[140.51567,42.1279],[140.51657,42.12748],[140.51894,42.12603],[140.52062,42.12521],[140.52686,42.12287],[140.52979,42.12158],[140.53138,42.12106],[140.53425,42.12049],[140.53615,42.11985],[140.53805,42.11878],[140.54251,42.11576]],[[140.29775,42.40064],[140.29799,42.40127]],[[140.32055,42.5762],[140.32099,42.5756]],[[140.30571,42.66991],[140.30507,42.6748],[140.30502,42.67621],[140.3052,42.67754],[140.30509,42.67858],[140.30484,42.67995],[140.30402,42.68227],[140.30386,42.68333],[140.30405,42.6841],[140.30432,42.68453],[140.30493,42.68514],[140.30581,42.6856],[140.30706,42.68581],[140.30772,42.68585],[140.30852,42.68574],[140.31291,42.68399],[140.31504,42.68324],[140.3177,42.68304],[140.31884,42.68268],[140.31956,42.68222],[140.31983,42.68191],[140.3217,42.6787],[140.3269,42.67508],[140.32736,42.67479],[140.32809,42.67448],[140.32934,42.6744],[140.33064,42.67456],[140.34025,42.67644],[140.34162,42.67663],[140.35497,42.6751],[140.36591,42.67644],[140.36667,42.67647],[140.37021,42.67608],[140.37471,42.67574]],[[140.74808,42.10696],[140.74719,42.1072]],[[140.74541,42.90077],[140.74557,42.9026]],[[140.50618,42.13599],[140.50694,42.13498]],[[140.72034,42.01493],[140.72097,42.01608]],[[140.77113,42.06534],[140.76778,42.07723],[140.7678,42.07797],[140.76856,42.08099],[140.76861,42.08147],[140.76856,42.0819],[140.76832,42.08263],[140.76809,42.08305],[140.76688,42.08416],[140.76602,42.08539],[140.76463,42.08797],[140.76328,42.09074],[140.76262,42.09182],[140.7616,42.0929],[140.7609,42.09347],[140.75833,42.09505],[140.75453,42.09844],[140.75397,42.0994],[140.75371,42.10099],[140.75348,42.10172],[140.75207,42.10414],[140.75168,42.10466],[140.75085,42.10547],[140.74987,42.10612],[140.74808,42.10696]],[[140.60478,42.06176],[140.60566,42.06174]],[[140.37526,42.21782],[140.37667,42.21624]],[[140.45815,42.1734],[140.45879,42.17236]],[[140.59441,42.107],[140.61256,42.11103]],[[140.70161,41.99117],[140.70561,41.99259],[140.70683,41.99324],[140.70749,41.99377],[140.71683,42.00387]],[[140.28801,42.36736],[140.28835,42.36935]],[[140.61429,42.1114],[140.62085,42.1129],[140.638,42.1188],[140.63885,42.11902],[140.63966,42.11917],[140.64083,42.11926],[140.64474,42.11925]],[[140.27158,42.25434],[140.2673,42.25672],[140.26671,42.25716],[140.26638,42.25757],[140.26569,42.25907],[140.26412,42.26296],[140.26304,42.26578],[140.26301,42.26607],[140.26312,42.2666],[140.26428,42.26877],[140.26976,42.27811]],[[140.27158,42.25434],[140.27516,42.2524]],[[140.72314,42.84791],[140.72218,42.84918]],[[140.64474,42.11925],[140.64748,42.11924]],[[140.68579,42.80944],[140.6834,42.80804]],[[140.42206,42.18718],[140.42506,42.18676],[140.42665,42.1867],[140.42739,42.1868],[140.4313,42.18771],[140.43213,42.18778],[140.43349,42.18769],[140.43507,42.18727],[140.43587,42.18691],[140.43666,42.18639],[140.43782,42.1853],[140.43895,42.18389],[140.43993,42.18204],[140.44031,42.18152],[140.4409,42.18084],[140.44168,42.18029],[140.44269,42.17971],[140.44385,42.1792],[140.44628,42.17871],[140.44774,42.1785],[140.44863,42.17823],[140.4513,42.17709],[140.45385,42.17654],[140.45504,42.17618],[140.45663,42.17529],[140.45712,42.17488],[140.45758,42.17435],[140.45815,42.1734]],[[141.42503,43.04872],[141.42746,43.04816],[141.43049,43.04726],[141.44029,43.04548]],[[140.52959,42.80521],[140.52832,42.80386]],[[140.31347,42.62598],[140.31325,42.62672]],[[140.67028,41.97995],[140.66932,41.98211]],[[140.5432,42.11533],[140.54609,42.11387],[140.54785,42.11329],[140.54931,42.11292],[140.55234,42.11245],[140.5561,42.11228],[140.55739,42.11214],[140.56022,42.11127],[140.56208,42.11082],[140.56551,42.11046],[140.57241,42.10918]],[[140.67667,42.97242],[140.67528,42.97295],[140.67446,42.97352],[140.67367,42.97426],[140.67271,42.97549],[140.67183,42.97686],[140.67078,42.97781],[140.66999,42.97865],[140.66947,42.97938],[140.66927,42.97981],[140.66917,42.98029],[140.66923,42.98066],[140.66941,42.98104],[140.66978,42.98155],[140.67032,42.98199],[140.67353,42.98368],[140.67455,42.98393],[140.67681,42.98419],[140.67768,42.98447],[140.68114,42.98674],[140.68199,42.98745],[140.68251,42.98814],[140.68322,42.99002],[140.68351,42.99054],[140.68453,42.99179],[140.68633,42.99346],[140.68721,42.99502],[140.68863,42.9966],[140.68926,42.99934],[140.69184,43.00333],[140.69194,43.00377],[140.69184,43.00536],[140.69195,43.00599],[140.69227,43.00687],[140.69272,43.0074],[140.69401,43.00834],[140.69443,43.00882],[140.69513,43.01069],[140.69544,43.01118],[140.69989,43.01444],[140.70045,43.01498],[140.70177,43.01654],[140.70401,43.01843],[140.70513,43.01899],[140.70737,43.01958],[140.70796,43.01982],[140.70842,43.02011],[140.72099,43.03298],[140.72131,43.03344],[140.72146,43.0339],[140.72137,43.0345],[140.72113,43.03501],[140.7205,43.03555],[140.71828,43.03683],[140.7175,43.03752],[140.71682,43.03848],[140.71625,43.03988],[140.71583,43.04052],[140.71563,43.04068]],[[140.31325,42.62672],[140.31283,42.62815],[140.31266,42.62929],[140.31269,42.62951],[140.31306,42.63054],[140.31458,42.63297],[140.31495,42.63372],[140.31506,42.63452],[140.31487,42.63522],[140.31446,42.63592],[140.3116,42.63948],[140.31048,42.64102],[140.31015,42.64215],[140.30971,42.64454],[140.30923,42.64546],[140.30879,42.64585],[140.30803,42.64632],[140.30484,42.64743],[140.30295,42.64824],[140.30253,42.64855],[140.30237,42.64877],[140.30208,42.64961],[140.30149,42.65607],[140.30155,42.65721],[140.30183,42.65811],[140.30518,42.66188],[140.30587,42.66278],[140.30611,42.66326],[140.30633,42.664],[140.30636,42.66497],[140.30576,42.66927]],[[140.72218,42.84918],[140.7202,42.85188],[140.71999,42.85276],[140.71998,42.85308],[140.72012,42.8536],[140.72032,42.85403],[140.72082,42.8546],[140.7212,42.85482],[140.72369,42.85582],[140.72696,42.85816],[140.72738,42.85853],[140.72758,42.85882],[140.72769,42.85903],[140.72802,42.86065],[140.72818,42.86109],[140.72972,42.86298],[140.7299,42.86351],[140.72995,42.86398],[140.72985,42.86466],[140.72877,42.86776],[140.72862,42.8684],[140.72842,42.8707],[140.72857,42.87144],[140.72918,42.87232],[140.7312,42.87451],[140.73161,42.87538],[140.73211,42.87679],[140.73316,42.87804],[140.73385,42.87903],[140.73408,42.87969],[140.73437,42.88253],[140.73462,42.88328],[140.73574,42.88545],[140.73601,42.88579],[140.7368,42.88649],[140.73967,42.88829],[140.7401,42.88895],[140.74024,42.88937],[140.74056,42.89121],[140.74101,42.89248],[140.74331,42.89458],[140.74386,42.89519],[140.74477,42.89652],[140.74522,42.89759],[140.74532,42.89829],[140.74541,42.90077]],[[140.32023,42.43828],[140.32068,42.43914]],[[140.72097,42.01608],[140.72344,42.02081],[140.724,42.02165],[140.72572,42.02321],[140.72728,42.02411],[140.72857,42.02472],[140.73,42.02518],[140.73115,42.02537],[140.73495,42.02574],[140.73651,42.02606],[140.7375,42.0264],[140.73906,42.02734],[140.74042,42.02858],[140.74433,42.03183],[140.74533,42.03243],[140.75068,42.03426],[140.75121,42.03439],[140.75202,42.03445],[140.7579,42.03451],[140.7589,42.03481],[140.75975,42.03529],[140.76111,42.03635],[140.7675,42.04171],[140.76825,42.04269],[140.7686,42.04397],[140.76831,42.04638],[140.76839,42.0469],[140.76854,42.04722],[140.76995,42.04925],[140.77045,42.05019],[140.7706,42.05073],[140.77078,42.05257],[140.77106,42.05327],[140.77151,42.05394],[140.77296,42.05551],[140.77337,42.05656],[140.77343,42.0572],[140.77336,42.05776],[140.77167,42.06338]],[[141.45904,43.04359],[141.46235,43.04465]],[[140.45879,42.17236],[140.4603,42.16979],[140.46105,42.16882],[140.46214,42.16702],[140.46292,42.16598],[140.46571,42.16378],[140.46974,42.16149],[140.47183,42.15984]],[[140.32517,42.23186],[140.32074,42.23402],[140.31847,42.23489],[140.31767,42.23509],[140.31021,42.2363],[140.30847,42.23675],[140.30717,42.23732],[140.30315,42.23957],[140.30107,42.24055],[140.29243,42.24351],[140.29021,42.24414],[140.27516,42.2524]],[[140.32099,42.5756],[140.32635,42.56887],[140.32687,42.56835],[140.33386,42.56233],[140.33447,42.56169],[140.34004,42.55414],[140.34032,42.55388],[140.34085,42.55361],[140.34401,42.55252],[140.34487,42.55208],[140.34569,42.55135],[140.34788,42.54899],[140.34902,42.5477],[140.34929,42.54727],[140.35215,42.54109],[140.3525,42.54057],[140.37285,42.52363],[140.37431,42.52206],[140.37729,42.5186],[140.37793,42.51747],[140.37801,42.51709],[140.37798,42.51627]],[[141.48113,43.05552],[141.48192,43.05737]],[[140.46606,42.76171],[140.46529,42.7611]],[[140.68579,42.80944],[140.68709,42.81023],[140.6878,42.81052],[140.68874,42.81072],[140.69107,42.81077],[140.69231,42.8111],[140.69285,42.8114],[140.69345,42.81192],[140.69367,42.81224],[140.69398,42.8131],[140.69421,42.81432],[140.69447,42.81516],[140.69565,42.81775],[140.69614,42.81835],[140.69676,42.81881],[140.69807,42.81916],[140.69911,42.81918],[140.70133,42.81861],[140.70288,42.8187],[140.70375,42.81905],[140.70783,42.82166],[140.70893,42.82219],[140.70986,42.82248],[140.71119,42.82273],[140.71487,42.8231],[140.71846,42.82359],[140.71907,42.82375],[140.71955,42.82398],[140.72041,42.82467],[140.72098,42.82536],[140.72143,42.82628],[140.72215,42.82973],[140.72222,42.83028],[140.72218,42.83076],[140.72204,42.83132],[140.72172,42.83201],[140.7198,42.83418],[140.71876,42.83549],[140.71857,42.83607],[140.71853,42.83696],[140.71883,42.8376],[140.71946,42.83858],[140.72008,42.84021],[140.72054,42.84074],[140.72125,42.84119],[140.72189,42.84146],[140.72426,42.8421],[140.72503,42.84259],[140.72542,42.84318],[140.72552,42.84354],[140.72555,42.84422],[140.72538,42.84486],[140.72314,42.84791]],[[140.29799,42.40127],[140.29981,42.4061],[140.30084,42.40814],[140.30171,42.40927],[140.30969,42.41863],[140.31624,42.43064],[140.32023,42.43828]],[[140.64119,42.00366],[140.63902,42.00427],[140.63738,42.00493],[140.63671,42.00524],[140.63581,42.00583],[140.62683,42.01357],[140.61805,42.0208],[140.61689,42.02188],[140.61573,42.02311],[140.61537,42.02362],[140.61409,42.02737],[140.61074,42.03809]],[[140.41837,42.18992],[140.41947,42.18854],[140.41981,42.18824]],[[140.71734,42.0046],[140.71778,42.00617],[140.71856,42.01105],[140.71902,42.01234],[140.72034,42.01493]],[[140.3455,42.47723],[140.34673,42.47865]],[[140.30571,42.66991],[140.30576,42.66927]],[[140.34673,42.47865],[140.35196,42.48454],[140.36656,42.50131],[140.37192,42.50822],[140.3741,42.51118]],[[141.41556,43.05385],[141.42029,43.05101]],[[141.46412,43.0453],[141.47534,43.04939],[141.47618,43.04976],[141.47752,43.0505],[141.47898,43.05161],[141.47958,43.05224],[141.47992,43.05272],[141.48038,43.05362],[141.48113,43.05552]],[[140.27478,42.31575],[140.27512,42.31769],[140.27737,42.32816],[140.27812,42.33095],[140.28516,42.35488],[140.28778,42.36078],[140.28808,42.3617],[140.28822,42.36273],[140.28765,42.36515],[140.28801,42.36736]],[[140.60566,42.06174],[140.60656,42.06182],[140.60757,42.06209],[140.60813,42.06242],[140.6086,42.06282],[140.60918,42.06354],[140.60937,42.06413],[140.60937,42.06463],[140.60919,42.06589],[140.6093,42.06635],[140.6097,42.067],[140.61043,42.0679],[140.6106,42.06819],[140.61078,42.06885],[140.61066,42.06973],[140.61023,42.07091],[140.61013,42.07162],[140.61018,42.07187],[140.61039,42.07241],[140.61064,42.07279],[140.61208,42.07395],[140.61245,42.07432],[140.61282,42.07495],[140.61291,42.07551],[140.61287,42.07603],[140.61267,42.07663],[140.61242,42.07709],[140.61169,42.07776],[140.61072,42.07822],[140.60989,42.0784],[140.60854,42.0784],[140.60777,42.07826],[140.60712,42.078],[140.6064,42.07746],[140.60574,42.07683],[140.60509,42.07647],[140.60409,42.07617],[140.60281,42.07618],[140.60142,42.07659],[140.60067,42.07706],[140.60039,42.07732],[140.6,42.07786],[140.59931,42.07947],[140.59887,42.08006],[140.59824,42.08051],[140.59783,42.08068],[140.59667,42.08093],[140.59209,42.0813]],[[140.54251,42.11576],[140.5432,42.11533]],[[141.37794,43.0689],[141.38521,43.06957],[141.38705,43.06961],[141.38868,43.06928],[141.38948,43.06894],[141.39222,43.06741],[141.39415,43.06661],[141.39481,43.06626],[141.41258,43.05567]],[[140.59118,42.08135],[140.59021,42.08143],[140.5894,42.08175],[140.58764,42.0827],[140.58693,42.08319],[140.5866,42.08368],[140.58635,42.08454],[140.58622,42.08532],[140.58622,42.08718],[140.58958,42.09377],[140.58988,42.0942],[140.59081,42.09497],[140.5915,42.09527],[140.59241,42.09551],[140.59444,42.09579],[140.59532,42.09601],[140.59598,42.09622],[140.59675,42.09662],[140.59736,42.09714],[140.59763,42.09756],[140.59795,42.09843],[140.598,42.09939],[140.59796,42.09967],[140.59766,42.10031],[140.59505,42.10411],[140.59458,42.10456],[140.59354,42.10512],[140.59244,42.10551],[140.58803,42.1063]],[[140.26976,42.27811],[140.27009,42.27865]],[[140.74719,42.1072],[140.74244,42.10852],[140.74155,42.1088],[140.74026,42.10935],[140.73925,42.11004],[140.73721,42.11205],[140.73587,42.11309],[140.73507,42.11358],[140.73224,42.11504],[140.72955,42.11685],[140.72861,42.11735],[140.7277,42.11772],[140.72296,42.11928],[140.72074,42.11974],[140.71386,42.1204],[140.71241,42.12089],[140.70989,42.12197],[140.70768,42.12243],[140.7065,42.12247],[140.70514,42.12239],[140.69905,42.12137],[140.69763,42.12123],[140.69599,42.1213],[140.69289,42.12176],[140.69075,42.12186]],[[141.44235,43.04549],[141.44857,43.04419],[141.45297,43.04338],[141.45526,43.0432],[141.45666,43.04321],[141.45784,43.04332],[141.45904,43.04359]],[[140.57564,42.10859],[140.58803,42.1063]],[[140.59209,42.0813],[140.59118,42.08135]],[[140.41217,42.20021],[140.41437,42.1995],[140.41515,42.19904],[140.41604,42.19825],[140.41655,42.19765],[140.41709,42.19681],[140.41743,42.19581],[140.41754,42.19507],[140.41733,42.19336],[140.41732,42.19243],[140.41755,42.19149],[140.41837,42.18992]],[[140.47219,42.15954],[140.47183,42.15984]],[[140.52832,42.80386],[140.52684,42.80237],[140.52584,42.80161],[140.52539,42.8014],[140.51915,42.79929],[140.51462,42.79697],[140.51187,42.79643],[140.51143,42.79628],[140.50826,42.79467],[140.50627,42.79355],[140.5059,42.79323],[140.50556,42.79254],[140.50539,42.79046],[140.50509,42.78956],[140.50185,42.78559],[140.50093,42.78487],[140.50009,42.78439],[140.49773,42.78327],[140.4964,42.78253],[140.49522,42.7816],[140.49497,42.7813],[140.49482,42.78105],[140.49421,42.77912],[140.4938,42.77708],[140.49353,42.77649],[140.49293,42.77583],[140.49148,42.77474],[140.48971,42.77365],[140.48831,42.77299],[140.48635,42.77228],[140.48548,42.77174],[140.48505,42.77133],[140.48318,42.76907],[140.48278,42.76872],[140.4813,42.76776],[140.47982,42.76714],[140.47872,42.76692],[140.47746,42.76696],[140.47464,42.76748],[140.47346,42.76731],[140.47237,42.7667],[140.46606,42.76171]],[[140.31347,42.62598],[140.31528,42.61972],[140.31531,42.61901],[140.31516,42.6179],[140.31445,42.6154],[140.31387,42.61376],[140.30754,42.601],[140.30733,42.6004],[140.30721,42.5995],[140.30765,42.59796],[140.31064,42.5906],[140.31141,42.58972],[140.31579,42.5853],[140.31651,42.58445],[140.31687,42.5839],[140.3171,42.58328],[140.31737,42.58065],[140.31756,42.58008],[140.32055,42.5762]],[[141.44191,43.04623],[141.44494,43.04569],[141.45461,43.04357],[141.45559,43.04344],[141.45724,43.04344],[141.45904,43.04359]],[[140.64748,42.11924],[140.65152,42.11925],[140.6609,42.11843],[140.66212,42.11845],[140.67313,42.12032],[140.6752,42.12035],[140.67859,42.12012],[140.68085,42.12016],[140.68273,42.12035],[140.68829,42.12147]],[[140.71505,43.04122],[140.71328,43.04288],[140.71092,43.04426],[140.71048,43.04484],[140.71011,43.04551],[140.70989,43.0471],[140.70974,43.04764],[140.70933,43.0485],[140.70874,43.0491],[140.70692,43.05039],[140.70656,43.0508],[140.70481,43.05528],[140.70476,43.05646],[140.70454,43.05714],[140.70399,43.05827],[140.70378,43.05904],[140.70385,43.05966],[140.70403,43.06011],[140.70457,43.06098],[140.70484,43.06161],[140.70491,43.06246],[140.70481,43.06291],[140.70444,43.06354],[140.70321,43.06487],[140.70288,43.06562],[140.70276,43.06629],[140.70312,43.06994],[140.70394,43.07201],[140.70494,43.07376],[140.7051,43.07419],[140.70604,43.07953],[140.70621,43.08073],[140.70618,43.08124],[140.70538,43.0847],[140.70542,43.08531],[140.70592,43.08815],[140.70631,43.08915],[140.70735,43.09052],[140.70754,43.09156],[140.70755,43.09318],[140.70762,43.0937],[140.70776,43.09442],[140.70813,43.09522],[140.70847,43.09567],[140.71329,43.10012],[140.71368,43.10067],[140.71786,43.10802],[140.71965,43.11014],[140.72134,43.11236],[140.72437,43.11499],[140.72929,43.11973],[140.72983,43.12009],[140.73276,43.12157],[140.73484,43.12331],[140.73691,43.12526]],[[140.61074,42.03809],[140.61029,42.03949]],[[141.41258,43.05567],[141.41556,43.05385]],[[140.64426,42.0028],[140.64119,42.00366]],[[140.61256,42.11103],[140.61429,42.1114]],[[140.6834,42.80804],[140.68215,42.80736],[140.67983,42.8065],[140.67928,42.80609],[140.67885,42.80541],[140.67863,42.80329],[140.67826,42.80238],[140.67727,42.80125],[140.67585,42.80022],[140.67496,42.79969],[140.6741,42.7993],[140.67325,42.79905],[140.67171,42.7988],[140.66419,42.79861],[140.66345,42.79848],[140.66261,42.79815],[140.66215,42.79787],[140.66079,42.79637],[140.66026,42.79592],[140.65925,42.79553],[140.65844,42.79538],[140.6567,42.79537],[140.65412,42.79574],[140.65337,42.79576],[140.65246,42.79563],[140.65004,42.79502],[140.6489,42.795],[140.64785,42.79522],[140.64424,42.79625],[140.64368,42.79657],[140.64198,42.79807],[140.64013,42.79885],[140.6395,42.79922],[140.63913,42.79954],[140.63857,42.80049],[140.63851,42.80099],[140.63853,42.80262],[140.63831,42.80352],[140.63784,42.80406],[140.6373,42.80444],[140.63642,42.80478],[140.63595,42.80485],[140.63513,42.80484],[140.63447,42.80467],[140.63372,42.80431],[140.63243,42.80342],[140.63155,42.80307],[140.62849,42.80273],[140.62417,42.80154],[140.62266,42.80126],[140.62139,42.8013],[140.61748,42.80282],[140.61607,42.80322],[140.61464,42.8033],[140.61396,42.80324],[140.61276,42.80291],[140.61186,42.80245],[140.60533,42.79759],[140.60454,42.79705],[140.60369,42.79665],[140.6026,42.79641],[140.60121,42.79645],[140.5999,42.79675],[140.59766,42.79752]],[[140.28835,42.36935],[140.29016,42.37994],[140.29059,42.38133],[140.29451,42.39174],[140.29775,42.40064]],[[140.68829,42.12147],[140.69075,42.12186]],[[140.61029,42.03949],[140.60966,42.04177],[140.60923,42.04731],[140.60916,42.04768],[140.60886,42.04824],[140.60845,42.04862],[140.5975,42.057],[140.59706,42.05746],[140.59687,42.0578],[140.59676,42.0588],[140.59704,42.0596],[140.59733,42.06004],[140.598,42.06073],[140.59908,42.06141],[140.59957,42.06164],[140.60036,42.06185],[140.60478,42.06176]],[[140.37471,42.67574],[140.37556,42.67566]],[[140.59766,42.79752],[140.59488,42.79846]],[[140.59488,42.79846],[140.58905,42.79977],[140.58401,42.80238],[140.58357,42.80266],[140.58316,42.80306],[140.58232,42.80436],[140.58181,42.80483],[140.57434,42.80884],[140.5739,42.80924],[140.57363,42.80961],[140.5728,42.8111],[140.57224,42.81159],[140.57188,42.81179],[140.57117,42.81205],[140.57059,42.81216],[140.56659,42.81253],[140.56283,42.81359],[140.5587,42.81394],[140.55757,42.81412],[140.55606,42.81484],[140.5551,42.81549],[140.5524,42.81709],[140.55217,42.81721],[140.55145,42.81737],[140.55025,42.81737],[140.54905,42.81712],[140.54207,42.81503],[140.54139,42.81454],[140.54086,42.81387],[140.54066,42.81337],[140.54058,42.81247],[140.54034,42.81184],[140.53971,42.81092],[140.5392,42.81041],[140.5378,42.80952],[140.53099,42.80624],[140.53033,42.80583],[140.52959,42.80521]],[[140.41217,42.20021],[140.41481,42.19886],[140.41542,42.19836],[140.41593,42.19779],[140.4167,42.19669],[140.41698,42.19598],[140.41716,42.1952],[140.417,42.19286],[140.41713,42.19184],[140.4176,42.19078],[140.41837,42.18992]],[[140.58803,42.1063],[140.58964,42.10623],[140.59057,42.10627],[140.59195,42.10644],[140.59268,42.10661]],[[140.27445,42.31347],[140.27478,42.31575]],[[140.59268,42.10661],[140.59441,42.107]],[[141.46235,43.04465],[141.46412,43.0453]],[[140.67667,42.97242],[140.67761,42.97196],[140.67838,42.97136]],[[140.32826,42.23037],[140.33013,42.22949],[140.33303,42.22847],[140.34636,42.22407],[140.34782,42.2237],[140.34985,42.22345],[140.35591,42.22342],[140.3598,42.22323],[140.36262,42.223],[140.36484,42.22264],[140.36997,42.22138],[140.37111,42.22092],[140.37346,42.21947],[140.37473,42.21838],[140.37526,42.21782]],[[140.67128,41.97612],[140.67188,41.97701],[140.67278,41.97807],[140.68101,41.98329],[140.68247,41.98413],[140.6844,41.98498],[140.69901,41.99027]],[[140.73386,41.80234],[140.73326,41.80471]],[[140.65625,41.95811],[140.66363,41.96241],[140.6642,41.96277],[140.66515,41.96357],[140.66583,41.96477],[140.6689,41.97103]],[[140.72941,41.81802],[140.72962,41.81685],[140.7298,41.81637],[140.73003,41.81591],[140.73118,41.81425],[140.73155,41.81335],[140.73224,41.81034],[140.73265,41.80789],[140.7327,41.80696]],[[140.72246,41.84748],[140.717,41.85935],[140.71622,41.86074],[140.71397,41.86412]],[[140.72711,41.77454],[140.72797,41.77592],[140.7285,41.77726],[140.72915,41.78038],[140.73008,41.78903],[140.73376,41.79955],[140.73397,41.8005],[140.73399,41.80099],[140.73386,41.80234]],[[140.63513,41.92958],[140.63527,41.93049]],[[140.66984,41.97301],[140.67128,41.97612]],[[140.72351,41.84522],[140.72246,41.84748]],[[140.68786,41.88775],[140.68556,41.89022]],[[140.71303,41.86544],[140.70899,41.87159],[140.70786,41.87311],[140.70583,41.87446],[140.69423,41.88153],[140.69233,41.88309],[140.68926,41.88627]],[[140.72941,41.81802],[140.72935,41.81645],[140.73036,41.81228],[140.73077,41.81125],[140.73154,41.80981],[140.73218,41.80838]],[[140.73218,41.80838],[140.73254,41.8076],[140.7327,41.80696]],[[140.6689,41.97103],[140.66984,41.97301]],[[140.71397,41.86412],[140.71303,41.86544]],[[140.67028,41.97995],[140.67141,41.97747],[140.67145,41.97686],[140.67128,41.97612]],[[140.72572,41.77366],[140.72655,41.77402],[140.72711,41.77454]],[[140.72351,41.84522],[140.72442,41.84333],[140.72506,41.84128],[140.72858,41.82569],[140.72905,41.82239],[140.72946,41.8203],[140.7295,41.81978],[140.72941,41.81802]],[[140.63527,41.93049],[140.63551,41.93119],[140.63577,41.93166],[140.63642,41.93249],[140.63708,41.93311],[140.63927,41.9348],[140.63977,41.93528],[140.64012,41.93586],[140.64058,41.937],[140.64093,41.93842],[140.64036,41.94461],[140.64042,41.94607],[140.64072,41.94691],[140.64168,41.94844],[140.64277,41.94958],[140.64875,41.95433],[140.64944,41.95476],[140.65153,41.95577],[140.65375,41.95658],[140.65576,41.95775],[140.65625,41.95811]],[[140.68556,41.89022],[140.68325,41.89214],[140.68286,41.89257],[140.68231,41.89339],[140.68194,41.89465],[140.68192,41.89525],[140.68205,41.89627],[140.68227,41.89692],[140.68259,41.89752],[140.68451,41.901],[140.68522,41.90205],[140.68581,41.90264],[140.68661,41.90327],[140.68751,41.90376],[140.6885,41.90418],[140.68934,41.90471],[140.68985,41.90516],[140.69066,41.90607],[140.69107,41.90689],[140.69117,41.90753],[140.69118,41.90808],[140.69096,41.90921],[140.69066,41.90991],[140.69039,41.91027],[140.68932,41.91125],[140.68789,41.91202],[140.68618,41.91259],[140.68548,41.91295],[140.6846,41.91363],[140.68422,41.91405],[140.68365,41.91498],[140.68347,41.91546],[140.68274,41.91922],[140.68235,41.92019],[140.68189,41.92078],[140.67416,41.92839],[140.67372,41.92906],[140.67346,41.92969],[140.67297,41.93154],[140.67239,41.93272],[140.67151,41.9337],[140.67061,41.93444],[140.66944,41.93502],[140.66836,41.93536],[140.66756,41.93551],[140.66072,41.93627],[140.65995,41.93629],[140.65833,41.93616],[140.65411,41.93542],[140.65327,41.93545],[140.65254,41.93557],[140.65078,41.93606],[140.65017,41.93634],[140.64929,41.93695],[140.64401,41.94146],[140.64297,41.94251],[140.64256,41.94304],[140.64199,41.94417],[140.64165,41.94527],[140.64129,41.94699],[140.64131,41.94811],[140.64156,41.94935],[140.64197,41.95034],[140.64258,41.95119],[140.64308,41.95169],[140.64449,41.9527],[140.64724,41.95417],[140.65495,41.95745],[140.65625,41.95811]],[[140.73326,41.80471],[140.7327,41.80696]],[[140.68926,41.88627],[140.68786,41.88775]],[[140.6476,41.90516],[140.65029,41.90446]],[[141.43719,43.04715],[141.43529,43.0475],[141.42864,43.04837],[141.42601,43.04879],[141.42385,43.04937],[141.42156,43.05031],[141.42029,43.05101]],[[141.43719,43.04715],[141.43881,43.04684]],[[141.43881,43.04684],[141.44191,43.04623]],[[141.42029,43.05101],[141.42145,43.05023],[141.42272,43.04956],[141.42503,43.04872]],[[141.42503,43.04872],[141.42954,43.04727],[141.4342,43.04597],[141.43631,43.04555],[141.43779,43.0454],[141.44029,43.04548]],[[141.44029,43.04548],[141.44147,43.04554],[141.44235,43.04549]],[[140.65029,41.90446],[140.65352,41.90368],[140.67419,41.90016],[140.67518,41.8999],[140.67636,41.89936],[140.67745,41.89857],[140.67929,41.89676],[140.68556,41.89022]],[[140.6476,41.90516],[140.64271,41.90644],[140.64084,41.907],[140.6402,41.9073],[140.6392,41.908],[140.63854,41.90899],[140.63821,41.90967],[140.63756,41.91158],[140.63684,41.9133],[140.63686,41.91505],[140.63702,41.91708],[140.63735,41.91824],[140.63756,41.91871],[140.63764,41.91922],[140.6375,41.91989],[140.63729,41.92036],[140.63545,41.92383],[140.63526,41.92432],[140.63511,41.92586],[140.63513,41.92958]],[[141.37299,43.06858],[141.37465,43.06863]]]}}