{"type":"Feature","properties":{"id":"北海道旅客鉄道_富良野線","name":"富良野線","operator":"北海道旅客鉄道","railType":"普通鉄道(JR)","operatorType":"JR在来線","category":"rail","attribution":"国土数値情報（鉄道データ）国土交通省"},"geometry":{"type":"MultiLineString","coordinates":[[[142.39335,43.68277],[142.38231,43.70212]],[[142.44679,43.53718],[142.44749,43.53769]],[[142.47955,43.6182],[142.47932,43.6186],[142.47884,43.61916],[142.47755,43.62016],[142.45913,43.63218],[142.45863,43.63268],[142.45137,43.64337]],[[142.39397,43.68171],[142.39335,43.68277]],[[142.3588,43.76203],[142.35764,43.76255]],[[142.41478,43.66913],[142.40071,43.67407],[142.39933,43.67461],[142.39842,43.67509],[142.39744,43.67577],[142.39699,43.6764],[142.39397,43.68171]],[[142.36586,43.7308],[142.37137,43.72117]],[[142.46119,43.59084],[142.4622,43.59153]],[[142.38192,43.70281],[142.37173,43.72052]],[[142.47975,43.61757],[142.47955,43.6182]],[[142.45137,43.64337],[142.45086,43.64412]],[[142.38231,43.70212],[142.38192,43.70281]],[[142.37173,43.72052],[142.37137,43.72117]],[[142.4622,43.59153],[142.46946,43.59661],[142.46999,43.59702],[142.47059,43.59768],[142.47257,43.6008],[142.47324,43.60206],[142.47342,43.60293],[142.47366,43.60617],[142.47383,43.60702],[142.47402,43.60729],[142.47581,43.60896],[142.47617,43.60942],[142.4785,43.61366],[142.47972,43.61611],[142.47982,43.6168],[142.47975,43.61757]],[[142.45086,43.64412],[142.44083,43.65878],[142.44001,43.65977],[142.4393,43.66034],[142.43866,43.66072],[142.4366,43.66155],[142.42341,43.66607],[142.41562,43.66887]],[[142.36586,43.7308],[142.36548,43.73148]],[[142.44749,43.53769],[142.45026,43.53955],[142.45082,43.54004],[142.4512,43.54054],[142.45141,43.54118],[142.45136,43.54171],[142.45107,43.54238],[142.45062,43.54294],[142.45035,43.54349],[142.45041,43.54421],[142.45052,43.54449],[142.45088,43.54495],[142.45114,43.54518],[142.45219,43.54579],[142.46145,43.55107],[142.46186,43.55142],[142.46229,43.55196],[142.46259,43.55252],[142.46268,43.55287],[142.46266,43.55341],[142.46237,43.55548],[142.46107,43.56174],[142.46045,43.56437],[142.4605,43.56481],[142.46103,43.56674],[142.46099,43.56735],[142.4608,43.56786],[142.45581,43.57778],[142.4551,43.57937],[142.45471,43.58465],[142.45489,43.58561],[142.4554,43.58656],[142.4558,43.58706],[142.45644,43.58758],[142.46119,43.59084]],[[142.36548,43.73148],[142.35849,43.74389],[142.35832,43.74425],[142.35824,43.74469]],[[142.35824,43.74469],[142.35829,43.74544]],[[142.41562,43.66887],[142.41478,43.66913]],[[142.35829,43.74544],[142.35848,43.74622],[142.36262,43.75542],[142.36349,43.75705],[142.36369,43.75752],[142.36381,43.75828],[142.36369,43.75938],[142.36351,43.75967],[142.36315,43.76001],[142.36276,43.76027],[142.3588,43.76203]],[[142.38674,43.36682],[142.39181,43.37266],[142.393,43.37487],[142.39377,43.37587],[142.39437,43.37643],[142.39666,43.37815],[142.40467,43.38723]],[[142.39214,43.3458],[142.39072,43.3486]],[[142.42063,43.4054],[142.4212,43.40605]],[[142.3887,43.3526],[142.38778,43.35443],[142.38738,43.35579],[142.38429,43.36132],[142.38405,43.36201],[142.38408,43.36304],[142.38426,43.36384],[142.38454,43.36426],[142.38622,43.36622]],[[142.39072,43.3486],[142.3887,43.3526]],[[142.40522,43.38786],[142.42063,43.4054]],[[142.4212,43.40605],[142.44158,43.4292]],[[142.44158,43.4292],[142.44205,43.42974]],[[142.44205,43.42974],[142.46886,43.46021],[142.4692,43.46095],[142.46926,43.46147],[142.46899,43.46326]],[[142.40467,43.38723],[142.40522,43.38786]],[[142.46862,43.46498],[142.46632,43.4762],[142.46636,43.47779],[142.46652,43.47879],[142.4667,43.47932],[142.46668,43.48016],[142.46641,43.48106],[142.46323,43.48735],[142.46254,43.48899],[142.46237,43.48969],[142.46241,43.49021],[142.46271,43.4909],[142.46312,43.49141],[142.46402,43.49215],[142.46571,43.49289],[142.46755,43.49348],[142.46821,43.4938],[142.46878,43.49429],[142.46903,43.49462],[142.4693,43.49538],[142.4693,43.49581],[142.46911,43.49657],[142.46763,43.49917],[142.46688,43.50001],[142.46564,43.50109],[142.46504,43.50179],[142.4635,43.50475],[142.45806,43.51383],[142.45658,43.51546],[142.45507,43.51849],[142.45364,43.52004],[142.45342,43.5205],[142.45305,43.5222],[142.4527,43.52319],[142.45141,43.52444],[142.44929,43.52754],[142.44776,43.52881],[142.44624,43.53136],[142.44499,43.53365],[142.44479,43.53435],[142.44481,43.53463],[142.44486,43.53492],[142.44521,43.53573],[142.44552,43.53618],[142.44679,43.53718]],[[142.38622,43.36622],[142.38674,43.36682]],[[142.46899,43.46326],[142.46862,43.46498]]]}}