{"type":"Feature","properties":{"id":"北海道旅客鉄道_千歳線","name":"千歳線","operator":"北海道旅客鉄道","railType":"普通鉄道(JR)","operatorType":"JR在来線","category":"rail","attribution":"国土数値情報（鉄道データ）国土交通省"},"geometry":{"type":"MultiLineString","coordinates":[[[141.43719,43.04715],[141.43529,43.0475],[141.42864,43.04837],[141.42601,43.04879],[141.42385,43.04937],[141.42156,43.05031],[141.42029,43.05101]],[[141.41556,43.05385],[141.42029,43.05101]],[[141.41258,43.05567],[141.41556,43.05385]],[[141.69477,42.67255],[141.69131,42.67136]],[[141.58551,42.88379],[141.57846,42.88963],[141.57735,42.89069],[141.57619,42.89218],[141.57535,42.89377],[141.57505,42.89481],[141.57449,42.90166]],[[141.73593,42.70903],[141.73535,42.71325]],[[141.69834,42.67384],[141.70242,42.67453],[141.70388,42.67486],[141.70611,42.67562],[141.70827,42.67674],[141.73242,42.69318],[141.73432,42.69457],[141.73507,42.69539],[141.7362,42.69704],[141.73663,42.69806],[141.73691,42.699],[141.73702,42.69979],[141.73698,42.70145],[141.73593,42.70903]],[[141.69477,42.67255],[141.69834,42.67384]],[[141.71073,42.77799],[141.71189,42.77703]],[[141.65291,42.82737],[141.65471,42.82572],[141.66301,42.81852],[141.66891,42.81345],[141.6742,42.80905]],[[141.48643,43.01701],[141.48708,43.01629],[141.48792,43.01555]],[[141.68529,42.7997],[141.69356,42.79257],[141.71073,42.77799]],[[141.56303,42.97982],[141.5632,42.97856]],[[141.68077,42.7878],[141.68081,42.78728]],[[141.48792,43.01555],[141.49285,43.01191],[141.4942,43.01103],[141.49834,43.00876],[141.51089,43.00223],[141.51274,43.0013],[141.51396,43.00081],[141.51516,43.00046],[141.51656,43.00021],[141.51872,43.00008],[141.5238,43.0001],[141.52561,42.99981],[141.5265,42.99958],[141.53968,42.99534],[141.54117,42.99502],[141.54869,42.99428],[141.55106,42.9938],[141.55195,42.99346],[141.55291,42.99299],[141.55404,42.9923],[141.55931,42.98834],[141.56094,42.98695],[141.56177,42.98582],[141.5624,42.98446],[141.56264,42.98323],[141.56303,42.97982]],[[141.65104,42.82894],[141.65291,42.82737]],[[141.44235,43.04549],[141.44371,43.04537],[141.45275,43.04368]],[[141.71189,42.77703],[141.71439,42.77504],[141.71508,42.77441],[141.71602,42.77337],[141.72192,42.76397],[141.72937,42.75249],[141.72997,42.75117],[141.73064,42.74687],[141.73522,42.71398]],[[141.67915,42.80487],[141.67918,42.80469],[141.6815,42.80263],[141.68254,42.80148],[141.68296,42.80055],[141.68329,42.79916],[141.68329,42.79793],[141.6831,42.7969],[141.68281,42.79601],[141.68234,42.79522],[141.6809,42.79324],[141.68049,42.79242],[141.68038,42.79194],[141.68029,42.79151],[141.68029,42.79063],[141.68077,42.7878]],[[141.57308,42.92317],[141.5732,42.92172]],[[141.60603,42.86644],[141.60483,42.8675]],[[141.45275,43.04368],[141.47133,43.03899]],[[141.4737,43.03838],[141.47472,43.03813],[141.47653,43.03752],[141.47887,43.03624],[141.47981,43.03551],[141.48084,43.03453],[141.48194,43.03293],[141.4826,43.03117],[141.48388,43.02163],[141.48405,43.02082],[141.48456,43.0196],[141.48512,43.0187],[141.48643,43.01701]],[[141.47133,43.03899],[141.4737,43.03838]],[[141.60483,42.8675],[141.58713,42.88242]],[[141.43719,43.04715],[141.43881,43.04684]],[[141.44191,43.04623],[141.44355,43.04571],[141.45275,43.04368]],[[141.43881,43.04684],[141.44191,43.04623]],[[141.57449,42.90166],[141.57435,42.90356]],[[141.5632,42.97856],[141.56357,42.97542],[141.56396,42.97378],[141.56438,42.97265],[141.56712,42.96711],[141.56776,42.9653],[141.57124,42.94845],[141.57148,42.94598],[141.57308,42.92317]],[[141.73522,42.71398],[141.73535,42.71325]],[[141.57435,42.90356],[141.57413,42.90759],[141.57359,42.91433],[141.5732,42.92172]],[[141.58713,42.88242],[141.58551,42.88379]],[[141.62269,42.85243],[141.62331,42.85191]],[[141.62331,42.85191],[141.63251,42.8441],[141.63713,42.84038],[141.645,42.83368],[141.65104,42.82894]],[[141.60603,42.86644],[141.62269,42.85243]],[[141.6742,42.80905],[141.67622,42.80736]],[[141.42503,43.04872],[141.42746,43.04816],[141.43049,43.04726],[141.44029,43.04548]],[[141.67622,42.80736],[141.67915,42.80487]],[[141.67915,42.80487],[141.68529,42.7997]],[[141.44029,43.04548],[141.44147,43.04554],[141.44235,43.04549]],[[141.42029,43.05101],[141.42145,43.05023],[141.42272,43.04956],[141.42503,43.04872]],[[141.42503,43.04872],[141.42954,43.04727],[141.4342,43.04597],[141.43631,43.04555],[141.43779,43.0454],[141.44029,43.04548]]]}}