{"type":"Feature","properties":{"id":"北海道旅客鉄道_石北線","name":"石北線","operator":"北海道旅客鉄道","railType":"普通鉄道(JR)","operatorType":"JR在来線","category":"rail","attribution":"国土数値情報（鉄道データ）国土交通省"},"geometry":{"type":"MultiLineString","coordinates":[[[144.25296,44.01973],[144.2554,44.0201]],[[143.89497,43.8021],[143.89744,43.80469]],[[144.16999,43.91561],[144.1671,43.91426],[144.15872,43.90921],[144.15785,43.90855],[144.15738,43.90794],[144.15711,43.90746],[144.15692,43.90686],[144.15688,43.90632],[144.15695,43.90569],[144.15713,43.90523],[144.15841,43.90293],[144.15894,43.90173],[144.15951,43.89994],[144.15975,43.89885],[144.1599,43.89762],[144.15988,43.89696],[144.15969,43.89591],[144.15859,43.89269],[144.15835,43.89179],[144.1583,43.88901],[144.1581,43.88801],[144.1576,43.88696],[144.1568,43.88556],[144.15634,43.88499],[144.15589,43.88459],[144.15482,43.88387],[144.14864,43.88024]],[[143.62247,43.78523],[143.62518,43.78454],[143.62649,43.78429],[143.62811,43.78439],[143.62971,43.78489],[143.63315,43.78682],[143.63396,43.78715],[143.63906,43.78812],[143.65488,43.78802],[143.68263,43.78957],[143.69957,43.7906],[143.70362,43.79091],[143.72004,43.79244],[143.75548,43.79583]],[[143.809,43.80542],[143.80165,43.80494],[143.79935,43.80466],[143.77431,43.79927],[143.76209,43.79653],[143.75732,43.796]],[[143.51854,44.05708],[143.51829,44.05656],[143.5181,44.0557],[143.51824,44.05369],[143.51887,44.05206],[143.52004,44.04962],[143.52086,44.04765],[143.5211,44.04663],[143.52111,44.04608],[143.52099,44.04537],[143.52082,44.04479],[143.52052,44.04417],[143.51976,44.04323],[143.51553,44.04023],[143.51451,44.03925],[143.51408,44.03859],[143.51372,44.0377],[143.51358,44.03641],[143.51367,44.03561],[143.51399,44.03475],[143.51546,44.03225],[143.53271,44.00364],[143.53345,44.00172],[143.53568,43.99369]],[[144.00035,43.88027],[143.99906,43.88073]],[[143.91668,43.82474],[143.91723,43.8253]],[[143.53568,43.99369],[143.53589,43.99296]],[[144.21891,43.96492],[144.219,43.96265]],[[144.14794,43.87981],[144.14528,43.87828],[144.14461,43.87777],[144.14362,43.87682],[144.13984,43.87119],[144.13963,43.87047],[144.13977,43.86894],[144.13978,43.86774],[144.13956,43.86661],[144.13915,43.86569],[144.13846,43.86473],[144.13775,43.86405],[144.13578,43.86253],[144.13535,43.86207],[144.13508,43.86164],[144.13407,43.85889],[144.13343,43.85683],[144.13342,43.85583],[144.13385,43.85401],[144.13375,43.85293],[144.1323,43.85055],[144.13179,43.84951],[144.13147,43.84857],[144.13084,43.84592],[144.13061,43.84537],[144.13007,43.8445],[144.12955,43.8439],[144.12879,43.8432],[144.12193,43.83759],[144.12104,43.83678],[144.11691,43.83347],[144.11624,43.83308],[144.11548,43.83276],[144.11444,43.83252],[144.11303,43.83245],[144.11225,43.83255],[144.11141,43.83277],[144.11042,43.83321],[144.10991,43.83356],[144.10656,43.83625]],[[143.53298,43.96019],[143.53276,43.95952]],[[143.94264,43.85164],[143.94455,43.85362],[143.94535,43.85429],[143.94646,43.85497],[143.94743,43.85525],[143.94926,43.85535],[143.95037,43.85523],[143.95618,43.85355],[143.95728,43.85336],[143.9588,43.85329],[143.95996,43.85344],[143.96126,43.854],[143.96314,43.85533],[143.96449,43.85649],[143.96625,43.85849],[143.96683,43.85945],[143.96691,43.85974],[143.96715,43.86315],[143.96711,43.86428],[143.96682,43.86644],[143.96691,43.867],[143.96741,43.86832],[143.96747,43.87123],[143.96735,43.8731],[143.96744,43.8736],[143.96897,43.87733],[143.96965,43.87816],[143.97077,43.87887],[143.97135,43.87906],[143.97222,43.87914],[143.97823,43.87842],[143.97986,43.87833],[143.98276,43.87842],[143.98413,43.87869],[143.98673,43.87947],[143.99089,43.88129],[143.99221,43.88169],[143.99378,43.88192],[143.99462,43.88191],[143.99605,43.88174],[143.99709,43.88146],[143.99906,43.88073]],[[143.84208,43.80318],[143.84108,43.80312]],[[143.80993,43.80547],[143.809,43.80542]],[[143.60382,43.78539],[143.61325,43.78709],[143.614,43.78716],[143.61602,43.78685],[143.62033,43.78585]],[[143.53276,43.95952],[143.53092,43.95402],[143.53041,43.95336],[143.52983,43.95294],[143.52899,43.95255],[143.52679,43.95196],[143.52585,43.95159],[143.52494,43.95101],[143.52438,43.95054],[143.52391,43.95],[143.52363,43.94956],[143.52017,43.94256],[143.51973,43.94143],[143.51964,43.94054],[143.51984,43.93861],[143.52,43.93806],[143.52032,43.93756],[143.52112,43.93688],[143.52351,43.93573],[143.52424,43.935],[143.52442,43.93462],[143.52452,43.93401],[143.52433,43.93254],[143.52443,43.93157],[143.5248,43.93073],[143.52521,43.93021],[143.52586,43.92966],[143.52661,43.92926],[143.52766,43.92889],[143.53104,43.92803],[143.53222,43.92742],[143.53263,43.9271],[143.53321,43.92643],[143.53441,43.92413]],[[143.42182,44.00863],[143.42589,44.00789],[143.42698,44.00778],[143.42754,44.00784],[143.42817,44.00799],[143.42907,44.00836],[143.43494,44.01179],[143.43582,44.01217],[143.43672,44.01236],[143.43749,44.01238],[143.43978,44.012],[143.44091,44.01195],[143.4421,44.01221],[143.44311,44.01285],[143.44388,44.01366],[143.44419,44.01437],[143.44436,44.01593],[143.44455,44.01658],[143.44487,44.01707],[143.44558,44.01766],[143.44675,44.01812],[143.44986,44.01871],[143.45153,44.01925],[143.46091,44.02427],[143.4627,44.02504],[143.46674,44.02552],[143.46788,44.02558],[143.46884,44.02548],[143.47029,44.02513],[143.47176,44.02456],[143.47248,44.02415],[143.47391,44.02299],[143.47435,44.02283],[143.47558,44.02261],[143.47684,44.02249],[143.47781,44.02262],[143.47861,44.0229],[143.47912,44.02319],[143.47971,44.0237],[143.48106,44.02539],[143.48375,44.02905],[143.49747,44.04451],[143.50465,44.05101],[143.50612,44.05209],[143.50771,44.05288],[143.51675,44.05565],[143.51766,44.05617],[143.51854,44.05708]],[[143.54931,43.83951],[143.54847,43.83857],[143.54798,43.83744],[143.54803,43.83595],[143.54848,43.83507],[143.54877,43.83472],[143.54939,43.83422],[143.55176,43.83293],[143.55279,43.83223],[143.554,43.83104],[143.55536,43.82937],[143.55708,43.82803],[143.55768,43.82714],[143.55828,43.82566],[143.55902,43.82469],[143.55923,43.8243],[143.55957,43.82276],[143.55967,43.82248],[143.56008,43.8219],[143.56076,43.82135],[143.56131,43.82105],[143.56331,43.82049],[143.56427,43.82014],[143.56472,43.81988],[143.56514,43.81948],[143.56862,43.815],[143.56889,43.81436],[143.56895,43.81382],[143.56871,43.81297],[143.56798,43.81147],[143.56785,43.81095],[143.56769,43.80847],[143.56773,43.80742],[143.56788,43.80683],[143.56813,43.8064],[143.57075,43.80392]],[[143.62033,43.78585],[143.62247,43.78523]],[[143.60291,43.78524],[143.60382,43.78539]],[[143.57075,43.80392],[143.57161,43.80312]],[[143.75732,43.796],[143.75548,43.79583]],[[143.91723,43.8253],[143.93254,43.84112]],[[143.93254,43.84112],[143.93308,43.84169]],[[144.219,43.96265],[144.21907,43.96081],[144.21872,43.95991],[144.21837,43.95938],[144.21688,43.95775],[144.21639,43.95737],[144.21547,43.95693],[144.21303,43.95625],[144.21142,43.95601],[144.20994,43.95631],[144.20796,43.95728],[144.20688,43.95753],[144.20526,43.95752],[144.20335,43.95736],[144.20125,43.95692],[144.19779,43.95584],[144.1939,43.95481],[144.19229,43.9542],[144.19093,43.95333],[144.18807,43.95123],[144.18699,43.95033],[144.18644,43.94972],[144.18557,43.94832],[144.18514,43.94706],[144.18414,43.94328],[144.18379,43.94236],[144.18325,43.94151],[144.18053,43.9379],[144.18018,43.93724],[144.18009,43.93684],[144.18003,43.93642],[144.18008,43.93586],[144.18263,43.92886],[144.18299,43.92762],[144.1831,43.92696],[144.1831,43.92614],[144.18271,43.92479],[144.18092,43.92158],[144.18018,43.92068],[144.17927,43.91991],[144.17801,43.91911],[144.17162,43.91632]],[[143.89744,43.80469],[143.89883,43.80615]],[[143.53441,43.92413],[143.53486,43.92326]],[[143.5202,44.05957],[143.52116,44.06099]],[[144.10656,43.83625],[144.1047,43.83774]],[[144.14864,43.88024],[144.14794,43.87981]],[[143.42182,44.00863],[143.42037,44.00888]],[[143.57161,43.80312],[143.57373,43.80113],[143.57395,43.80063],[143.57405,43.80001],[143.57399,43.7993],[143.57237,43.79666],[143.57221,43.79586],[143.57239,43.79513],[143.57293,43.79429],[143.57389,43.79335],[143.57512,43.79247],[143.58207,43.78972],[143.5876,43.78782],[143.5903,43.7875],[143.59123,43.78731],[143.59209,43.78695],[143.59267,43.78659],[143.59449,43.78522],[143.59584,43.78466],[143.59706,43.78443],[143.59805,43.78441],[143.60291,43.78524]],[[144.21891,43.96492],[144.21868,43.96795],[144.21877,43.96895],[144.2191,43.96971],[144.22047,43.97192],[144.22058,43.97223],[144.2206,43.97295],[144.22033,43.97368],[144.21978,43.97435],[144.21784,43.97567],[144.21715,43.97633],[144.21669,43.97704],[144.2166,43.97758],[144.21708,43.97996],[144.21732,43.98051],[144.21789,43.98118],[144.22031,43.98341],[144.22076,43.98411],[144.22089,43.9846],[144.22089,43.9854],[144.22066,43.986],[144.22029,43.98661],[144.21933,43.989],[144.21909,43.98972],[144.2191,43.99024],[144.21944,43.991],[144.21993,43.99154],[144.22069,43.99204],[144.22253,43.99281],[144.22318,43.99329],[144.22349,43.99364],[144.22372,43.99406],[144.2241,43.99542],[144.22418,43.99654],[144.22411,43.99705],[144.2237,43.99834],[144.22364,43.99922],[144.22376,43.99982],[144.22406,44.00046],[144.22444,44.00094],[144.22574,44.00214],[144.22686,44.00293],[144.22755,44.00323],[144.23005,44.00383],[144.23085,44.00431],[144.23129,44.00474],[144.23177,44.00589],[144.23207,44.00743],[144.23213,44.00832],[144.23195,44.01043],[144.23199,44.01095],[144.2325,44.01193],[144.23317,44.0125],[144.23429,44.01297],[144.23712,44.01351],[144.23828,44.01389],[144.24232,44.01597],[144.24941,44.019],[144.25096,44.01937],[144.25296,44.01973]],[[143.84108,43.80312],[143.83564,43.80294],[143.83431,43.80309],[143.82097,43.80556],[143.81926,43.8058],[143.81598,43.80584],[143.80993,43.80547]],[[143.53589,43.99296],[143.53686,43.98929],[143.53697,43.98801],[143.53688,43.98692],[143.53658,43.986],[143.53123,43.97255],[143.53129,43.97181],[143.53169,43.97101],[143.53239,43.97038],[143.53369,43.96955],[143.53426,43.96899],[143.53463,43.96827],[143.53487,43.96734],[143.5349,43.96646],[143.53474,43.9655],[143.53298,43.96019]],[[144.1047,43.83774],[144.10309,43.83903],[144.10191,43.84037],[144.10013,43.84371],[144.09702,43.85056],[144.09664,43.85114],[144.09606,43.85172],[144.09561,43.85206],[144.09489,43.85242],[144.08641,43.85452],[144.08487,43.85473],[144.083,43.8547],[144.08164,43.85444],[144.08034,43.85402],[144.07141,43.84995],[144.07028,43.84965],[144.06934,43.84956],[144.06812,43.84971],[144.06677,43.85025],[144.06602,43.85077],[144.0635,43.85307],[144.06275,43.85347],[144.06178,43.85376],[144.06056,43.85383],[144.05963,43.85368],[144.05691,43.85251],[144.05508,43.85195],[144.05413,43.85178],[144.05334,43.85176],[144.052,43.85198],[144.05134,43.85226],[144.05076,43.85264],[144.05043,43.85293],[144.04931,43.85429],[144.04778,43.85529],[144.04724,43.8558],[144.04678,43.85658],[144.04657,43.85774],[144.04636,43.85833],[144.04598,43.85885],[144.04541,43.85933],[144.04456,43.85976],[144.04309,43.86019],[144.04252,43.86043],[144.04185,43.86089],[144.0393,43.86301],[144.03832,43.86353],[144.03651,43.86412],[144.03447,43.86433],[144.03353,43.86454],[144.02925,43.86622],[144.02854,43.86668],[144.02777,43.86731],[144.02586,43.86947],[144.02488,43.87045],[144.02296,43.87198],[144.02165,43.87283],[144.02001,43.87349],[144.01884,43.87377],[144.0123,43.87432],[144.01054,43.87463],[144.00992,43.87482],[144.00853,43.87541],[144.00774,43.87588],[144.00414,43.87875],[144.00367,43.87904],[144.00281,43.87944],[144.00035,43.88027]],[[143.93308,43.84169],[143.9421,43.85109]],[[143.53486,43.92326],[143.53918,43.91508],[143.53994,43.91345],[143.54008,43.91288],[143.54013,43.91201],[143.53998,43.91111],[143.53969,43.91041],[143.53878,43.90903],[143.53838,43.90824],[143.53775,43.90526],[143.53764,43.90396],[143.53768,43.90334],[143.53781,43.90237],[143.53803,43.90147],[143.54452,43.88597],[143.54517,43.88499],[143.54729,43.88257],[143.54785,43.88157],[143.54809,43.88071],[143.5481,43.8796],[143.54745,43.87594],[143.5475,43.87396],[143.54743,43.87297],[143.54679,43.87056],[143.54677,43.87019],[143.54686,43.86967],[143.54717,43.86881],[143.54825,43.86707],[143.54855,43.8664],[143.54855,43.8634],[143.54831,43.8627],[143.54764,43.86169],[143.5474,43.86112],[143.54691,43.85902],[143.54689,43.85784],[143.54665,43.85621],[143.54587,43.85431],[143.54576,43.85382],[143.54552,43.85166],[143.54559,43.85123],[143.54606,43.85004],[143.5462,43.84947],[143.54624,43.84862],[143.54614,43.84776],[143.54586,43.84722],[143.54455,43.84568],[143.54405,43.84424],[143.54384,43.84313],[143.54392,43.84251],[143.54422,43.84167],[143.54506,43.84028],[143.5461,43.83917],[143.54757,43.838],[143.54779,43.83774],[143.54784,43.83758],[143.54779,43.83577],[143.54818,43.83487],[143.54883,43.83407],[143.54973,43.83351]],[[143.89883,43.80615],[143.91668,43.82474]],[[143.51854,44.05708],[143.5202,44.05957]],[[144.17162,43.91632],[144.16999,43.91561]],[[143.84208,43.80318],[143.86012,43.80409],[143.88839,43.80114],[143.8918,43.80085],[143.89273,43.80089],[143.89334,43.80108],[143.89421,43.80154],[143.89497,43.8021]],[[143.9421,43.85109],[143.94264,43.85164]],[[142.38506,43.78075],[142.38445,43.77968]],[[142.71706,43.84372],[142.72374,43.84386],[142.72494,43.84398],[142.7262,43.8443],[142.72715,43.84476],[142.72751,43.84502],[142.73023,43.84801],[142.73111,43.84858],[142.73173,43.84886],[142.73274,43.84918],[142.7416,43.85137],[142.74389,43.8518],[142.74615,43.85208],[142.7585,43.85328],[142.75944,43.85327],[142.76038,43.85307],[142.76159,43.85263],[142.76246,43.85208],[142.76492,43.85014]],[[143.18002,43.88387],[143.17852,43.88274],[143.17754,43.88224],[143.16735,43.87865],[143.16609,43.87828],[143.16373,43.87801],[143.14561,43.87661]],[[143.27673,43.94484],[143.28217,43.94739],[143.28593,43.94904],[143.29204,43.95103],[143.29298,43.95125],[143.29403,43.95134],[143.295,43.95155],[143.29582,43.95195],[143.29631,43.95241],[143.29691,43.95325],[143.29697,43.95352],[143.29691,43.95871],[143.29679,43.96166],[143.29697,43.96244],[143.29771,43.96415],[143.29781,43.96478],[143.29762,43.96563],[143.29681,43.96729],[143.29681,43.96805],[143.29711,43.9687],[143.29862,43.97062],[143.29915,43.97113],[143.30082,43.97219],[143.30139,43.97283],[143.30156,43.97321],[143.30164,43.97368],[143.30161,43.97553],[143.30168,43.97609],[143.30196,43.97701],[143.30228,43.97752],[143.30274,43.97806],[143.30432,43.97948],[143.3077,43.98277],[143.3092,43.98402],[143.31068,43.98499],[143.31685,43.98807],[143.31765,43.98829],[143.32069,43.98863],[143.32185,43.98895],[143.32233,43.98925],[143.32676,43.99414],[143.32689,43.99453],[143.32709,43.99834],[143.32727,43.99903],[143.32767,43.99976],[143.32833,44.00047],[143.3352,44.00584]],[[142.48745,43.80229],[142.49317,43.80703],[142.49549,43.80866],[142.51111,43.81772],[142.51414,43.81951],[142.51506,43.82013],[142.51595,43.82103],[142.51639,43.82184],[142.51654,43.82234],[142.51695,43.82496]],[[143.14561,43.87661],[143.14305,43.87643]],[[142.65635,43.89598],[142.65461,43.89647]],[[142.51695,43.82496],[142.51711,43.82611]],[[142.68045,43.86671],[142.67358,43.87431],[142.67287,43.87535],[142.67245,43.8762],[142.67231,43.87715],[142.67237,43.87802],[142.67267,43.87998],[142.6727,43.88093],[142.6725,43.8815],[142.67205,43.88218],[142.67158,43.88267],[142.67085,43.88319],[142.66856,43.88426],[142.66809,43.8847],[142.6615,43.89368],[142.66086,43.89437],[142.66024,43.89477],[142.65962,43.89504],[142.65635,43.89598]],[[142.44037,43.7764],[142.43259,43.775],[142.42903,43.77446],[142.42766,43.77443],[142.42617,43.77458],[142.42462,43.77494],[142.40905,43.78039]],[[143.27558,43.94431],[143.27406,43.94361],[143.268,43.94032],[143.2673,43.93965],[143.26626,43.93793],[143.26588,43.93755],[143.26538,43.93724],[143.26434,43.93687],[143.26123,43.93622],[143.26047,43.93581],[143.25913,43.93481],[143.25802,43.93431],[143.25343,43.93323],[143.25231,43.9329],[143.24505,43.92926],[143.24392,43.92862],[143.2431,43.92794],[143.24228,43.92694],[143.24024,43.92338],[143.23962,43.92243],[143.23892,43.92171],[143.23706,43.92015]],[[142.90195,43.86734],[142.90331,43.86765],[142.90735,43.86781],[142.90813,43.86776]],[[142.76754,43.84783],[142.76605,43.8492]],[[143.33642,44.0068],[143.34337,44.01227],[143.35375,44.01835],[143.35455,44.0187],[143.36023,44.02064],[143.36124,44.02086],[143.36285,44.02098],[143.36527,44.02091],[143.3686,44.02065],[143.37091,44.02072],[143.3738,44.02069],[143.37552,44.02047],[143.37682,44.0201],[143.37807,44.01946],[143.38865,44.01257],[143.38976,44.01202],[143.39098,44.01163],[143.39196,44.01147],[143.40273,44.01086],[143.40423,44.01053],[143.40814,44.00935],[143.40969,44.00903],[143.41134,44.00898],[143.41239,44.0091],[143.41506,44.00959],[143.41571,44.00961],[143.41715,44.00945],[143.42037,44.00888]],[[142.76492,43.85014],[142.76539,43.84945],[142.76726,43.84778],[142.76801,43.84745]],[[142.76605,43.8492],[142.76492,43.85014]],[[142.69413,43.85171],[142.69363,43.85226]],[[143.27673,43.94484],[143.27558,43.94431]],[[142.76754,43.84783],[142.76801,43.84745]],[[142.58175,43.89856],[142.58264,43.89877]],[[142.90195,43.86734],[142.90659,43.86757],[142.90813,43.86776]],[[142.48633,43.80135],[142.48382,43.79925],[142.48338,43.79858],[142.48245,43.7968],[142.4821,43.79634],[142.47299,43.78725],[142.47221,43.78664],[142.46928,43.78399],[142.46799,43.78302],[142.46648,43.78207]],[[142.4658,43.78169],[142.46456,43.78114],[142.46247,43.78047],[142.4426,43.77681]],[[142.52522,43.87574],[142.52548,43.87638]],[[142.40818,43.78071],[142.39641,43.78494],[142.39398,43.78578],[142.39301,43.78596],[142.39146,43.78594],[142.38952,43.78552],[142.38813,43.78485],[142.38709,43.78406]],[[142.38709,43.78406],[142.38667,43.78349],[142.38506,43.78075]],[[142.4426,43.77681],[142.44037,43.7764]],[[142.46648,43.78207],[142.4658,43.78169]],[[142.40905,43.78039],[142.40818,43.78071]],[[142.52548,43.87638],[142.53208,43.89314],[142.53244,43.89382],[142.53284,43.89432],[142.53361,43.89485],[142.53443,43.8952],[142.53642,43.89565],[142.54309,43.89643],[142.54459,43.89625],[142.54534,43.896],[142.54727,43.89432],[142.54776,43.89405],[142.54924,43.89375],[142.5501,43.89381],[142.55335,43.89426],[142.55665,43.89487],[142.55718,43.89506],[142.55801,43.89556],[142.5599,43.89718],[142.56048,43.89744],[142.56102,43.89757],[142.5619,43.89764],[142.5628,43.89757],[142.56959,43.89615],[142.57033,43.89609],[142.57107,43.89614],[142.57238,43.8964],[142.58175,43.89856]],[[143.2365,43.91966],[143.2344,43.91808],[143.22339,43.90894],[143.22239,43.90826],[143.21765,43.90573],[143.21642,43.90481],[143.20929,43.89875],[143.20422,43.89465],[143.20361,43.89393],[143.20211,43.89156],[143.20133,43.89089],[143.20063,43.89053],[143.19957,43.89021],[143.18533,43.88729],[143.18405,43.88678],[143.18177,43.8852]],[[142.52157,43.85714],[142.52166,43.85781]],[[142.65461,43.89647],[142.64693,43.89864],[142.64535,43.89882],[142.64389,43.89875],[142.62947,43.89692],[142.61893,43.89571],[142.61731,43.89574],[142.61473,43.89607],[142.59494,43.89977],[142.59133,43.90034],[142.59052,43.90039],[142.58951,43.90027],[142.58264,43.89877]],[[143.18177,43.8852],[143.18002,43.88387]],[[142.68098,43.86612],[142.68045,43.86671]],[[142.48745,43.80229],[142.48633,43.80135]],[[142.76801,43.84745],[142.77152,43.84469],[142.77242,43.84436],[142.77385,43.84423],[142.77586,43.84437],[142.7804,43.84532],[142.78169,43.84585],[142.7847,43.84754],[142.78584,43.84792],[142.78697,43.84812],[142.78777,43.84812],[142.78881,43.84797],[142.79143,43.8471],[142.79268,43.84681],[142.79354,43.84673],[142.79438,43.84678],[142.81136,43.84945],[142.81235,43.8497],[142.813,43.85001],[142.81351,43.85041],[142.81396,43.85098],[142.81506,43.85298],[142.81564,43.85375],[142.81643,43.85446],[142.81705,43.85487],[142.83671,43.8619],[142.8379,43.86224],[142.83898,43.86241],[142.84341,43.86283],[142.84495,43.86261],[142.846,43.86233],[142.84683,43.86221],[142.85156,43.8623],[142.85593,43.86225],[142.85978,43.86236],[142.86938,43.86194],[142.87114,43.86196],[142.87415,43.86238],[142.87755,43.86347],[142.87906,43.86385],[142.88219,43.86429],[142.8844,43.86472],[142.88596,43.86538],[142.88958,43.86744],[142.89045,43.86771],[142.89174,43.86778],[142.89912,43.86729],[142.90195,43.86734]],[[143.3352,44.00584],[143.33642,44.0068]],[[142.69363,43.85226],[142.68098,43.86612]],[[142.51711,43.82611],[142.52157,43.85714]],[[143.23706,43.92015],[143.2365,43.91966]],[[142.71618,43.8437],[142.71124,43.84348],[142.70596,43.84243],[142.70468,43.84237],[142.70365,43.84255],[142.70256,43.84305],[142.70122,43.84398],[142.69413,43.85171]],[[143.14305,43.87643],[143.13899,43.87602],[143.1384,43.87588],[143.13595,43.87497],[143.13543,43.87485],[143.13393,43.87471],[143.13315,43.87477],[143.13192,43.87502],[143.1239,43.87727],[143.12093,43.87845],[143.11962,43.87874],[143.11778,43.87897],[143.11694,43.87902],[143.1138,43.87887],[143.11295,43.87893],[143.11122,43.87922],[143.10981,43.87925],[143.09748,43.87827],[143.09618,43.87798],[143.09545,43.8776],[143.0943,43.87682],[143.09357,43.8765],[143.08874,43.87482],[143.08727,43.87452],[143.0811,43.87406],[143.07817,43.87376],[143.07702,43.87356],[143.07616,43.87332],[143.07508,43.87286],[143.07128,43.87103],[143.07035,43.8707],[143.06785,43.87],[143.0656,43.86987],[143.06467,43.86971],[143.06207,43.8686],[143.06133,43.86848],[143.06027,43.86853],[143.05935,43.86875],[143.05879,43.86898],[143.05833,43.86922],[143.05782,43.86964],[143.05668,43.87119],[143.05612,43.87231],[143.05576,43.87285],[143.05418,43.8741],[143.05399,43.87433],[143.05322,43.87558],[143.05196,43.8771],[143.05168,43.87756],[143.05145,43.87844],[143.05102,43.88152],[143.05086,43.88212],[143.05057,43.8827],[143.0497,43.88383],[143.0491,43.88434],[143.04736,43.88505],[143.04631,43.88537],[143.04411,43.88573],[142.99807,43.89079],[142.99683,43.89087],[142.99524,43.89059],[142.99383,43.89001],[142.993,43.88952],[142.99176,43.88837],[142.99107,43.88782],[142.99046,43.88745],[142.98866,43.88672],[142.9876,43.88652],[142.98651,43.88651],[142.9846,43.88674],[142.98264,43.88661],[142.98128,43.88673],[142.98046,43.88701],[142.97883,43.88795],[142.97826,43.88819],[142.97609,43.88873],[142.97512,43.88883],[142.97165,43.88883],[142.97077,43.88875],[142.96809,43.88771],[142.96598,43.88728],[142.96429,43.8867],[142.95986,43.88458],[142.95925,43.88449],[142.95725,43.88453],[142.95597,43.88444],[142.95474,43.884],[142.95379,43.88354],[142.95292,43.88328],[142.94764,43.88244],[142.94605,43.88197],[142.94296,43.88054],[142.94141,43.87894],[142.94024,43.87811],[142.93677,43.87658],[142.93395,43.87601],[142.93337,43.8758],[142.93246,43.87523],[142.93134,43.8742],[142.93037,43.87363],[142.92931,43.87338],[142.92658,43.87326],[142.92577,43.87314],[142.92508,43.87292],[142.92374,43.87219],[142.92293,43.87198],[142.92168,43.87184],[142.919,43.8717],[142.91699,43.87131],[142.91366,43.87021],[142.9125,43.86971],[142.91086,43.86877],[142.90937,43.86804],[142.90813,43.86776]],[[142.71706,43.84372],[142.71618,43.8437]],[[142.52166,43.85781],[142.52356,43.87136],[142.52379,43.87219],[142.52522,43.87574]],[[143.54812,43.83788],[143.54793,43.83749],[143.54778,43.83601]]]}}