{"type":"Feature","properties":{"id":"北海道旅客鉄道_宗谷線","name":"宗谷線","operator":"北海道旅客鉄道","railType":"普通鉄道(JR)","operatorType":"JR在来線","category":"rail","attribution":"国土数値情報（鉄道データ）国土交通省"},"geometry":{"type":"MultiLineString","coordinates":[[[142.38709,43.78406],[142.38667,43.78349],[142.38506,43.78075]],[[142.33633,44.51248],[142.34112,44.50246],[142.34277,44.49958],[142.34389,44.4972],[142.34418,44.49638],[142.34992,44.48438]],[[142.47669,43.90211],[142.47857,43.91198],[142.47859,43.91286],[142.47815,43.91427],[142.47385,43.92412]],[[142.38701,44.16909],[142.38774,44.17153]],[[142.38803,44.06901],[142.38258,44.07738],[142.38143,44.07908],[142.38081,44.07985],[142.37937,44.08104],[142.3651,44.09044],[142.36441,44.09098],[142.3641,44.09132],[142.36368,44.09209],[142.36357,44.09279],[142.36365,44.09332],[142.36445,44.09594]],[[142.47147,43.8752],[142.47656,43.90145]],[[142.25873,44.66542],[142.25871,44.66473]],[[142.39638,44.2668],[142.39643,44.26912],[142.39657,44.26973],[142.39684,44.27034],[142.3975,44.27126],[142.39918,44.27284],[142.40807,44.28047],[142.42098,44.29175]],[[142.41578,44.02661],[142.41479,44.02812]],[[142.43535,43.81479],[142.43344,43.8136]],[[142.43344,43.8136],[142.42163,43.80612],[142.41958,43.8049],[142.41273,43.80197],[142.40994,43.8003],[142.40489,43.79692],[142.39801,43.79149],[142.39343,43.78867],[142.38814,43.78523],[142.38729,43.78439],[142.38709,43.78406]],[[142.38445,43.77968],[142.38125,43.77379],[142.38018,43.77165],[142.37877,43.76933],[142.37603,43.76437]],[[142.37565,43.76372],[142.37397,43.76074],[142.3736,43.76034],[142.3727,43.75981],[142.37171,43.75955],[142.37093,43.75951],[142.36716,43.7604],[142.36623,43.76071],[142.36403,43.76166],[142.35949,43.76299]],[[142.25871,44.66473],[142.25872,44.6636],[142.25881,44.66315],[142.25914,44.66232],[142.25953,44.66166],[142.26025,44.66083],[142.26101,44.66022],[142.26222,44.65942],[142.26329,44.65851],[142.2638,44.65766],[142.26389,44.6571],[142.26348,44.65383],[142.2629,44.65172],[142.26267,44.65024],[142.26236,44.64966],[142.26208,44.64934],[142.26024,44.64801],[142.25965,44.64732],[142.25938,44.6467],[142.25911,44.64551],[142.25908,44.64468],[142.25924,44.64413],[142.25997,44.64315],[142.26038,44.64284],[142.26094,44.64257],[142.26188,44.64231],[142.26499,44.64199],[142.2665,44.64165],[142.26721,44.64134],[142.26991,44.63976]],[[142.35119,44.4818],[142.35487,44.47405],[142.35552,44.47292],[142.35629,44.47195],[142.35791,44.47035],[142.36318,44.4657],[142.36532,44.46406],[142.36755,44.46278]],[[142.41479,44.02812],[142.38844,44.06838]],[[142.46735,44.3816],[142.46697,44.3822]],[[142.46274,44.31653],[142.46348,44.31702]],[[142.3965,44.21068],[142.3965,44.22562],[142.39636,44.24004]],[[142.46697,44.3822],[142.46426,44.38643],[142.46374,44.38736],[142.46353,44.38792],[142.46342,44.38863],[142.46343,44.38926],[142.46361,44.38993],[142.46394,44.39061],[142.46434,44.39112],[142.46499,44.39175],[142.46584,44.39238],[142.46929,44.39437],[142.47048,44.39526],[142.47135,44.39569],[142.47309,44.39637],[142.47382,44.3968],[142.47433,44.39715],[142.47496,44.39788],[142.47535,44.39857],[142.47549,44.39919],[142.47586,44.40188],[142.47592,44.40291],[142.47589,44.40415],[142.47576,44.40515],[142.4751,44.40663],[142.47372,44.40816],[142.47243,44.40989],[142.47071,44.41173],[142.4677,44.41397],[142.46244,44.41851],[142.46121,44.41931],[142.46037,44.4196],[142.45864,44.41985],[142.45316,44.41973],[142.45154,44.41981],[142.45075,44.41996],[142.44978,44.42032],[142.4483,44.42123],[142.44736,44.42199],[142.44683,44.42268],[142.44662,44.42312],[142.4463,44.42517],[142.44554,44.427],[142.4454,44.42751],[142.44533,44.42817],[142.44541,44.43019],[142.44536,44.43044],[142.44493,44.43147],[142.44385,44.43306],[142.443,44.43376],[142.42837,44.44127]],[[142.39571,44.46128],[142.39484,44.46119]],[[142.45488,43.827],[142.45415,43.82655]],[[142.46348,44.31702],[142.46424,44.31771],[142.46489,44.31856],[142.46542,44.31978],[142.46548,44.32022],[142.46542,44.34801]],[[142.34992,44.48438],[142.35119,44.4818]],[[142.36755,44.46278],[142.36831,44.46236]],[[142.33358,44.53916],[142.33483,44.5489],[142.33493,44.5506],[142.33478,44.55174],[142.3334,44.55611],[142.3331,44.55746],[142.33309,44.55887],[142.33339,44.56225],[142.3333,44.564],[142.33297,44.56535],[142.33231,44.56637],[142.33162,44.56706],[142.33054,44.56785],[142.32872,44.56892],[142.32795,44.56955],[142.32754,44.57001],[142.32711,44.57079],[142.32644,44.57245],[142.32589,44.57353],[142.32195,44.58021],[142.31991,44.58386],[142.31861,44.58596],[142.31733,44.58747],[142.31115,44.59338],[142.31047,44.59425],[142.31014,44.59486],[142.31002,44.59526],[142.30956,44.59804]],[[142.35949,43.76299],[142.35635,43.76389]],[[142.33633,44.51248],[142.33601,44.51314]],[[142.26991,44.63976],[142.27061,44.63934]],[[142.36831,44.46236],[142.37246,44.46013],[142.37332,44.45985],[142.37428,44.45965],[142.37612,44.45968],[142.37906,44.46033],[142.38057,44.46057],[142.38189,44.4605],[142.38409,44.46012],[142.38501,44.46011],[142.38736,44.46046],[142.39088,44.46062],[142.3935,44.46106],[142.39484,44.46119]],[[142.47385,43.92412],[142.47308,43.92591]],[[142.38814,44.17286],[142.38841,44.17383]],[[142.45479,43.96728],[142.45504,43.96885]],[[142.38701,44.16909],[142.38699,44.16933],[142.38718,44.17043],[142.38751,44.17158],[142.38793,44.17296],[142.38841,44.17383]],[[142.46726,43.85314],[142.46738,43.85383]],[[142.41499,44.45519],[142.41463,44.45583]],[[142.47308,43.92591],[142.4661,43.94183],[142.46542,43.94262],[142.45956,43.9475],[142.45923,43.94797],[142.45904,43.94849],[142.45899,43.94903],[142.45905,43.9494],[142.45915,43.94976],[142.45958,43.95047],[142.46001,43.95086],[142.4607,43.95128],[142.46362,43.9528],[142.46414,43.95329],[142.46438,43.95372],[142.46455,43.95435],[142.46493,43.95627],[142.46482,43.95693],[142.46465,43.95724],[142.46433,43.95758],[142.46282,43.9588],[142.4622,43.95949],[142.46207,43.95984],[142.46202,43.96071],[142.4619,43.96112],[142.4614,43.96176],[142.46066,43.96211],[142.46003,43.96221],[142.45836,43.96223],[142.45779,43.96236],[142.45711,43.96266],[142.45671,43.96297],[142.45527,43.96453],[142.45493,43.96506],[142.45468,43.96606],[142.45479,43.96728]],[[142.3965,44.20996],[142.3965,44.21068]],[[142.42759,44.4417],[142.42492,44.44334],[142.42129,44.44579],[142.41979,44.44707],[142.41913,44.44786],[142.41846,44.44886],[142.41499,44.45519]],[[142.1982,44.73857],[142.1975,44.7392]],[[142.41463,44.45583],[142.41319,44.45854],[142.41215,44.45952],[142.41106,44.46031],[142.40964,44.46172],[142.40875,44.46225],[142.40584,44.4634],[142.40516,44.46358],[142.40411,44.46372],[142.40249,44.46366],[142.40097,44.46338],[142.39973,44.4629],[142.39734,44.46177],[142.39571,44.46128]],[[142.36477,44.09696],[142.37781,44.13931]],[[142.45504,43.96885],[142.45614,43.97678],[142.45622,43.97809],[142.45613,43.97877],[142.45461,43.98526],[142.45422,43.98638],[142.45401,43.98674],[142.45225,43.9893],[142.44633,44.00238],[142.4457,44.00363],[142.44511,44.00438],[142.44152,44.00778],[142.4365,44.01244],[142.43557,44.01324],[142.43489,44.01369],[142.4342,44.01393],[142.43275,44.01422],[142.42502,44.01531],[142.4242,44.01554],[142.42363,44.0158],[142.42229,44.01703],[142.42147,44.01795],[142.41578,44.02661]],[[142.46738,43.85383],[142.47121,43.87383]],[[142.46541,44.35057],[142.46547,44.35385],[142.46571,44.35516],[142.46608,44.35596],[142.46649,44.35649],[142.47283,44.36263],[142.47536,44.36544],[142.47594,44.36635],[142.47609,44.36723],[142.47585,44.36814],[142.47559,44.36858],[142.46735,44.3816]],[[142.37603,43.76437],[142.37565,43.76372]],[[142.1982,44.73857],[142.20193,44.73525],[142.20339,44.73438],[142.20408,44.73413],[142.20484,44.73397],[142.21229,44.7332],[142.21448,44.73277],[142.21566,44.73224],[142.21624,44.73189],[142.21697,44.7313],[142.21859,44.7296],[142.22149,44.72764],[142.22278,44.72707],[142.22515,44.72635],[142.22628,44.72637],[142.22946,44.72726],[142.22998,44.7273],[142.23386,44.72715],[142.235,44.72691],[142.24064,44.72485],[142.24171,44.72471],[142.24318,44.72496],[142.24373,44.72517],[142.24445,44.72559],[142.24488,44.72599],[142.24537,44.72666],[142.24553,44.72703],[142.24636,44.73018],[142.24675,44.731],[142.24724,44.73164],[142.248,44.73228],[142.24874,44.73273],[142.24938,44.733],[142.25048,44.73323],[142.25201,44.73324],[142.25282,44.73309],[142.25373,44.73279],[142.25948,44.72965]],[[142.39636,44.24004],[142.39636,44.24074]],[[142.45488,43.827],[142.46157,43.83119],[142.46213,43.83161],[142.46297,43.8325],[142.46352,43.83353],[142.46414,43.83573],[142.4647,43.83847],[142.46554,43.84326],[142.46563,43.84495],[142.46726,43.85314]],[[142.26739,44.69238],[142.26593,44.68967],[142.26581,44.68903],[142.26589,44.68806],[142.26681,44.68362],[142.26685,44.68296],[142.2667,44.68211],[142.26651,44.68171],[142.26117,44.67391],[142.26043,44.67255],[142.2597,44.67078],[142.25898,44.66827],[142.25881,44.66709],[142.25873,44.66542]],[[142.30941,44.59896],[142.30956,44.59804]],[[142.38841,44.17383],[142.3896,44.17776],[142.38974,44.17872],[142.38959,44.17972],[142.38774,44.18551],[142.3875,44.1867],[142.38745,44.18787],[142.38761,44.18856],[142.38793,44.18922],[142.38858,44.19013],[142.3942,44.19538],[142.39561,44.19688],[142.39606,44.19759],[142.3963,44.19825],[142.39648,44.19909],[142.39651,44.19989],[142.3965,44.20996]],[[142.36445,44.09594],[142.36477,44.09696]],[[142.47121,43.87383],[142.47147,43.8752]],[[142.39636,44.24074],[142.39638,44.26607]],[[142.38506,43.78075],[142.38445,43.77968]],[[142.38774,44.17153],[142.38814,44.17286]],[[142.46542,44.34801],[142.46541,44.35057]],[[142.42098,44.29175],[142.42227,44.29287]],[[142.27061,44.63934],[142.2725,44.6382],[142.27367,44.6371],[142.27592,44.63483],[142.28015,44.62968],[142.28084,44.62896],[142.28158,44.62838],[142.28308,44.62739],[142.30425,44.61475],[142.30516,44.61414],[142.30588,44.61342],[142.30702,44.61192],[142.3074,44.61109],[142.30763,44.61026],[142.30941,44.59896]],[[142.26773,44.69303],[142.26739,44.69238]],[[142.33601,44.51314],[142.3348,44.51575],[142.33469,44.51615],[142.33475,44.51686],[142.33501,44.51768],[142.33631,44.52065],[142.33872,44.52541],[142.33905,44.52653],[142.33906,44.5271],[142.3388,44.52821],[142.338,44.52984],[142.33769,44.53095],[142.33742,44.53144],[142.33694,44.53195],[142.33519,44.53306],[142.33467,44.53348],[142.33403,44.53413],[142.33369,44.53469],[142.33342,44.53551],[142.33335,44.53628],[142.33353,44.53849]],[[142.37801,44.13998],[142.38701,44.16909]],[[142.33353,44.53849],[142.33358,44.53916]],[[142.39638,44.26607],[142.39638,44.2668]],[[142.42837,44.44127],[142.42759,44.4417]],[[142.26028,44.72923],[142.26895,44.72445],[142.26987,44.7237],[142.27045,44.72295],[142.2708,44.72204],[142.27084,44.72152],[142.27071,44.72084],[142.27031,44.72011],[142.27019,44.71972],[142.27013,44.71901],[142.27026,44.71811],[142.27079,44.7165],[142.27253,44.7123],[142.27337,44.70974],[142.27364,44.70827],[142.27368,44.70718],[142.27327,44.70471],[142.27276,44.70264],[142.27223,44.70124],[142.26773,44.69303]],[[142.25948,44.72965],[142.26028,44.72923]],[[142.45415,43.82655],[142.43535,43.81479]],[[142.42227,44.29287],[142.43466,44.30363],[142.43657,44.30512],[142.44284,44.30792],[142.46274,44.31653]],[[142.38844,44.06838],[142.38803,44.06901]],[[142.47656,43.90145],[142.47669,43.90211]],[[142.37781,44.13931],[142.37801,44.13998]],[[141.93612,44.91151],[141.93508,44.91156]],[[142.07548,44.81229],[142.07922,44.82311],[142.08004,44.82561],[142.08039,44.82714],[142.08012,44.82886],[142.07851,44.83573],[142.07853,44.83621],[142.07933,44.84019],[142.07938,44.8408],[142.07914,44.84147],[142.07885,44.84196],[142.07638,44.8449],[142.07561,44.84618],[142.07554,44.847],[142.07566,44.85349],[142.07555,44.85417],[142.07514,44.85523],[142.07477,44.85588],[142.0734,44.85765],[142.07264,44.85838],[142.07176,44.85904],[142.06933,44.86061],[142.06847,44.86186],[142.06772,44.86255],[142.06466,44.86482],[142.05933,44.86747],[142.05818,44.86837],[142.05751,44.86906],[142.05654,44.87032],[142.05434,44.87402],[142.05398,44.87495],[142.05369,44.87631],[142.05224,44.88012]],[[142.0488,44.74439],[142.04952,44.74542],[142.05099,44.74692],[142.0519,44.74766],[142.05398,44.74914],[142.05447,44.74955],[142.05481,44.74997],[142.05518,44.75066],[142.05535,44.75126],[142.05583,44.755],[142.05617,44.75621],[142.05659,44.75688],[142.05794,44.75825],[142.06051,44.76157],[142.06166,44.7624],[142.06319,44.76327],[142.0698,44.76685],[142.07028,44.76721],[142.07082,44.76778],[142.07133,44.76853],[142.07164,44.76916],[142.07182,44.76981],[142.0722,44.77596],[142.07251,44.77862],[142.07252,44.77952],[142.07239,44.78077],[142.07145,44.78608],[142.07173,44.78776],[142.07227,44.79012],[142.07235,44.79103],[142.0724,44.79625],[142.07362,44.80691],[142.07523,44.81161]],[[141.75842,45.03694],[141.76066,45.03405],[141.76179,45.03298],[141.76347,45.0318],[141.77348,45.02534],[141.77438,45.02484],[141.7758,45.02436],[141.77749,45.02415],[141.78185,45.02435],[141.78341,45.02432],[141.78455,45.02418],[141.79311,45.02268],[141.80333,45.01987],[141.8053,45.01962],[141.83008,45.01901],[141.8351,45.01881],[141.83652,45.01855],[141.83745,45.01825],[141.84557,45.01457]],[[142.00137,44.92078],[142.00231,44.92067],[142.00826,44.91931],[142.01218,44.91909],[142.0135,44.91878],[142.01552,44.91792],[142.01863,44.91632],[142.02521,44.91254]],[[141.7727,45.10398],[141.77204,45.10486]],[[141.88465,44.96546],[141.88328,44.96758],[141.88303,44.96829],[141.88312,44.96915],[141.88343,44.96992],[141.88427,44.97089],[141.88472,44.97123],[141.88634,44.97218],[141.88726,44.97291],[141.88778,44.97379],[141.88787,44.9743],[141.88784,44.97482],[141.88756,44.97547],[141.88721,44.97592],[141.88674,44.97632],[141.88606,44.97672],[141.88309,44.97798],[141.87889,44.97891],[141.87802,44.97934],[141.87721,44.9801],[141.87693,44.98066],[141.87682,44.98115],[141.87684,44.98167],[141.87706,44.98222],[141.87766,44.98295],[141.88073,44.98547]],[[141.64469,45.31705],[141.6447,45.31635]],[[142.1975,44.7392],[142.19307,44.74316],[142.1922,44.74375],[142.19115,44.74423],[142.18962,44.74457],[142.18849,44.74466],[142.18763,44.74464],[142.18597,44.74445],[142.18462,44.74402],[142.1832,44.74304],[142.18231,44.74185],[142.1808,44.74061],[142.17959,44.73892],[142.17892,44.73748],[142.17764,44.73314],[142.17702,44.73159],[142.17424,44.72669],[142.17373,44.72617],[142.17289,44.72568],[142.17185,44.72539],[142.17087,44.72532],[142.17014,44.72537],[142.16937,44.72555],[142.16839,44.72594],[142.16764,44.7265],[142.16613,44.72863],[142.16569,44.73003],[142.16536,44.73069],[142.16495,44.73119],[142.16443,44.73165],[142.16314,44.73227],[142.16165,44.73265],[142.16055,44.73308],[142.15881,44.73456],[142.15752,44.73523],[142.15659,44.73558],[142.15563,44.73581],[142.15181,44.7361],[142.14886,44.73696],[142.14827,44.73706],[142.14719,44.7371],[142.14387,44.7369],[142.14145,44.73686],[142.13993,44.73702],[142.13903,44.73739],[142.1386,44.7377],[142.13823,44.7381],[142.13803,44.73846],[142.13794,44.7389],[142.13797,44.73992],[142.13849,44.7425],[142.13857,44.74444],[142.13844,44.74525],[142.13813,44.74626],[142.13758,44.74726],[142.13471,44.75053],[142.13361,44.7512],[142.13274,44.75159],[142.13164,44.7519],[142.1294,44.75214],[142.12809,44.75273],[142.12675,44.75304],[142.12473,44.75308],[142.12079,44.75244],[142.11809,44.75146],[142.11667,44.75081],[142.11609,44.75039],[142.11554,44.74982],[142.11499,44.74882],[142.11466,44.74747],[142.11298,44.74512],[142.11272,44.74446],[142.11263,44.7439],[142.1127,44.74219],[142.11286,44.74163],[142.11348,44.74031],[142.11365,44.73966],[142.11366,44.73612],[142.11352,44.73496],[142.11319,44.73428],[142.11284,44.7338],[142.11196,44.73294],[142.11115,44.73239],[142.11002,44.73193],[142.10873,44.73181],[142.10729,44.73187],[142.10407,44.73252],[142.10203,44.73274],[142.10041,44.7327],[142.09635,44.73232],[142.09438,44.7323],[142.08394,44.73369],[142.08234,44.73364],[142.07913,44.73313],[142.0776,44.73301],[142.06453,44.73324],[142.06292,44.73359],[142.06162,44.73414],[142.06034,44.73456],[142.0593,44.73466],[142.05694,44.73467],[142.05621,44.73479],[142.05537,44.73504],[142.04973,44.73746],[142.04846,44.73835],[142.04792,44.73905],[142.04779,44.73934]],[[142.04779,44.73934],[142.04762,44.74018],[142.04769,44.74109],[142.0479,44.74218],[142.04846,44.74375]],[[141.8945,44.94934],[141.89397,44.94989]],[[141.84557,45.01457],[141.8464,45.01423]],[[141.88135,44.98596],[141.88414,44.98815],[141.88462,44.98879],[141.88487,44.98964],[141.88482,44.99015],[141.88454,44.99081],[141.88399,44.99143],[141.88346,44.99181],[141.8827,44.99217],[141.87869,44.99349],[141.87735,44.99411],[141.87211,44.9979],[141.87046,44.99888],[141.86651,45.00007],[141.8656,45.00038],[141.86516,45.00061],[141.86322,45.00225],[141.85793,45.00755],[141.85556,45.00975],[141.85393,45.0108],[141.8464,45.01423]],[[142.04846,44.74375],[142.0488,44.74439]],[[141.75799,45.03752],[141.75842,45.03694]],[[141.6447,45.31635],[141.64477,45.31272],[141.645,45.31179],[141.64607,45.30982],[141.65309,45.29827],[141.65358,45.29762],[141.65441,45.2969],[141.65523,45.29653],[141.65634,45.29618],[141.65727,45.29604],[141.66115,45.29596],[141.6633,45.2963],[141.66503,45.29632],[141.66942,45.29619],[141.67118,45.29582],[141.67224,45.2953],[141.67324,45.29452],[141.67368,45.29384],[141.67439,45.29235],[141.67508,45.29166],[141.67581,45.29119],[141.67729,45.29053],[141.67824,45.28959],[141.6785,45.28878],[141.67877,45.28706],[141.67867,45.28644],[141.6784,45.2858],[141.67791,45.28518],[141.6759,45.28368],[141.67515,45.28276],[141.67491,45.28195],[141.67435,45.27915],[141.6743,45.27854],[141.67437,45.27802],[141.67462,45.27745],[141.67506,45.27691],[141.67706,45.27568],[141.67755,45.27523],[141.67796,45.27464],[141.67809,45.2742],[141.67912,45.26657],[141.67947,45.26554],[141.67993,45.26483],[141.6849,45.25951]],[[141.89397,44.94989],[141.89226,44.95171],[141.89179,44.95247],[141.88929,44.95878],[141.88868,44.96009],[141.88802,44.96112],[141.8851,44.9649]],[[141.75116,45.14552],[141.75096,45.14617]],[[141.67733,45.41688],[141.67728,45.4158]],[[142.02521,44.91254],[142.02596,44.9121]],[[141.93508,44.91156],[141.92478,44.91202],[141.92373,44.91227],[141.92267,44.91268],[141.92195,44.91306],[141.92114,44.91367],[141.9206,44.91427],[141.92014,44.91497],[141.9192,44.91741],[141.91895,44.91789],[141.91789,44.91923],[141.91715,44.91969],[141.91393,44.92106],[141.91298,44.9218],[141.91258,44.92238],[141.91223,44.92319],[141.91215,44.92384],[141.91222,44.9244],[141.91305,44.92647],[141.91308,44.92741],[141.91294,44.92804],[141.90967,44.93464],[141.9086,44.93664],[141.90775,44.93739],[141.90482,44.93899],[141.90443,44.93929],[141.90364,44.94001],[141.8945,44.94934]],[[141.68253,45.3981],[141.68335,45.39775]],[[141.68335,45.39775],[141.68994,45.39479],[141.691,45.39402],[141.69134,45.3936],[141.69168,45.39298],[141.69183,45.39219],[141.69173,45.39134],[141.69147,45.39068],[141.69085,45.38957],[141.69065,45.38898],[141.69062,45.38865],[141.69079,45.38744],[141.69184,45.38545],[141.69206,45.38447],[141.69203,45.38374],[141.6919,45.38308],[141.69108,45.38082],[141.6906,45.37992],[141.69002,45.37937],[141.68934,45.37896],[141.68861,45.37871],[141.68549,45.37801],[141.68456,45.37754],[141.68421,45.37725],[141.68369,45.37651],[141.68316,45.37448],[141.68285,45.37398],[141.68201,45.37323],[141.68078,45.37271],[141.67698,45.37154],[141.67617,45.37116],[141.67544,45.37059],[141.67502,45.37006],[141.67482,45.36927],[141.67486,45.3687],[141.67522,45.36753],[141.67522,45.367],[141.67513,45.36662],[141.67484,45.36607],[141.67421,45.36545],[141.66936,45.36274],[141.66824,45.36229],[141.66588,45.36186],[141.66482,45.36154],[141.66411,45.36114],[141.66355,45.36059],[141.66325,45.35997],[141.66309,45.35937],[141.66305,45.35885],[141.66315,45.35828],[141.66362,45.35747],[141.66449,45.35667],[141.66498,45.35607],[141.66524,45.35548],[141.66526,45.35501],[141.66517,45.3545],[141.66497,45.35403],[141.66339,45.35198],[141.66303,45.35129],[141.66279,45.3503],[141.66287,45.34969],[141.66308,45.34906],[141.66334,45.3486],[141.6639,45.34799],[141.66502,45.34725],[141.66687,45.34641],[141.66738,45.34604],[141.668,45.34529],[141.66819,45.34461],[141.66819,45.34403],[141.66786,45.34318],[141.66741,45.34238],[141.66725,45.34169],[141.6673,45.34117],[141.66797,45.33947],[141.66805,45.33903],[141.66801,45.33844],[141.66776,45.33766],[141.66739,45.33707],[141.66697,45.33662],[141.65489,45.32784],[141.64727,45.32243],[141.64553,45.32107],[141.64496,45.32029],[141.64473,45.3197],[141.64465,45.31924],[141.64469,45.31705]],[[141.68544,45.25895],[141.68617,45.25801],[141.68646,45.25691],[141.68664,45.25449],[141.68715,45.25319],[141.68721,45.25279],[141.68717,45.25221],[141.68694,45.25126],[141.68574,45.24792],[141.68542,45.2474],[141.68501,45.24696],[141.68404,45.24639],[141.68286,45.24598],[141.68121,45.24573],[141.68058,45.24556],[141.67969,45.24516],[141.67909,45.24469],[141.67751,45.24318],[141.67481,45.24149],[141.67416,45.24099],[141.67366,45.24034],[141.67331,45.23973],[141.67265,45.23711],[141.67262,45.2365],[141.67271,45.23601],[141.673,45.23537],[141.67349,45.2347],[141.67451,45.23392],[141.68869,45.2255],[141.6892,45.22508],[141.69144,45.22241],[141.69201,45.22191],[141.69316,45.22147],[141.69703,45.22043]],[[142.0006,44.9208],[141.99934,44.92063],[141.99812,44.92023],[141.99294,44.91758],[141.99234,44.91729],[141.99154,44.91704],[141.99101,44.91694],[141.98988,44.91692],[141.98768,44.91734],[141.98636,44.91739],[141.9854,44.91729],[141.98392,44.91686],[141.98189,44.91602],[141.9805,44.91529],[141.97933,44.91452],[141.97622,44.91309],[141.97342,44.91156],[141.97244,44.91124],[141.97105,44.91095],[141.97012,44.91066],[141.96377,44.90818],[141.96301,44.90794],[141.96226,44.90781],[141.96141,44.90774],[141.96033,44.90778],[141.95958,44.90789],[141.95804,44.90829],[141.95613,44.90936],[141.95374,44.9109],[141.9517,44.91202],[141.95024,44.91259],[141.94832,44.91297],[141.9467,44.913],[141.94538,44.91282],[141.94424,44.9125],[141.94225,44.91169],[141.94071,44.91141],[141.93612,44.91151]],[[141.69703,45.22043],[141.69791,45.22019]],[[141.88073,44.98547],[141.88135,44.98596]],[[141.67728,45.4158],[141.67664,45.41082],[141.67635,45.41005],[141.6754,45.40861],[141.67503,45.40765],[141.67497,45.40568],[141.67522,45.40466],[141.6756,45.40387],[141.67632,45.40296],[141.67831,45.40086],[141.67923,45.4],[141.68052,45.39906],[141.68253,45.3981]],[[142.05201,44.88077],[142.05224,44.88012]],[[142.07523,44.81161],[142.07548,44.81229]],[[141.75096,45.14617],[141.74462,45.16851],[141.73844,45.18959],[141.73494,45.20215],[141.73469,45.2028],[141.73419,45.20362],[141.73362,45.20432],[141.73232,45.20507],[141.7222,45.20993],[141.7041,45.2183],[141.7025,45.21896],[141.69791,45.22019]],[[141.8851,44.9649],[141.88465,44.96546]],[[142.00137,44.92078],[142.0006,44.9208]],[[141.77204,45.10486],[141.76524,45.11415],[141.76349,45.11843],[141.76304,45.11932],[141.76234,45.12017],[141.75924,45.12278],[141.75886,45.1232],[141.75819,45.12426],[141.75636,45.12756],[141.75592,45.12867],[141.75116,45.14552]],[[142.02596,44.9121],[142.02869,44.91054],[142.02912,44.91026],[142.02969,44.90973],[142.03018,44.9091],[142.03041,44.90848],[142.03054,44.90767],[142.03047,44.90698],[142.03009,44.90614],[142.02794,44.90318],[142.02709,44.90132],[142.02658,44.90052],[142.02291,44.89668],[142.0226,44.89626],[142.02236,44.89557],[142.02238,44.89495],[142.02274,44.89416],[142.02302,44.89376],[142.02352,44.89328],[142.02397,44.89301],[142.02453,44.8928],[142.0254,44.89263],[142.02682,44.89261],[142.03026,44.89322],[142.03198,44.8933],[142.03623,44.89263],[142.03753,44.89233],[142.03903,44.89186],[142.04019,44.89126],[142.04571,44.88783],[142.04867,44.88597],[142.04956,44.88528],[142.0504,44.88435],[142.0509,44.88355],[142.05201,44.88077]],[[141.75799,45.03752],[141.75236,45.04503],[141.75201,45.04563],[141.75123,45.04772],[141.74792,45.05768],[141.74733,45.0599],[141.74688,45.06864],[141.74661,45.07006],[141.74514,45.07525],[141.74487,45.0768],[141.74497,45.07776],[141.74511,45.07816],[141.74549,45.07878],[141.74616,45.07943],[141.74682,45.07987],[141.748,45.08038],[141.75207,45.08134],[141.75361,45.08199],[141.75457,45.08257],[141.75543,45.08333],[141.756,45.08403],[141.75729,45.08618],[141.75765,45.08662],[141.75872,45.08759],[141.77399,45.09764],[141.77452,45.09828],[141.77493,45.09899],[141.77509,45.09983],[141.77501,45.10041],[141.77468,45.1013],[141.7727,45.10398]],[[141.6849,45.25951],[141.68544,45.25895]]]}}