{"type":"Feature","properties":{"id":"北海道旅客鉄道_釧網線","name":"釧網線","operator":"北海道旅客鉄道","railType":"普通鉄道(JR)","operatorType":"JR在来線","category":"rail","attribution":"国土数値情報（鉄道データ）国土交通省"},"geometry":{"type":"MultiLineString","coordinates":[[[144.41231,42.99501],[144.41524,42.99469]],[[144.50575,43.71802],[144.50527,43.71855]],[[144.54573,43.23904],[144.54746,43.24161],[144.54812,43.2422],[144.55994,43.25079],[144.56504,43.2548],[144.56821,43.25763],[144.57063,43.25912],[144.57175,43.2599],[144.59316,43.2763],[144.59421,43.27741],[144.60483,43.2906],[144.60544,43.2916],[144.60826,43.29802]],[[144.51495,43.4283],[144.51442,43.42909]],[[144.60862,43.29883],[144.60826,43.29802]],[[144.49734,43.15185],[144.49886,43.15251],[144.49936,43.15284],[144.49966,43.15315],[144.50048,43.15438],[144.50074,43.15506],[144.50079,43.15564],[144.50064,43.15611],[144.49764,43.16056],[144.4969,43.16151],[144.49576,43.16272],[144.49486,43.16335],[144.49349,43.16388],[144.49261,43.164],[144.49159,43.16398],[144.4891,43.1636],[144.48803,43.16355],[144.48658,43.16392],[144.48594,43.16424],[144.4855,43.16458],[144.48505,43.1651],[144.48471,43.16581],[144.48445,43.17032],[144.48449,43.17196],[144.4847,43.17326],[144.48564,43.17654],[144.48593,43.17735],[144.48619,43.17782],[144.49238,43.18535],[144.49302,43.18597],[144.49539,43.18785],[144.49584,43.18833],[144.49838,43.19196],[144.49884,43.19293],[144.49945,43.19472],[144.49967,43.19511],[144.5021,43.19833],[144.50365,43.20182]],[[144.5039,43.20243],[144.50495,43.20483],[144.5052,43.20518],[144.50618,43.20599],[144.50695,43.20632],[144.50902,43.20701],[144.50993,43.20766],[144.51037,43.20814],[144.51175,43.21002],[144.51365,43.21112],[144.51426,43.21158],[144.51471,43.21204],[144.51518,43.21279],[144.51617,43.21479],[144.51663,43.2153],[144.5217,43.21851],[144.52702,43.22246],[144.52799,43.22294],[144.53006,43.22378],[144.5309,43.2243],[144.53185,43.22518],[144.5367,43.23066],[144.53825,43.23229],[144.53946,43.23322],[144.54248,43.23476],[144.54316,43.2353],[144.54385,43.23613],[144.54536,43.23847]],[[144.46991,43.10531],[144.46935,43.10471]],[[144.44779,43.10017],[144.44757,43.09735],[144.44733,43.09646],[144.44559,43.0916],[144.44484,43.09049],[144.44366,43.08952],[144.44206,43.08869],[144.43613,43.08588],[144.43318,43.08489],[144.43236,43.08456],[144.43169,43.08417],[144.4312,43.08374],[144.43081,43.08318],[144.43065,43.08241],[144.43074,43.08178],[144.43123,43.07987],[144.43184,43.07847],[144.43826,43.06991],[144.43865,43.06951],[144.43951,43.0689],[144.44442,43.06615],[144.44551,43.0654],[144.45771,43.0529],[144.45825,43.05209],[144.45845,43.05159],[144.45853,43.05108],[144.45829,43.04784]],[[144.51442,43.42909],[144.51208,43.43256],[144.50434,43.44131],[144.504,43.44197],[144.5037,43.44284],[144.49976,43.4552],[144.49927,43.45611],[144.49881,43.45649],[144.49742,43.45735],[144.48602,43.46367],[144.48544,43.46405],[144.48271,43.4663],[144.48173,43.46696],[144.4811,43.46731],[144.47728,43.46899],[144.47646,43.46949],[144.47603,43.46995],[144.47577,43.47043],[144.4748,43.47651],[144.47397,43.48239],[144.4736,43.48371],[144.47314,43.4843],[144.47272,43.48468],[144.47204,43.48512],[144.47139,43.48542],[144.47002,43.48584],[144.46518,43.48702]],[[144.59378,43.83838],[144.5926,43.83698],[144.59139,43.83601],[144.53803,43.79747],[144.5368,43.79625],[144.53597,43.79519],[144.53538,43.79428],[144.53178,43.78687]],[[144.66092,43.911],[144.66236,43.91065]],[[144.55488,43.379],[144.55347,43.38006]],[[144.63397,43.86733],[144.63143,43.86669],[144.59944,43.85474],[144.59655,43.85363],[144.59571,43.85315],[144.59516,43.8527],[144.59482,43.85225],[144.59458,43.85178],[144.59439,43.85105],[144.5944,43.8498],[144.59508,43.84294],[144.59509,43.84222],[144.59501,43.84138],[144.59474,43.84028],[144.5942,43.839]],[[144.35288,43.95838],[144.35204,43.95869]],[[144.46935,43.10471],[144.46617,43.10121],[144.46517,43.10056],[144.46378,43.1001],[144.46215,43.10007],[144.46107,43.1003],[144.45613,43.10236],[144.45337,43.10378],[144.45241,43.10406],[144.45175,43.10411],[144.45091,43.10408],[144.45018,43.10391],[144.44947,43.10362],[144.44864,43.10303],[144.4483,43.10267],[144.44797,43.10204],[144.44783,43.10076]],[[144.55347,43.38006],[144.54202,43.38873],[144.54112,43.38953],[144.54082,43.39008],[144.5403,43.39142],[144.53696,43.40123],[144.53657,43.40192],[144.52476,43.41788],[144.52336,43.41942],[144.51718,43.4251],[144.51673,43.42564],[144.51495,43.4283]],[[144.52069,43.92136],[144.52616,43.92043],[144.53824,43.92018],[144.53959,43.91988],[144.54165,43.91923],[144.55077,43.91816],[144.55233,43.91827],[144.55381,43.91881],[144.55577,43.91938],[144.55768,43.91961],[144.5592,43.91968],[144.62099,43.91568],[144.6369,43.91604],[144.64003,43.91528],[144.64319,43.91517],[144.64471,43.91501],[144.64569,43.91482],[144.66092,43.911]],[[144.63483,43.86757],[144.63397,43.86733]],[[144.44783,43.10076],[144.44779,43.10017]],[[144.5194,43.92158],[144.51125,43.92308],[144.5055,43.92476],[144.50425,43.92506],[144.50041,43.92521],[144.49942,43.92537],[144.49839,43.92565],[144.49496,43.92684],[144.49143,43.92756],[144.48949,43.92762],[144.48868,43.92748],[144.48725,43.92708],[144.48543,43.92693],[144.48474,43.92694],[144.47916,43.92761],[144.47332,43.92933],[144.46474,43.93041],[144.4637,43.93062],[144.4628,43.93085],[144.4542,43.93387],[144.45358,43.93398]],[[144.50527,43.71855],[144.50373,43.72031],[144.50352,43.72082],[144.50338,43.72153],[144.50499,43.74456],[144.50503,43.74501],[144.50519,43.74554],[144.50557,43.74623],[144.50607,43.74685],[144.5082,43.74885],[144.50893,43.74996],[144.50936,43.75094],[144.50954,43.7512],[144.51007,43.75168],[144.51094,43.75223],[144.51296,43.75315],[144.5161,43.75438],[144.5169,43.75493],[144.51749,43.75558],[144.51794,43.75664],[144.52194,43.7694],[144.52926,43.7816],[144.53146,43.78618]],[[144.31961,43.96855],[144.31785,43.96934],[144.31676,43.96997],[144.31375,43.97261],[144.31249,43.97349],[144.30821,43.97581],[144.30007,43.97965],[144.29833,43.98086],[144.29732,43.98166],[144.29675,43.98223]],[[144.45829,43.04784],[144.45823,43.04718]],[[144.55488,43.379],[144.56847,43.36879],[144.5735,43.36492],[144.60087,43.33719],[144.606,43.33188],[144.60643,43.33127],[144.61156,43.3232],[144.61219,43.322],[144.61264,43.32033],[144.61378,43.31144],[144.61372,43.31073],[144.6136,43.3103],[144.60862,43.29883]],[[144.41481,43.94093],[144.41397,43.94111]],[[144.4623,43.48772],[144.46518,43.48702]],[[144.49623,43.1516],[144.49454,43.15147],[144.49388,43.15152],[144.49114,43.15207],[144.48954,43.15198],[144.48655,43.15158],[144.48504,43.15122],[144.48411,43.15073],[144.48337,43.14996],[144.48303,43.14906],[144.48289,43.14803],[144.48314,43.14653],[144.48345,43.14563],[144.48372,43.14522],[144.48522,43.14388],[144.48567,43.14324],[144.48598,43.14193],[144.48606,43.13961],[144.48597,43.13921],[144.48577,43.13888],[144.48421,43.13702],[144.48105,43.13172],[144.48093,43.13132],[144.48092,43.13092],[144.48123,43.12954],[144.48126,43.12885],[144.48118,43.12831],[144.48097,43.12775],[144.48038,43.1271],[144.47871,43.12582],[144.47772,43.12494],[144.47665,43.12375],[144.47478,43.12134],[144.47389,43.1205],[144.47288,43.12009],[144.46866,43.1195],[144.46704,43.11914],[144.46649,43.11885],[144.46589,43.11838],[144.46559,43.11802],[144.46529,43.11745],[144.46517,43.11689],[144.4652,43.1164],[144.46537,43.11591],[144.46567,43.11544],[144.47094,43.10966],[144.47152,43.10882],[144.47165,43.10835],[144.47165,43.10787],[144.47144,43.10713],[144.47121,43.10676],[144.46991,43.10531]],[[144.41044,42.99519],[144.41231,42.99501]],[[144.6587,43.87432],[144.65236,43.8721],[144.63483,43.86757]],[[144.49734,43.15185],[144.49623,43.1516]],[[144.45268,43.93408],[144.45071,43.93414],[144.44676,43.93405],[144.44483,43.93424],[144.44384,43.93453],[144.44169,43.93558],[144.43916,43.93629],[144.43736,43.93663],[144.43525,43.9368],[144.43036,43.93815],[144.41481,43.94093]],[[144.43761,43.55503],[144.43774,43.55569]],[[144.45826,43.61677],[144.45921,43.61783],[144.46039,43.61877],[144.4612,43.61931],[144.47246,43.62544],[144.47472,43.62675],[144.47513,43.6272],[144.47544,43.6277],[144.47564,43.62877],[144.47574,43.62994],[144.47612,43.63071],[144.47653,43.63115],[144.47802,43.63217],[144.48607,43.63703],[144.48724,43.63754],[144.49242,43.6393],[144.49337,43.63951],[144.4962,43.63953],[144.498,43.63978],[144.50669,43.64218],[144.50767,43.6427],[144.50844,43.64353],[144.50883,43.64448],[144.50928,43.65028],[144.50945,43.65098],[144.50975,43.65158],[144.51475,43.65728],[144.51533,43.65776],[144.51605,43.6582],[144.51868,43.65962],[144.51937,43.66027],[144.51977,43.66093],[144.52002,43.66182],[144.51998,43.66247],[144.5197,43.66332],[144.51935,43.66378],[144.5178,43.66486],[144.51569,43.66583],[144.51489,43.66633],[144.51403,43.66722],[144.51167,43.67025],[144.51149,43.67058],[144.51125,43.67144],[144.51128,43.67337],[144.51092,43.67456],[144.51102,43.67548],[144.51184,43.67743],[144.51206,43.67969],[144.51238,43.68024],[144.51346,43.68132],[144.51375,43.68192],[144.51383,43.6823],[144.51375,43.68331],[144.51337,43.68433],[144.51321,43.68518],[144.51318,43.68927],[144.5125,43.6954],[144.51278,43.69608],[144.51541,43.69988],[144.51587,43.70068],[144.51614,43.70158],[144.51614,43.70265],[144.51603,43.70321],[144.51543,43.70469],[144.51228,43.71042],[144.5111,43.71197],[144.50575,43.71802]],[[144.50365,43.20182],[144.5039,43.20243]],[[144.65949,43.87462],[144.6587,43.87432]],[[144.66236,43.91065],[144.66629,43.90957],[144.66734,43.90905],[144.66786,43.90856],[144.66824,43.90798],[144.66843,43.90744],[144.66844,43.90684],[144.66533,43.87896],[144.66519,43.8782],[144.66505,43.87784],[144.66465,43.87722],[144.66411,43.87666],[144.6637,43.87639],[144.66292,43.87598],[144.65949,43.87462]],[[144.45358,43.93398],[144.45268,43.93408]],[[144.25296,44.01973],[144.2554,44.0201]],[[144.54536,43.23847],[144.54573,43.23904]],[[144.273,44.01726],[144.27347,44.01668]],[[144.52069,43.92136],[144.5194,43.92158]],[[144.29632,43.98283],[144.29581,43.98371],[144.29462,43.98647],[144.29449,43.98741],[144.29464,43.98807],[144.29499,43.98883],[144.29541,43.98944],[144.29645,43.99066],[144.29675,43.99118],[144.29688,43.99193],[144.29676,43.99244],[144.29653,43.99285],[144.29612,43.99338],[144.29423,43.99507],[144.29249,43.99628],[144.29198,43.99679],[144.29165,43.9974],[144.29118,43.99897],[144.28919,44.00139],[144.28878,44.00173],[144.28704,44.00281],[144.28658,44.00326],[144.28609,44.00405],[144.28589,44.00542],[144.28573,44.00591],[144.28529,44.00647],[144.283,44.00818],[144.28124,44.00887],[144.28057,44.00935],[144.28017,44.00993],[144.27913,44.01193],[144.27866,44.01258],[144.27444,44.01525],[144.27347,44.01668]],[[144.35204,43.95869],[144.33963,43.96283],[144.33502,43.96458],[144.33272,43.96513],[144.32468,43.96668],[144.32041,43.96824]],[[144.29675,43.98223],[144.29632,43.98283]],[[144.2554,44.0201],[144.25836,44.02047],[144.25998,44.02035],[144.26093,44.02002],[144.26318,44.01875],[144.26432,44.01837],[144.26578,44.01822],[144.27059,44.01836],[144.27118,44.01826],[144.27193,44.01801],[144.27245,44.01771],[144.273,44.01726]],[[144.45826,43.61677],[144.45784,43.61618]],[[144.41397,43.94111],[144.39448,43.94597],[144.37101,43.95267],[144.36951,43.95302],[144.3641,43.95393],[144.36309,43.95428],[144.35703,43.95699],[144.35288,43.95838]],[[144.5942,43.839],[144.59378,43.83838]],[[144.32041,43.96824],[144.31961,43.96855]],[[144.43761,43.55503],[144.43578,43.54636],[144.43534,43.54549],[144.43429,43.54412],[144.43405,43.54335],[144.43318,43.53854],[144.433,43.53409],[144.43312,43.53292],[144.43332,43.53214],[144.43554,43.52703],[144.43591,43.52582],[144.43603,43.52443],[144.43667,43.50888],[144.43675,43.50824],[144.43703,43.50733],[144.4376,43.5062],[144.4382,43.50542],[144.44973,43.49277],[144.45133,43.49121],[144.45199,43.49072],[144.45282,43.49028],[144.45463,43.48955],[144.4623,43.48772]],[[144.53178,43.78687],[144.53146,43.78618]],[[144.45823,43.04718],[144.45755,43.03767],[144.45733,43.03699],[144.45653,43.03568],[144.45602,43.03515],[144.45428,43.03366],[144.44871,43.0291],[144.44789,43.02834],[144.44435,43.02423],[144.44147,43.02128],[144.43362,43.01271],[144.42847,43.00631],[144.41951,42.99677],[144.41857,42.9959],[144.41746,42.99517],[144.41611,42.9948],[144.41524,42.99469]],[[144.45784,43.61618],[144.45743,43.61547],[144.45706,43.61458],[144.45676,43.61349],[144.45668,43.61229],[144.45673,43.61151],[144.45775,43.60673],[144.45779,43.60562],[144.45455,43.58851],[144.45388,43.58463],[144.45355,43.5839],[144.45284,43.58279],[144.45174,43.58131],[144.45113,43.58014],[144.44989,43.5763],[144.44967,43.57584],[144.44892,43.5749],[144.44797,43.57427],[144.44732,43.57357],[144.44674,43.5716],[144.44631,43.57084],[144.44564,43.5702],[144.4416,43.5671],[144.44092,43.56645],[144.44013,43.56533],[144.43951,43.56397],[144.43924,43.56302],[144.43774,43.55569]]]}}