{"type":"Feature","properties":{"id":"北総鉄道_北総線","name":"北総線","operator":"北総鉄道","railType":"普通鉄道","operatorType":"第三セクター","category":"rail","attribution":"国土数値情報（鉄道データ）国土交通省"},"geometry":{"type":"MultiLineString","coordinates":[[[140.20304,35.78772],[140.20248,35.78791]],[[140.05288,35.78472],[140.05507,35.78477]],[[140.07687,35.78713],[140.08149,35.78746],[140.08791,35.78833],[140.09099,35.78893],[140.09317,35.78955],[140.09626,35.79079],[140.09736,35.79137],[140.09863,35.79208],[140.10434,35.79575],[140.10715,35.79729],[140.10977,35.79826],[140.11538,35.79994]],[[139.9743,35.77518],[139.97251,35.77512]],[[139.99932,35.77989],[140.00689,35.78163],[140.01333,35.78356],[140.0153,35.78403],[140.01957,35.78426],[140.0309,35.78442]],[[140.07517,35.78694],[140.07687,35.78713]],[[140.05507,35.78477],[140.05776,35.78491],[140.06302,35.78542],[140.07262,35.78653],[140.07517,35.78694]],[[140.16647,35.80378],[140.15972,35.80517],[140.15564,35.80559],[140.15294,35.80574],[140.1476,35.80585],[140.14335,35.80573],[140.13582,35.80479],[140.12628,35.80319],[140.12357,35.80252],[140.11702,35.80046]],[[139.97251,35.77512],[139.96459,35.77494],[139.96294,35.77499],[139.95965,35.77534],[139.95844,35.77538]],[[140.17323,35.80153],[140.17702,35.79926],[140.17884,35.79842]],[[139.9743,35.77518],[139.98187,35.77545],[139.98491,35.77563],[139.98594,35.77579],[139.9893,35.7766],[139.9916,35.77729],[139.99531,35.7785],[139.99617,35.77894],[139.99739,35.77933]],[[140.03259,35.78446],[140.05288,35.78472]],[[140.16778,35.80348],[140.16979,35.80293],[140.17127,35.80241],[140.17323,35.80153]],[[140.16778,35.80348],[140.16647,35.80378]],[[140.11538,35.79994],[140.11702,35.80046]],[[139.99739,35.77933],[139.99932,35.77989]],[[140.17323,35.80153],[140.17446,35.80108],[140.17643,35.80007],[140.17722,35.7996],[140.17884,35.79842]],[[139.95844,35.77538],[139.95668,35.77529]],[[140.0309,35.78442],[140.03259,35.78446]],[[140.20248,35.78791],[140.19551,35.78995],[140.19269,35.79102],[140.18795,35.79328],[140.17884,35.79842]],[[139.87061,35.75078],[139.86945,35.75099],[139.86876,35.75098]],[[139.86746,35.75091],[139.86572,35.75083]],[[139.86876,35.75098],[139.86746,35.75091]],[[139.93222,35.76554],[139.93047,35.76531]],[[139.94228,35.76952],[139.94029,35.76833],[139.93771,35.767],[139.93444,35.76594],[139.93222,35.76554]],[[139.91513,35.76302],[139.91331,35.7627]],[[139.88053,35.75173],[139.87911,35.75097]],[[139.87911,35.75097],[139.87656,35.74952],[139.87555,35.7492],[139.87496,35.74916],[139.87433,35.74917],[139.87326,35.74937],[139.87281,35.74957],[139.87175,35.75027],[139.87061,35.75078]],[[139.91331,35.7627],[139.91115,35.76221],[139.90991,35.76173],[139.90291,35.75833],[139.90138,35.75775]],[[139.94376,35.77038],[139.94228,35.76952]],[[139.95668,35.77529],[139.9552,35.77493],[139.94741,35.77231],[139.94376,35.77038]],[[139.93047,35.76531],[139.91768,35.76346],[139.91513,35.76302]],[[139.90138,35.75775],[139.89973,35.75726]],[[139.89973,35.75726],[139.89726,35.75682],[139.89339,35.75654],[139.89047,35.75584],[139.88283,35.75284],[139.88053,35.75173]]]}}