{"type":"Feature","properties":{"id":"北陸鉄道_浅野川線","name":"浅野川線","operator":"北陸鉄道","railType":"普通鉄道","operatorType":"民営","category":"rail","attribution":"国土数値情報（鉄道データ）国土交通省"},"geometry":{"type":"MultiLineString","coordinates":[[[136.64842,36.59691],[136.64855,36.59621]],[[136.6518,36.58319],[136.65148,36.58382]],[[136.65025,36.57907],[136.65111,36.57932],[136.65131,36.57949],[136.65162,36.57995],[136.65219,36.58119],[136.65229,36.5818],[136.65223,36.58216],[136.6518,36.58319]],[[136.64734,36.60669],[136.64774,36.60606]],[[136.64774,36.60606],[136.6481,36.60539],[136.64839,36.6032]],[[136.64907,36.59144],[136.64909,36.59073]],[[136.64855,36.59621],[136.64903,36.59394],[136.64907,36.59144]],[[136.64839,36.6032],[136.64847,36.60257]],[[136.64952,36.57887],[136.65025,36.57907]],[[136.64847,36.60257],[136.64878,36.60048],[136.64882,36.59951],[136.64842,36.59691]],[[136.65148,36.58382],[136.64936,36.58889],[136.64909,36.59073]],[[136.64291,36.62488],[136.64158,36.62383],[136.64114,36.62321]],[[136.63873,36.63009],[136.64304,36.6272],[136.64323,36.62687],[136.64336,36.62635],[136.64337,36.62595],[136.64326,36.6255]],[[136.64546,36.61132],[136.64585,36.6104],[136.64608,36.60959],[136.64627,36.60844],[136.64734,36.60669]],[[136.64326,36.6255],[136.64291,36.62488]],[[136.64316,36.61655],[136.64397,36.61506],[136.6446,36.61317],[136.64521,36.61188]],[[136.64521,36.61188],[136.64546,36.61132]],[[136.64114,36.62321],[136.64106,36.62258]],[[136.6346,36.63315],[136.63577,36.63253],[136.63815,36.63055]],[[136.64279,36.61712],[136.64316,36.61655]],[[136.64106,36.62258],[136.64086,36.6201],[136.64126,36.61933],[136.64279,36.61712]],[[136.63815,36.63055],[136.63873,36.63009]],[[136.63373,36.63328],[136.6346,36.63315]]]}}