{"type":"Feature","properties":{"id":"千葉都市モノレール_2号線","name":"2号線","operator":"千葉都市モノレール","railType":"懸垂式モノレール(軌道)","operatorType":"第三セクター","category":"monorail","attribution":"国土数値情報（鉄道データ）国土交通省"},"geometry":{"type":"MultiLineString","coordinates":[[[140.11215,35.6398],[140.11338,35.64093],[140.11546,35.64213],[140.11609,35.64305]],[[140.13521,35.63849],[140.13457,35.63896]],[[140.12513,35.64277],[140.12467,35.64299],[140.12449,35.64316],[140.12341,35.64493],[140.12311,35.64525],[140.12264,35.64547],[140.1213,35.64575],[140.12075,35.6457],[140.11955,35.64522],[140.11782,35.64524],[140.11723,35.64505],[140.11698,35.64478],[140.1164,35.64363]],[[140.11162,35.63928],[140.11215,35.6398]],[[140.11609,35.64305],[140.1164,35.64363]],[[140.12587,35.6425],[140.12513,35.64277]],[[140.13457,35.63896],[140.13193,35.64085],[140.13137,35.6411],[140.13006,35.64144],[140.1282,35.64167],[140.12587,35.6425]],[[140.14908,35.63572],[140.14841,35.63527]],[[140.18164,35.62771],[140.17846,35.62875],[140.17675,35.62908],[140.17513,35.62888],[140.17376,35.62854],[140.17222,35.62798]],[[140.11551,35.62546],[140.11523,35.62611]],[[140.18884,35.62212],[140.18825,35.62259]],[[140.11766,35.61368],[140.11838,35.61418],[140.11857,35.61453],[140.11862,35.61481],[140.11837,35.61831],[140.1181,35.61937]],[[140.17222,35.62798],[140.17146,35.62765]],[[140.11523,35.62611],[140.11367,35.62889],[140.11331,35.6298],[140.11293,35.63113]],[[140.11275,35.63181],[140.11219,35.63387],[140.11195,35.63446],[140.11088,35.63578],[140.11035,35.63763],[140.11038,35.63798],[140.11051,35.63817],[140.11162,35.63928]],[[140.17146,35.62765],[140.16989,35.62698],[140.16911,35.62679],[140.16863,35.62676],[140.16479,35.62769],[140.16412,35.62813],[140.16339,35.62898],[140.16245,35.6305],[140.16135,35.63124]],[[140.16062,35.63156],[140.15023,35.6357],[140.14982,35.63582],[140.14908,35.63572]],[[140.14841,35.63527],[140.14567,35.63342],[140.14535,35.6333],[140.14482,35.63325],[140.14446,35.63335],[140.14325,35.63422],[140.14248,35.63467],[140.14097,35.63531],[140.13714,35.63719],[140.13521,35.63849]],[[140.11786,35.62005],[140.116,35.62411],[140.11551,35.62546]],[[140.16135,35.63124],[140.16062,35.63156]],[[140.1181,35.61937],[140.11786,35.62005]],[[140.18825,35.62259],[140.18297,35.62701],[140.18238,35.6274]],[[140.11293,35.63113],[140.11275,35.63181]],[[140.18238,35.6274],[140.18164,35.62771]],[[140.11365,35.6116],[140.11441,35.61258]],[[140.11441,35.61258],[140.11511,35.61286],[140.11651,35.61314],[140.11766,35.61368]]]}}