{"type":"Feature","properties":{"id":"千葉都市モノレール_1号線","name":"1号線","operator":"千葉都市モノレール","railType":"懸垂式モノレール(軌道)","operatorType":"第三セクター","category":"monorail","attribution":"国土数値情報（鉄道データ）国土交通省"},"geometry":{"type":"MultiLineString","coordinates":[[[140.12225,35.60357],[140.12205,35.60403]],[[140.11875,35.6127],[140.11923,35.61183],[140.11979,35.61118],[140.11993,35.61091],[140.12007,35.60918]],[[140.12008,35.60855],[140.12012,35.60799],[140.12023,35.60769],[140.12061,35.60723],[140.12092,35.607],[140.12112,35.60669],[140.12157,35.60498],[140.12205,35.60403]],[[140.11859,35.61323],[140.11875,35.6127]],[[140.12007,35.60918],[140.12008,35.60855]],[[140.11441,35.61258],[140.11511,35.61286],[140.11651,35.61314],[140.11766,35.61368]],[[140.11766,35.61368],[140.11804,35.61374],[140.1183,35.61368],[140.11846,35.61355],[140.11859,35.61323]],[[140.11365,35.6116],[140.11441,35.61258]],[[140.10224,35.60762],[140.10332,35.60657]],[[140.10816,35.60736],[140.10903,35.60798],[140.10964,35.60855],[140.11003,35.60904],[140.11067,35.61036],[140.11078,35.61046],[140.11275,35.61063],[140.11365,35.6116]],[[140.10718,35.6067],[140.10816,35.60736]],[[140.10332,35.60657],[140.10438,35.60555],[140.10457,35.60543],[140.10509,35.60537],[140.10537,35.60547],[140.10718,35.6067]]]}}