{"type":"Feature","properties":{"id":"南海電気鉄道_和歌山港線","name":"和歌山港線","operator":"南海電気鉄道","railType":"普通鉄道","operatorType":"民営","category":"rail","attribution":"国土数値情報（鉄道データ）国土交通省"},"geometry":{"type":"MultiLineString","coordinates":[[[135.16511,34.23587],[135.16566,34.23621]],[[135.1466,34.21761],[135.1469,34.21824],[135.14764,34.21905],[135.14844,34.21954],[135.15209,34.2214],[135.15799,34.22503],[135.15921,34.22645],[135.15981,34.22741],[135.16111,34.23039],[135.16265,34.23335],[135.1629,34.23402],[135.16319,34.23447],[135.16371,34.23494],[135.16511,34.23587]],[[135.14636,34.21695],[135.1466,34.21761]]]}}