{"type":"Feature","properties":{"id":"南海電気鉄道_多奈川線","name":"多奈川線","operator":"南海電気鉄道","railType":"普通鉄道","operatorType":"民営","category":"rail","attribution":"国土数値情報（鉄道データ）国土交通省"},"geometry":{"type":"MultiLineString","coordinates":[[[135.15622,34.31991],[135.15742,34.32145],[135.15789,34.32186],[135.16007,34.32338]],[[135.16195,34.32462],[135.16007,34.32338]],[[135.14864,34.31832],[135.14748,34.31822]],[[135.13765,34.3168],[135.14086,34.31736]],[[135.14168,34.3175],[135.14086,34.31736]],[[135.13765,34.3168],[135.13677,34.31668]],[[135.15622,34.31991],[135.15524,34.31918],[135.15438,34.31885],[135.14864,34.31832]],[[135.14748,34.31822],[135.14586,34.31808],[135.14168,34.3175]]]}}