{"type":"Feature","properties":{"id":"南海電気鉄道_高師浜線","name":"高師浜線","operator":"南海電気鉄道","railType":"普通鉄道","operatorType":"民営","category":"rail","attribution":"国土数値情報（鉄道データ）国土交通省"},"geometry":{"type":"MultiLineString","coordinates":[[[135.44206,34.5351],[135.44138,34.53352]],[[135.44138,34.53352],[135.44013,34.5306]],[[135.43225,34.52764],[135.43182,34.52703]],[[135.43645,34.5288],[135.43467,34.5291],[135.43381,34.52905],[135.43291,34.52855],[135.43225,34.52764]],[[135.44013,34.5306],[135.43927,34.5296],[135.4386,34.52908],[135.43787,34.52878],[135.43725,34.52867]],[[135.43725,34.52867],[135.43645,34.5288]]]}}