{"type":"Feature","properties":{"id":"南海電気鉄道_加太線","name":"加太線","operator":"南海電気鉄道","railType":"普通鉄道","operatorType":"民営","category":"rail","attribution":"国土数値情報（鉄道データ）国土交通省"},"geometry":{"type":"MultiLineString","coordinates":[[[135.16637,34.25473],[135.16543,34.25512]],[[135.09506,34.26039],[135.09418,34.2606]],[[135.12143,34.25272],[135.11859,34.2544],[135.11801,34.25455],[135.11119,34.25541]],[[135.12217,34.25237],[135.12143,34.25272]],[[135.11119,34.25541],[135.1104,34.25551]],[[135.1416,34.24773],[135.14449,34.24744],[135.14511,34.24752],[135.14582,34.24779],[135.14633,34.24805],[135.14984,34.25064],[135.15105,34.25133],[135.16227,34.25569],[135.16276,34.25574],[135.16354,34.25569],[135.16444,34.25549],[135.16543,34.25512]],[[135.10374,34.25764],[135.1027,34.25779],[135.10211,34.25798],[135.09888,34.25947],[135.09506,34.26039]],[[135.0811,34.27536],[135.08043,34.27527]],[[135.10458,34.25741],[135.10374,34.25764]],[[135.1104,34.25551],[135.10783,34.25598],[135.10458,34.25741]],[[135.14065,34.24782],[135.13577,34.2482],[135.13333,34.24861]],[[135.13333,34.24861],[135.13257,34.24885]],[[135.1416,34.24773],[135.14065,34.24782]],[[135.09418,34.2606],[135.09091,34.26145],[135.09002,34.26188],[135.08963,34.26226],[135.0894,34.26296],[135.0894,34.26374],[135.08961,34.26572],[135.08954,34.26647],[135.08936,34.26723],[135.08905,34.26786],[135.08847,34.26853],[135.08814,34.26873],[135.0877,34.26895],[135.08507,34.26983],[135.08482,34.27],[135.08463,34.27021],[135.08434,34.27085],[135.08416,34.27315],[135.08402,34.27365],[135.08368,34.27438],[135.08301,34.27512],[135.08259,34.27535],[135.08181,34.27548],[135.0811,34.27536]],[[135.13257,34.24885],[135.12658,34.25052],[135.12454,34.25131],[135.12217,34.25237]]]}}