{"type":"Feature","properties":{"id":"南海電気鉄道_高野線","name":"高野線","operator":"南海電気鉄道","railType":"普通鉄道","operatorType":"民営","category":"rail","attribution":"国土数値情報（鉄道データ）国土交通省"},"geometry":{"type":"MultiLineString","coordinates":[[[135.59982,34.36653],[135.59939,34.36762],[135.59934,34.36885]],[[135.60509,34.30763],[135.60438,34.30727]],[[135.60288,34.3547],[135.60371,34.3561]],[[135.61516,34.31842],[135.61437,34.31831]],[[135.6007,34.36515],[135.60412,34.36089],[135.60461,34.36007],[135.60478,34.35952],[135.60483,34.35853],[135.60459,34.35779],[135.60371,34.3561]],[[135.59934,34.36885],[135.60228,34.38515],[135.60208,34.3872]],[[135.6007,34.36515],[135.59982,34.36653]],[[135.60194,34.33714],[135.6022,34.33849]],[[135.60509,34.30763],[135.60881,34.30849],[135.61011,34.30891],[135.61385,34.31052],[135.61577,34.31152],[135.61679,34.31195],[135.62181,34.31335],[135.62252,34.31389],[135.62274,34.3142],[135.62299,34.31485],[135.62296,34.31549],[135.6223,34.31823],[135.62191,34.31879],[135.62143,34.31928],[135.6205,34.3199],[135.62007,34.32003],[135.61918,34.31993],[135.61684,34.31875],[135.61516,34.31842]],[[135.60194,34.33714],[135.60189,34.33663],[135.60199,34.33538],[135.60226,34.33436],[135.60337,34.33202],[135.60438,34.3296],[135.60591,34.32483],[135.60628,34.32401],[135.60766,34.32191],[135.60872,34.32007],[135.60966,34.31892],[135.61025,34.31846],[135.61107,34.31812],[135.61171,34.31803],[135.61241,34.31806],[135.61437,34.31831]],[[135.6022,34.33849],[135.60228,34.33944],[135.6018,34.34423],[135.60181,34.34503],[135.60211,34.34725],[135.60233,34.34795],[135.60301,34.3495],[135.60292,34.3508],[135.60239,34.35279],[135.60252,34.35383],[135.60288,34.3547]],[[135.57342,34.45183],[135.57289,34.45038]],[[135.50342,34.55692],[135.50514,34.55555]],[[135.50839,34.55312],[135.50514,34.55555]],[[135.55365,34.26659],[135.55285,34.26637]],[[135.49889,34.56037],[135.49777,34.5612]],[[135.58179,34.23464],[135.58125,34.23498],[135.58096,34.23529],[135.58052,34.23636],[135.58036,34.23651],[135.57838,34.23726],[135.57812,34.23745],[135.57752,34.23862],[135.57719,34.23893],[135.57646,34.23902],[135.57524,34.23874],[135.57476,34.2388],[135.57433,34.23999],[135.57395,34.24061],[135.57152,34.24264]],[[135.53441,34.53749],[135.52744,34.54166]],[[135.57071,34.24274],[135.56984,34.2424],[135.56948,34.24234],[135.56887,34.24243],[135.56754,34.24288],[135.5669,34.24284],[135.56669,34.24277],[135.56612,34.2422],[135.56431,34.24103],[135.56378,34.2405],[135.56354,34.23984],[135.56331,34.23946],[135.56227,34.23884],[135.56193,34.23852],[135.5619,34.23821],[135.56208,34.23741],[135.56209,34.23707],[135.56199,34.23689],[135.5616,34.23655],[135.56019,34.23581],[135.55967,34.23544],[135.5594,34.23501],[135.55908,34.23395],[135.55874,34.23358],[135.55852,34.23346],[135.55807,34.23344],[135.55739,34.23365],[135.55718,34.23379],[135.55702,34.23404],[135.55678,34.23482],[135.55655,34.23497],[135.55511,34.23528],[135.55409,34.23567]],[[135.55746,34.50391],[135.55708,34.50558]],[[135.57946,34.29649],[135.57866,34.2964],[135.57714,34.2957],[135.57659,34.29532],[135.57431,34.29347],[135.57311,34.29197],[135.57054,34.28946],[135.57014,34.28918],[135.56907,34.28875],[135.56841,34.28863],[135.56781,34.28857],[135.56605,34.28864],[135.56516,34.28836],[135.56477,34.28805]],[[135.59566,34.39678],[135.59545,34.39847]],[[135.48634,34.66088],[135.48647,34.66348],[135.48627,34.66722]],[[135.51253,34.55058],[135.50839,34.55312]],[[135.59566,34.39678],[135.59571,34.39631],[135.59593,34.39575],[135.5962,34.39528],[135.59665,34.39474],[135.59753,34.39402],[135.5994,34.39274],[135.60035,34.39189],[135.60104,34.39059],[135.60173,34.38859],[135.60197,34.38576],[135.59934,34.37087],[135.59926,34.37028],[135.59934,34.36885]],[[135.58984,34.41245],[135.59041,34.41096]],[[135.56477,34.28805],[135.56423,34.28753]],[[135.57149,34.43713],[135.57119,34.43618]],[[135.58984,34.41245],[135.58965,34.41291],[135.5891,34.41367],[135.58762,34.41535],[135.58726,34.41602],[135.58665,34.41772],[135.5861,34.41863],[135.58502,34.41995],[135.58406,34.4208],[135.58307,34.42149],[135.58194,34.42211],[135.57851,34.42368],[135.57757,34.42431]],[[135.49687,34.60566],[135.49688,34.60699]],[[135.49659,34.62794],[135.49568,34.62938]],[[135.53565,34.53666],[135.53441,34.53749]],[[135.55925,34.49601],[135.55755,34.50328],[135.55746,34.50391]],[[135.57119,34.43618],[135.57093,34.4355],[135.57028,34.43432],[135.57009,34.43375],[135.57009,34.43198],[135.57034,34.43146],[135.57126,34.42998],[135.57188,34.42925],[135.5733,34.42788],[135.57646,34.42524]],[[135.54878,34.51602],[135.54758,34.51728]],[[135.58033,34.29652],[135.57946,34.29649]],[[135.57646,34.42524],[135.57757,34.42431]],[[135.49691,34.5994],[135.4969,34.60064]],[[135.52744,34.54166],[135.52555,34.54279]],[[135.54768,34.25713],[135.54696,34.25662],[135.54675,34.25633],[135.54655,34.25541],[135.54658,34.25509],[135.54681,34.25458],[135.54694,34.25341],[135.54711,34.25313],[135.54797,34.25253],[135.5482,34.25225],[135.54841,34.25176],[135.54837,34.25138],[135.54801,34.25049],[135.54804,34.25015],[135.54832,34.24946],[135.54824,34.24817],[135.54854,34.24749],[135.54833,34.24646],[135.54836,34.24628],[135.54858,34.24596],[135.54937,34.24519],[135.54956,34.24388],[135.55021,34.24263],[135.54993,34.24133],[135.55006,34.24055],[135.54954,34.23972],[135.54948,34.23937],[135.5497,34.23841],[135.5495,34.23725],[135.54953,34.23658],[135.54977,34.23625],[135.55021,34.23605],[135.55091,34.23599],[135.55164,34.23606],[135.55276,34.23579],[135.55328,34.23581]],[[135.49764,34.61263],[135.49755,34.61171],[135.49689,34.60907],[135.49688,34.60699]],[[135.54758,34.51728],[135.54419,34.52093],[135.54349,34.52217]],[[135.48899,34.63889],[135.48344,34.64681]],[[135.56661,34.46851],[135.56604,34.46949]],[[135.48344,34.64681],[135.48303,34.64736]],[[135.48303,34.64736],[135.48214,34.64868],[135.48182,34.64931],[135.48156,34.65017],[135.48146,34.65125],[135.48152,34.65188],[135.48178,34.65289],[135.48223,34.6536],[135.48287,34.65438]],[[135.48627,34.66722],[135.48618,34.66802]],[[135.56228,34.47902],[135.56195,34.48013]],[[135.49474,34.6298],[135.49457,34.63066],[135.49416,34.63138],[135.48941,34.63828]],[[135.49456,34.62908],[135.49474,34.6298]],[[135.49325,34.56479],[135.49175,34.56596]],[[135.54292,34.52369],[135.5402,34.53081],[135.53947,34.53247],[135.53906,34.53314],[135.53799,34.53446],[135.5364,34.53604],[135.53565,34.53666]],[[135.57289,34.45038],[135.57275,34.44995],[135.57249,34.44953],[135.5702,34.44707],[135.57001,34.44659],[135.56994,34.44595],[135.57025,34.44389],[135.57107,34.43972],[135.57153,34.43825],[135.57156,34.43742],[135.57149,34.43713]],[[135.56635,34.27147],[135.56624,34.27105],[135.56592,34.27055],[135.56574,34.27042],[135.56545,34.27032],[135.56469,34.27033],[135.5637,34.2705],[135.56342,34.27093],[135.56315,34.27166],[135.56289,34.27184],[135.56059,34.27203],[135.5598,34.27182],[135.5586,34.27125],[135.55782,34.27071],[135.55654,34.27032],[135.55595,34.26973],[135.55478,34.26713],[135.55449,34.2669],[135.55365,34.26659]],[[135.54834,34.25753],[135.54768,34.25713]],[[135.55409,34.23567],[135.55328,34.23581]],[[135.48625,34.66017],[135.48634,34.66088]],[[135.49403,34.62718],[135.49456,34.62908]],[[135.57342,34.45183],[135.57376,34.45292],[135.57393,34.45383],[135.57392,34.45429],[135.57367,34.45549],[135.57232,34.45854],[135.57166,34.45983],[135.56661,34.46851]],[[135.48941,34.63828],[135.48899,34.63889]],[[135.58233,34.23413],[135.58179,34.23464]],[[135.57152,34.24264],[135.57114,34.24278],[135.57071,34.24274]],[[135.56195,34.48013],[135.56139,34.48206],[135.56111,34.48352],[135.56099,34.48465],[135.56093,34.48666],[135.56072,34.48828],[135.56031,34.49107],[135.5596,34.49448]],[[135.56638,34.27215],[135.56635,34.27147]],[[135.59041,34.41096],[135.59144,34.4081],[135.5949,34.40011],[135.59539,34.39883],[135.59545,34.39847]],[[135.48529,34.57694],[135.48549,34.57779],[135.48626,34.57967],[135.48859,34.58364],[135.49079,34.58896]],[[135.4969,34.60064],[135.49687,34.60566]],[[135.49175,34.56596],[135.48892,34.56801],[135.48601,34.56935],[135.48554,34.56967],[135.48512,34.57008],[135.48455,34.57101],[135.48423,34.57204],[135.48427,34.57275],[135.48477,34.57477]],[[135.56423,34.28753],[135.5617,34.28502],[135.56141,34.28425],[135.56136,34.28367],[135.5617,34.28286],[135.56299,34.28054],[135.56429,34.27844],[135.56508,34.2776],[135.56642,34.27301],[135.56638,34.27215]],[[135.48331,34.65492],[135.48507,34.65703],[135.48589,34.65826],[135.48615,34.65901],[135.48625,34.66017]],[[135.55285,34.26637],[135.5521,34.26602],[135.55163,34.26565],[135.5513,34.26522],[135.55128,34.26502],[135.55147,34.26469],[135.55187,34.26434],[135.55406,34.2634],[135.55428,34.26324],[135.55445,34.26297],[135.55451,34.26194],[135.55443,34.26069],[135.55429,34.26008],[135.55394,34.2597],[135.55313,34.25913],[135.55134,34.25881],[135.54945,34.25868],[135.54922,34.25856],[135.54834,34.25753]],[[135.55708,34.50558],[135.55667,34.50727],[135.55615,34.50815],[135.54878,34.51602]],[[135.60438,34.30727],[135.60183,34.30586],[135.59964,34.30436],[135.59879,34.30389],[135.59821,34.30365],[135.59484,34.30284],[135.59357,34.30233],[135.59296,34.30195],[135.58989,34.29961],[135.58901,34.2991],[135.58791,34.29882],[135.58618,34.29881],[135.58516,34.29855],[135.58398,34.29785],[135.58155,34.29675],[135.58033,34.29652]],[[135.48477,34.57477],[135.48529,34.57694]],[[135.49777,34.5612],[135.49719,34.56159],[135.49325,34.56479]],[[135.52555,34.54279],[135.51415,34.54963]],[[135.56604,34.46949],[135.56449,34.47202],[135.56418,34.47272],[135.5631,34.47611],[135.56228,34.47902]],[[135.48287,34.65438],[135.48331,34.65492]],[[135.5596,34.49448],[135.55925,34.49601]],[[135.49843,34.62247],[135.49827,34.62143]],[[135.49691,34.5994],[135.49687,34.59871],[135.49661,34.5981],[135.49143,34.59033]],[[135.49143,34.59033],[135.49079,34.58896]],[[135.54349,34.52217],[135.54292,34.52369]],[[135.49752,34.6141],[135.49764,34.61263]],[[135.50342,34.55692],[135.49889,34.56037]],[[135.51415,34.54963],[135.51253,34.55058]],[[135.49659,34.62794],[135.49785,34.62635],[135.49823,34.62556],[135.49851,34.62401],[135.49843,34.62247]],[[135.49827,34.62143],[135.4974,34.61654],[135.49738,34.61552],[135.49752,34.6141]]]}}