{"type":"Feature","properties":{"id":"南海電気鉄道_空港線","name":"空港線","operator":"南海電気鉄道","railType":"普通鉄道","operatorType":"民営","category":"rail","attribution":"国土数値情報（鉄道データ）国土交通省"},"geometry":{"type":"MultiLineString","coordinates":[[[135.29887,34.41143],[135.30003,34.4105]],[[135.24057,34.43439],[135.2425,34.43533],[135.24413,34.43639],[135.24496,34.43708],[135.24554,34.43775]],[[135.24554,34.43775],[135.24722,34.44034],[135.2484,34.44129],[135.24906,34.44171],[135.25048,34.44228],[135.25137,34.44248],[135.25216,34.44255],[135.25455,34.4427],[135.25575,34.44269],[135.25671,34.44258],[135.25773,34.44235],[135.25943,34.44171],[135.26016,34.44131],[135.26121,34.44053],[135.26677,34.435],[135.26878,34.43342],[135.2941,34.41446],[135.29569,34.41368],[135.29712,34.41282],[135.29887,34.41143]],[[135.31659,34.41083],[135.31816,34.4113]],[[135.30003,34.4105],[135.30138,34.40938],[135.30283,34.40834],[135.30472,34.40714]],[[135.31041,34.40773],[135.3121,34.40912],[135.31317,34.40977],[135.31659,34.41083]],[[135.30472,34.40714],[135.30664,34.40699],[135.30772,34.40704],[135.30917,34.40734],[135.31041,34.40773]]]}}