{"type":"Feature","properties":{"id":"南阿蘇鉄道_高森線","name":"高森線","operator":"南阿蘇鉄道","railType":"普通鉄道","operatorType":"第三セクター","category":"rail","attribution":"国土数値情報（鉄道データ）国土交通省"},"geometry":{"type":"MultiLineString","coordinates":[[[130.96577,32.87734],[130.96451,32.87792]],[[131.04036,32.83397],[131.03981,32.83446]],[[131.00435,32.854],[131.00345,32.85443]],[[130.96577,32.87734],[130.96803,32.87635],[130.96849,32.87622],[130.96901,32.8762],[130.97151,32.87646],[130.97208,32.87641],[130.97282,32.87622],[130.97502,32.87497],[130.97596,32.87459],[130.97732,32.87411],[130.97945,32.8737],[130.98099,32.87315],[130.98938,32.86885],[130.991,32.86765],[130.99331,32.86483],[130.99375,32.86456],[130.99593,32.86356],[130.99628,32.86324],[130.99658,32.86275],[130.9969,32.86187],[130.99688,32.86114],[130.99663,32.85914],[130.99681,32.85831],[130.99716,32.8577],[130.99788,32.85713],[131.00345,32.85443]],[[131.02509,32.84417],[131.02398,32.8445]],[[131.08392,32.82234],[131.08222,32.8225],[131.07866,32.82264],[131.06848,32.8226],[131.06761,32.82266],[131.05941,32.82435],[131.05849,32.82472],[131.05394,32.82715]],[[131.05327,32.82752],[131.05394,32.82715]],[[131.05327,32.82752],[131.04959,32.82946],[131.04263,32.83218],[131.04193,32.83262],[131.04036,32.83397]],[[131.01022,32.84748],[131.01,32.84815]],[[131.00435,32.854],[131.00781,32.85236],[131.00847,32.85188],[131.00889,32.85139],[131.0092,32.85078],[131.01,32.84815]],[[131.12247,32.81904],[131.1224,32.81973]],[[131.08392,32.82234],[131.08471,32.8223]],[[131.02509,32.84417],[131.02628,32.84363],[131.027,32.84314],[131.02871,32.8417],[131.03693,32.83671],[131.03981,32.83446]],[[131.01022,32.84748],[131.01081,32.8462],[131.01134,32.84564],[131.01182,32.84536],[131.01294,32.845],[131.01509,32.84482],[131.01755,32.84394],[131.01849,32.84394],[131.02144,32.84451],[131.02227,32.8446],[131.02398,32.8445]],[[131.10934,32.81766],[131.11008,32.81743]],[[131.12247,32.81904],[131.12248,32.81802],[131.1224,32.81727],[131.12227,32.81684],[131.12192,32.81618],[131.12143,32.81559],[131.12094,32.81524],[131.12028,32.81494],[131.1198,32.81485],[131.11909,32.81484],[131.11803,32.81502],[131.11008,32.81743]],[[131.10934,32.81766],[131.09579,32.82186],[131.0943,32.82215],[131.09169,32.8222]],[[131.09169,32.8222],[131.0909,32.8222]],[[131.0909,32.8222],[131.088,32.82213],[131.08471,32.8223]]]}}