{"type":"Feature","properties":{"id":"叡山電鉄_叡山本線","name":"叡山本線","operator":"叡山電鉄","railType":"普通鉄道","operatorType":"民営","category":"rail","attribution":"国土数値情報（鉄道データ）国土交通省"},"geometry":{"type":"MultiLineString","coordinates":[[[135.79012,35.04967],[135.79048,35.05034]],[[135.80807,35.0649],[135.80862,35.06534]],[[135.79653,35.06255],[135.79771,35.06291],[135.80271,35.06348],[135.80578,35.06408],[135.80685,35.06437],[135.80807,35.0649]],[[135.78736,35.04408],[135.78768,35.04468]],[[135.78201,35.0351],[135.78275,35.03546],[135.78348,35.03615],[135.78453,35.03816]],[[135.77337,35.03066],[135.77372,35.03118]],[[135.78453,35.03816],[135.78477,35.03863]],[[135.79225,35.05655],[135.79241,35.05772]],[[135.79048,35.05034],[135.79123,35.0517],[135.79177,35.05304],[135.79225,35.05655]],[[135.77372,35.03118],[135.7747,35.03262],[135.77509,35.03303],[135.77561,35.03336],[135.78125,35.03493]],[[135.79585,35.0622],[135.79653,35.06255]],[[135.79251,35.05846],[135.79276,35.0596],[135.79307,35.06005],[135.79585,35.0622]],[[135.78768,35.04468],[135.79012,35.04967]],[[135.78125,35.03493],[135.78201,35.0351]],[[135.79241,35.05772],[135.79251,35.05846]],[[135.78477,35.03863],[135.78736,35.04408]]]}}