{"type":"Feature","properties":{"id":"名古屋鉄道_豊田線","name":"豊田線","operator":"名古屋鉄道","railType":"普通鉄道","operatorType":"民営","category":"rail","attribution":"国土数値情報（鉄道データ）国土交通省"},"geometry":{"type":"MultiLineString","coordinates":[[[137.09122,35.12757],[137.09197,35.12777]],[[137.0186,35.12108],[137.02208,35.12145],[137.02355,35.12119],[137.02401,35.12101],[137.0246,35.12063],[137.02615,35.11906],[137.02709,35.11839],[137.02812,35.1181],[137.03166,35.11771],[137.03403,35.11749],[137.03786,35.11728],[137.04065,35.11719],[137.04251,35.11724],[137.04696,35.118],[137.04838,35.11831]],[[137.06667,35.12354],[137.06731,35.12386]],[[137.11176,35.12685],[137.11364,35.12615],[137.11766,35.12515],[137.11998,35.12478],[137.12231,35.12452],[137.12847,35.12338],[137.13691,35.12138]],[[137.16198,35.09913],[137.16259,35.10021]],[[137.15475,35.11636],[137.15545,35.11599]],[[137.16288,35.10073],[137.16259,35.10021]],[[137.15545,35.11599],[137.15653,35.11525],[137.1596,35.11268],[137.1602,35.11195],[137.16057,35.11132],[137.16115,35.11003],[137.16214,35.10598],[137.16318,35.1025],[137.16318,35.10153],[137.16288,35.10073]],[[137.11107,35.12714],[137.11176,35.12685]],[[137.01781,35.12099],[137.0186,35.12108]],[[137.11107,35.12714],[137.10779,35.12848],[137.10598,35.129],[137.09983,35.12937],[137.09744,35.12923],[137.09539,35.12875],[137.09197,35.12777]],[[137.04838,35.11831],[137.04917,35.11847]],[[137.13691,35.12138],[137.13772,35.12119]],[[137.09122,35.12757],[137.09027,35.12739],[137.08328,35.12711],[137.07957,35.12677],[137.07046,35.125],[137.06864,35.12446],[137.06731,35.12386]],[[137.13772,35.12119],[137.14419,35.11963],[137.15155,35.1177],[137.15317,35.11713],[137.15475,35.11636]],[[137.04917,35.11847],[137.0528,35.11904],[137.05843,35.1193],[137.06054,35.11971],[137.0615,35.12011],[137.06246,35.12066],[137.06497,35.12252],[137.06667,35.12354]]]}}