{"type":"Feature","properties":{"id":"名古屋鉄道_名古屋本線","name":"名古屋本線","operator":"名古屋鉄道","railType":"普通鉄道","operatorType":"民営","category":"rail","attribution":"国土数値情報（鉄道データ）国土交通省"},"geometry":{"type":"MultiLineString","coordinates":[[[137.04009,35.00597],[137.03924,35.00649]],[[137.08623,34.98652],[137.0848,34.98728]],[[137.087,34.98612],[137.08623,34.98652]],[[137.06144,34.99902],[137.06032,34.99954]],[[136.95999,35.07065],[136.96077,35.07039]],[[137.06144,34.99902],[137.07738,34.99122],[137.0848,34.98728]],[[136.99623,35.05185],[136.99785,35.05059],[137.00482,35.04579],[137.00556,35.04492],[137.00799,35.0415]],[[137.06032,34.99954],[137.05348,35.00292],[137.05231,35.0033],[137.05146,35.00339],[137.05024,35.00337],[137.0494,35.00325],[137.04797,35.00289],[137.04714,35.00282],[137.0451,35.00311],[137.04387,35.00362],[137.04231,35.0044],[137.04009,35.00597]],[[137.0085,35.04077],[137.00799,35.0415]],[[136.97078,35.06789],[136.97142,35.06749]],[[136.98017,35.06172],[136.98161,35.06128]],[[137.03924,35.00649],[137.02638,35.01297],[137.0258,35.01333]],[[137.0258,35.01333],[137.02511,35.01388]],[[137.01625,35.03016],[137.0085,35.04077]],[[137.02511,35.01388],[137.02433,35.01473],[137.0236,35.01589],[137.01663,35.02945]],[[136.97142,35.06749],[136.97291,35.06652],[136.97336,35.06608],[136.974,35.06522],[136.97488,35.06372],[136.97554,35.06312],[136.97653,35.06266],[136.98017,35.06172]],[[137.01663,35.02945],[137.01625,35.03016]],[[136.99562,35.0523],[136.99623,35.05185]],[[136.98161,35.06128],[136.98639,35.05928],[136.98793,35.05852],[136.98945,35.05738],[136.99562,35.0523]],[[136.96077,35.07039],[136.96344,35.06957],[136.96738,35.06927],[136.96825,35.0691],[136.96952,35.06864],[136.97078,35.06789]],[[136.76892,35.40176],[136.76892,35.4024]],[[136.7648,35.37498],[136.76814,35.38129],[136.7687,35.38286],[136.76908,35.38496],[136.76923,35.38943]],[[136.77758,35.34985],[136.77745,35.35054]],[[136.76035,35.41045],[136.76011,35.41138]],[[136.7708,35.3648],[136.77021,35.36522]],[[136.7666,35.40504],[136.76561,35.40531]],[[136.76449,35.37437],[136.7648,35.37498]],[[136.76892,35.4024],[136.76886,35.40338],[136.76855,35.40402],[136.76776,35.40462],[136.7666,35.40504]],[[136.76923,35.38943],[136.76926,35.39013]],[[136.76561,35.40531],[136.7618,35.40639],[136.76143,35.40655],[136.76075,35.40705],[136.76055,35.40728],[136.76045,35.40764],[136.76044,35.40822],[136.76059,35.40943],[136.76049,35.41009],[136.76035,35.41045]],[[136.77745,35.35054],[136.77604,35.35866],[136.7757,35.35987],[136.77542,35.36051],[136.77494,35.36137],[136.77422,35.36216],[136.77302,35.36317],[136.7708,35.3648]],[[136.77021,35.36522],[136.76603,35.36832],[136.76498,35.3695],[136.7648,35.37026],[136.76446,35.37338],[136.76449,35.37437]],[[136.78522,35.32649],[136.78552,35.32588]],[[136.77952,35.34154],[136.78091,35.33637],[136.78159,35.33444],[136.78394,35.32916],[136.78522,35.32649]],[[136.77952,35.34154],[136.77925,35.34255]],[[136.77925,35.34255],[136.778,35.34738],[136.77758,35.34985]],[[136.76926,35.39013],[136.76925,35.39246],[136.76883,35.39518],[136.76892,35.40176]],[[136.79632,35.30343],[136.79614,35.30382]],[[136.79763,35.30074],[136.79871,35.29859]],[[136.79632,35.30343],[136.79763,35.30074]],[[136.84497,35.19937],[136.84654,35.19849]],[[136.84472,35.19948],[136.84497,35.19937]],[[136.91295,35.12464],[136.9129,35.1248]],[[136.9129,35.1248],[136.91233,35.12633]],[[136.93347,35.0996],[136.93453,35.10556]],[[136.93703,35.08794],[136.93503,35.09138],[136.93456,35.09245],[136.93358,35.09653],[136.9334,35.09856]],[[136.8649,35.19503],[136.86566,35.19514]],[[136.81774,35.22686],[136.81885,35.22595]],[[136.86901,35.19415],[136.87067,35.19292],[136.87089,35.19253],[136.871,35.19195],[136.87093,35.19136],[136.87045,35.19027]],[[136.86566,35.19514],[136.86644,35.1952],[136.86724,35.19509],[136.86793,35.19483],[136.86901,35.19415]],[[136.93,35.11517],[136.92877,35.11665],[136.92762,35.11784],[136.92666,35.11853],[136.92609,35.1188],[136.92529,35.11904],[136.92075,35.12006]],[[136.80076,35.27165],[136.80032,35.27376],[136.79952,35.27941],[136.79858,35.28205],[136.79834,35.28293],[136.79823,35.28378],[136.79815,35.28673]],[[136.90026,35.14329],[136.89668,35.14446],[136.89385,35.14553],[136.89242,35.14621],[136.89093,35.14738],[136.89009,35.14835],[136.88967,35.14903],[136.88922,35.15],[136.88889,35.15141]],[[136.8606,35.19467],[136.86258,35.19476],[136.8649,35.19503]],[[136.84654,35.19849],[136.85206,35.19554]],[[136.80076,35.27165],[136.80096,35.27076]],[[136.81147,35.23431],[136.81228,35.23285],[136.81372,35.23076],[136.81537,35.22896],[136.81774,35.22686]],[[136.93453,35.10556],[136.93472,35.10655]],[[136.85318,35.19496],[136.85374,35.1948],[136.85464,35.19468],[136.85881,35.19465]],[[136.84181,35.20493],[136.84247,35.20348]],[[136.80295,35.25353],[136.80295,35.25241],[136.80315,35.25157],[136.80349,35.25074],[136.81082,35.23574]],[[136.93764,35.08701],[136.93703,35.08794]],[[136.79832,35.28788],[136.79815,35.28673]],[[136.90215,35.14253],[136.90026,35.14329]],[[136.80292,35.25503],[136.80295,35.25353]],[[136.79871,35.29859],[136.79898,35.2978],[136.79914,35.29694],[136.79955,35.2933],[136.79955,35.29242],[136.79926,35.2909],[136.79832,35.28788]],[[136.93764,35.08701],[136.93778,35.08657],[136.9381,35.08429],[136.93851,35.08353],[136.93948,35.08271],[136.94133,35.08192],[136.95058,35.07878]],[[136.91233,35.12633],[136.91156,35.12872],[136.90827,35.13625],[136.90768,35.13734],[136.90643,35.13904],[136.90532,35.14019],[136.90353,35.14164],[136.90215,35.14253]],[[136.88398,35.17018],[136.88376,35.1707]],[[136.87018,35.18961],[136.86955,35.18832],[136.86948,35.1878],[136.86964,35.18702],[136.86978,35.18678],[136.87013,35.18645],[136.8728,35.18405]],[[136.85881,35.19465],[136.8606,35.19467]],[[136.93472,35.10655],[136.9349,35.1081],[136.9348,35.10879],[136.93437,35.10999],[136.93374,35.11092],[136.93074,35.11435]],[[136.87333,35.18353],[136.8728,35.18405]],[[136.78895,35.3187],[136.78931,35.31799]],[[136.80096,35.27076],[136.80279,35.26207],[136.80292,35.25503]],[[136.78931,35.31799],[136.79335,35.30982],[136.79614,35.30382]],[[136.81082,35.23574],[136.81147,35.23431]],[[136.92075,35.12006],[136.91924,35.12039]],[[136.88889,35.15141],[136.88865,35.15236]],[[136.84247,35.20348],[136.84381,35.20038],[136.844,35.2001],[136.84472,35.19948]],[[136.87045,35.19027],[136.87018,35.18961]],[[136.78895,35.3187],[136.78552,35.32588]],[[136.85206,35.19554],[136.85318,35.19496]],[[136.88865,35.15236],[136.88774,35.15576],[136.88564,35.16431],[136.88542,35.16501],[136.88524,35.16531],[136.88398,35.17018]],[[136.95058,35.07878],[136.95168,35.0781]],[[136.83477,35.21199],[136.83595,35.21093]],[[136.81885,35.22595],[136.83477,35.21199]],[[136.9334,35.09856],[136.93347,35.0996]],[[136.93074,35.11435],[136.93,35.11517]],[[136.83595,35.21093],[136.84056,35.20677],[136.84128,35.20589],[136.84181,35.20493]],[[136.95168,35.0781],[136.95218,35.07759],[136.95485,35.07398],[136.95626,35.07226],[136.95675,35.07192],[136.95999,35.07065]],[[136.88376,35.1707],[136.88289,35.17234],[136.88194,35.17372],[136.88027,35.17585],[136.87911,35.17753],[136.87739,35.17971],[136.87333,35.18353]],[[136.91924,35.12039],[136.91547,35.12125],[136.91455,35.12158],[136.91392,35.12211],[136.91369,35.12249],[136.91295,35.12464]],[[137.32843,34.83708],[137.32785,34.83782]],[[137.38333,34.76105],[137.38175,34.7635]],[[137.38175,34.7635],[137.38141,34.76404]],[[137.3317,34.83287],[137.32843,34.83708]],[[137.34538,34.81509],[137.3317,34.83287]],[[137.19584,34.92409],[137.18745,34.93051],[137.18614,34.93171],[137.18535,34.93303],[137.18421,34.93606],[137.18389,34.93675],[137.18359,34.93719]],[[137.18359,34.93719],[137.18311,34.9377]],[[137.35536,34.80212],[137.35919,34.79716]],[[137.18311,34.9377],[137.17117,34.95003],[137.16967,34.95123],[137.16888,34.95163],[137.16823,34.95184]],[[137.24301,34.89938],[137.24238,34.89966]],[[137.087,34.98612],[137.08954,34.98483],[137.1065,34.97771],[137.11762,34.97158]],[[137.3611,34.79396],[137.35919,34.79716]],[[137.13936,34.96135],[137.12247,34.96911],[137.11981,34.97036],[137.11859,34.97105]],[[137.36253,34.79286],[137.35919,34.79716]],[[137.36673,34.78704],[137.36253,34.79286]],[[137.16823,34.95184],[137.16667,34.95222]],[[137.35536,34.80212],[137.35427,34.80351]],[[137.15277,34.95521],[137.14058,34.96078]],[[137.24238,34.89966],[137.2393,34.90108],[137.23838,34.9018],[137.23788,34.90264],[137.23746,34.90361],[137.23645,34.90489],[137.23567,34.90561],[137.22966,34.90919],[137.22923,34.90943],[137.21901,34.91307]],[[137.28804,34.87164],[137.27843,34.87548],[137.27752,34.87592],[137.27288,34.87863],[137.26962,34.88084],[137.26685,34.8832],[137.26589,34.88416],[137.26535,34.88528],[137.26474,34.88869],[137.26446,34.8894],[137.26409,34.88993],[137.26356,34.89047],[137.26056,34.89256]],[[137.32112,34.84654],[137.31155,34.85899]],[[137.28804,34.87164],[137.28874,34.8713]],[[137.21813,34.91341],[137.21299,34.91524],[137.21234,34.91533],[137.20842,34.91541],[137.20732,34.91558],[137.20619,34.91601],[137.20489,34.91689],[137.19683,34.92332]],[[137.31078,34.85968],[137.30956,34.86056],[137.30748,34.86173],[137.28874,34.8713]],[[137.3611,34.79396],[137.3612,34.79311],[137.36135,34.79264],[137.36181,34.79196],[137.364,34.78989],[137.36673,34.78704]],[[137.24301,34.89938],[137.24456,34.89875],[137.24743,34.89818],[137.24886,34.89778],[137.25703,34.89454],[137.25939,34.8933]],[[137.31155,34.85899],[137.31078,34.85968]],[[137.34587,34.81444],[137.34538,34.81509]],[[137.14058,34.96078],[137.13936,34.96135]],[[137.11762,34.97158],[137.11859,34.97105]],[[137.21901,34.91307],[137.21813,34.91341]],[[137.26056,34.89256],[137.25939,34.8933]],[[137.35427,34.80351],[137.34587,34.81444]],[[137.19683,34.92332],[137.19584,34.92409]],[[137.15411,34.95464],[137.15277,34.95521]],[[137.32188,34.84558],[137.32112,34.84654]],[[137.16667,34.95222],[137.16603,34.95236],[137.16467,34.95243],[137.16044,34.95216],[137.15942,34.95227],[137.15411,34.95464]],[[137.32785,34.83782],[137.32188,34.84558]],[[137.36673,34.78704],[137.37042,34.7813]],[[137.37086,34.7806],[137.37042,34.7813]],[[137.37369,34.77632],[137.37086,34.7806]],[[137.38141,34.76404],[137.38134,34.76448],[137.38123,34.76468],[137.37444,34.77515]],[[137.37444,34.77515],[137.37369,34.77632]]]}}