{"type":"Feature","properties":{"id":"名古屋市_3号線鶴舞線","name":"3号線鶴舞線","operator":"名古屋市","railType":"普通鉄道","operatorType":"公営","category":"rail","attribution":"国土数値情報（鉄道データ）国土交通省"},"geometry":{"type":"MultiLineString","coordinates":[[[137.0076,35.12258],[137.01062,35.12159],[137.01169,35.12106],[137.01274,35.12079],[137.0142,35.12073],[137.01781,35.12099]],[[136.9975,35.1259],[137.00683,35.12282]],[[137.00683,35.12282],[137.0076,35.12258]],[[136.98893,35.12841],[136.98818,35.12859]],[[136.97908,35.13241],[136.97818,35.13245]],[[136.97818,35.13245],[136.97719,35.1326],[136.97621,35.13314],[136.97345,35.13377],[136.97024,35.13417],[136.969,35.13449],[136.96707,35.13519],[136.96575,35.13582],[136.96407,35.13679]],[[136.99672,35.12616],[136.9975,35.1259]],[[136.98818,35.12859],[136.98686,35.12889],[136.98527,35.12948],[136.98451,35.12994],[136.98255,35.13138],[136.9813,35.13196],[136.98066,35.13216],[136.97908,35.13241]],[[136.96407,35.13679],[136.9635,35.13724]],[[136.99672,35.12616],[136.99331,35.1273],[136.99108,35.12792],[136.98893,35.12841]],[[137.01781,35.12099],[137.0186,35.12108]],[[136.89013,35.1828],[136.89009,35.18171],[136.89031,35.18124],[136.89064,35.18083],[136.89113,35.18047],[136.8919,35.18013],[136.89514,35.17944],[136.8958,35.17913],[136.89625,35.17864],[136.89666,35.1755]],[[136.89681,35.17435],[136.89732,35.16928]],[[136.90687,35.15729],[136.90597,35.15742]],[[136.92554,35.14957],[136.92492,35.14963]],[[136.89737,35.16862],[136.89732,35.16928]],[[136.95484,35.14363],[136.95424,35.14411]],[[136.88629,35.2155],[136.88694,35.21455]],[[136.92492,35.14963],[136.92315,35.14978],[136.92262,35.14987],[136.922,35.15011],[136.92107,35.15116],[136.92086,35.15177],[136.92005,35.1535],[136.91935,35.15477],[136.91904,35.15515],[136.9186,35.15551],[136.91809,35.15566],[136.9157,35.15609]],[[136.95424,35.14411],[136.95326,35.14492],[136.95294,35.14531],[136.9524,35.14708],[136.95218,35.14752],[136.9518,35.14783],[136.95078,35.14827],[136.94868,35.14865]],[[136.89028,35.18383],[136.89013,35.1828]],[[136.9157,35.15609],[136.9148,35.15622]],[[136.9635,35.13724],[136.9612,35.13906],[136.95899,35.14033],[136.95484,35.14363]],[[136.9148,35.15622],[136.90963,35.15682],[136.90842,35.15709],[136.90687,35.15729]],[[136.89803,35.16181],[136.89737,35.16862]],[[136.89666,35.1755],[136.89681,35.17435]],[[136.89075,35.19269],[136.89083,35.1915]],[[136.87804,35.22147],[136.87895,35.22048],[136.88063,35.21911],[136.88536,35.21648],[136.88579,35.2162],[136.88629,35.2155]],[[136.87718,35.223],[136.87804,35.22147]],[[136.94868,35.14865],[136.94784,35.14878]],[[136.89812,35.16101],[136.89803,35.16181]],[[136.9335,35.14946],[136.92554,35.14957]],[[136.89083,35.1915],[136.89097,35.18958],[136.89093,35.1886],[136.89028,35.18383]],[[136.87718,35.223],[136.87685,35.2236]],[[136.88694,35.21455],[136.88847,35.21201],[136.89118,35.20913],[136.89132,35.20883],[136.89105,35.20441]],[[136.93454,35.14948],[136.9335,35.14946]],[[136.89096,35.20322],[136.89054,35.19695],[136.89075,35.19269]],[[136.89105,35.20441],[136.89096,35.20322]],[[136.90597,35.15742],[136.90039,35.15788],[136.89959,35.15798],[136.89881,35.15819],[136.89843,35.15851],[136.8983,35.15886],[136.89812,35.16101]],[[136.94784,35.14878],[136.94281,35.14944],[136.93454,35.14948]]]}}