{"type":"Feature","properties":{"id":"名古屋鉄道_羽島線","name":"羽島線","operator":"名古屋鉄道","railType":"普通鉄道","operatorType":"民営","category":"rail","attribution":"国土数値情報（鉄道データ）国土交通省"},"geometry":{"type":"MultiLineString","coordinates":[[[136.68721,35.3151],[136.68861,35.31406],[136.68935,35.3137],[136.69149,35.31355],[136.69469,35.31306],[136.6951,35.31306],[136.6962,35.31326],[136.6986,35.31392],[136.69914,35.31428],[136.69971,35.31512]],[[136.69973,35.31577],[136.69971,35.31512]],[[136.68668,35.31556],[136.68721,35.3151]]]}}