{"type":"Feature","properties":{"id":"名古屋ガイドウェイバス_ガイドウェイバス志段味線","name":"ガイドウェイバス志段味線","operator":"名古屋ガイドウェイバス","railType":"案内軌条式(軌道)","operatorType":"第三セクター","category":"agt","attribution":"国土数値情報（鉄道データ）国土交通省"},"geometry":{"type":"MultiLineString","coordinates":[[[136.97814,35.21574],[136.97886,35.21612]],[[136.98261,35.21838],[136.9831,35.21895]],[[136.96229,35.21053],[136.96351,35.21191],[136.96406,35.21281],[136.96436,35.21314],[136.96834,35.21408]],[[136.96834,35.21408],[136.96913,35.21425]],[[136.97886,35.21612],[136.98207,35.21783],[136.98261,35.21838]],[[136.96179,35.21],[136.96229,35.21053]],[[136.96913,35.21425],[136.97127,35.21468],[136.97657,35.21528],[136.97723,35.21541],[136.97814,35.21574]],[[136.95381,35.18886],[136.9546,35.1887]],[[136.93749,35.19186],[136.93758,35.19211],[136.93797,35.1922],[136.94702,35.19028]],[[136.93751,35.19119],[136.93749,35.19186]],[[136.95698,35.20279],[136.95936,35.20597],[136.96012,35.20801],[136.96033,35.20837],[136.96179,35.21]],[[136.95652,35.2022],[136.95698,35.20279]],[[136.9546,35.1887],[136.95501,35.18874],[136.95533,35.18903],[136.95581,35.19047],[136.95658,35.19206],[136.95686,35.19341],[136.95683,35.19482],[136.95661,35.19703]],[[136.94782,35.19013],[136.95381,35.18886]],[[136.95661,35.19703],[136.95648,35.19773]],[[136.95648,35.19773],[136.95582,35.20008],[136.95577,35.20059],[136.95585,35.20108],[136.956,35.20143],[136.95652,35.2022]],[[136.94702,35.19028],[136.94782,35.19013]]]}}