{"type":"Feature","properties":{"id":"名古屋鉄道_蒲郡線","name":"蒲郡線","operator":"名古屋鉄道","railType":"普通鉄道","operatorType":"民営","category":"rail","attribution":"国土数値情報（鉄道データ）国土交通省"},"geometry":{"type":"MultiLineString","coordinates":[[[137.179,34.79026],[137.17842,34.78968]],[[137.18997,34.81363],[137.18945,34.81303]],[[137.18462,34.79871],[137.18465,34.7981]],[[137.16223,34.78849],[137.16034,34.78806],[137.1599,34.78782],[137.15932,34.7873],[137.1579,34.78577],[137.15758,34.78551],[137.15696,34.7852],[137.15622,34.78502],[137.15349,34.78487],[137.15221,34.78507],[137.15128,34.78562],[137.15092,34.78599],[137.14921,34.78841],[137.14879,34.78886],[137.14838,34.78915],[137.14754,34.78948],[137.14636,34.78955]],[[137.2261,34.82265],[137.22527,34.82288]],[[137.14636,34.78955],[137.1455,34.78955]],[[137.18945,34.81303],[137.18431,34.80649],[137.18385,34.80573],[137.18365,34.80448],[137.18349,34.80206],[137.18376,34.80102],[137.18449,34.79951],[137.18462,34.79871]],[[137.20183,34.82529],[137.19845,34.82378],[137.19781,34.82333],[137.18997,34.81363]],[[137.10547,34.79325],[137.10464,34.79338]],[[137.20241,34.82556],[137.20183,34.82529]],[[137.12176,34.79243],[137.12094,34.79252]],[[137.22527,34.82288],[137.22278,34.82353],[137.21196,34.82587],[137.20729,34.8268],[137.20615,34.82677],[137.205,34.82656],[137.20385,34.82618],[137.20241,34.82556]],[[137.12094,34.79252],[137.11918,34.79271],[137.11239,34.79217],[137.10547,34.79325]],[[137.18465,34.7981],[137.18447,34.7971],[137.18425,34.7964],[137.18325,34.79489],[137.18196,34.79321],[137.179,34.79026]],[[137.17842,34.78968],[137.17637,34.78771],[137.17553,34.7873],[137.17478,34.7871],[137.17381,34.78709],[137.1729,34.78723],[137.17177,34.78757],[137.17054,34.78806],[137.16987,34.7882],[137.16707,34.78819],[137.16507,34.78891],[137.16422,34.78891],[137.16325,34.78871]],[[137.1455,34.78955],[137.14434,34.78958],[137.14283,34.79],[137.13635,34.79005],[137.13589,34.79011],[137.13271,34.79095],[137.13112,34.79124],[137.12802,34.7917],[137.12176,34.79243]],[[137.16325,34.78871],[137.16223,34.78849]],[[137.07148,34.79408],[137.07101,34.79455]],[[137.10464,34.79338],[137.10012,34.79411],[137.09878,34.79406],[137.0923,34.79145],[137.09143,34.79134],[137.07626,34.79379],[137.07243,34.79377],[137.07148,34.79408]]]}}