{"type":"Feature","properties":{"id":"名古屋市_2号線名港線","name":"2号線名港線","operator":"名古屋市","railType":"普通鉄道","operatorType":"公営","category":"rail","attribution":"国土数値情報（鉄道データ）国土交通省"},"geometry":{"type":"MultiLineString","coordinates":[[[136.89954,35.14057],[136.90169,35.14356]],[[136.90169,35.14356],[136.90218,35.14419]],[[136.88856,35.12445],[136.8929,35.13247]],[[136.89328,35.13306],[136.89386,35.13412],[136.8941,35.13432],[136.89507,35.13473],[136.89545,35.13498],[136.8957,35.13526],[136.89954,35.14057]],[[136.88494,35.10678],[136.88597,35.11314]],[[136.88198,35.09355],[136.88314,35.09962]],[[136.8929,35.13247],[136.89328,35.13306]],[[136.88822,35.12376],[136.88856,35.12445]],[[136.88326,35.10027],[136.88431,35.10531],[136.88465,35.10623]],[[136.88185,35.09286],[136.88198,35.09355]],[[136.88314,35.09962],[136.88326,35.10027]],[[136.88465,35.10623],[136.88494,35.10678]],[[136.88612,35.11381],[136.88687,35.11773],[136.88822,35.12376]],[[136.88597,35.11314],[136.88612,35.11381]]]}}