{"type":"Feature","properties":{"id":"名古屋鉄道_各務原線","name":"各務原線","operator":"名古屋鉄道","railType":"普通鉄道","operatorType":"民営","category":"rail","attribution":"国土数値情報（鉄道データ）国土交通省"},"geometry":{"type":"MultiLineString","coordinates":[[[136.80404,35.39826],[136.80229,35.39822],[136.8013,35.39838],[136.79601,35.40014]],[[136.87559,35.40006],[136.87674,35.40009]],[[136.86213,35.40108],[136.86558,35.40113],[136.87204,35.40007],[136.87559,35.40006]],[[136.88989,35.40017],[136.89155,35.4002],[136.89331,35.40044],[136.90051,35.40241]],[[136.84237,35.40059],[136.84143,35.40054]],[[136.93287,35.39979],[136.94262,35.39802],[136.94322,35.39787],[136.94407,35.39732]],[[136.78491,35.40169],[136.78442,35.40188],[136.78394,35.4022],[136.78353,35.40256],[136.78309,35.40318],[136.7829,35.40378],[136.78261,35.40645],[136.78238,35.40744],[136.78176,35.40825],[136.78107,35.40887],[136.7799,35.40952],[136.77553,35.41096],[136.77429,35.41129],[136.77256,35.41128]],[[136.91182,35.40343],[136.91274,35.40322]],[[136.81111,35.3984],[136.80492,35.39826]],[[136.92114,35.40129],[136.92194,35.40111]],[[136.76143,35.41154],[136.76234,35.41148],[136.76324,35.4116],[136.76458,35.41162],[136.7683,35.41077],[136.76917,35.41088],[136.77057,35.41125],[136.77176,35.41129]],[[136.78576,35.40151],[136.78491,35.40169]],[[136.84781,35.40087],[136.84684,35.40082]],[[136.82482,35.39941],[136.82397,35.39936]],[[136.83321,35.40006],[136.82482,35.39941]],[[136.83451,35.40016],[136.83321,35.40006]],[[136.80492,35.39826],[136.80404,35.39826]],[[136.79523,35.40041],[136.79356,35.40096],[136.7929,35.4011],[136.78576,35.40151]],[[136.84143,35.40054],[136.83896,35.40046],[136.83451,35.40016]],[[136.84684,35.40082],[136.84237,35.40059]],[[136.86102,35.40107],[136.84781,35.40087]],[[136.92194,35.40111],[136.9258,35.40031],[136.92645,35.40024],[136.9301,35.40026],[136.93194,35.39997]],[[136.90051,35.40241],[136.90155,35.4027]],[[136.79601,35.40014],[136.79523,35.40041]],[[136.82397,35.39936],[136.82032,35.39878],[136.81937,35.3987],[136.81195,35.39841]],[[136.8887,35.40017],[136.88989,35.40017]],[[136.91274,35.40322],[136.92114,35.40129]],[[136.93194,35.39997],[136.93287,35.39979]],[[136.94407,35.39732],[136.94445,35.39635]],[[136.90155,35.4027],[136.90386,35.40332],[136.90577,35.4036],[136.90945,35.40367],[136.91041,35.40363],[136.91182,35.40343]],[[136.81195,35.39841],[136.81111,35.3984]],[[136.76062,35.41158],[136.76143,35.41154]],[[136.77176,35.41129],[136.77256,35.41128]],[[136.86213,35.40108],[136.86102,35.40107]],[[136.87674,35.40009],[136.87887,35.40024],[136.8887,35.40017]]]}}