{"type":"Feature","properties":{"id":"名古屋鉄道_常滑線","name":"常滑線","operator":"名古屋鉄道","railType":"普通鉄道","operatorType":"民営","category":"rail","attribution":"国土数値情報（鉄道データ）国土交通省"},"geometry":{"type":"MultiLineString","coordinates":[[[136.9128,35.09282],[136.9128,35.09378]],[[136.89276,35.02063],[136.89238,35.01998]],[[136.89238,35.01998],[136.89215,35.01955]],[[136.86314,34.99357],[136.86377,34.99415]],[[136.91295,35.12464],[136.9129,35.1248]],[[136.91101,35.11395],[136.91152,35.1148],[136.91163,35.11512],[136.91175,35.11586],[136.91184,35.11746],[136.91342,35.12346],[136.91338,35.12405],[136.91322,35.12438],[136.91295,35.12464]],[[136.89215,35.01955],[136.8896,35.0149],[136.88579,35.01029]],[[136.8565,34.98748],[136.85705,34.988]],[[136.91185,35.0606],[136.91214,35.06004],[136.91225,35.05941],[136.91212,35.05882],[136.91178,35.0581],[136.90671,35.04867],[136.90637,35.04818],[136.90448,35.04663],[136.90386,35.04596],[136.90349,35.0451],[136.90314,35.04326]],[[136.87568,35.00035],[136.8752,35.00006]],[[136.90931,35.07994],[136.90908,35.07337]],[[136.9128,35.09378],[136.91272,35.09442],[136.90962,35.10537]],[[136.90314,35.04326],[136.90301,35.04257]],[[136.91153,35.06124],[136.91185,35.0606]],[[136.90301,35.04257],[136.90259,35.04042],[136.90218,35.0392],[136.90174,35.03842],[136.89971,35.03546]],[[136.90939,35.08062],[136.90931,35.07994]],[[136.90962,35.10537],[136.90942,35.10603]],[[136.89927,35.03482],[136.89662,35.03098],[136.89635,35.03021],[136.89512,35.02505],[136.89276,35.02063]],[[136.85705,34.988],[136.85915,34.99002],[136.86314,34.99357]],[[136.84758,34.97813],[136.84805,34.97867]],[[136.90939,35.08062],[136.9097,35.08295],[136.90997,35.0841],[136.91257,35.0915],[136.91276,35.09222],[136.9128,35.09282]],[[136.9129,35.1248],[136.91233,35.12633]],[[136.84805,34.97867],[136.8529,34.98392],[136.8565,34.98748]],[[136.90908,35.07337],[136.90908,35.07228]],[[136.89971,35.03546],[136.89927,35.03482]],[[136.88579,35.01029],[136.88531,35.00974]],[[136.88531,35.00974],[136.87946,35.0027],[136.87873,35.0021],[136.87568,35.00035]],[[136.90908,35.07228],[136.90926,35.06766],[136.90949,35.06541],[136.91001,35.06408],[136.91153,35.06124]],[[136.90942,35.10603],[136.90889,35.1074],[136.90869,35.10829],[136.90866,35.10989],[136.90889,35.11043],[136.91063,35.1133]],[[136.91063,35.1133],[136.91101,35.11395]],[[136.86377,34.99415],[136.86471,34.99488],[136.86546,34.99527],[136.86968,34.99684],[136.8752,35.00006]],[[136.82674,34.92505],[136.82651,34.93083],[136.82689,34.9331],[136.82739,34.93512]],[[136.82557,34.9149],[136.82574,34.91565]],[[136.82574,34.91565],[136.82685,34.92081],[136.82689,34.92184],[136.82678,34.92416]],[[136.83184,34.96128],[136.8325,34.96203]],[[136.83184,34.96128],[136.82938,34.95803],[136.82909,34.9575],[136.8278,34.95426],[136.82772,34.95381],[136.82775,34.95301],[136.82855,34.95007]],[[136.83093,34.89667],[136.83046,34.89738]],[[136.8325,34.96203],[136.83857,34.96831],[136.84758,34.97813]],[[136.82804,34.90538],[136.82545,34.91286],[136.82535,34.91357],[136.82557,34.9149]],[[136.82761,34.93574],[136.82799,34.93689],[136.82798,34.93731],[136.82714,34.94013],[136.82695,34.94143],[136.82689,34.94273],[136.82701,34.94332],[136.82769,34.94526],[136.82852,34.94817],[136.82864,34.94938]],[[136.83046,34.89738],[136.82991,34.89821],[136.82958,34.89889],[136.8293,34.90176],[136.82836,34.90452]],[[136.83093,34.89667],[136.83215,34.8948],[136.83478,34.89159]],[[136.82674,34.92505],[136.82678,34.92416]],[[136.83544,34.89075],[136.83478,34.89159]],[[136.82864,34.94938],[136.82855,34.95007]],[[136.82739,34.93512],[136.82761,34.93574]],[[136.82836,34.90452],[136.82804,34.90538]]]}}