{"type":"Feature","properties":{"id":"名古屋鉄道_犬山線","name":"犬山線","operator":"名古屋鉄道","railType":"普通鉄道","operatorType":"民営","category":"rail","attribution":"国土数値情報（鉄道データ）国土交通省"},"geometry":{"type":"MultiLineString","coordinates":[[[136.94491,35.3781],[136.94472,35.37751]],[[136.94534,35.37928],[136.94491,35.3781]],[[136.94573,35.38052],[136.94534,35.37928]],[[136.94407,35.39732],[136.94445,35.39635]],[[136.9163,35.35993],[136.91588,35.35937]],[[136.94462,35.39529],[136.94506,35.3942],[136.94659,35.39183],[136.94694,35.39092]],[[136.87177,35.33417],[136.87236,35.33521]],[[136.94445,35.39635],[136.94462,35.39529]],[[136.92565,35.36663],[136.91953,35.36313],[136.91835,35.36237],[136.91784,35.36192],[136.9163,35.35993]],[[136.94694,35.39092],[136.94691,35.38989]],[[136.93961,35.37412],[136.93801,35.37361],[136.93721,35.37327],[136.92638,35.36704]],[[136.94472,35.37751],[136.94442,35.37689],[136.94398,35.37624],[136.94309,35.37545],[136.94234,35.37505],[136.94033,35.37434]],[[136.91588,35.35937],[136.90843,35.34962],[136.90704,35.34815],[136.90611,35.34746],[136.90316,35.34559],[136.90236,35.34527],[136.90074,35.34491]],[[136.947,35.3974],[136.946,35.39708],[136.94517,35.39656],[136.94487,35.39619],[136.9447,35.39579],[136.94462,35.39529]],[[136.94033,35.37434],[136.93961,35.37412]],[[136.89975,35.34473],[136.89013,35.34293],[136.88679,35.34223],[136.87491,35.33763],[136.87365,35.33699],[136.87312,35.33654],[136.87236,35.33521]],[[136.94691,35.38989],[136.94646,35.38352],[136.94617,35.38201],[136.94573,35.38052]],[[136.90074,35.34491],[136.89975,35.34473]],[[136.92638,35.36704],[136.92565,35.36663]],[[136.87718,35.223],[136.87804,35.22147]],[[136.87718,35.223],[136.87685,35.2236]],[[136.87286,35.31628],[136.87301,35.31785]],[[136.87122,35.29622],[136.87113,35.29485]],[[136.87113,35.29485],[136.86976,35.2853],[136.86959,35.28351],[136.86987,35.28265],[136.87019,35.28222],[136.87125,35.2812],[136.87238,35.28045],[136.87308,35.27979],[136.87326,35.27946],[136.87353,35.27834]],[[136.87329,35.25538],[136.87145,35.24567]],[[136.87301,35.31785],[136.87341,35.3229],[136.87163,35.33204],[136.87153,35.33315],[136.87177,35.33417]],[[136.87667,35.21442],[136.87702,35.21509]],[[136.87702,35.21509],[136.87812,35.21739],[136.87851,35.21846],[136.8786,35.21914],[136.87843,35.22056],[136.87804,35.22147]],[[136.87105,35.20296],[136.87667,35.21442]],[[136.87362,35.2776],[136.87495,35.26506],[136.87497,35.26437],[136.87489,35.26383]],[[136.8711,35.2437],[136.87145,35.24567]],[[136.87685,35.2236],[136.87205,35.23178],[136.87155,35.23284],[136.87102,35.23438],[136.87029,35.23894],[136.87042,35.24024],[136.8711,35.2437]],[[136.87342,35.25611],[136.87329,35.25538]],[[136.87057,35.2019],[136.86822,35.19671]],[[136.87469,35.26278],[136.87489,35.26383]],[[136.87122,35.29622],[136.87156,35.30137],[136.87286,35.31628]],[[136.86566,35.19514],[136.8668,35.19558],[136.86737,35.19592],[136.86822,35.19671]],[[136.87362,35.2776],[136.87353,35.27834]],[[136.87469,35.26278],[136.87342,35.25611]],[[136.86822,35.19671],[136.86807,35.19612],[136.86814,35.1953],[136.86858,35.19451],[136.86901,35.19415]],[[136.87105,35.20296],[136.87057,35.2019]]]}}