{"type":"Feature","properties":{"id":"名古屋市_4号線名城線","name":"4号線名城線","operator":"名古屋市","railType":"普通鉄道","operatorType":"公営","category":"rail","attribution":"国土数値情報（鉄道データ）国土交通省"},"geometry":{"type":"MultiLineString","coordinates":[[[136.96656,35.15551],[136.9666,35.15446],[136.96654,35.1536]],[[136.96709,35.17622],[136.96652,35.17456]],[[136.9656,35.13769],[136.96465,35.13717],[136.96372,35.13628]],[[136.96523,35.14394],[136.96619,35.14157],[136.9672,35.1398],[136.96725,35.13945],[136.96721,35.13907],[136.96693,35.1385],[136.96647,35.13812],[136.9656,35.13769]],[[136.96264,35.18405],[136.9655,35.18085],[136.96686,35.17917],[136.96716,35.17857],[136.96733,35.17799],[136.96733,35.1774],[136.96709,35.17622]],[[136.96395,35.16217],[136.96441,35.16084],[136.96624,35.15699],[136.96656,35.15551]],[[136.96363,35.16359],[136.96395,35.16217]],[[136.96453,35.14534],[136.96523,35.14394]],[[136.96654,35.1536],[136.96585,35.15031],[136.96524,35.14822],[136.96438,35.146],[136.96439,35.14561],[136.96453,35.14534]],[[136.96652,35.17456],[136.96367,35.1661],[136.9635,35.16482],[136.96363,35.16359]],[[136.96161,35.18527],[136.96264,35.18405]],[[136.95504,35.18862],[136.95423,35.18879]],[[136.93653,35.1926],[136.93582,35.19291]],[[136.90671,35.12796],[136.90653,35.12835],[136.90202,35.13454]],[[136.93004,35.11716],[136.92912,35.11708]],[[136.9218,35.11648],[136.92112,35.11643]],[[136.95423,35.18879],[136.9444,35.19083]],[[136.94925,35.12387],[136.9479,35.12218]],[[136.93766,35.11774],[136.93678,35.11772]],[[136.89954,35.14057],[136.90169,35.14356]],[[136.90159,35.13519],[136.90014,35.13727],[136.89948,35.13938],[136.8994,35.13985],[136.89954,35.14057]],[[136.93678,35.11772],[136.93004,35.11716]],[[136.95406,35.12985],[136.95374,35.12906],[136.95122,35.12653],[136.94925,35.12387]],[[136.92912,35.11708],[136.9218,35.11648]],[[136.96372,35.13628],[136.96314,35.13569],[136.96231,35.1353],[136.96062,35.13511],[136.95885,35.13506],[136.9577,35.13461],[136.95694,35.13393],[136.95505,35.13131]],[[136.94358,35.19102],[136.93777,35.19227],[136.93653,35.1926]],[[136.95504,35.18862],[136.95837,35.18787],[136.95904,35.18763],[136.95987,35.18711],[136.96161,35.18527]],[[136.9444,35.19083],[136.94358,35.19102]],[[136.91007,35.12102],[136.90783,35.12196],[136.90759,35.1222],[136.90738,35.12519],[136.90712,35.12668],[136.90693,35.12734]],[[136.90202,35.13454],[136.90159,35.13519]],[[136.90693,35.12734],[136.90671,35.12796]],[[136.9479,35.12218],[136.94709,35.12151],[136.94528,35.12038],[136.94202,35.11883],[136.93927,35.11792],[136.93854,35.11778],[136.93766,35.11774]],[[136.95505,35.13131],[136.95432,35.13034],[136.95406,35.12985]],[[136.90169,35.14356],[136.90218,35.14419]],[[136.91081,35.12073],[136.91007,35.12102]],[[136.92112,35.11643],[136.91808,35.11626],[136.91685,35.11641],[136.91609,35.11657],[136.91547,35.1168],[136.91422,35.1175],[136.91197,35.12006],[136.91148,35.12044],[136.91081,35.12073]]]}}