{"type":"Feature","properties":{"id":"名古屋鉄道_瀬戸線","name":"瀬戸線","operator":"名古屋鉄道","railType":"普通鉄道","operatorType":"民営","category":"rail","attribution":"国土数値情報（鉄道データ）国土交通省"},"geometry":{"type":"MultiLineString","coordinates":[[[137.07811,35.22552],[137.07726,35.22553]],[[137.08384,35.225],[137.07811,35.22552]],[[136.98772,35.2049],[136.9885,35.20522]],[[137.0698,35.22429],[137.06904,35.2241]],[[137.03663,35.21664],[137.03587,35.21689]],[[137.06904,35.2241],[137.06661,35.22394],[137.06611,35.22379],[137.06581,35.2236],[137.05993,35.21849],[137.05903,35.21788],[137.05797,35.21748],[137.05275,35.21631]],[[136.96484,35.19722],[136.9712,35.19862],[136.9738,35.19961],[136.97512,35.19996]],[[137.05275,35.21631],[137.05199,35.21616]],[[137.0105,35.21086],[137.00692,35.20979],[137.00137,35.20937],[137.00079,35.20923],[136.9996,35.20865],[136.99796,35.20725],[136.99735,35.20696],[136.99698,35.20692]],[[136.97512,35.19996],[136.976,35.20018]],[[136.95798,35.19625],[136.96405,35.19707]],[[137.09613,35.22468],[137.09405,35.22399],[137.09364,35.22395],[137.09301,35.22405],[137.08871,35.22557],[137.08686,35.22522],[137.08458,35.22499]],[[137.0194,35.21401],[137.01506,35.21233],[137.01158,35.21119]],[[137.0201,35.2143],[137.0194,35.21401]],[[136.96405,35.19707],[136.96484,35.19722]],[[137.07726,35.22553],[137.07508,35.22555],[137.0735,35.2254],[137.0698,35.22429]],[[137.08458,35.22499],[137.08384,35.225]],[[137.05199,35.21616],[137.05031,35.21593],[137.04775,35.21599],[137.04303,35.21543],[137.04139,35.21531],[137.04033,35.21546],[137.03663,35.21664]],[[137.01158,35.21119],[137.0105,35.21086]],[[136.976,35.20018],[136.98032,35.20123],[136.98331,35.20233],[136.98384,35.20263],[136.98446,35.20346],[136.98477,35.20365],[136.98772,35.2049]],[[137.09613,35.22468],[137.09735,35.2251]],[[136.9885,35.20522],[136.99229,35.20677],[136.99538,35.20698],[136.9962,35.20695]],[[137.03587,35.21689],[137.03417,35.21743],[137.03328,35.21746],[137.02756,35.21653],[137.02455,35.21602],[137.0201,35.2143]],[[136.9962,35.20695],[136.99698,35.20692]],[[136.90845,35.18378],[136.9085,35.18312]],[[136.93687,35.19129],[136.93703,35.1919]],[[136.94841,35.19355],[136.94915,35.19351],[136.94977,35.19374],[136.95181,35.19521],[136.9524,35.19532],[136.95412,35.19539],[136.95575,35.1959],[136.95716,35.19613]],[[136.95716,35.19613],[136.95798,35.19625]],[[136.91441,35.18708],[136.91711,35.1871],[136.91792,35.18729],[136.91878,35.18762]],[[136.91957,35.18798],[136.9205,35.18822],[136.92126,35.18829],[136.92879,35.18825]],[[136.90881,35.17081],[136.90888,35.17016]],[[136.92979,35.18824],[136.93326,35.18826],[136.93402,35.18833],[136.93496,35.18858],[136.93558,35.1889],[136.93613,35.18948],[136.93651,35.19005],[136.93687,35.19129]],[[136.93703,35.1919],[136.93768,35.19384],[136.93841,35.19507],[136.93901,35.1957],[136.93937,35.19593],[136.94055,35.19625],[136.94124,35.19622],[136.94204,35.19602],[136.94606,35.19415],[136.94758,35.19377]],[[136.91347,35.18711],[136.91441,35.18708]],[[136.90845,35.18378],[136.90845,35.18478],[136.90863,35.18544],[136.90937,35.18625],[136.9099,35.18666],[136.91079,35.18704],[136.91127,35.18714],[136.91347,35.18711]],[[136.92879,35.18825],[136.92979,35.18824]],[[136.91878,35.18762],[136.91957,35.18798]],[[136.94758,35.19377],[136.94841,35.19355]],[[136.9085,35.18312],[136.90908,35.17985],[136.90897,35.17923],[136.90843,35.17806],[136.90817,35.17719],[136.90881,35.17081]]]}}