{"type":"Feature","properties":{"id":"名古屋鉄道_尾西線","name":"尾西線","operator":"名古屋鉄道","railType":"普通鉄道","operatorType":"民営","category":"rail","attribution":"国土数値情報（鉄道データ）国土交通省"},"geometry":{"type":"MultiLineString","coordinates":[[[136.76078,35.32447],[136.76142,35.32423]],[[136.75776,35.33464],[136.75697,35.33401],[136.75669,35.33368],[136.75642,35.33319],[136.75624,35.33262],[136.7563,35.32771],[136.75638,35.32724],[136.75694,35.32633],[136.75769,35.32573],[136.76078,35.32447]],[[136.75818,35.33505],[136.75776,35.33464]],[[136.7269,35.1146],[136.72479,35.11353]],[[136.72479,35.11353],[136.72455,35.1134]],[[136.73709,35.24798],[136.73815,35.25137],[136.73935,35.25608]],[[136.72885,35.16403],[136.7301,35.16635],[136.73036,35.16699],[136.7306,35.16793],[136.73069,35.16856],[136.7307,35.16989],[136.73048,35.17495],[136.73096,35.17666],[136.73113,35.17761]],[[136.7324,35.23354],[136.72911,35.22283]],[[136.72936,35.20259],[136.72958,35.20324],[136.72971,35.20398],[136.72966,35.20508],[136.72745,35.21361]],[[136.78648,35.28988],[136.78585,35.28955]],[[136.72455,35.1134],[136.72365,35.11325],[136.72248,35.11328],[136.72128,35.11366],[136.72079,35.11397],[136.71664,35.11723],[136.71568,35.11818],[136.7152,35.11879],[136.7144,35.1201],[136.71157,35.12501],[136.71126,35.12569],[136.71103,35.12665],[136.71103,35.12741],[136.71136,35.12898]],[[136.75751,35.27691],[136.7579,35.27743]],[[136.76543,35.28369],[136.76595,35.28383]],[[136.77384,35.31942],[136.77437,35.31912]],[[136.72887,35.22222],[136.72911,35.22283]],[[136.77384,35.31942],[136.7731,35.3198],[136.76142,35.32423]],[[136.79614,35.30382],[136.79538,35.30485],[136.79246,35.30723]],[[136.79632,35.30343],[136.79614,35.30382]],[[136.7779,35.28705],[136.77861,35.28723]],[[136.73101,35.17845],[136.73113,35.17761]],[[136.79871,35.29859],[136.79878,35.29797],[136.79863,35.29722],[136.79838,35.29674],[136.79784,35.29615],[136.79661,35.29541],[136.78648,35.28988]],[[136.79763,35.30074],[136.79871,35.29859]],[[136.72726,35.21428],[136.72698,35.21516],[136.72705,35.21634],[136.72887,35.22222]],[[136.73709,35.24798],[136.73682,35.24724]],[[136.71136,35.12898],[136.71151,35.12971]],[[136.71708,35.14808],[136.72835,35.16332]],[[136.75751,35.27691],[136.75371,35.27215],[136.75191,35.27007],[136.74808,35.26641]],[[136.72726,35.21428],[136.72745,35.21361]],[[136.73264,35.23421],[136.73682,35.24724]],[[136.73078,35.18055],[136.72991,35.18395],[136.72931,35.18533],[136.72728,35.18944]],[[136.73101,35.17845],[136.73078,35.18055]],[[136.79246,35.30723],[136.79182,35.30774]],[[136.79182,35.30774],[136.7859,35.31238],[136.78187,35.31467],[136.77437,35.31912]],[[136.71629,35.14702],[136.71708,35.14808]],[[136.77861,35.28723],[136.78434,35.28885],[136.78585,35.28955]],[[136.72691,35.19017],[136.72633,35.19138],[136.72583,35.19307],[136.72576,35.19434],[136.72591,35.19545],[136.72631,35.19665],[136.72895,35.20184]],[[136.79632,35.30343],[136.79763,35.30074]],[[136.72728,35.18944],[136.72691,35.19017]],[[136.71151,35.12971],[136.71477,35.14441],[136.71535,35.14574],[136.71629,35.14702]],[[136.73264,35.23421],[136.7324,35.23354]],[[136.72936,35.20259],[136.72895,35.20184]],[[136.74752,35.26598],[136.74808,35.26641]],[[136.73935,35.25608],[136.73954,35.2568]],[[136.73954,35.2568],[136.73994,35.25897],[136.74044,35.26087],[136.74068,35.26147],[136.74132,35.26254],[136.74218,35.26336],[136.74311,35.26397],[136.74752,35.26598]],[[136.72835,35.16332],[136.72885,35.16403]],[[136.76595,35.28383],[136.7779,35.28705]],[[136.7579,35.27743],[136.76069,35.281],[136.76155,35.28193],[136.76231,35.28249],[136.7632,35.28298],[136.76413,35.28333],[136.76543,35.28369]]]}}