{"type":"Feature","properties":{"id":"名古屋臨海高速鉄道_西名古屋港線","name":"西名古屋港線","operator":"名古屋臨海高速鉄道","railType":"普通鉄道","operatorType":"第三セクター","category":"rail","attribution":"国土数値情報（鉄道データ）国土交通省"},"geometry":{"type":"MultiLineString","coordinates":[[[136.86321,35.09177],[136.86351,35.09125]],[[136.8542,35.07479],[136.85418,35.07586]],[[136.86139,35.10508],[136.86122,35.10393]],[[136.86138,35.1485],[136.86128,35.14693],[136.86189,35.14062]],[[136.84952,35.04911],[136.84897,35.04866]],[[136.8542,35.07479],[136.85414,35.06202],[136.85419,35.057],[136.85327,35.05302],[136.85284,35.05207],[136.85217,35.05133],[136.84952,35.04911]],[[136.88254,35.16257],[136.8813,35.16146]],[[136.86198,35.13948],[136.86223,35.13703],[136.86238,35.13456],[136.86226,35.13308],[136.86196,35.13216]],[[136.86156,35.14966],[136.86138,35.1485]],[[136.86189,35.14062],[136.86198,35.13948]],[[136.88277,35.16834],[136.88231,35.16898]],[[136.8627,35.11413],[136.86139,35.10508]],[[136.86191,35.13111],[136.86198,35.12784],[136.86193,35.12752],[136.86153,35.1265],[136.86143,35.12571]],[[136.86139,35.12466],[136.86143,35.12571]],[[136.86139,35.12466],[136.86136,35.12097],[136.86145,35.12029],[136.86249,35.11762],[136.86277,35.1163],[136.86285,35.11557],[136.86281,35.11498]],[[136.86122,35.10393],[136.86035,35.09896],[136.86037,35.09735],[136.86073,35.096],[136.86115,35.09511],[136.86321,35.09177]],[[136.8627,35.11413],[136.86281,35.11498]],[[136.86351,35.09125],[136.86488,35.08886],[136.86582,35.08701],[136.86595,35.08577],[136.86562,35.08464],[136.86539,35.08428],[136.86516,35.08408],[136.86304,35.08267],[136.86257,35.08223],[136.86191,35.08137],[136.86112,35.08069],[136.85553,35.07798],[136.85485,35.07758],[136.85435,35.07702],[136.85418,35.07586]],[[136.86191,35.13111],[136.86196,35.13216]],[[136.88277,35.16834],[136.88383,35.16649],[136.88395,35.16535],[136.88377,35.16455],[136.88326,35.16348],[136.88296,35.16298],[136.88254,35.16257]],[[136.8813,35.16146],[136.87931,35.15984],[136.87441,35.15753]],[[136.8702,35.15541],[136.87205,35.15621],[136.87441,35.15753]],[[136.8702,35.15541],[136.86784,35.15415],[136.86375,35.1523],[136.8626,35.15166],[136.86227,35.15132],[136.86192,35.15079],[136.86178,35.15052],[136.86156,35.14966]]]}}