{"type":"Feature","properties":{"id":"名古屋鉄道_広見線","name":"広見線","operator":"名古屋鉄道","railType":"普通鉄道","operatorType":"民営","category":"rail","attribution":"国土数値情報（鉄道データ）国土交通省"},"geometry":{"type":"MultiLineString","coordinates":[[[137.08817,35.43341],[137.09181,35.43386],[137.10282,35.43388],[137.10374,35.43401],[137.10475,35.43439]],[[137.12156,35.43159],[137.12191,35.43103]],[[137.08817,35.43341],[137.08731,35.43328]],[[137.03645,35.4323],[137.03187,35.43217],[137.03094,35.43197],[137.03055,35.43176],[137.01865,35.42192],[137.01802,35.42105],[137.01783,35.42052],[137.01779,35.41968],[137.01826,35.41865]],[[137.01876,35.41766],[137.02069,35.41399],[137.02089,35.41339],[137.02091,35.41306],[137.02068,35.41254],[137.01832,35.40959],[137.0178,35.40907],[137.01631,35.40803],[137.01247,35.40595],[137.01101,35.40502]],[[137.12719,35.42973],[137.12359,35.42974],[137.12306,35.42986],[137.12268,35.43003],[137.1224,35.43028],[137.12191,35.43103]],[[137.01101,35.40502],[137.01033,35.40444]],[[137.05567,35.42292],[137.05568,35.42361]],[[137.12789,35.42973],[137.12719,35.42973]],[[137.05568,35.42361],[137.05568,35.42481]],[[136.96173,35.37943],[136.96263,35.37962]],[[137.08731,35.43328],[137.08591,35.43293],[137.08506,35.43256],[137.07985,35.42927],[137.07566,35.42716],[137.07464,35.42669],[137.07234,35.42603],[137.0713,35.4259],[137.06739,35.4262],[137.06659,35.42644],[137.0655,35.42698],[137.06403,35.42752],[137.0631,35.42772],[137.06192,35.42777],[137.06088,35.42766],[137.06038,35.42753],[137.05812,35.42662],[137.05668,35.42579],[137.05589,35.42517],[137.05568,35.42481]],[[137.10553,35.43467],[137.10676,35.4351],[137.10729,35.4352],[137.11179,35.43507],[137.11889,35.43373],[137.11956,35.43357],[137.12054,35.43295],[137.12094,35.43251],[137.12156,35.43159]],[[137.10475,35.43439],[137.10553,35.43467]],[[137.03726,35.43232],[137.03645,35.4323]],[[137.01826,35.41865],[137.01876,35.41766]],[[136.96263,35.37962],[136.964,35.38003],[136.97671,35.38768],[136.97966,35.38955]],[[136.97966,35.38955],[136.98045,35.39005]],[[136.98045,35.39005],[136.9819,35.39074],[136.98256,35.39088],[136.98388,35.39092],[136.99162,35.39049],[136.99436,35.38951],[136.99484,35.38945],[136.99606,35.38949],[136.99736,35.38968],[137.00089,35.39125],[137.00141,35.3917],[137.00545,35.39792],[137.00795,35.40195],[137.00886,35.40298],[137.01033,35.40444]],[[137.03726,35.43232],[137.05129,35.43271],[137.05241,35.43264],[137.05368,35.43234],[137.05449,35.43196],[137.05525,35.43131],[137.05545,35.43101],[137.0557,35.43031],[137.05575,35.43],[137.05568,35.42481]],[[136.94491,35.3781],[136.945,35.37756],[136.94519,35.37716],[136.94552,35.37682],[136.94596,35.3766],[136.94637,35.37651],[136.94718,35.37652],[136.95062,35.37746],[136.96173,35.37943]],[[136.94534,35.37928],[136.94491,35.3781]],[[136.94573,35.38052],[136.94534,35.37928]]]}}