{"type":"Feature","properties":{"id":"名古屋鉄道_竹鼻線","name":"竹鼻線","operator":"名古屋鉄道","railType":"普通鉄道","operatorType":"民営","category":"rail","attribution":"国土数値情報（鉄道データ）国土交通省"},"geometry":{"type":"MultiLineString","coordinates":[[[136.76449,35.37437],[136.7648,35.37498]],[[136.72871,35.34818],[136.72908,35.34991],[136.73118,35.35589],[136.73149,35.35665],[136.73206,35.3577],[136.73322,35.35923],[136.73575,35.36222],[136.73597,35.3626],[136.73629,35.36389],[136.7365,35.36427],[136.73676,35.36454],[136.73703,35.36474],[136.73775,35.36506],[136.73951,35.36506]],[[136.70001,35.32228],[136.69994,35.32161]],[[136.7286,35.34757],[136.72871,35.34818]],[[136.72697,35.34016],[136.72713,35.34041],[136.72734,35.34106],[136.7286,35.34757]],[[136.70599,35.32671],[136.7012,35.32589],[136.70081,35.32571],[136.70028,35.32518],[136.70013,35.32487],[136.70001,35.32228]],[[136.72659,35.33958],[136.72697,35.34016]],[[136.75798,35.36916],[136.75984,35.37211],[136.76042,35.37272],[136.76155,35.37321],[136.76346,35.37372],[136.76403,35.374],[136.76449,35.37437]],[[136.75756,35.36849],[136.75798,35.36916]],[[136.73951,35.36506],[136.74034,35.36501]],[[136.70689,35.32684],[136.70599,35.32671]],[[136.72171,35.3327],[136.72011,35.33048],[136.71879,35.32944],[136.71767,35.32888],[136.71603,35.32839],[136.70689,35.32684]],[[136.72211,35.33323],[136.72659,35.33958]],[[136.74034,35.36501],[136.7422,35.36493],[136.74287,35.36503],[136.7463,35.36621],[136.7477,35.36646],[136.74905,35.36634],[136.75052,35.36597],[136.7526,35.36558],[136.75346,35.36548],[136.7549,35.36553],[136.75544,35.36574],[136.75622,35.36642],[136.75756,35.36849]],[[136.72211,35.33323],[136.72171,35.3327]],[[136.69973,35.31577],[136.69971,35.31512]],[[136.69994,35.32161],[136.69973,35.31577]]]}}