{"type":"Feature","properties":{"id":"名古屋鉄道_空港線","name":"空港線","operator":"名古屋鉄道","railType":"普通鉄道","operatorType":"民営","category":"rail","attribution":"国土数値情報（鉄道データ）国土交通省"},"geometry":{"type":"MultiLineString","coordinates":[[[136.83544,34.89075],[136.83478,34.89159]],[[136.81567,34.86126],[136.81509,34.8642],[136.81502,34.8652],[136.81506,34.86606],[136.81521,34.86683],[136.8157,34.86804],[136.81604,34.86859],[136.81679,34.86944],[136.81767,34.87123],[136.81872,34.87258],[136.82737,34.87909]],[[136.82883,34.88014],[136.82737,34.87909]],[[136.82883,34.88014],[136.83019,34.88081],[136.83424,34.8823],[136.83523,34.8829],[136.83612,34.88378],[136.83647,34.88453],[136.83654,34.88488],[136.83654,34.88616],[136.83604,34.88949],[136.83585,34.89002],[136.83544,34.89075]],[[136.81567,34.86126],[136.81628,34.85853]]]}}