{"type":"Feature","properties":{"id":"名古屋鉄道_知多新線","name":"知多新線","operator":"名古屋鉄道","railType":"普通鉄道","operatorType":"民営","category":"rail","attribution":"国土数値情報（鉄道データ）国土交通省"},"geometry":{"type":"MultiLineString","coordinates":[[[136.8631,34.79987],[136.86443,34.78775]],[[136.86309,34.80071],[136.8631,34.79987]],[[136.86443,34.78775],[136.86454,34.78662]],[[136.86708,34.80749],[136.86654,34.80705]],[[136.86059,34.77199],[136.85687,34.76533],[136.85663,34.76449],[136.85657,34.76397],[136.85664,34.76289],[136.85699,34.76172],[136.85753,34.76071],[136.85929,34.75831],[136.85994,34.75704],[136.86013,34.75649],[136.86039,34.75465],[136.86084,34.75357],[136.86153,34.75229],[136.86234,34.7511],[136.86384,34.7493],[136.86463,34.74853],[136.86665,34.74735],[136.86831,34.74665],[136.87432,34.74495]],[[136.86091,34.77261],[136.86059,34.77199]],[[136.87617,34.74442],[136.87432,34.74495]],[[136.86708,34.80749],[136.86963,34.80963],[136.87137,34.81142],[136.87355,34.81436],[136.87553,34.81725],[136.87645,34.81824],[136.87796,34.81947],[136.87942,34.8204],[136.88194,34.82183],[136.88287,34.82223],[136.88626,34.82331],[136.89158,34.8248],[136.89337,34.82514],[136.89646,34.8255],[136.89993,34.82545],[136.91143,34.8242],[136.91286,34.8241],[136.91382,34.8242],[136.91484,34.82456],[136.9158,34.82522],[136.91638,34.8259],[136.91704,34.82709]],[[136.91704,34.82709],[136.91682,34.82883]],[[136.86654,34.80705],[136.86549,34.80611],[136.8641,34.80434],[136.86343,34.80263],[136.86316,34.80141],[136.86309,34.80071]],[[136.91682,34.82883],[136.91671,34.82982]],[[136.86454,34.78662],[136.86501,34.78214],[136.86496,34.78107],[136.86482,34.78019],[136.86447,34.77911],[136.86417,34.77847],[136.86091,34.77261]]]}}