{"type":"Feature","properties":{"id":"名古屋鉄道_豊川線","name":"豊川線","operator":"名古屋鉄道","railType":"軌道","operatorType":"民営","category":"tram","attribution":"国土数値情報（鉄道データ）国土交通省"},"geometry":{"type":"MultiLineString","coordinates":[[[137.32843,34.83708],[137.32785,34.83782]],[[137.3957,34.82146],[137.39505,34.82071],[137.39405,34.81891],[137.39335,34.81839],[137.39258,34.81799],[137.3917,34.81772],[137.39101,34.81769],[137.39007,34.81783],[137.38835,34.81826]],[[137.39622,34.82208],[137.3957,34.82146]],[[137.37008,34.82369],[137.36181,34.82734],[137.35985,34.82807],[137.35902,34.8283],[137.35804,34.82844],[137.35247,34.82904]],[[137.37082,34.82338],[137.37008,34.82369]],[[137.35165,34.82913],[137.35247,34.82904]],[[137.3317,34.83287],[137.32843,34.83708]],[[137.35165,34.82913],[137.33548,34.83085],[137.33433,34.83119],[137.3334,34.83165],[137.33236,34.83232],[137.3317,34.83287]],[[137.38835,34.81826],[137.38712,34.81858]],[[137.38712,34.81858],[137.37434,34.82183],[137.37082,34.82338]]]}}