{"type":"Feature","properties":{"id":"名古屋鉄道_三河線","name":"三河線","operator":"名古屋鉄道","railType":"普通鉄道","operatorType":"民営","category":"rail","attribution":"国土数値情報（鉄道データ）国土交通省"},"geometry":{"type":"MultiLineString","coordinates":[[[137.16198,35.09913],[137.16259,35.10021]],[[137.16288,35.10073],[137.16259,35.10021]],[[137.11449,35.03987],[137.0998,35.02888],[137.09784,35.02746],[137.09617,35.0265]],[[137.09617,35.0265],[137.09551,35.02611]],[[137.11502,35.04028],[137.11565,35.0407],[137.11654,35.04145],[137.11686,35.04179],[137.11745,35.04274],[137.11857,35.0457],[137.12109,35.05317],[137.12186,35.05468],[137.12233,35.05518],[137.12327,35.05584],[137.12428,35.05626],[137.12688,35.05711],[137.12872,35.05789]],[[136.99415,34.98503],[136.99459,34.98562],[136.99517,34.98608],[136.99704,34.98725],[137.00424,34.99067],[137.00569,34.991],[137.00711,34.99117],[137.00837,34.99087]],[[137.02408,34.99506],[137.02567,34.99639],[137.02654,34.9968],[137.04022,35.00237],[137.04073,35.00284],[137.04098,35.00325],[137.04105,35.00353],[137.04101,35.00396],[137.04072,35.00479]],[[137.07695,35.01065],[137.0764,35.01019],[137.07594,35.00992],[137.07481,35.0095],[137.07382,35.00943],[137.07166,35.00955],[137.07073,35.00952],[137.07012,35.00941],[137.06916,35.00899],[137.06756,35.00807],[137.06644,35.0077],[137.04573,35.00407]],[[137.09551,35.02611],[137.08996,35.02308],[137.08842,35.02211],[137.07753,35.01124]],[[137.15498,35.07214],[137.15628,35.07307],[137.15668,35.0735],[137.15703,35.07426],[137.15712,35.07498],[137.15639,35.07989],[137.15559,35.08393],[137.15559,35.08506],[137.15603,35.08673]],[[137.18051,35.10772],[137.18225,35.10791],[137.18368,35.1083],[137.18446,35.10871],[137.18513,35.10936],[137.18539,35.10979],[137.18566,35.11065],[137.18583,35.11167],[137.18586,35.11242],[137.18564,35.11327],[137.18485,35.11433]],[[137.04573,35.00407],[137.04486,35.00394]],[[137.18051,35.10772],[137.17975,35.10762]],[[137.15603,35.08673],[137.15645,35.08779]],[[137.16198,35.09913],[137.15872,35.09346],[137.15792,35.09172],[137.15645,35.08779]],[[137.11502,35.04028],[137.11449,35.03987]],[[136.99415,34.98503],[136.99376,34.98434]],[[137.04009,35.00597],[137.04072,35.00479]],[[137.04486,35.00394],[137.04273,35.00358],[137.04168,35.00388],[137.04102,35.00437],[137.04072,35.00479]],[[137.16288,35.10073],[137.16379,35.10154],[137.16421,35.1018],[137.16544,35.10234],[137.1771,35.10687],[137.17835,35.10728],[137.17975,35.10762]],[[137.18485,35.11433],[137.18433,35.11476]],[[137.01018,34.99019],[137.01194,34.98931],[137.01317,34.9889],[137.0141,34.9889],[137.01512,34.98914],[137.01677,34.98996],[137.02018,34.99184],[137.02347,34.9945]],[[137.12872,35.05789],[137.13022,35.05856]],[[137.02347,34.9945],[137.02408,34.99506]],[[137.00837,34.99087],[137.01018,34.99019]],[[137.17858,35.12143],[137.17883,35.12204]],[[137.07753,35.01124],[137.07695,35.01065]],[[137.13022,35.05856],[137.13827,35.06212],[137.13961,35.06325],[137.14065,35.06461],[137.14181,35.06572],[137.1446,35.06743],[137.15001,35.06916],[137.15248,35.07049],[137.15436,35.0717]],[[137.15436,35.0717],[137.15498,35.07214]],[[137.04009,35.00597],[137.03924,35.00649]],[[137.18433,35.11476],[137.18236,35.11587],[137.18047,35.11669],[137.17942,35.11735],[137.17868,35.11809],[137.17827,35.11873],[137.17805,35.11948],[137.17816,35.12034],[137.17858,35.12143]],[[136.98943,34.88697],[136.98941,34.88553],[136.98923,34.88463],[136.98586,34.87516],[136.98568,34.87448]],[[136.99019,34.89629],[136.99,34.89572],[136.98977,34.89416],[136.98958,34.89201],[136.98945,34.88765]],[[136.98976,34.94708],[136.98912,34.94633]],[[136.99532,34.96358],[136.9944,34.9622],[136.99429,34.96181],[136.99387,34.9578],[136.99128,34.94934],[136.99072,34.94829],[136.98976,34.94708]],[[136.98932,34.92118],[136.98936,34.91993],[136.99056,34.9152],[136.99118,34.91066],[136.99238,34.9064]],[[136.98945,34.88765],[136.98943,34.88697]],[[136.98568,34.87448],[136.98557,34.87355]],[[136.99238,34.9064],[136.99259,34.90555]],[[136.99376,34.98434],[136.99358,34.98355],[136.9936,34.98311],[136.99908,34.97172],[136.99935,34.97075],[136.9992,34.96956],[136.99887,34.96887],[136.99572,34.96418]],[[136.98944,34.92188],[136.98932,34.92118]],[[136.9901,34.93038],[136.99034,34.92956],[136.99049,34.92852],[136.99048,34.92695],[136.98944,34.92188]],[[136.99259,34.90555],[136.99285,34.90429],[136.99274,34.90181],[136.99245,34.90101],[136.99042,34.89692]],[[136.99042,34.89692],[136.99019,34.89629]],[[136.99572,34.96418],[136.99532,34.96358]],[[136.98982,34.93116],[136.9901,34.93038]],[[136.98912,34.94633],[136.98603,34.94262],[136.98569,34.94184],[136.98563,34.94081],[136.98581,34.94024],[136.98982,34.93116]]]}}