{"type":"Feature","properties":{"id":"名古屋市_6号線桜通線","name":"6号線桜通線","operator":"名古屋市","railType":"普通鉄道","operatorType":"公営","category":"rail","attribution":"国土数値情報（鉄道データ）国土交通省"},"geometry":{"type":"MultiLineString","coordinates":[[[136.95536,35.10236],[136.95443,35.10285]],[[136.91544,35.17417],[136.90838,35.17376]],[[136.9336,35.14936],[136.93376,35.15034]],[[136.93376,35.15034],[136.93515,35.15834]],[[136.93645,35.11843],[136.93631,35.11937]],[[136.94475,35.10546],[136.94365,35.10567]],[[136.94365,35.10567],[136.94047,35.10621],[136.93735,35.10696],[136.93706,35.10711],[136.93696,35.10725],[136.9366,35.10802],[136.93675,35.10883]],[[136.93016,35.1733],[136.92882,35.17351]],[[136.88841,35.17197],[136.8845,35.17132],[136.88294,35.17097]],[[136.90696,35.17363],[136.89943,35.1731]],[[136.88164,35.17061],[136.88045,35.17017],[136.8773,35.16811],[136.87678,35.16786],[136.87584,35.16758],[136.87396,35.16762]],[[136.89784,35.17298],[136.88954,35.17214]],[[136.93447,35.13158],[136.93431,35.13248]],[[136.93335,35.13947],[136.93329,35.14039]],[[136.93431,35.13248],[136.93335,35.13947]],[[136.93515,35.15834],[136.93529,35.15927]],[[136.93551,35.12462],[136.93536,35.12557]],[[136.93693,35.1098],[136.93739,35.11244],[136.93645,35.11843]],[[136.93529,35.15927],[136.93692,35.1685]],[[136.92882,35.17351],[136.92505,35.17402],[136.92388,35.17409],[136.92217,35.17416],[136.91693,35.17416]],[[136.88294,35.17097],[136.88164,35.17061]],[[136.90838,35.17376],[136.90696,35.17363]],[[136.93692,35.1685],[136.93709,35.16945]],[[136.93709,35.16945],[136.93721,35.17059],[136.93696,35.17096],[136.93606,35.17145],[136.93249,35.17284],[136.93016,35.1733]],[[136.93631,35.11937],[136.93551,35.12462]],[[136.91693,35.17416],[136.91544,35.17417]],[[136.93675,35.10883],[136.93693,35.1098]],[[136.89943,35.1731],[136.89784,35.17298]],[[136.87396,35.16762],[136.87281,35.16764]],[[136.93329,35.14039],[136.9336,35.14936]],[[136.95443,35.10285],[136.95241,35.10378],[136.94902,35.10442],[136.94475,35.10546]],[[136.93536,35.12557],[136.93447,35.13158]],[[136.88954,35.17214],[136.88841,35.17197]],[[136.95536,35.10236],[136.95752,35.10143],[136.95814,35.10129],[136.95892,35.10127],[136.96182,35.10161],[136.96402,35.10238],[136.96541,35.10265]],[[136.96541,35.10265],[136.96679,35.10275]],[[136.96679,35.10275],[136.96982,35.10295],[136.97185,35.10267],[136.97557,35.10253]],[[136.97557,35.10253],[136.97693,35.1025]],[[136.97693,35.1025],[136.97914,35.10247],[136.98259,35.10278],[136.98346,35.10274],[136.98408,35.10261],[136.98484,35.10231],[136.98541,35.10195],[136.98886,35.09905]],[[136.98886,35.09905],[136.98984,35.0983]],[[136.98984,35.0983],[136.99083,35.09778],[136.99579,35.09598],[136.99712,35.0953]],[[136.99712,35.0953],[136.99811,35.09446]]]}}