{"type":"Feature","properties":{"id":"名古屋市_1号線東山線","name":"1号線東山線","operator":"名古屋市","railType":"普通鉄道","operatorType":"公営","category":"rail","attribution":"国土数値情報（鉄道データ）国土交通省"},"geometry":{"type":"MultiLineString","coordinates":[[[136.99643,35.16836],[136.99555,35.16824]],[[137.01319,35.17528],[137.01017,35.17499],[137.00922,35.17479],[137.00792,35.17435],[137.00697,35.17375]],[[136.97294,35.16055],[136.97234,35.16071]],[[137.02162,35.18285],[137.02127,35.18226]],[[136.97234,35.16071],[136.96406,35.16375]],[[136.99555,35.16824],[136.99422,35.16794],[136.9931,35.16758],[136.99178,35.16696],[136.9899,35.16566],[136.9878,35.16393],[136.98622,35.16295]],[[137.00621,35.17321],[137.00435,35.17191],[137.00078,35.16969],[136.9996,35.1692],[136.99812,35.16872],[136.99643,35.16836]],[[137.00697,35.17375],[137.00621,35.17321]],[[136.96406,35.16375],[136.96336,35.164]],[[136.98622,35.16295],[136.98556,35.16259]],[[137.01399,35.17537],[137.01319,35.17528]],[[136.98556,35.16259],[136.98252,35.16147],[136.97977,35.16086],[136.97861,35.16068],[136.97667,35.16059],[136.97455,35.16051],[136.97294,35.16055]],[[137.02127,35.18226],[137.02096,35.18166],[137.0208,35.18097],[137.02073,35.18027],[137.02072,35.17801],[137.02045,35.17717],[137.02,35.17663],[137.01938,35.17622],[137.0185,35.17591],[137.01729,35.1757],[137.01399,35.17537]],[[136.85436,35.15721],[136.85446,35.15912]],[[136.8626,35.17295],[136.86694,35.17673]],[[136.90821,35.16994],[136.909,35.16996]],[[136.93036,35.17062],[136.93768,35.16982]],[[136.89699,35.1692],[136.89553,35.16915],[136.89276,35.16948],[136.89172,35.16949],[136.88967,35.16929],[136.88701,35.16876],[136.88527,35.1685],[136.88511,35.16853],[136.88486,35.16873],[136.88413,35.17081],[136.88388,35.1713]],[[136.93847,35.16975],[136.93768,35.16982]],[[136.87779,35.17755],[136.87713,35.17755]],[[136.85346,35.14968],[136.85436,35.15721]],[[136.909,35.16996],[136.91018,35.16998],[136.9197,35.17064]],[[136.89782,35.16923],[136.90821,35.16994]],[[136.94646,35.16773],[136.94559,35.16792]],[[136.86755,35.17725],[136.86797,35.1775],[136.87713,35.17755]],[[136.85493,35.16807],[136.85494,35.16818],[136.85541,35.16852],[136.85803,35.16983],[136.86054,35.17122],[136.86199,35.17245]],[[136.88388,35.1713],[136.88352,35.17191]],[[136.85308,35.14724],[136.85346,35.14968]],[[136.96336,35.164],[136.95662,35.16629],[136.95552,35.16656],[136.95454,35.1667],[136.95292,35.1666]],[[136.92958,35.1707],[136.93036,35.17062]],[[136.92051,35.1707],[136.92447,35.17095],[136.92829,35.17071],[136.92958,35.1707]],[[136.85492,35.16739],[136.85493,35.16807]],[[136.86199,35.17245],[136.8626,35.17295]],[[136.88352,35.17191],[136.88265,35.17356],[136.88129,35.1756],[136.87951,35.17752],[136.87779,35.17755]],[[136.95292,35.1666],[136.95209,35.16649]],[[136.85446,35.15912],[136.8547,35.16372],[136.85461,35.16533],[136.85492,35.16739]],[[136.89782,35.16923],[136.89699,35.1692]],[[136.85341,35.14026],[136.85303,35.14653],[136.85308,35.14724]],[[136.94559,35.16792],[136.93847,35.16975]],[[136.85362,35.13791],[136.85341,35.14026]],[[136.86694,35.17673],[136.86755,35.17725]],[[136.9197,35.17064],[136.92051,35.1707]],[[136.95209,35.16649],[136.95173,35.16649],[136.94646,35.16773]]]}}