{"type":"Feature","properties":{"id":"名古屋市_2号線名城線","name":"2号線名城線","operator":"名古屋市","railType":"普通鉄道","operatorType":"公営","category":"rail","attribution":"国土数値情報（鉄道データ）国土交通省"},"geometry":{"type":"MultiLineString","coordinates":[[[136.90169,35.14356],[136.90218,35.14419]],[[136.90471,35.15027],[136.90557,35.15175],[136.9059,35.15251],[136.90673,35.15724]],[[136.90562,35.18112],[136.90583,35.17989],[136.90619,35.1791],[136.90726,35.17823],[136.90757,35.17781],[136.90782,35.17694],[136.90807,35.17449]],[[136.9086,35.16982],[136.9082,35.17328]],[[136.90476,35.18992],[136.90481,35.19034],[136.90473,35.19111]],[[136.91069,35.19715],[136.90962,35.19717]],[[136.90807,35.17449],[136.9082,35.17328]],[[136.90553,35.18182],[136.90562,35.18112]],[[136.9302,35.19574],[136.92949,35.19603]],[[136.90476,35.18992],[136.90463,35.18819],[136.90471,35.1873],[136.90503,35.18461],[136.90553,35.18182]],[[136.90866,35.16919],[136.9086,35.16982]],[[136.93582,35.19291],[136.93317,35.19436],[136.9302,35.19574]],[[136.92949,35.19603],[136.92156,35.19627]],[[136.93653,35.1926],[136.93582,35.19291]],[[136.92156,35.19627],[136.92087,35.19628]],[[136.90218,35.14419],[136.90298,35.14567],[136.90432,35.14903],[136.90444,35.1496]],[[136.90687,35.158],[136.90728,35.1604],[136.90841,35.16241],[136.90863,35.16299]],[[136.90863,35.16299],[136.90882,35.16362]],[[136.90882,35.16362],[136.90892,35.16399],[136.90892,35.16461],[136.90866,35.16919]],[[136.90673,35.15724],[136.90687,35.158]],[[136.90444,35.1496],[136.90471,35.15027]],[[136.92087,35.19628],[136.91794,35.19643],[136.91625,35.1966],[136.91524,35.19719],[136.91069,35.19715]],[[136.90962,35.19717],[136.90756,35.19724],[136.90659,35.19678],[136.90577,35.19627],[136.90511,35.19552],[136.90479,35.19473],[136.90465,35.19381],[136.90458,35.1924],[136.90473,35.19111]]]}}