{"type":"Feature","properties":{"id":"名古屋鉄道_河和線","name":"河和線","operator":"名古屋鉄道","railType":"普通鉄道","operatorType":"民営","category":"rail","attribution":"国土数値情報（鉄道データ）国土交通省"},"geometry":{"type":"MultiLineString","coordinates":[[[136.907,34.98868],[136.90671,34.98986]],[[136.89365,35.01],[136.89382,35.0093]],[[136.89382,35.0093],[136.8946,35.00609],[136.89512,35.00496],[136.89575,35.00419],[136.89683,35.00338],[136.90242,35.00011],[136.90388,34.99899],[136.90436,34.99844],[136.90479,34.99775],[136.90509,34.99702],[136.90671,34.98986]],[[136.89215,35.01955],[136.89191,35.01821],[136.89195,35.01742],[136.89365,35.01]],[[136.89238,35.01998],[136.89215,35.01955]],[[136.89276,35.02063],[136.89238,35.01998]],[[136.91682,34.82883],[136.91671,34.82982]],[[136.91704,34.82709],[136.91682,34.82883]],[[136.92335,34.91779],[136.92198,34.92281],[136.91875,34.9306]],[[136.91862,34.79775],[136.91823,34.79845],[136.91779,34.79961],[136.91738,34.8024],[136.91618,34.80613],[136.91592,34.8077],[136.91603,34.80926],[136.91745,34.81525],[136.91784,34.81786],[136.91789,34.82013],[136.91704,34.82709]],[[136.91678,34.94049],[136.91665,34.94145]],[[136.92207,34.88658],[136.92162,34.88581]],[[136.91567,34.96174],[136.91567,34.96267]],[[136.92582,34.8935],[136.92552,34.8925],[136.92489,34.89119],[136.92207,34.88658]],[[136.92354,34.91708],[136.92504,34.91138],[136.92544,34.90945]],[[136.91753,34.8792],[136.91698,34.87815]],[[136.91698,34.87815],[136.91635,34.87666],[136.91609,34.87527],[136.91619,34.86724],[136.91644,34.85872]],[[136.91875,34.9306],[136.91816,34.93201]],[[136.92575,34.90154],[136.92592,34.89447]],[[136.92592,34.89447],[136.92582,34.8935]],[[136.91647,34.85794],[136.91657,34.85463],[136.91656,34.85096]],[[136.92335,34.91779],[136.92354,34.91708]],[[136.91671,34.82982],[136.91633,34.83407],[136.91629,34.8366],[136.91653,34.85027]],[[136.92573,34.90266],[136.92575,34.90154]],[[136.92544,34.90945],[136.9255,34.90875]],[[136.91169,34.77833],[136.90883,34.77998],[136.90833,34.78041],[136.90799,34.78088],[136.90744,34.78201],[136.90706,34.78325],[136.90708,34.7841],[136.90732,34.78486],[136.90857,34.78639],[136.91047,34.78845],[136.91196,34.78991],[136.91287,34.79039],[136.91705,34.79169],[136.91814,34.79217],[136.91888,34.79272],[136.91923,34.79308],[136.91953,34.79354],[136.91981,34.7943],[136.91994,34.79496],[136.91989,34.79587],[136.91934,34.79675]],[[136.9255,34.90875],[136.92573,34.90266]],[[136.91665,34.94145],[136.91527,34.95154],[136.91537,34.9547]],[[136.91537,34.9547],[136.91539,34.95546]],[[136.91284,34.77772],[136.91169,34.77833]],[[136.91644,34.85872],[136.91647,34.85794]],[[136.91539,34.95546],[136.91567,34.96174]],[[136.91816,34.93201],[136.91769,34.93368],[136.91678,34.94049]],[[136.92162,34.88581],[136.91753,34.8792]],[[136.91934,34.79675],[136.91862,34.79775]],[[136.91231,34.9742],[136.91023,34.97723],[136.90948,34.97857],[136.90872,34.98085],[136.907,34.98868]],[[136.91293,34.97335],[136.91231,34.9742]],[[136.91567,34.96267],[136.91583,34.96699],[136.91576,34.968],[136.91563,34.96861],[136.91533,34.96946],[136.91473,34.97068],[136.91378,34.97223],[136.91293,34.97335]],[[136.91656,34.85096],[136.91653,34.85027]]]}}