{"type":"Feature","properties":{"id":"名古屋鉄道_津島線","name":"津島線","operator":"名古屋鉄道","railType":"普通鉄道","operatorType":"民営","category":"rail","attribution":"国土数値情報（鉄道データ）国土交通省"},"geometry":{"type":"MultiLineString","coordinates":[[[136.73101,35.17845],[136.73113,35.17761]],[[136.73101,35.17845],[136.73078,35.18055]],[[136.73078,35.18055],[136.73091,35.18161],[136.73114,35.1821],[136.73147,35.18252],[136.73853,35.18852]],[[136.75122,35.19564],[136.75922,35.19919],[136.76,35.19947],[136.76111,35.19958],[136.7618,35.19956],[136.7662,35.19883]],[[136.80705,35.19582],[136.81297,35.19594],[136.81885,35.19587],[136.8251,35.19595]],[[136.76767,35.19858],[136.77531,35.19729],[136.78219,35.19644],[136.78571,35.19527],[136.7873,35.19528]],[[136.80542,35.19577],[136.80705,35.19582]],[[136.7393,35.18914],[136.74182,35.19124],[136.74262,35.1918],[136.74706,35.1938],[136.74725,35.19365],[136.74953,35.19485]],[[136.74953,35.19485],[136.75122,35.19564]],[[136.7662,35.19883],[136.76767,35.19858]],[[136.84497,35.19937],[136.84654,35.19849]],[[136.7873,35.19528],[136.78872,35.19532]],[[136.78872,35.19532],[136.80542,35.19577]],[[136.73853,35.18852],[136.7393,35.18914]],[[136.84472,35.19948],[136.84497,35.19937]],[[136.82661,35.19596],[136.83528,35.19611],[136.83586,35.19621],[136.838,35.19708],[136.84271,35.19953],[136.84369,35.19968],[136.84472,35.19948]],[[136.8251,35.19595],[136.82661,35.19596]]]}}