{"type":"Feature","properties":{"id":"四国旅客鉄道_予土線","name":"予土線","operator":"四国旅客鉄道","railType":"普通鉄道(JR)","operatorType":"JR在来線","category":"rail","attribution":"国土数値情報（鉄道データ）国土交通省"},"geometry":{"type":"MultiLineString","coordinates":[[[133.10562,33.18771],[133.10605,33.18838]],[[132.97575,33.19507],[132.97645,33.19741],[132.97657,33.19826],[132.97654,33.1991],[132.97636,33.1998],[132.9759,33.20054],[132.97549,33.20087],[132.9748,33.20123],[132.97375,33.20159],[132.96431,33.20384],[132.94594,33.2081],[132.94474,33.20834],[132.942,33.20863],[132.9404,33.20896],[132.93966,33.20931],[132.93893,33.2099],[132.93509,33.21496],[132.93414,33.21602],[132.9333,33.21671],[132.93243,33.21718],[132.93155,33.2174],[132.93088,33.21747],[132.92933,33.21737],[132.92791,33.21692],[132.92538,33.21563],[132.92395,33.21505],[132.92329,33.21487],[132.92205,33.21466],[132.92123,33.21461],[132.91906,33.21467],[132.9013,33.21722],[132.90039,33.21763],[132.89954,33.21817],[132.89878,33.21878],[132.89782,33.21973]],[[132.74476,33.22418],[132.74554,33.224]],[[132.97546,33.19445],[132.97575,33.19507]],[[132.72961,33.22429],[132.73021,33.2238],[132.73121,33.22329],[132.73165,33.22316],[132.73247,33.22308],[132.73373,33.22333],[132.73443,33.22369],[132.73594,33.22484],[132.73679,33.22511],[132.73728,33.22516],[132.73785,33.22514],[132.74062,33.22407],[132.74169,33.22406],[132.74348,33.22436],[132.74476,33.22418]],[[133.07514,33.16141],[133.07435,33.16141]],[[132.78352,33.1781],[132.78284,33.17833]],[[133.07435,33.16141],[133.07349,33.16137],[133.07301,33.16124],[133.06983,33.15983],[133.06915,33.15973],[133.06837,33.15982],[133.06739,33.16024],[133.06636,33.16085],[133.06086,33.1647],[133.05936,33.16562],[133.05821,33.16605],[133.05503,33.16699],[133.05344,33.16764],[133.05298,33.1679],[133.05226,33.16844],[133.05183,33.16905],[133.05145,33.1698],[133.05032,33.1709],[133.04985,33.17122],[133.04597,33.17315],[133.04529,33.17331],[133.04485,33.17333],[133.04306,33.17302],[133.0426,33.173],[133.042,33.1731],[133.03793,33.17491],[133.03617,33.17528],[133.03399,33.17545],[133.03015,33.17549]],[[132.85637,33.23501],[132.85551,33.23479]],[[133.03015,33.17549],[133.02934,33.17551]],[[133.02934,33.17551],[133.0234,33.17559],[133.01945,33.17539],[133.01846,33.17544],[133.01721,33.17569],[133.01594,33.17609],[133.0142,33.17696],[133.01176,33.17944],[133.01114,33.17978],[133.01064,33.17992],[133.00884,33.18018],[133.00781,33.17999],[133.00591,33.17987],[133.00454,33.18007],[133.00407,33.18029],[133.00356,33.18065],[133.00078,33.18323],[133.00004,33.18379],[132.9989,33.18429],[132.99745,33.18449],[132.99608,33.18436],[132.99501,33.18401],[132.9931,33.1829],[132.98864,33.18002],[132.98638,33.17876],[132.98548,33.17847],[132.98469,33.17833],[132.98361,33.17837],[132.9828,33.17855],[132.98199,33.17894],[132.98168,33.17917],[132.9811,33.17969],[132.98062,33.18026],[132.97839,33.18393],[132.97474,33.19032],[132.97444,33.19131],[132.97439,33.19179],[132.97445,33.19216],[132.97466,33.19286],[132.97546,33.19445]],[[132.76706,33.18716],[132.76569,33.18393],[132.7654,33.18283],[132.7654,33.18211],[132.76565,33.18039],[132.76599,33.17938],[132.76629,33.1789],[132.76924,33.17646],[132.7697,33.17624],[132.77127,33.17576],[132.77171,33.17567],[132.77218,33.17568],[132.77347,33.17603],[132.77795,33.17788],[132.77891,33.17814],[132.77994,33.17836],[132.78138,33.17849],[132.78284,33.17833]],[[132.78352,33.1781],[132.78556,33.17743],[132.78719,33.17723],[132.78816,33.17733],[132.78868,33.17748],[132.78931,33.17779],[132.78982,33.17817],[132.79028,33.17873],[132.79068,33.1799],[132.79088,33.18169],[132.79119,33.18349],[132.79188,33.18545],[132.79272,33.18684],[132.79364,33.18764],[132.79491,33.18839],[132.79524,33.18881],[132.79537,33.1894],[132.79533,33.18975],[132.79507,33.19036],[132.7948,33.19073],[132.79426,33.19115],[132.7893,33.1942],[132.78856,33.1951],[132.7883,33.19566],[132.78821,33.19647],[132.78824,33.19726],[132.7884,33.19802],[132.78882,33.19912],[132.78934,33.19986],[132.78976,33.20026],[132.79162,33.20156]],[[132.79162,33.20156],[132.7923,33.20202]],[[132.74554,33.224],[132.74616,33.22373],[132.74698,33.22317],[132.74768,33.22224],[132.7481,33.2213],[132.74815,33.22098],[132.74792,33.22013],[132.7466,33.21756],[132.74623,33.21662],[132.74598,33.21547],[132.74605,33.2146],[132.74629,33.21396],[132.74649,33.21362],[132.74747,33.21249],[132.74806,33.21226],[132.74885,33.21212],[132.75096,33.21229],[132.75287,33.2122],[132.75458,33.21196],[132.75723,33.21138],[132.75821,33.21109],[132.76027,33.21008],[132.76107,33.20931],[132.7613,33.20886],[132.76146,33.20798],[132.7614,33.20758],[132.76116,33.20705],[132.76056,33.20651],[132.75816,33.20521],[132.75782,33.20493],[132.75731,33.20408],[132.75712,33.2034],[132.75694,33.20222],[132.75689,33.20163],[132.75701,33.20095],[132.75757,33.19944],[132.75832,33.19786],[132.75861,33.1973],[132.75928,33.19649],[132.76142,33.19458],[132.7631,33.19328],[132.76447,33.1924],[132.7663,33.19155],[132.76666,33.1912],[132.76734,33.19017],[132.76753,33.18952],[132.76753,33.18874],[132.76726,33.18774]],[[133.07514,33.16141],[133.07749,33.16163],[133.07811,33.16159],[133.07877,33.16141],[133.0805,33.16046],[133.08223,33.15908],[133.083,33.15864],[133.09005,33.15632],[133.09116,33.15623],[133.09303,33.15646],[133.09519,33.1571],[133.09589,33.15744]],[[133.09589,33.15744],[133.09743,33.15853],[133.09836,33.15946],[133.09882,33.16022],[133.09906,33.16121],[133.10007,33.16716],[133.10067,33.1714],[133.10189,33.17832],[133.10211,33.17897],[133.10247,33.17961],[133.10452,33.18225],[133.10484,33.18278],[133.10506,33.18357],[133.10521,33.18631],[133.10562,33.18771]],[[132.76726,33.18774],[132.76706,33.18716]],[[132.7923,33.20202],[132.79394,33.20319],[132.79733,33.2063],[132.79817,33.20685],[132.79906,33.20721],[132.79952,33.20729],[132.80252,33.20747],[132.80363,33.20764],[132.80468,33.20811],[132.80514,33.2084],[132.80569,33.2089],[132.80611,33.20948],[132.80638,33.21008],[132.80667,33.21255],[132.80698,33.2135],[132.8076,33.21427],[132.81027,33.21645],[132.81136,33.21762],[132.81244,33.21929],[132.81548,33.22574],[132.81613,33.22655],[132.817,33.22716],[132.81853,33.22782],[132.81937,33.22792],[132.82335,33.22759],[132.83536,33.22635],[132.83721,33.22645],[132.84089,33.22747],[132.84132,33.22765],[132.8483,33.23253],[132.84968,33.23331],[132.85088,33.23372],[132.85551,33.23479]],[[132.89782,33.21973],[132.8973,33.2203]],[[132.70924,33.22809],[132.71093,33.22742],[132.71164,33.22744],[132.7122,33.22755],[132.71259,33.22774],[132.71343,33.22859],[132.71487,33.2295],[132.71534,33.22996],[132.71615,33.23056],[132.71677,33.23081],[132.71763,33.23076],[132.72375,33.22932],[132.72461,33.22899],[132.72533,33.22858],[132.72645,33.22767],[132.7278,33.22592],[132.72902,33.22474]],[[132.8973,33.2203],[132.89593,33.22157],[132.89531,33.22195],[132.89447,33.22232],[132.89324,33.22253],[132.89127,33.22266],[132.88896,33.22322],[132.88854,33.22336],[132.88569,33.22481],[132.88247,33.22598],[132.87933,33.22827],[132.87797,33.22961],[132.87475,33.23304],[132.87404,33.23367],[132.87199,33.23493],[132.87037,33.23565],[132.86887,33.23609],[132.86755,33.2363],[132.86635,33.23641],[132.86373,33.23643],[132.86134,33.2361],[132.85637,33.23501]],[[132.72902,33.22474],[132.72961,33.22429]],[[132.56968,33.23958],[132.56951,33.24095]],[[132.56951,33.24095],[132.5698,33.24188],[132.56999,33.24214],[132.57216,33.24368],[132.57397,33.24433],[132.57436,33.24478],[132.5747,33.24541],[132.57491,33.24645],[132.57477,33.2472],[132.57432,33.24843],[132.57428,33.24907],[132.57437,33.24939],[132.57543,33.2506],[132.57566,33.25126],[132.57572,33.25223],[132.57589,33.25277],[132.57672,33.25406],[132.57741,33.25487],[132.57788,33.25579],[132.57855,33.25675],[132.57908,33.25793],[132.57954,33.25833],[132.58078,33.25904],[132.58112,33.25946],[132.58129,33.26018],[132.58132,33.26164],[132.58154,33.26244],[132.58215,33.26336],[132.58251,33.2643],[132.58327,33.26522],[132.58356,33.26619],[132.58429,33.26803],[132.58474,33.26853],[132.58641,33.26983],[132.58736,33.27026],[132.58802,33.2707],[132.58985,33.2712],[132.59021,33.27139],[132.59047,33.27189],[132.59066,33.27311],[132.59001,33.27471],[132.58976,33.27557],[132.5898,33.27576],[132.59043,33.27665],[132.5919,33.27793],[132.59322,33.27832],[132.59348,33.27847],[132.59498,33.28008],[132.59705,33.282],[132.59815,33.28244],[132.60032,33.28282]],[[132.56975,33.2389],[132.56968,33.23958]],[[132.69222,33.25155],[132.69471,33.2483],[132.69561,33.24752],[132.69643,33.24725],[132.69887,33.24698],[132.69955,33.24683],[132.7006,33.24635],[132.70137,33.24564],[132.70154,33.24526],[132.70198,33.24353],[132.70224,33.24302],[132.70473,33.23932],[132.70505,33.23852],[132.70506,33.23819],[132.70486,33.23757],[132.70407,33.23621],[132.70345,33.23237],[132.70345,33.23176],[132.70358,33.2313],[132.70388,33.23086],[132.70451,33.23029],[132.70853,33.22841]],[[132.60622,33.28899],[132.60549,33.28862]],[[132.67594,33.25583],[132.67508,33.25615],[132.66691,33.25861],[132.6664,33.25895],[132.66597,33.25965],[132.66575,33.26093],[132.66548,33.2614],[132.66104,33.26593],[132.66072,33.26657],[132.66049,33.26729]],[[132.6009,33.2829],[132.60032,33.28282]],[[132.69165,33.25204],[132.69222,33.25155]],[[132.6603,33.26798],[132.65965,33.27006],[132.65934,33.27057],[132.65899,33.27089],[132.6584,33.2712],[132.65559,33.27208],[132.65422,33.27263],[132.65383,33.27283],[132.65357,33.27307],[132.6529,33.27414],[132.65277,33.27516],[132.65259,33.27569],[132.65168,33.27679],[132.65086,33.27739],[132.64984,33.27776],[132.6493,33.27808],[132.64865,33.27865],[132.64853,33.27887],[132.64845,33.27945],[132.64842,33.28066],[132.64826,33.2811],[132.64204,33.28705]],[[132.66049,33.26729],[132.6603,33.26798]],[[132.64204,33.28705],[132.64148,33.28758]],[[132.60549,33.28862],[132.60413,33.28768],[132.60379,33.28725],[132.60266,33.28408],[132.60234,33.28351],[132.60171,33.28309],[132.6009,33.2829]],[[132.6286,33.29135],[132.6272,33.29084],[132.62614,33.29073],[132.61598,33.29093],[132.61125,33.29012],[132.60869,33.2892],[132.60684,33.28913],[132.60622,33.28899]],[[132.64148,33.28758],[132.6387,33.28999],[132.63746,33.29091],[132.63688,33.29119],[132.63478,33.29178],[132.63377,33.29198],[132.63102,33.292],[132.63018,33.29188],[132.62945,33.29167]],[[132.67684,33.25549],[132.67952,33.25464],[132.68131,33.2542],[132.6832,33.25386],[132.68486,33.25376],[132.68707,33.25416],[132.68748,33.25418],[132.68808,33.25407],[132.68874,33.25385],[132.69165,33.25204]],[[132.70853,33.22841],[132.70924,33.22809]],[[132.67684,33.25549],[132.67594,33.25583]],[[132.62945,33.29167],[132.6286,33.29135]]]}}