{"type":"Feature","properties":{"id":"四国旅客鉄道_徳島線","name":"徳島線","operator":"四国旅客鉄道","railType":"普通鉄道(JR)","operatorType":"JR在来線","category":"rail","attribution":"国土数値情報（鉄道データ）国土交通省"},"geometry":{"type":"MultiLineString","coordinates":[[[134.33723,34.07279],[134.33578,34.07232]],[[134.2038,34.06139],[134.19955,34.06203],[134.19696,34.0632],[134.1956,34.06372],[134.19473,34.06395],[134.19356,34.0639],[134.19207,34.06346],[134.19072,34.06291],[134.18955,34.06219],[134.18778,34.06126],[134.18536,34.05944],[134.18199,34.0576],[134.17936,34.05556],[134.17883,34.05503],[134.17795,34.05343],[134.17663,34.0524],[134.17606,34.05206],[134.17565,34.05193],[134.1737,34.05154],[134.17211,34.05146],[134.17148,34.0515],[134.17069,34.05171],[134.16932,34.05257],[134.16694,34.05435],[134.16543,34.05528],[134.16454,34.05565]],[[134.05875,34.03952],[134.05279,34.04185],[134.05143,34.04215],[134.04801,34.0426],[134.0465,34.04249],[134.04113,34.041],[134.03989,34.04077],[134.03755,34.04082],[134.03685,34.0409]],[[134.28794,34.05766],[134.28561,34.05771]],[[134.50584,34.07739],[134.50664,34.07752]],[[134.10641,34.0504],[134.10538,34.05063],[134.10399,34.05112],[134.10118,34.05275],[134.10069,34.05287],[134.10019,34.05289],[134.0918,34.05164],[134.08996,34.05186],[134.08924,34.05178],[134.08849,34.05156],[134.08788,34.05124],[134.08706,34.05049],[134.08515,34.04789],[134.08443,34.04709],[134.0814,34.04465],[134.0807,34.04425],[134.07985,34.04398],[134.07905,34.04384],[134.07278,34.04452],[134.07175,34.0445],[134.0711,34.04439],[134.0702,34.04393],[134.06972,34.04348],[134.06708,34.04043],[134.0665,34.03995],[134.06586,34.03961],[134.06488,34.03919],[134.06412,34.03896],[134.0633,34.03878],[134.06219,34.03868],[134.06054,34.03889],[134.05988,34.0391]],[[134.03685,34.0409],[134.03576,34.04106]],[[134.48389,34.07438],[134.48207,34.07419]],[[134.3771,34.07516],[134.37566,34.07505]],[[134.16331,34.05586],[134.16182,34.05602],[134.15974,34.05598],[134.15799,34.05621],[134.15754,34.0562],[134.15389,34.05546],[134.14768,34.05342],[134.14597,34.05314],[134.14524,34.05314],[134.13984,34.05454],[134.13886,34.05466],[134.13266,34.05494],[134.12966,34.05555],[134.12723,34.05618],[134.12228,34.05584],[134.12143,34.05555],[134.12049,34.05485],[134.11982,34.05384],[134.11853,34.05126],[134.11806,34.05062],[134.11741,34.05022],[134.11526,34.04947],[134.11461,34.04937],[134.1124,34.04952],[134.10789,34.05013]],[[134.44503,34.07069],[134.44364,34.07008]],[[134.37566,34.07505],[134.3705,34.07463],[134.36006,34.07352],[134.35835,34.07347],[134.35712,34.07359]],[[134.42165,34.06765],[134.42075,34.0676]],[[134.51922,34.07954],[134.52396,34.08023],[134.52978,34.08062],[134.53082,34.08081],[134.53302,34.08102],[134.536,34.08109]],[[134.05988,34.0391],[134.05875,34.03952]],[[134.2054,34.0611],[134.2038,34.06139]],[[134.48207,34.07419],[134.46485,34.07248],[134.44813,34.07157],[134.44646,34.07129],[134.44503,34.07069]],[[134.35712,34.07359],[134.35531,34.07383]],[[134.10789,34.05013],[134.10641,34.0504]],[[134.50664,34.07752],[134.51729,34.07928]],[[134.33578,34.07232],[134.33307,34.0709],[134.32401,34.06579],[134.32304,34.06487],[134.32245,34.06413],[134.32144,34.06249]],[[134.03576,34.04106],[134.03347,34.04138],[134.03267,34.04141],[134.02974,34.04099],[134.02736,34.04128],[134.02683,34.0412],[134.0246,34.04052],[134.02303,34.04056],[134.02207,34.04085],[134.02152,34.04084],[134.01938,34.04034],[134.01821,34.03971],[134.01543,34.03797],[134.01275,34.03712],[134.00827,34.0365],[134.00214,34.03611],[133.99681,34.03489],[133.99461,34.03481],[133.99295,34.03501],[133.99204,34.03526],[133.98928,34.03646],[133.98848,34.03667],[133.98652,34.03697],[133.98192,34.03729],[133.97407,34.03718]],[[134.48389,34.07438],[134.49299,34.07528],[134.50584,34.07739]],[[134.51729,34.07928],[134.51922,34.07954]],[[134.39652,34.07658],[134.38672,34.07557],[134.3771,34.07516]],[[134.16454,34.05565],[134.16386,34.05584],[134.16331,34.05586]],[[134.39805,34.07673],[134.39652,34.07658]],[[134.42075,34.0676],[134.41911,34.06754],[134.41796,34.06789],[134.41709,34.06834],[134.41656,34.06879],[134.41369,34.07213],[134.41259,34.07321],[134.41006,34.07468],[134.4092,34.07506],[134.40048,34.07683],[134.39992,34.07686],[134.39805,34.07673]],[[134.35531,34.07383],[134.35245,34.0742],[134.35073,34.07417],[134.3483,34.07397],[134.34627,34.07419],[134.34249,34.07433],[134.33723,34.07279]],[[134.25541,34.06001],[134.25257,34.05941],[134.24998,34.05911],[134.24556,34.05718],[134.2429,34.05665],[134.23509,34.05534]],[[134.25711,34.06035],[134.25541,34.06001]],[[134.32067,34.06128],[134.31934,34.05926],[134.31889,34.0589],[134.31821,34.05852],[134.3171,34.05812],[134.31013,34.05629],[134.30175,34.05628],[134.30072,34.05644],[134.29779,34.05735],[134.28794,34.05766]],[[134.28561,34.05771],[134.27769,34.05807],[134.26225,34.06087],[134.26098,34.06093],[134.26,34.06086],[134.25711,34.06035]],[[133.97407,34.03718],[133.9733,34.03711]],[[134.23364,34.05501],[134.2312,34.05445],[134.23031,34.05437],[134.22976,34.05442],[134.22587,34.05551],[134.2235,34.05634],[134.22035,34.05779],[134.21595,34.05958],[134.2054,34.0611]],[[134.32144,34.06249],[134.32067,34.06128]],[[134.44364,34.07008],[134.43366,34.06571],[134.43262,34.0655],[134.43162,34.0655],[134.43078,34.06565],[134.42405,34.06771],[134.42165,34.06765]],[[134.23509,34.05534],[134.23364,34.05501]],[[134.53926,34.08039],[134.53819,34.08082],[134.53765,34.08095]],[[134.53765,34.08095],[134.536,34.08109]],[[133.9733,34.03711],[133.97139,34.03685],[133.97022,34.03648],[133.96916,34.03599],[133.96873,34.03557],[133.96805,34.03421],[133.96743,34.03346],[133.96673,34.03294],[133.96641,34.03279],[133.96485,34.03247],[133.96389,34.03269],[133.96224,34.03324],[133.95754,34.0341],[133.95169,34.03563],[133.94957,34.03579]],[[133.94957,34.03579],[133.94879,34.03583]],[[133.94879,34.03583],[133.92778,34.03671]],[[133.87323,34.02919],[133.87211,34.02925],[133.87142,34.02943],[133.87098,34.02959],[133.86904,34.03063],[133.86801,34.03099],[133.86713,34.03116],[133.86552,34.03128],[133.86207,34.03226],[133.86007,34.03241]],[[133.92778,34.03671],[133.92636,34.03678]],[[133.87449,34.02915],[133.87323,34.02919]],[[133.92636,34.03678],[133.92228,34.03693],[133.92016,34.03663],[133.91013,34.03452],[133.90149,34.03208],[133.90023,34.03213],[133.89733,34.03268],[133.89661,34.0329],[133.89544,34.0334],[133.89505,34.03346],[133.89098,34.03349],[133.88955,34.03335],[133.88692,34.03229],[133.88605,34.032],[133.88494,34.03176],[133.88414,34.03145],[133.88337,34.03104],[133.88117,34.03038],[133.87859,34.02928],[133.87813,34.0292],[133.87449,34.02915]],[[133.85834,34.03244],[133.86007,34.03241]],[[133.85699,34.03245],[133.85834,34.03244]]]}}