{"type":"Feature","properties":{"id":"四国旅客鉄道_本四備讃線","name":"本四備讃線","operator":"四国旅客鉄道","railType":"普通鉄道(JR)","operatorType":"JR在来線","category":"rail","attribution":"国土数値情報（鉄道データ）国土交通省"},"geometry":{"type":"MultiLineString","coordinates":[[[133.81426,34.30712],[133.81778,34.31274]],[[133.81324,34.30552],[133.81426,34.30712]],[[133.80748,34.46183],[133.8079,34.4638]],[[133.80745,34.46169],[133.80748,34.46183]],[[133.80745,34.46169],[133.80714,34.45964],[133.807,34.45809],[133.80693,34.45494],[133.80804,34.4467],[133.8084,34.44309],[133.80842,34.44203],[133.8083,34.44071],[133.80807,34.43932],[133.804,34.4231],[133.80382,34.4212],[133.80403,34.41939],[133.80446,34.41786],[133.80581,34.41441],[133.80615,34.41329],[133.8068,34.41106],[133.8082,34.40555],[133.81061,34.39702],[133.8111,34.39597],[133.81192,34.39468],[133.8126,34.39384],[133.81532,34.39103],[133.81636,34.38977],[133.81732,34.38818],[133.81775,34.38715],[133.82236,34.3725],[133.82828,34.35487],[133.82854,34.35392],[133.82861,34.35335],[133.8286,34.35153],[133.82835,34.34966],[133.82627,34.33756],[133.82626,34.3366],[133.82642,34.33542],[133.82724,34.33088],[133.82702,34.32933],[133.82653,34.32749],[133.82574,34.32565],[133.82224,34.31954]],[[133.81778,34.31274],[133.82224,34.31954]],[[133.82224,34.31954],[133.82199,34.31824],[133.82204,34.31701],[133.82219,34.31661],[133.82315,34.31523],[133.8237,34.31472],[133.82457,34.31411],[133.82565,34.31357]]]}}