{"type":"Feature","properties":{"id":"四国旅客鉄道_土讃線","name":"土讃線","operator":"四国旅客鉄道","railType":"普通鉄道(JR)","operatorType":"JR在来線","category":"rail","attribution":"国土数値情報（鉄道データ）国土交通省"},"geometry":{"type":"MultiLineString","coordinates":[[[133.78905,34.23035],[133.78577,34.23611],[133.77776,34.24779]],[[133.75466,34.26667],[133.75696,34.27065]],[[133.77726,34.24852],[133.77368,34.25372],[133.77208,34.2553],[133.77112,34.25592],[133.76998,34.25653],[133.76704,34.25766],[133.75761,34.26089],[133.75673,34.26141],[133.7561,34.26212],[133.75488,34.26382],[133.75455,34.26489],[133.75453,34.2655],[133.75466,34.26667]],[[133.82092,34.19268],[133.81883,34.19562],[133.81839,34.19613],[133.81792,34.19648],[133.81701,34.19684],[133.81273,34.19796],[133.8116,34.19851],[133.81114,34.19889],[133.80478,34.20893],[133.7988,34.21656],[133.79291,34.22386],[133.79189,34.2254],[133.78949,34.22958]],[[133.78949,34.22958],[133.78905,34.23035]],[[133.75696,34.27065],[133.75762,34.27184]],[[133.82171,34.19158],[133.82092,34.19268]],[[133.77776,34.24779],[133.77726,34.24852]],[[133.29344,33.39237],[133.29293,33.39316]],[[133.29525,33.43047],[133.29411,33.43107],[133.29376,33.43133],[133.29334,33.43178],[133.2921,33.43344],[133.29174,33.43419],[133.2915,33.43521],[133.29146,33.43591],[133.29159,33.43746],[133.29152,33.43807],[133.29104,33.43899],[133.2896,33.4404],[133.28943,33.44065],[133.28894,33.44219],[133.28837,33.44302],[133.2876,33.44439],[133.28735,33.44521],[133.28377,33.46771],[133.28336,33.47071],[133.28346,33.4714],[133.28399,33.47249],[133.286,33.47498]],[[133.41356,33.54375],[133.41061,33.54371],[133.40656,33.54307],[133.40275,33.5429],[133.4012,33.54271],[133.40038,33.54251],[133.39747,33.54153],[133.39592,33.54084],[133.39318,33.53998]],[[133.82018,34.13276],[133.82,34.13341]],[[133.68987,33.68019],[133.68707,33.67961],[133.68662,33.67936],[133.68602,33.67885],[133.68551,33.67789],[133.68538,33.67669],[133.68555,33.67569],[133.68605,33.67433],[133.68869,33.6672],[133.6893,33.66605],[133.69035,33.66518],[133.69099,33.66489],[133.69345,33.66417],[133.6951,33.66397],[133.69551,33.66404],[133.69666,33.66445],[133.69931,33.66588],[133.70092,33.66635],[133.70212,33.66644],[133.70256,33.66636],[133.70309,33.66618],[133.70383,33.66573],[133.70572,33.66418],[133.70694,33.66292],[133.70741,33.66216],[133.70752,33.66172],[133.70749,33.66095],[133.70727,33.66025],[133.70606,33.65673],[133.70582,33.65622],[133.7056,33.65595],[133.70532,33.65569],[133.70387,33.65506],[133.7028,33.65501],[133.70109,33.65509],[133.70007,33.65488],[133.6996,33.65466],[133.6993,33.65442],[133.69841,33.65338],[133.69828,33.6525],[133.69837,33.65153],[133.69816,33.65091],[133.69793,33.65057],[133.69725,33.6499],[133.69511,33.64857]],[[133.43139,33.54763],[133.42942,33.54724]],[[133.37077,33.5333],[133.36848,33.53278],[133.36706,33.53268],[133.36566,33.5328],[133.3638,33.5333],[133.36278,33.53333],[133.36223,33.53325],[133.36154,33.53306],[133.35869,33.53158],[133.35809,33.53136],[133.35165,33.53]],[[133.6957,33.77915],[133.69348,33.77826],[133.69298,33.77796],[133.6924,33.77744],[133.69196,33.77675],[133.69109,33.77456],[133.69029,33.77189],[133.68988,33.77126],[133.68899,33.7706],[133.68832,33.77037],[133.68611,33.76992],[133.68268,33.76821],[133.68192,33.76791],[133.68138,33.76786],[133.67797,33.76803],[133.67647,33.76785],[133.67317,33.76688],[133.67251,33.76643],[133.67104,33.76519],[133.67055,33.76496],[133.66992,33.76483],[133.66633,33.76449],[133.66572,33.76431],[133.66549,33.7642],[133.66509,33.76383],[133.66459,33.76285],[133.66438,33.76203],[133.66434,33.76131]],[[133.58981,33.57561],[133.58154,33.57742],[133.58006,33.57786],[133.57797,33.57867]],[[133.25873,33.36674],[133.25926,33.36728]],[[133.29355,33.50019],[133.29204,33.50019]],[[133.69648,33.77937],[133.6957,33.77915]],[[133.7873,34.00712],[133.78536,34.01099],[133.78515,34.01208],[133.78529,34.01276],[133.78616,34.01452],[133.78626,34.01497],[133.78605,34.01585],[133.78547,34.01708],[133.78534,34.0176],[133.78509,34.02034],[133.7851,34.0218],[133.78544,34.02252],[133.78582,34.02302],[133.78607,34.02331],[133.7912,34.02707],[133.79209,34.02739],[133.79332,34.02769],[133.79961,34.02888],[133.80079,34.02889],[133.80137,34.02877],[133.80307,34.02799],[133.80429,34.02714]],[[133.49818,33.55841],[133.4974,33.55838],[133.49681,33.55824]],[[133.76697,33.8767],[133.76278,33.8788],[133.76204,33.87935],[133.76167,33.87996],[133.76153,33.88031],[133.76114,33.883],[133.76124,33.88713],[133.76118,33.88731],[133.76095,33.88774],[133.75946,33.88932],[133.75901,33.8899],[133.75833,33.8908],[133.75774,33.89177],[133.75692,33.89497],[133.75641,33.8979],[133.75605,33.89855],[133.75496,33.90011],[133.75447,33.90116],[133.7544,33.90178],[133.75448,33.90264],[133.7547,33.90365],[133.75499,33.90449],[133.75553,33.90568],[133.75746,33.90867],[133.75748,33.91198],[133.75724,33.91277],[133.75693,33.91345],[133.75664,33.91467],[133.75607,33.91635],[133.75607,33.91674],[133.75625,33.91781],[133.75645,33.91828],[133.75791,33.91999],[133.75835,33.92104],[133.75861,33.92189],[133.75867,33.92303]],[[133.76018,33.79717],[133.76349,33.79896],[133.76488,33.80066],[133.76648,33.80203],[133.76852,33.80417],[133.76894,33.80477],[133.76919,33.8058],[133.76945,33.8064],[133.77313,33.81336],[133.7742,33.81467],[133.77488,33.81571],[133.77518,33.81601],[133.77571,33.81636],[133.77696,33.81688],[133.77803,33.8177],[133.78088,33.81954],[133.78351,33.82058],[133.78597,33.82135],[133.78739,33.82203],[133.78792,33.8224]],[[133.69566,33.64934],[133.69511,33.64857]],[[133.27847,33.38651],[133.27931,33.38659],[133.28075,33.38645],[133.28124,33.3865],[133.28577,33.38807],[133.28652,33.38809],[133.29079,33.38783],[133.29156,33.38797],[133.29211,33.38817],[133.29293,33.38876],[133.29343,33.38936],[133.29362,33.38979],[133.29376,33.39126],[133.29364,33.39192],[133.29344,33.39237]],[[133.78759,34.00654],[133.7873,34.00712]],[[133.28682,33.51316],[133.28652,33.51211]],[[133.52114,33.56584],[133.52045,33.56567]],[[133.61148,33.57645],[133.60944,33.57585],[133.60835,33.57562],[133.60686,33.57547],[133.59339,33.57498],[133.59281,33.57501],[133.59053,33.57545]],[[133.85699,34.03245],[133.85834,34.03244]],[[133.64444,33.57893],[133.64247,33.57829],[133.64143,33.57815],[133.61898,33.57837],[133.61785,33.57822],[133.61249,33.57674]],[[133.44822,33.55064],[133.44698,33.55047],[133.43139,33.54763]],[[133.29293,33.39316],[133.2898,33.398],[133.28895,33.39883],[133.28859,33.3994],[133.28841,33.40019],[133.28829,33.40172],[133.28724,33.40339],[133.28697,33.4043],[133.28702,33.40539],[133.28726,33.40614],[133.28758,33.4067]],[[133.57649,33.57931],[133.5739,33.58044],[133.57292,33.58074],[133.57149,33.58097],[133.57056,33.58097],[133.56971,33.58087],[133.56777,33.58042],[133.5624,33.57903],[133.56087,33.57856]],[[133.44903,33.55071],[133.44822,33.55064]],[[133.53067,33.56731],[133.52997,33.5672]],[[133.35165,33.53],[133.35088,33.52984]],[[133.54202,33.56697],[133.53239,33.56736],[133.53067,33.56731]],[[133.61249,33.57674],[133.61148,33.57645]],[[133.80515,34.02656],[133.80736,34.02508],[133.80824,34.02474],[133.80915,34.02467],[133.8109,34.02496],[133.81145,34.02498],[133.81384,34.02428],[133.81484,34.02421],[133.8156,34.02425],[133.82169,34.02567],[133.82362,34.02591],[133.82681,34.02749],[133.82816,34.02801],[133.84134,34.03111],[133.84332,34.03145],[133.8517,34.03235],[133.85346,34.03275],[133.85455,34.03269],[133.85575,34.03247],[133.85699,34.03245]],[[133.30058,33.48907],[133.30063,33.49037],[133.30048,33.49142],[133.29939,33.49656],[133.29915,33.49742],[133.29893,33.49781],[133.29862,33.49823],[133.29808,33.49871],[133.296,33.49994],[133.29501,33.50018],[133.29355,33.50019]],[[133.85048,34.1564],[133.85239,34.15739],[133.85286,34.15769],[133.8536,34.15833],[133.85465,34.15955],[133.8585,34.16485],[133.85925,34.16625],[133.8598,34.16763],[133.85995,34.1682],[133.86006,34.16924],[133.85996,34.17024],[133.85985,34.17059],[133.85945,34.17121],[133.8587,34.17204],[133.85812,34.17245],[133.85735,34.17279],[133.84357,34.17701],[133.84233,34.17743],[133.84173,34.17775],[133.84113,34.17823],[133.83795,34.18142],[133.83662,34.1834],[133.83603,34.18396],[133.83556,34.18423],[133.83473,34.18449],[133.82828,34.1858],[133.82766,34.18594],[133.82678,34.18627],[133.82492,34.18746],[133.82171,34.19158]],[[133.29503,33.41073],[133.29665,33.41095],[133.29757,33.41119],[133.29855,33.41159],[133.2997,33.41226],[133.30049,33.41299],[133.30133,33.41416],[133.30167,33.41502],[133.30183,33.41606],[133.30174,33.41724],[133.30102,33.41972],[133.30109,33.42054],[133.30148,33.42277],[133.30133,33.42386],[133.2992,33.42801],[133.29896,33.42834],[133.29836,33.4289],[133.29608,33.43008]],[[133.32168,33.52375],[133.32052,33.52337]],[[133.69056,33.68052],[133.69239,33.68151],[133.69365,33.68268],[133.69399,33.6834],[133.69397,33.68439],[133.69387,33.68483],[133.69243,33.689],[133.69249,33.68983],[133.69316,33.6913],[133.69336,33.69215],[133.69332,33.69258],[133.6926,33.69533]],[[133.48476,33.55153],[133.48346,33.55164],[133.47691,33.55296],[133.47394,33.55316],[133.47266,33.55317],[133.47215,33.55315],[133.47122,33.55293],[133.46917,33.55189],[133.46798,33.55172],[133.46692,33.5517],[133.46607,33.55158],[133.46555,33.55144],[133.46361,33.55063],[133.46251,33.55032],[133.46167,33.55019],[133.45695,33.55011],[133.45404,33.5507],[133.45138,33.55061],[133.44903,33.55071]],[[133.82356,34.05419],[133.82341,34.05441],[133.82307,34.05548],[133.8224,34.05625],[133.82116,34.05686],[133.82056,34.0573],[133.82037,34.05749],[133.82,34.05825],[133.81704,34.06524],[133.80984,34.08177],[133.80784,34.08663],[133.80488,34.09307],[133.80402,34.09643],[133.80362,34.09917],[133.80274,34.10065],[133.80248,34.10143],[133.80245,34.1026],[133.80259,34.10316],[133.80275,34.10353],[133.80349,34.10457],[133.80383,34.10548],[133.80381,34.10605],[133.80365,34.10665],[133.80365,34.10762],[133.80373,34.10805],[133.80411,34.10882],[133.8046,34.10929],[133.80506,34.10956],[133.80776,34.11043],[133.80878,34.11104],[133.80954,34.11178],[133.81,34.1125],[133.81065,34.11418],[133.81174,34.11571],[133.81251,34.11645],[133.81394,34.11717]],[[133.75457,33.96342],[133.75474,33.96407]],[[133.5445,33.56687],[133.54202,33.56697]],[[133.28792,33.40729],[133.2889,33.40888],[133.28932,33.40933],[133.29002,33.40979],[133.29095,33.41018],[133.29424,33.41063]],[[133.68544,33.60735],[133.68398,33.60694]],[[133.75928,33.79659],[133.76018,33.79717]],[[133.81394,34.11717],[133.81542,34.11765]],[[133.72627,33.78572],[133.72561,33.7861],[133.72461,33.78647],[133.72372,33.78659],[133.72265,33.78651],[133.7217,33.78615],[133.71997,33.78495],[133.71891,33.78433],[133.71227,33.782],[133.69648,33.77937]],[[133.72689,33.78535],[133.72627,33.78572]],[[133.52997,33.5672],[133.52303,33.56621],[133.52114,33.56584]],[[133.48634,33.55168],[133.48476,33.55153]],[[133.52045,33.56567],[133.51556,33.56445],[133.51443,33.56394],[133.51393,33.56358],[133.51346,33.56303],[133.513,33.56207],[133.51261,33.5609],[133.51208,33.56027],[133.51137,33.55972],[133.50927,33.55905]],[[133.57797,33.57867],[133.57649,33.57931]],[[133.75474,33.96407],[133.75514,33.96589],[133.75561,33.96679],[133.75753,33.96865],[133.75817,33.96916],[133.75926,33.96986],[133.75985,33.9701],[133.7615,33.9706],[133.76295,33.97091],[133.76788,33.97134],[133.7705,33.97081],[133.77184,33.97064],[133.77401,33.97056],[133.775,33.9706],[133.77746,33.97108],[133.77896,33.97169],[133.78015,33.97247]],[[133.50769,33.55858],[133.5034,33.55732],[133.50237,33.55722],[133.50182,33.55723],[133.50111,33.55736],[133.49911,33.5582],[133.49818,33.55841]],[[133.85834,34.03244],[133.86007,34.03241]],[[133.86007,34.03241],[133.86115,34.03271],[133.86191,34.03305],[133.86274,34.03379],[133.86678,34.04035],[133.86706,34.04126],[133.86705,34.04185],[133.86675,34.04256],[133.86651,34.0429],[133.86598,34.04339],[133.86482,34.04397],[133.86364,34.04407],[133.8625,34.04391],[133.86071,34.0432],[133.85999,34.043],[133.85731,34.04291],[133.85464,34.04262],[133.85281,34.04222],[133.85221,34.04202],[133.84932,34.04059]],[[133.72689,33.78535],[133.72745,33.78509],[133.72862,33.78491],[133.72929,33.78498],[133.73019,33.78527],[133.7306,33.7856],[133.73164,33.787],[133.73233,33.78767],[133.73271,33.78791],[133.73339,33.7881],[133.73517,33.78813],[133.73731,33.78803],[133.73913,33.78841],[133.7399,33.78841],[133.74131,33.78823],[133.74351,33.78844],[133.74422,33.78858],[133.74658,33.78966],[133.74737,33.79032],[133.74849,33.79105],[133.75211,33.79283],[133.75402,33.79362],[133.75554,33.79448],[133.75794,33.79553],[133.75928,33.79659]],[[133.84932,34.04059],[133.8482,34.04003]],[[133.28652,33.51211],[133.28611,33.51051],[133.28593,33.50927],[133.28629,33.50298],[133.28642,33.50224],[133.28666,33.50165],[133.28695,33.50123],[133.28734,33.50089],[133.28831,33.50037],[133.28907,33.50026],[133.29204,33.50019]],[[133.56087,33.57856],[133.55997,33.57817]],[[133.6926,33.69533],[133.69244,33.69613]],[[133.67704,33.60432],[133.66257,33.59197]],[[133.78846,33.8229],[133.7894,33.82408],[133.78996,33.82584],[133.79094,33.82724],[133.79133,33.82977],[133.79194,33.83155],[133.79202,33.83199],[133.79194,33.833],[133.79168,33.83362],[133.78936,33.83667],[133.78844,33.83773],[133.78756,33.83989],[133.78739,33.84061],[133.78744,33.84102],[133.78763,33.84149],[133.78953,33.84392],[133.79155,33.84722],[133.79169,33.84771],[133.79181,33.84879],[133.79132,33.8509],[133.79107,33.85165],[133.78943,33.85492],[133.77954,33.86905],[133.77808,33.87049],[133.77645,33.87157],[133.7747,33.87247],[133.77248,33.87344],[133.76995,33.87425],[133.76809,33.87595],[133.76754,33.87635]],[[133.28758,33.4067],[133.28792,33.40729]],[[133.29424,33.41063],[133.29503,33.41073]],[[133.6861,33.71505],[133.68422,33.71744],[133.68375,33.71818],[133.68324,33.7193],[133.68261,33.7215],[133.68068,33.73063],[133.68041,33.73154],[133.67979,33.7328],[133.67923,33.73349],[133.67858,33.73402],[133.67716,33.7348],[133.67628,33.73507],[133.67303,33.73562],[133.6725,33.73583],[133.66983,33.73738],[133.66964,33.73756],[133.66928,33.73824],[133.66913,33.73891],[133.66912,33.74],[133.66924,33.7407],[133.6711,33.74723],[133.6719,33.74959],[133.67199,33.75012],[133.67193,33.75094],[133.67163,33.75193],[133.67114,33.75263],[133.66786,33.75478],[133.66672,33.75573],[133.66654,33.75597],[133.66509,33.759],[133.66449,33.76059]],[[133.66257,33.59197],[133.662,33.5915]],[[133.75867,33.92303],[133.75881,33.92368]],[[133.69244,33.69613],[133.69238,33.69665],[133.69243,33.69815],[133.6923,33.69857],[133.69068,33.70078],[133.68981,33.7025],[133.68816,33.70459],[133.68776,33.7055],[133.68751,33.70632],[133.68734,33.70733],[133.68751,33.70824],[133.68823,33.70984],[133.68827,33.71038],[133.6882,33.7109],[133.68785,33.71231],[133.68696,33.71392],[133.68654,33.71449]],[[133.29608,33.43008],[133.29525,33.43047]],[[133.30046,33.48838],[133.30058,33.48907]],[[133.25926,33.36728],[133.26074,33.36888],[133.26147,33.36989],[133.26227,33.3705],[133.26288,33.37075],[133.26593,33.37132],[133.26736,33.37178],[133.27013,33.37292],[133.27105,33.3736],[133.27132,33.37396],[133.27619,33.38482],[133.27645,33.3853],[133.27691,33.38582],[133.27772,33.38628]],[[133.8482,34.04003],[133.84755,34.03973],[133.84562,34.03911],[133.84384,34.03908],[133.84242,34.03921],[133.84084,34.03953],[133.84,34.03984],[133.83954,34.0401],[133.83831,34.04129],[133.83769,34.04162],[133.83661,34.04189],[133.83574,34.04196],[133.83461,34.0419],[133.83367,34.04171],[133.83265,34.04169],[133.83121,34.04214],[133.83039,34.04257],[133.82951,34.04328],[133.82934,34.04356],[133.82904,34.04436],[133.82901,34.04519],[133.82887,34.04589],[133.8286,34.04656],[133.82827,34.04706],[133.82772,34.04764],[133.82642,34.0485],[133.8258,34.04924],[133.82558,34.05008],[133.82561,34.05156],[133.82552,34.05187],[133.82475,34.05303],[133.8242,34.05354]],[[133.68398,33.60694],[133.67949,33.60571],[133.67829,33.60522],[133.67762,33.60481]],[[133.8242,34.05354],[133.82356,34.05419]],[[133.68544,33.60735],[133.69109,33.60886],[133.69188,33.60911],[133.69304,33.60965],[133.69379,33.61018],[133.69706,33.61383],[133.70011,33.6153],[133.70637,33.61849],[133.70666,33.61878],[133.70695,33.61941],[133.70733,33.62132],[133.70752,33.62182],[133.70816,33.62263],[133.70962,33.62395],[133.70999,33.6245],[133.7102,33.625],[133.71025,33.62547],[133.71004,33.62629],[133.70955,33.62714],[133.70898,33.62759],[133.70684,33.62862],[133.70624,33.62922],[133.70592,33.6297],[133.7055,33.63125],[133.70535,33.63157],[133.70409,33.63299],[133.70332,33.63435],[133.70243,33.63519],[133.70158,33.63561],[133.69893,33.63603],[133.69838,33.63606],[133.69518,33.63581],[133.6942,33.63595],[133.6932,33.6364],[133.69239,33.63727],[133.69228,33.63755],[133.69221,33.63816],[133.69233,33.63982],[133.69217,33.64055],[133.69178,33.64121],[133.69149,33.64151],[133.68988,33.64262],[133.68931,33.64342],[133.68909,33.64388],[133.68897,33.64489],[133.68926,33.64564],[133.68956,33.64607],[133.69009,33.64661],[133.69038,33.6468],[133.69298,33.64741],[133.69347,33.6476],[133.69511,33.64857]],[[133.78015,33.97247],[133.78069,33.97298]],[[133.42942,33.54724],[133.42499,33.54637],[133.41939,33.54418],[133.41807,33.54376],[133.41751,33.54371],[133.4144,33.54376]],[[133.37184,33.53354],[133.37077,33.5333]],[[133.55997,33.57817],[133.55533,33.57582],[133.55485,33.57542],[133.55449,33.57483],[133.55414,33.57295],[133.55377,33.57155],[133.55317,33.57049],[133.55145,33.56826],[133.55085,33.56765],[133.54975,33.56705],[133.54851,33.56677],[133.54736,33.56673],[133.5445,33.56687]],[[133.286,33.47498],[133.28677,33.47596]],[[133.35088,33.52984],[133.34537,33.52873],[133.34436,33.52871],[133.33675,33.52917],[133.33594,33.5291],[133.33503,33.52885],[133.32828,33.52589],[133.32729,33.52555],[133.32537,33.52513],[133.32444,33.52485],[133.32168,33.52375]],[[133.32052,33.52337],[133.31847,33.52284],[133.31708,33.5226],[133.31276,33.52217],[133.31076,33.52225],[133.3097,33.52221],[133.30723,33.52186],[133.30208,33.52084],[133.30116,33.52053],[133.29949,33.51977],[133.29724,33.51958],[133.29549,33.51896],[133.29106,33.51888],[133.29002,33.51871],[133.28896,33.51823],[133.28842,33.51773],[133.28822,33.51744],[133.28755,33.51585],[133.28682,33.51316]],[[133.50927,33.55905],[133.50769,33.55858]],[[133.78792,33.8224],[133.78846,33.8229]],[[133.4144,33.54376],[133.41356,33.54375]],[[133.68654,33.71449],[133.6861,33.71505]],[[133.68987,33.68019],[133.69056,33.68052]],[[133.80429,34.02714],[133.80515,34.02656]],[[133.27772,33.38628],[133.27847,33.38651]],[[133.78069,33.97298],[133.78165,33.97389],[133.78262,33.97462],[133.78339,33.97533],[133.78445,33.97641],[133.78505,33.97722],[133.78525,33.97805],[133.78528,33.97883],[133.78498,33.98105],[133.785,33.98274],[133.78525,33.98353],[133.78575,33.98464],[133.78712,33.9873],[133.7882,33.99096],[133.7886,33.99187],[133.78924,33.9928],[133.79011,33.99363],[133.79306,33.99515],[133.79334,33.99558],[133.79375,33.99699],[133.79374,33.99773],[133.79356,33.99818],[133.79268,33.99941],[133.79221,33.99982],[133.79061,34.00078],[133.7903,34.00107],[133.78993,34.00161],[133.78901,34.00378],[133.78759,34.00654]],[[133.67762,33.60481],[133.67704,33.60432]],[[133.59053,33.57545],[133.58981,33.57561]],[[133.76754,33.87635],[133.76697,33.8767]],[[133.69595,33.64995],[133.69566,33.64934]],[[133.66434,33.76131],[133.66449,33.76059]],[[133.662,33.5915],[133.65551,33.586],[133.65061,33.58197],[133.64854,33.58048],[133.64739,33.57991]],[[133.81542,34.11765],[133.81588,34.11781],[133.81838,34.11833],[133.81959,34.11879],[133.82028,34.1194],[133.82055,34.11978],[133.82073,34.12025],[133.82075,34.12102],[133.82033,34.12229],[133.81892,34.12446],[133.81871,34.125],[133.81866,34.12541],[133.81884,34.12609],[133.81905,34.12645],[133.82041,34.128],[133.82088,34.1288],[133.82095,34.12919],[133.82093,34.13004],[133.82018,34.13276]],[[133.8494,34.15579],[133.85048,34.1564]],[[133.75881,33.92368],[133.75921,33.92457],[133.75965,33.92525],[133.75986,33.92589],[133.75985,33.92658],[133.75939,33.92889],[133.75781,33.93075],[133.75728,33.93164],[133.75493,33.93451],[133.75464,33.93519],[133.75467,33.93599],[133.75514,33.93728],[133.75527,33.93797],[133.75551,33.94003],[133.75439,33.95802],[133.75414,33.96078],[133.75428,33.96196],[133.75457,33.96342]],[[133.82,34.13341],[133.81987,34.13435],[133.81998,34.13539],[133.82037,34.13616],[133.82078,34.13658],[133.82124,34.13692],[133.82217,34.13724],[133.82627,34.13792],[133.82726,34.13827],[133.82873,34.13911],[133.83371,34.14227],[133.83675,34.1443],[133.83867,34.14605],[133.84115,34.14871],[133.84407,34.15098],[133.84697,34.15438],[133.8494,34.15579]],[[133.28677,33.47596],[133.29132,33.48168],[133.29236,33.48292],[133.29278,33.48331],[133.29388,33.48408],[133.29463,33.48445],[133.29745,33.4855],[133.29886,33.48617],[133.29949,33.48667],[133.29995,33.48722],[133.30046,33.48838]],[[133.64583,33.57943],[133.64739,33.57991]],[[133.64583,33.57943],[133.64444,33.57893]],[[133.16957,33.26235],[133.17013,33.26347],[133.17039,33.26423],[133.17114,33.26865],[133.17092,33.27003],[133.1704,33.27205],[133.1705,33.27301],[133.17065,33.27342],[133.17093,33.27376],[133.17331,33.27574]],[[133.13734,33.21302],[133.13731,33.21233]],[[133.16923,33.26171],[133.16957,33.26235]],[[133.17331,33.27574],[133.17385,33.27619]],[[133.1611,33.2448],[133.16055,33.24383],[133.15993,33.24303],[133.15728,33.23988],[133.15663,33.23924],[133.15514,33.23791],[133.15472,33.23765],[133.15302,33.23699],[133.15217,33.23625],[133.15177,33.2356],[133.15128,33.23437],[133.15086,33.23373],[133.15037,33.23325],[133.14908,33.23225],[133.14592,33.23023],[133.1448,33.22921],[133.14432,33.22839],[133.14412,33.22768],[133.14405,33.22718],[133.14403,33.22473],[133.14386,33.22397],[133.14365,33.22354],[133.14167,33.22149],[133.14058,33.22015],[133.13823,33.21637],[133.13759,33.21515],[133.13738,33.21385],[133.13734,33.21302]],[[133.17385,33.27619],[133.17569,33.27728],[133.17606,33.27745],[133.17675,33.27757],[133.1795,33.27777],[133.19593,33.27858],[133.19656,33.2787],[133.19734,33.27897],[133.19798,33.27942],[133.19857,33.27999],[133.19894,33.28072],[133.199,33.28102],[133.19896,33.28154],[133.19886,33.282],[133.19853,33.28283],[133.19845,33.28366],[133.19869,33.28496],[133.19906,33.28551],[133.19948,33.28596],[133.20008,33.28642],[133.20075,33.28671],[133.20117,33.2868],[133.20273,33.28693],[133.20566,33.28698],[133.20744,33.28722],[133.20931,33.28782],[133.21056,33.28861],[133.21168,33.28969],[133.21513,33.29434],[133.2174,33.29649],[133.218,33.29726],[133.21904,33.29889],[133.2198,33.2995],[133.22118,33.30041],[133.22175,33.30093],[133.2246,33.30695],[133.22492,33.30739],[133.22532,33.30765],[133.22646,33.30807],[133.22834,33.30862],[133.23735,33.31194],[133.23824,33.31233],[133.23857,33.31261],[133.23924,33.31348],[133.23941,33.31413],[133.23936,33.31441],[133.23751,33.31772],[133.23683,33.31872],[133.23635,33.31918],[133.23554,33.31955],[133.22858,33.32079],[133.22731,33.32124],[133.22687,33.32154],[133.22643,33.32201],[133.22606,33.32255],[133.22578,33.32317],[133.22554,33.32427],[133.22548,33.32511],[133.22563,33.32617],[133.22636,33.32873]],[[133.16138,33.24543],[133.1611,33.2448]],[[133.22636,33.32873],[133.22655,33.32934]],[[133.22655,33.32934],[133.22705,33.33095],[133.22693,33.3319],[133.22469,33.33672],[133.22419,33.33801],[133.22429,33.33944],[133.22464,33.34212],[133.22492,33.34286],[133.22558,33.34366],[133.22627,33.34424],[133.22731,33.34468],[133.23287,33.34556],[133.23345,33.34587],[133.23396,33.34628],[133.23435,33.34686],[133.23435,33.34804],[133.23451,33.34879],[133.23461,33.34903],[133.23527,33.34977],[133.23564,33.35055],[133.23572,33.35102],[133.23566,33.35236],[133.23587,33.35318],[133.23699,33.35451],[133.23738,33.35527],[133.23766,33.35627],[133.23794,33.35691],[133.23877,33.35779],[133.23914,33.35808],[133.24742,33.36251],[133.25014,33.36364],[133.25156,33.36413],[133.2533,33.36512],[133.25466,33.36537],[133.25618,33.36553],[133.25741,33.3658],[133.25815,33.36622],[133.25873,33.36674]],[[133.16138,33.24543],[133.16191,33.24721],[133.16192,33.25045],[133.16201,33.25102],[133.16225,33.25167],[133.16316,33.25339],[133.16472,33.25575],[133.16579,33.25693],[133.16725,33.25831],[133.16767,33.25884],[133.16923,33.26171]],[[133.48634,33.55168],[133.48774,33.55212],[133.48866,33.5526],[133.48935,33.55309],[133.49132,33.55487],[133.49224,33.55532],[133.49294,33.5555],[133.4938,33.55586],[133.49457,33.55656],[133.49551,33.55763],[133.49597,33.55794],[133.49681,33.55824]],[[133.39217,33.53968],[133.3907,33.53929],[133.38659,33.53883],[133.38611,33.53864],[133.38417,33.5373],[133.38335,33.53696],[133.38135,33.53656],[133.37461,33.53427],[133.37184,33.53354]],[[133.39318,33.53998],[133.39217,33.53968]]]}}