{"type":"Feature","properties":{"id":"四国旅客鉄道_高徳線","name":"高徳線","operator":"四国旅客鉄道","railType":"普通鉄道(JR)","operatorType":"JR在来線","category":"rail","attribution":"国土数値情報（鉄道データ）国土交通省"},"geometry":{"type":"MultiLineString","coordinates":[[[134.03216,34.34381],[134.03217,34.34434]],[[134.0352,34.34741],[134.03836,34.34835],[134.0424,34.34935],[134.04421,34.35006]],[[134.03217,34.34434],[134.03221,34.34486],[134.0324,34.34545],[134.03267,34.34596],[134.03311,34.34638],[134.0336,34.34669],[134.0352,34.34741]],[[134.13648,34.33928],[134.13388,34.34095],[134.13223,34.34139],[134.12409,34.34188],[134.12199,34.34119]],[[134.42384,34.21225],[134.42099,34.21401],[134.41968,34.21459],[134.41541,34.21618],[134.41497,34.21641],[134.41414,34.217],[134.40784,34.22219],[134.40661,34.22297],[134.40242,34.22423]],[[134.20846,34.28278],[134.20092,34.28172],[134.18675,34.28272]],[[134.14805,34.33626],[134.14737,34.33646]],[[134.08034,34.33199],[134.07956,34.33185]],[[134.30242,34.25437],[134.30109,34.25505]],[[134.24883,34.2878],[134.24772,34.28874]],[[134.185,34.28325],[134.18451,34.28345],[134.18415,34.28372],[134.18293,34.28495],[134.18036,34.28861],[134.18005,34.28941],[134.17912,34.29368],[134.1791,34.29415],[134.18063,34.30205]],[[134.24772,34.28874],[134.24554,34.2905],[134.24437,34.29097],[134.24331,34.29122],[134.24211,34.29132],[134.24125,34.29124],[134.23712,34.28936],[134.23618,34.28914],[134.23508,34.28912],[134.23436,34.28933],[134.23395,34.28956],[134.23308,34.29023],[134.23179,34.29103],[134.23094,34.29124],[134.22845,34.29165],[134.22708,34.29177],[134.22617,34.29167],[134.22256,34.29085],[134.22179,34.29055],[134.22118,34.29016],[134.22074,34.28974],[134.21802,34.28516],[134.21748,34.28465],[134.21672,34.28417],[134.21597,34.28389],[134.21539,34.28379],[134.20938,34.28291]],[[134.07956,34.33185],[134.07794,34.33157],[134.07707,34.3315],[134.05448,34.33229]],[[134.27356,34.28005],[134.26778,34.28073],[134.26638,34.28078],[134.2619,34.28066],[134.26103,34.28082],[134.26018,34.28113],[134.25895,34.28178],[134.25157,34.28584],[134.25052,34.28648],[134.24883,34.2878]],[[134.36545,34.2437],[134.36263,34.24376],[134.36216,34.24383],[134.35493,34.24541],[134.35352,34.24599],[134.35049,34.24746],[134.34346,34.25001],[134.3409,34.25082],[134.34027,34.25106],[134.33822,34.25208],[134.3374,34.25213],[134.33472,34.25181]],[[134.0526,34.33236],[134.04397,34.33271],[134.04343,34.33284],[134.04267,34.33328],[134.0421,34.33374],[134.04152,34.33438]],[[134.42492,34.2116],[134.42384,34.21225]],[[134.12124,34.341],[134.11966,34.34061],[134.11901,34.34033],[134.11832,34.33975],[134.11717,34.33847],[134.11688,34.33827],[134.11616,34.33798],[134.10999,34.33683]],[[134.27437,34.27996],[134.27356,34.28005]],[[134.18675,34.28272],[134.18576,34.28295],[134.185,34.28325]],[[134.05448,34.33229],[134.0526,34.33236]],[[134.33472,34.25181],[134.33359,34.25166]],[[134.40242,34.22423],[134.40115,34.22449]],[[134.04105,34.33492],[134.04054,34.33545],[134.0402,34.33568],[134.03931,34.33608],[134.03855,34.33623],[134.03484,34.33661],[134.03368,34.33693],[134.03274,34.33763],[134.03243,34.33811],[134.03214,34.3391],[134.03216,34.34381]],[[134.17379,34.32121],[134.17243,34.32163]],[[134.30109,34.25505],[134.29932,34.25598],[134.29848,34.25653],[134.29695,34.25777],[134.29633,34.25849],[134.29573,34.25981],[134.29536,34.26043],[134.2931,34.26302],[134.29286,34.26341],[134.2927,34.26497],[134.29248,34.26561],[134.2905,34.26795],[134.28855,34.27284],[134.28795,34.27383],[134.28758,34.27426],[134.28279,34.27719],[134.27784,34.27939],[134.27698,34.27965],[134.27437,34.27996]],[[134.04421,34.35006],[134.04646,34.35106]],[[134.13713,34.33887],[134.13648,34.33928]],[[134.20938,34.28291],[134.20846,34.28278]],[[134.33359,34.25166],[134.33034,34.25121],[134.32524,34.25172],[134.31996,34.25145],[134.31702,34.25152],[134.30965,34.2523],[134.30586,34.25279],[134.30507,34.25305],[134.30242,34.25437]],[[134.12199,34.34119],[134.12124,34.341]],[[134.40115,34.22449],[134.39906,34.22461],[134.39755,34.22449],[134.39611,34.22418],[134.3933,34.22329],[134.3921,34.22306],[134.39108,34.22309],[134.39056,34.22321],[134.38893,34.22398],[134.38756,34.22484],[134.38688,34.22564],[134.38666,34.22601],[134.38634,34.22731],[134.38594,34.22835],[134.38242,34.23379],[134.38205,34.23423],[134.37544,34.23945],[134.37427,34.24024],[134.36932,34.24282],[134.36787,34.24335],[134.36693,34.24352]],[[134.14737,34.33646],[134.14671,34.33663],[134.14204,34.33682],[134.14028,34.33705],[134.13961,34.33727],[134.13713,34.33887]],[[134.10999,34.33683],[134.10917,34.3367]],[[134.44896,34.17844],[134.44835,34.17899]],[[134.04152,34.33438],[134.04105,34.33492]],[[134.17243,34.32163],[134.16911,34.32261],[134.16702,34.32344],[134.16573,34.32434],[134.15358,34.33355],[134.15174,34.33455],[134.14858,34.33607],[134.14805,34.33626]],[[134.10917,34.3367],[134.09186,34.3338],[134.08034,34.33199]],[[134.44835,34.17899],[134.44778,34.17996],[134.44755,34.18094],[134.44756,34.18132],[134.44765,34.18173],[134.44836,34.18309],[134.44851,34.18352],[134.44855,34.18447],[134.44444,34.19596],[134.44436,34.19646],[134.44461,34.19775],[134.44491,34.19828],[134.44747,34.20023],[134.44838,34.20136],[134.44864,34.20196],[134.44868,34.20263],[134.44865,34.20289],[134.44831,34.20362],[134.44766,34.20426],[134.44662,34.20462],[134.44403,34.20468],[134.43933,34.20531],[134.43804,34.2053],[134.43438,34.20502],[134.43319,34.20529],[134.43028,34.20619],[134.42937,34.20669],[134.42874,34.20731],[134.42702,34.21011],[134.42669,34.21044],[134.42492,34.2116]],[[134.18063,34.30205],[134.18082,34.3027]],[[134.36693,34.24352],[134.36545,34.2437]],[[134.18082,34.3027],[134.1821,34.30456],[134.18239,34.30534],[134.18357,34.31265],[134.18361,34.31328],[134.18353,34.3136],[134.18338,34.31399],[134.18287,34.31483],[134.18109,34.31728],[134.18038,34.31809],[134.17942,34.31894],[134.17802,34.31988],[134.17379,34.32121]],[[134.48345,34.14875],[134.481,34.14762],[134.47685,34.14685],[134.47639,34.14669],[134.46797,34.14255],[134.46741,34.14233],[134.46586,34.14199]],[[134.48405,34.14902],[134.48345,34.14875]],[[134.55049,34.07498],[134.54181,34.07902],[134.53926,34.08039]],[[134.53095,34.11798],[134.53066,34.11908]],[[134.52835,34.12771],[134.52817,34.12844]],[[134.53066,34.11908],[134.52835,34.12771]],[[134.50759,34.15521],[134.50606,34.15538]],[[134.52902,34.15242],[134.52835,34.15343]],[[134.50606,34.15538],[134.50378,34.15557],[134.49948,34.15533],[134.49794,34.15514],[134.49676,34.1549],[134.49416,34.15391],[134.48405,34.14902]],[[134.46586,34.14199],[134.46457,34.14191]],[[134.52817,34.12844],[134.52768,34.13101],[134.52787,34.13189],[134.53092,34.13541],[134.53132,34.13604],[134.53148,34.13655],[134.53148,34.13716],[134.53134,34.13822],[134.52929,34.15188]],[[134.52929,34.15188],[134.52902,34.15242]],[[134.46457,34.14191],[134.46331,34.14218],[134.46283,34.14237],[134.46233,34.14269],[134.46059,34.14557],[134.4603,34.1462],[134.45915,34.15181],[134.45921,34.15248],[134.4596,34.15447],[134.45961,34.15502],[134.45946,34.15638],[134.45895,34.15751],[134.45767,34.15935],[134.45738,34.16024],[134.45733,34.16128],[134.45744,34.16326],[134.45812,34.16631],[134.45817,34.16688],[134.45807,34.16789],[134.45785,34.16841],[134.45757,34.16883],[134.45718,34.16922],[134.45513,34.17025],[134.45464,34.17059],[134.45413,34.17119],[134.45394,34.1715],[134.45316,34.17369],[134.4528,34.17538],[134.45258,34.17586],[134.45215,34.17644],[134.44945,34.17806],[134.44896,34.17844]],[[134.55251,34.07404],[134.55049,34.07498]],[[134.53926,34.08039],[134.53819,34.08082],[134.53765,34.08095]],[[134.53765,34.08095],[134.536,34.08109]],[[134.536,34.08109],[134.53474,34.08135],[134.53396,34.08172],[134.53345,34.08215],[134.52932,34.08763],[134.5281,34.08951],[134.52535,34.09571],[134.52485,34.09714],[134.52538,34.10823],[134.52551,34.10935],[134.52575,34.10998],[134.52623,34.11069],[134.52962,34.11374],[134.53059,34.11474],[134.53096,34.11543],[134.53116,34.11633],[134.53117,34.11709],[134.53095,34.11798]],[[134.52835,34.15343],[134.52774,34.15388],[134.5269,34.15426],[134.52606,34.15448],[134.52433,34.15473],[134.52053,34.15463],[134.52009,34.15466],[134.51838,34.15505],[134.51691,34.15522],[134.5121,34.15526],[134.51024,34.15496],[134.50759,34.15521]]]}}