{"type":"Feature","properties":{"id":"四国旅客鉄道_予讃線","name":"予讃線","operator":"四国旅客鉄道","railType":"普通鉄道(JR)","operatorType":"JR在来線","category":"rail","attribution":"国土数値情報（鉄道データ）国土交通省"},"geometry":{"type":"MultiLineString","coordinates":[[[134.0352,34.34741],[134.03836,34.34835],[134.0424,34.34935],[134.04421,34.35006]],[[134.04421,34.35006],[134.04646,34.35106]],[[133.92344,34.29149],[133.92211,34.29202],[133.9214,34.29243],[133.92086,34.29285],[133.90555,34.30665]],[[133.90555,34.30665],[133.90498,34.30716]],[[134.00985,34.34108],[134.01017,34.34164]],[[134.02878,34.34577],[134.0332,34.34709],[134.0352,34.34741]],[[133.96842,34.30515],[133.96772,34.30495]],[[133.99395,34.3257],[133.99352,34.3251]],[[133.99352,34.3251],[133.9857,34.31526],[133.98329,34.31238],[133.9822,34.31156],[133.97869,34.30989],[133.97358,34.30681],[133.97235,34.30635],[133.96842,34.30515]],[[134.01723,34.34637],[134.01871,34.34598],[134.0214,34.34511],[134.0222,34.34499],[134.02617,34.34494],[134.02729,34.34518],[134.02878,34.34577]],[[133.92429,34.29138],[133.92344,34.29149]],[[133.99395,34.3257],[133.99781,34.33059],[133.99865,34.33158],[133.99915,34.33204],[134.00007,34.33272],[134.00075,34.33309],[134.00502,34.33475],[134.00591,34.33533],[134.00679,34.3361],[134.00724,34.3366],[134.00985,34.34108]],[[133.94138,34.30054],[133.94055,34.30039],[133.93966,34.29983],[133.939,34.29925],[133.93841,34.29825],[133.93798,34.29615],[133.93775,34.2955],[133.9372,34.2948],[133.93676,34.29439],[133.93605,34.29393],[133.93531,34.29367],[133.92607,34.2915],[133.92553,34.29141],[133.92429,34.29138]],[[133.94217,34.30062],[133.94138,34.30054]],[[133.96772,34.30495],[133.96268,34.3034],[133.96061,34.30285],[133.95909,34.30254],[133.94805,34.30111],[133.94217,34.30062]],[[134.01723,34.34637],[134.02236,34.34621],[134.0266,34.34571],[134.02782,34.34569],[134.02878,34.34577]],[[134.01017,34.34164],[134.01201,34.34482],[134.01225,34.34509],[134.01287,34.34553],[134.01365,34.34594],[134.01496,34.34634],[134.01646,34.34646],[134.01723,34.34637]],[[133.75466,34.26667],[133.75696,34.27065]],[[133.75696,34.27065],[133.75762,34.27184]],[[133.71088,34.20505],[133.71272,34.20042],[133.71289,34.19978],[133.71293,34.19908],[133.71299,34.18922],[133.71294,34.18698],[133.71286,34.18648],[133.71265,34.18598],[133.71146,34.18443]],[[133.73055,34.25343],[133.72895,34.25397]],[[133.69298,34.22027],[133.69315,34.21922],[133.69346,34.21819],[133.69384,34.21758],[133.69438,34.21703],[133.70614,34.21203],[133.70775,34.21101],[133.70845,34.21037],[133.70885,34.20981],[133.70959,34.20824],[133.71042,34.20616]],[[133.71042,34.20616],[133.71088,34.20505]],[[133.82565,34.31357],[133.83079,34.31207],[133.83168,34.31168],[133.8341,34.3102],[133.83491,34.30983],[133.83633,34.30941],[133.83699,34.30935],[133.83781,34.30937],[133.8391,34.30961],[133.84008,34.31001],[133.84212,34.31124],[133.843,34.31163],[133.8474,34.31276],[133.84854,34.31293],[133.85256,34.31291],[133.85586,34.31312]],[[133.81778,34.31274],[133.81834,34.31332],[133.81888,34.31372],[133.81947,34.31406],[133.82062,34.3144],[133.82189,34.31446],[133.82284,34.31434],[133.82565,34.31357]],[[133.81426,34.30712],[133.81778,34.31274]],[[133.77774,34.28519],[133.77993,34.2861],[133.78373,34.28749],[133.78898,34.28992],[133.79241,34.29165]],[[133.72895,34.25397],[133.7271,34.25453],[133.7264,34.25457],[133.72591,34.25451],[133.72176,34.25328],[133.71914,34.25224],[133.71837,34.25182],[133.71782,34.25128],[133.71515,34.24767],[133.70856,34.24018],[133.70796,34.23964],[133.70736,34.23927],[133.70486,34.23847]],[[133.81324,34.30552],[133.81426,34.30712]],[[133.85586,34.31312],[133.85771,34.31326]],[[133.71146,34.18443],[133.71006,34.18269]],[[133.70486,34.23847],[133.70412,34.23796]],[[133.85771,34.31326],[133.87539,34.31494],[133.88443,34.31309]],[[133.90498,34.30716],[133.90332,34.3086],[133.90265,34.30904],[133.90137,34.30958],[133.89605,34.31074],[133.88529,34.31291]],[[133.79241,34.29165],[133.79402,34.29235]],[[133.73055,34.25343],[133.73315,34.25256],[133.73442,34.25232],[133.73936,34.252],[133.7405,34.2521],[133.74161,34.2525],[133.74257,34.25316],[133.75135,34.26094],[133.75244,34.26255],[133.75466,34.26667]],[[133.79402,34.29235],[133.80137,34.29502],[133.80495,34.29574],[133.80616,34.29618],[133.80678,34.29655],[133.80781,34.29734],[133.80882,34.29851],[133.81324,34.30552]],[[133.77693,34.28492],[133.77774,34.28519]],[[133.75762,34.27184],[133.76034,34.27685],[133.76122,34.27817],[133.76184,34.27894],[133.76222,34.27928],[133.76349,34.27993],[133.76516,34.28063],[133.77693,34.28492]],[[133.88529,34.31291],[133.88443,34.31309]],[[133.70412,34.23796],[133.70121,34.23527],[133.69555,34.23216],[133.69498,34.23156],[133.69243,34.22827],[133.69212,34.22747],[133.69206,34.22696],[133.69261,34.22266]],[[133.69261,34.22266],[133.69298,34.22027]],[[133.65744,34.1248],[133.68084,34.13197],[133.68213,34.13268],[133.68316,34.13354],[133.68375,34.1343],[133.68428,34.13527],[133.68636,34.14604]],[[133.65504,34.12408],[133.65744,34.1248]],[[133.57594,34.01387],[133.57633,34.01564]],[[133.57633,34.01564],[133.57742,34.02043],[133.57779,34.0213],[133.5783,34.02195],[133.58015,34.02345],[133.58301,34.02794],[133.58393,34.02922],[133.58459,34.02987],[133.58569,34.03068],[133.5869,34.03143],[133.59213,34.03371],[133.59332,34.03447],[133.59404,34.03507],[133.59769,34.03903],[133.59848,34.03972],[133.59895,34.04002],[133.60019,34.0406],[133.60071,34.04075],[133.6063,34.04141],[133.60768,34.04183],[133.61383,34.04519],[133.61467,34.04583],[133.61529,34.04644],[133.61601,34.04688],[133.61891,34.04783]],[[133.42679,33.95879],[133.41893,33.95675],[133.41822,33.95631],[133.41702,33.9552],[133.4159,33.95444],[133.41458,33.95396],[133.40581,33.95241],[133.40446,33.95248],[133.40294,33.95294],[133.39749,33.95529],[133.3967,33.95545],[133.39329,33.95575]],[[133.45688,33.96694],[133.45613,33.96667]],[[133.29409,33.94746],[133.28506,33.93939],[133.28274,33.93746],[133.28221,33.93717],[133.28152,33.93694],[133.27645,33.93626],[133.2751,33.93567],[133.27481,33.93549],[133.27386,33.93462],[133.27015,33.93054],[133.26918,33.92969],[133.26814,33.92905],[133.26645,33.92836],[133.26472,33.92795],[133.26377,33.92788],[133.25927,33.92792],[133.25858,33.92782],[133.25395,33.92645]],[[133.42841,33.95922],[133.42679,33.95879]],[[133.25395,33.92645],[133.25253,33.92603]],[[133.61891,34.04783],[133.62011,34.04822]],[[133.64471,34.08122],[133.65011,34.10683],[133.65004,34.10778],[133.64739,34.11784],[133.64728,34.11863],[133.64738,34.11941],[133.64755,34.12002],[133.6479,34.12073],[133.64857,34.12151],[133.64911,34.12197],[133.64993,34.12242],[133.65089,34.12279],[133.65504,34.12408]],[[133.5006,33.96794],[133.49979,33.96794]],[[133.54169,33.9794],[133.53253,33.97755],[133.53119,33.97692],[133.51623,33.96908],[133.51483,33.9685],[133.5141,33.96834],[133.51329,33.96828],[133.5006,33.96794]],[[133.68664,34.14748],[133.69029,34.16661]],[[133.45613,33.96667],[133.44881,33.96428],[133.42841,33.95922]],[[133.69029,34.16661],[133.69042,34.16731]],[[133.54329,33.97973],[133.54599,33.98025],[133.54699,33.98066],[133.55851,33.98819],[133.55968,33.98916],[133.57458,34.00303],[133.57527,34.00394],[133.57555,34.00502],[133.57534,34.01086],[133.5754,34.01144],[133.57594,34.01387]],[[133.64436,34.07956],[133.64393,34.07736],[133.64363,34.07636],[133.64333,34.07567],[133.63165,34.05483],[133.63086,34.05392],[133.63021,34.05344],[133.62898,34.05302],[133.62771,34.05275],[133.62649,34.05219],[133.623,34.0493],[133.62238,34.04897],[133.62011,34.04822]],[[133.64471,34.08122],[133.64436,34.07956]],[[133.54329,33.97973],[133.54169,33.9794]],[[133.29543,33.94863],[133.29409,33.94746]],[[133.39329,33.95575],[133.39244,33.95579]],[[133.68636,34.14604],[133.68664,34.14748]],[[133.32597,33.97058],[133.32446,33.97048]],[[133.39244,33.95579],[133.38286,33.95649],[133.38221,33.95669],[133.38105,33.95741],[133.37793,33.96076],[133.3765,33.9621],[133.37556,33.96256],[133.37469,33.9626],[133.37211,33.96237],[133.37134,33.96258],[133.36902,33.96361],[133.36866,33.96369],[133.3654,33.9637],[133.36265,33.96408],[133.36124,33.96454],[133.3607,33.96486],[133.36033,33.9652],[133.35876,33.96763],[133.35571,33.97118],[133.35509,33.97162],[133.3543,33.97195],[133.35033,33.97242],[133.34934,33.97272],[133.34817,33.97325],[133.3476,33.9734],[133.34684,33.97345],[133.34483,33.97338],[133.34224,33.97374],[133.34099,33.9738],[133.33909,33.97359],[133.33513,33.97247],[133.33444,33.97217],[133.33278,33.97118],[133.33125,33.97066],[133.32951,33.97055],[133.32597,33.97058]],[[133.32446,33.97048],[133.32262,33.96992],[133.32112,33.96905],[133.31801,33.96649],[133.3074,33.95926],[133.30473,33.95701],[133.29543,33.94863]],[[133.71006,34.18269],[133.70773,34.17977],[133.70722,34.17939],[133.70619,34.17892],[133.70508,34.17871],[133.69655,34.17786],[133.69529,34.17746],[133.69416,34.17681],[133.69353,34.1761],[133.69307,34.17502],[133.69085,34.16919],[133.69042,34.16731]],[[133.49979,33.96794],[133.4916,33.96766],[133.4905,33.96775],[133.48913,33.96798],[133.48812,33.96829],[133.48551,33.96958],[133.48416,33.97008],[133.48255,33.97041],[133.48108,33.97049],[133.46334,33.96888],[133.46195,33.96861],[133.45688,33.96694]],[[132.94221,34.09525],[132.94298,34.09526]],[[132.96851,34.09813],[132.9693,34.09795]],[[132.94298,34.09526],[132.94463,34.09539],[132.94508,34.0955],[132.94831,34.09709],[132.94933,34.09732],[132.94984,34.09735],[132.95085,34.09728],[132.95153,34.09711],[132.95749,34.0954],[132.95824,34.09542],[132.95915,34.0957],[132.96438,34.0979],[132.96491,34.09806],[132.9662,34.0983],[132.96751,34.09828],[132.96851,34.09813]],[[133.15713,33.89589],[133.15809,33.89591]],[[133.09901,33.9124],[133.09895,33.91307]],[[132.7288,33.86096],[132.72886,33.8575],[132.729,33.85665],[132.72947,33.85542],[132.73085,33.85234],[132.73151,33.85123],[132.73211,33.8506],[132.73274,33.85021],[132.73319,33.85006],[132.73481,33.84989],[132.73643,33.85006],[132.73793,33.85062],[132.73858,33.85076],[132.73988,33.85079],[132.74122,33.85055],[132.74276,33.85007],[132.74587,33.84882],[132.74642,33.84851],[132.74747,33.84765],[132.74825,33.84682],[132.75005,33.84518],[132.75056,33.84454],[132.75083,33.84378],[132.75094,33.8407]],[[133.00931,34.03593],[133.00888,34.03672]],[[132.84147,34.03345],[132.84226,34.03366],[132.84332,34.03419],[132.84473,34.03527],[132.84556,34.03634],[132.84823,34.04056],[132.84902,34.04134],[132.85288,34.04363],[132.8552,34.04419],[132.85583,34.0445],[132.85639,34.04501],[132.85708,34.04587],[132.85862,34.04733],[132.85955,34.0478],[132.86224,34.04863],[132.86366,34.04925],[132.86518,34.05048],[132.86591,34.05118],[132.86712,34.05202],[132.86779,34.0523],[132.86873,34.05254],[132.87207,34.05288],[132.8736,34.05354]],[[132.77553,33.99969],[132.77504,33.9979],[132.77499,33.99714],[132.77532,33.9962],[132.77618,33.99453],[132.77627,33.99406],[132.77623,33.99353],[132.77562,33.99203],[132.77555,33.99144],[132.77559,33.99093],[132.77607,33.98968],[132.77899,33.98351],[132.77924,33.98246],[132.77929,33.98163],[132.77923,33.98105],[132.77907,33.9806],[132.77564,33.97353]],[[132.74095,33.89008],[132.74014,33.88914]],[[133.11752,33.89754],[133.11551,33.89766]],[[133.08505,33.93023],[133.07268,33.94408],[133.07194,33.94499],[133.07142,33.94576],[133.07078,33.94705],[133.06947,33.9501],[133.06849,33.95189],[133.06782,33.95249],[133.06499,33.95399]],[[132.7117,33.76393],[132.72381,33.7714],[132.7247,33.77189],[132.72673,33.77271]],[[132.7733,33.95314],[132.77188,33.95025],[132.77163,33.94956],[132.77149,33.94844],[132.77177,33.94617],[132.77146,33.94481],[132.77084,33.94345]],[[132.77572,34.00038],[132.77627,34.00219],[132.77764,34.00355],[132.77899,34.00396],[132.77979,34.00429],[132.78218,34.00592],[132.78349,34.00645],[132.78454,34.0071],[132.78603,34.00781],[132.79041,34.00924],[132.79213,34.00943],[132.79295,34.00925],[132.79378,34.00889],[132.79418,34.00861],[132.79493,34.00825],[132.79832,34.00738],[132.79937,34.00733],[132.8005,34.00764],[132.8012,34.00799],[132.80281,34.0097]],[[132.9286,34.06568],[132.92963,34.06635]],[[132.8736,34.05354],[132.87471,34.05415]],[[132.80326,34.01024],[132.80621,34.01394],[132.80729,34.01692],[132.80748,34.0172],[132.80803,34.01767],[132.80896,34.01809],[132.81017,34.01827],[132.81121,34.0186],[132.81169,34.01881],[132.81294,34.01979],[132.81341,34.02004],[132.815,34.02047],[132.81619,34.02095],[132.81743,34.02199],[132.81844,34.02318],[132.81893,34.02363],[132.81949,34.024],[132.82496,34.02667],[132.82606,34.02769],[132.82768,34.02849],[132.82829,34.02892],[132.83051,34.0312],[132.83166,34.03166],[132.83426,34.03196],[132.83595,34.03273],[132.84069,34.03331]],[[132.72673,33.77271],[132.72748,33.773]],[[132.77035,33.94242],[132.76748,33.93631],[132.76597,33.93356],[132.76512,33.93225],[132.76117,33.92714]],[[132.77564,33.97353],[132.77503,33.97228]],[[132.92963,34.06635],[132.93134,34.0675],[132.93203,34.06811],[132.93232,34.06852],[132.93255,34.06915],[132.93267,34.06979],[132.93264,34.07042],[132.93098,34.0773],[132.93081,34.0784],[132.9307,34.08032],[132.9305,34.08199],[132.92978,34.08467],[132.92973,34.0855],[132.9298,34.08603],[132.93011,34.08662],[132.93148,34.08825],[132.93173,34.08869],[132.93291,34.09186],[132.93308,34.09214],[132.93568,34.09436],[132.93728,34.09527],[132.93836,34.09565],[132.93874,34.09569],[132.94088,34.09535],[132.94221,34.09525]],[[132.76074,33.92655],[132.75818,33.92333],[132.75731,33.92172],[132.75721,33.92122],[132.75722,33.92081],[132.75746,33.91997],[132.75832,33.91835],[132.75827,33.9176],[132.75802,33.91697],[132.75636,33.91436],[132.75606,33.91351],[132.75596,33.91257],[132.75612,33.91038],[132.75602,33.90927],[132.75544,33.90807],[132.75393,33.90597]],[[132.84069,34.03331],[132.84147,34.03345]],[[132.77503,33.97228],[132.77404,33.97009],[132.77392,33.96969],[132.77375,33.96825],[132.7738,33.96714],[132.77492,33.95985],[132.77507,33.95816],[132.77502,33.95709],[132.77477,33.95624],[132.77366,33.95391]],[[132.71208,33.6486],[132.71173,33.6498]],[[132.75094,33.8407],[132.75103,33.83906]],[[132.76117,33.92714],[132.76074,33.92655]],[[132.77366,33.95391],[132.7733,33.95314]],[[132.77572,34.00038],[132.77553,33.99969]],[[133.03541,34.01238],[133.03453,34.01466],[133.03407,34.01529],[133.0177,34.02792],[133.01714,34.02825],[133.01471,34.02937],[133.01332,34.03023],[133.0125,34.03092],[133.01121,34.03243],[133.00931,34.03593]],[[133.03568,34.0117],[133.03541,34.01238]],[[132.73885,33.77776],[132.74432,33.78011],[132.74521,33.78071],[132.7463,33.78168],[132.74766,33.78329],[132.74809,33.78415],[132.74839,33.78482],[132.7486,33.78555],[132.7488,33.78681]],[[132.75393,33.90597],[132.75316,33.90496]],[[132.75103,33.83906],[132.75119,33.83687],[132.75155,33.82794],[132.75152,33.82745],[132.75124,33.82609],[132.75057,33.82397],[132.74975,33.82083],[132.74948,33.81824],[132.74927,33.8095]],[[132.87471,34.05415],[132.87911,34.05651],[132.88017,34.05702],[132.88073,34.05716],[132.8817,34.05715],[132.88364,34.05676],[132.88508,34.05676],[132.88783,34.05698],[132.88913,34.05723],[132.89266,34.05902],[132.8951,34.06052],[132.89586,34.06091],[132.89717,34.06154],[132.89908,34.06216],[132.90005,34.06232],[132.90383,34.06212],[132.90465,34.06193],[132.90599,34.06124],[132.90685,34.06112],[132.91227,34.0614],[132.91775,34.06079],[132.92172,34.06167],[132.923,34.06206],[132.9286,34.06568]],[[133.13153,33.89672],[133.14605,33.89584],[133.15713,33.89589]],[[132.80281,34.0097],[132.80326,34.01024]],[[132.9693,34.09795],[132.97006,34.09766],[132.97064,34.09729],[132.97246,34.0959],[132.97557,34.09376],[132.97836,34.09207],[132.9829,34.08904],[132.98365,34.08846],[132.98396,34.08806],[132.98437,34.08727],[132.98456,34.08662],[132.98457,34.08586],[132.98426,34.08424],[132.98426,34.08353],[132.98479,34.08055],[132.98595,34.07489],[132.98694,34.07221],[132.98728,34.07149],[132.98804,34.0705],[132.99335,34.06464]],[[132.74927,33.8088],[132.74927,33.8095]],[[133.06367,33.95469],[133.05723,33.95806],[133.05635,33.95862],[133.0557,33.95922],[133.05474,33.9604],[133.05329,33.96316],[133.05276,33.96426],[133.05253,33.96533],[133.05255,33.96572],[133.05303,33.96698],[133.05308,33.96811],[133.05218,33.97418],[133.05215,33.97493],[133.05234,33.97736],[133.0531,33.98172],[133.05311,33.98294],[133.05299,33.98341],[133.05244,33.98444],[133.05227,33.98494],[133.05217,33.98576],[133.05216,33.98686],[133.05197,33.98785],[133.05206,33.98948],[133.0519,33.99012],[133.05138,33.99093],[133.05058,33.99164],[133.04979,33.99203],[133.04832,33.9925],[133.04713,33.99322],[133.04502,33.99468],[133.04268,33.99671],[133.03869,33.99974],[133.0378,34.00062],[133.03721,34.00155],[133.03681,34.00248],[133.03611,34.00379],[133.03571,34.00518],[133.03574,34.00581],[133.03627,34.00767],[133.03648,34.00894],[133.03568,34.0117]],[[133.15809,33.89591],[133.16172,33.89594],[133.16244,33.89609],[133.17345,33.90025],[133.17521,33.90106],[133.17575,33.90145],[133.1765,33.90217],[133.18324,33.91038],[133.18373,33.91069],[133.18729,33.91215]],[[133.13063,33.89677],[133.13153,33.89672]],[[133.18729,33.91215],[133.18922,33.91298]],[[133.25253,33.92603],[133.25011,33.92508],[133.24742,33.92361],[133.24679,33.92317],[133.24561,33.92257],[133.24429,33.92227],[133.2399,33.92234],[133.23499,33.92216],[133.23375,33.92235],[133.23203,33.92275],[133.23096,33.9227],[133.22066,33.92151],[133.21973,33.92151],[133.21447,33.92197],[133.21274,33.92194],[133.21067,33.92169],[133.20915,33.92132],[133.20776,33.92088],[133.20551,33.91998],[133.18922,33.91298]],[[133.11752,33.89754],[133.13063,33.89677]],[[132.71107,33.76353],[132.7117,33.76393]],[[133.08611,33.92907],[133.08505,33.93023]],[[132.7488,33.78681],[132.74879,33.78786]],[[133.11551,33.89766],[133.10853,33.89804],[133.10517,33.89831],[133.10399,33.89852],[133.10287,33.89891],[133.10235,33.89915],[133.10134,33.89986],[133.10097,33.90023],[133.10007,33.90141],[133.09969,33.90224],[133.09945,33.9032],[133.09901,33.9124]],[[132.99335,34.06464],[132.99434,34.06357]],[[133.09895,33.91307],[133.09864,33.91435],[133.09819,33.91526],[133.09792,33.91563],[133.09426,33.91998],[133.08611,33.92907]],[[132.75316,33.90496],[132.74881,33.89919],[132.74095,33.89008]],[[132.74879,33.78786],[132.74883,33.79212],[132.74915,33.80025],[132.74927,33.8088]],[[132.77084,33.94345],[132.77035,33.94242]],[[133.00888,34.03672],[133.00143,34.0509],[132.99815,34.05904],[132.99744,34.06006],[132.99645,34.06127],[132.99434,34.06357]],[[132.72878,33.86246],[132.7288,33.86096]],[[132.74014,33.88914],[132.73855,33.8872],[132.73826,33.88674],[132.73788,33.88572],[132.73695,33.87459],[132.73685,33.87359],[132.73661,33.87256],[132.73642,33.87216],[132.73599,33.87171],[132.73521,33.87126],[132.73408,33.87094],[132.73236,33.87082],[132.7312,33.87052],[132.73075,33.87026],[132.73028,33.86986],[132.72949,33.86905],[132.72886,33.86783],[132.7287,33.86714],[132.72878,33.86246]],[[133.06499,33.95399],[133.06367,33.95469]],[[132.53935,33.29704],[132.53611,33.30213],[132.5358,33.30296],[132.53579,33.30382],[132.53643,33.30605],[132.53658,33.30684],[132.5367,33.30872],[132.53737,33.3104],[132.53749,33.31143],[132.53735,33.31205],[132.53524,33.31774],[132.53485,33.31854],[132.53436,33.31911],[132.52982,33.32294],[132.52599,33.32604],[132.52554,33.32673],[132.52473,33.3284],[132.52332,33.33184],[132.52331,33.3324],[132.52356,33.333],[132.53234,33.34576],[132.53238,33.34667],[132.53122,33.34947]],[[132.58946,33.65531],[132.58882,33.65487]],[[132.55565,33.55543],[132.55668,33.55473],[132.55712,33.55425],[132.55961,33.55005],[132.56078,33.54835],[132.56108,33.54811],[132.56257,33.54749],[132.56511,33.54698],[132.56628,33.54629],[132.56787,33.54562],[132.56901,33.54496],[132.56955,33.54451],[132.56984,33.54405],[132.57049,33.5417]],[[132.53122,33.34947],[132.53095,33.35009]],[[132.6333,33.68381],[132.63262,33.68341]],[[132.5442,33.27309],[132.54443,33.27373]],[[132.53958,33.29641],[132.53935,33.29704]],[[132.45777,33.42459],[132.457,33.42641],[132.45593,33.42734],[132.45573,33.4276],[132.45513,33.42965],[132.45474,33.43029],[132.45427,33.43077],[132.45363,33.43117],[132.45191,33.4318],[132.4508,33.43234],[132.44797,33.43488],[132.44613,33.43699],[132.44485,33.44004],[132.44448,33.44044],[132.44347,33.4411],[132.44312,33.44143],[132.43863,33.44827],[132.43824,33.44867],[132.43744,33.44923],[132.43487,33.45044],[132.43439,33.45092],[132.43371,33.45192],[132.43282,33.45341],[132.43272,33.45424],[132.43283,33.45502],[132.43318,33.45568],[132.43399,33.4565],[132.43586,33.45781]],[[132.56469,33.53163],[132.56565,33.53239],[132.56637,33.53276],[132.56932,33.53344],[132.57055,33.53345],[132.57289,33.53295],[132.57386,33.53294],[132.57685,33.53345],[132.57902,33.53442],[132.57996,33.5347],[132.58133,33.53454],[132.5828,33.53454],[132.59078,33.53509],[132.59205,33.53487],[132.5941,33.53435],[132.59515,33.53425],[132.59812,33.53417]],[[132.69573,33.73622],[132.69565,33.73557]],[[132.56268,33.64694],[132.55566,33.64482],[132.55427,33.64422],[132.55167,33.64363],[132.54877,33.64259],[132.54812,33.64211],[132.5475,33.64179],[132.54603,33.64165],[132.5449,33.64129],[132.54361,33.64105],[132.54275,33.64069],[132.54173,33.64047],[132.54097,33.6402],[132.53982,33.63956],[132.53809,33.63909],[132.53718,33.63851],[132.53673,33.63833],[132.53614,33.6382],[132.53498,33.63822],[132.53431,33.63815],[132.53278,33.63772],[132.53182,33.63731]],[[132.64634,33.55023],[132.64676,33.55306],[132.64737,33.55483],[132.64838,33.55683],[132.65548,33.56489],[132.65633,33.56626],[132.65793,33.57058],[132.6607,33.5785],[132.66166,33.58097],[132.66337,33.58446],[132.66482,33.58702],[132.6653,33.58761],[132.66641,33.58847],[132.66771,33.5893],[132.66866,33.59018],[132.66911,33.59076],[132.67049,33.59306],[132.67687,33.60031]],[[132.54526,33.51953],[132.54442,33.51757]],[[132.54526,33.51953],[132.54595,33.52107],[132.54657,33.52187],[132.54719,33.5223],[132.54911,33.5231],[132.55032,33.52345],[132.55744,33.52381],[132.55802,33.52398],[132.55942,33.52477],[132.56037,33.52547],[132.56129,33.52649],[132.56469,33.53163]],[[132.51783,33.49606],[132.51723,33.49724],[132.51712,33.49828],[132.51731,33.49874],[132.51753,33.49903],[132.51856,33.5001],[132.51898,33.50089],[132.51923,33.50354],[132.51941,33.50417],[132.51965,33.50458],[132.52054,33.50554],[132.52131,33.50602],[132.52171,33.50619],[132.52373,33.50669],[132.52489,33.50709],[132.52678,33.50802]],[[132.57056,33.54096],[132.57045,33.54035],[132.56993,33.53907],[132.56838,33.53726],[132.56469,33.53163]],[[132.56951,33.24095],[132.56868,33.24734],[132.56877,33.24843],[132.569,33.24893],[132.57378,33.25338],[132.57397,33.25372],[132.57403,33.25405],[132.57357,33.2557]],[[132.5184,33.49516],[132.51783,33.49606]],[[132.69565,33.73557],[132.69538,33.73302]],[[132.56717,33.22576],[132.56825,33.22661]],[[132.70295,33.75588],[132.71032,33.76304],[132.71107,33.76353]],[[132.47343,33.39148],[132.48457,33.38828],[132.49564,33.38479],[132.49699,33.38428],[132.49828,33.38362],[132.49954,33.38261],[132.50027,33.38177],[132.50121,33.38027]],[[132.49909,33.59609],[132.49861,33.59663]],[[132.50955,33.36346],[132.50891,33.36449],[132.50839,33.36553],[132.50155,33.37966]],[[132.57344,33.25626],[132.57299,33.25764],[132.57273,33.25806],[132.57211,33.25873],[132.57116,33.25944],[132.5705,33.26007],[132.56996,33.26076],[132.56962,33.26289],[132.56933,33.26347],[132.56876,33.26418],[132.56814,33.26472],[132.56683,33.26538],[132.56051,33.26567],[132.55848,33.26569],[132.55702,33.26544],[132.5564,33.26524],[132.55518,33.26469],[132.5538,33.26382],[132.5531,33.26356],[132.55228,33.26341],[132.54997,33.26337],[132.54659,33.26361],[132.54496,33.26342],[132.54425,33.26351],[132.5439,33.26368],[132.54306,33.26433],[132.54295,33.26448],[132.54287,33.26489],[132.54321,33.26615],[132.54404,33.26731],[132.54428,33.26791],[132.54408,33.26859],[132.5435,33.26956],[132.54341,33.27002],[132.54341,33.27077],[132.54352,33.27157],[132.5442,33.27309]],[[132.53111,33.63697],[132.52854,33.63524],[132.52739,33.63499],[132.52516,33.63374],[132.52333,33.63309],[132.5221,33.63226],[132.52123,33.63187],[132.52012,33.63124],[132.51816,33.6306],[132.51778,33.63034],[132.51703,33.62958],[132.51627,33.62907],[132.51534,33.62871],[132.51351,33.62857],[132.51272,33.62822],[132.51133,33.62743],[132.511,33.6271],[132.51059,33.62639],[132.51017,33.62599],[132.50953,33.62571],[132.50789,33.62521],[132.50549,33.62424],[132.50434,33.62363],[132.50263,33.62291],[132.50067,33.62195],[132.49924,33.621],[132.49749,33.6194],[132.49393,33.61736],[132.49205,33.6166],[132.48912,33.61575],[132.48747,33.61516]],[[132.4365,33.45825],[132.43869,33.4598],[132.43959,33.46024],[132.44039,33.46041],[132.44187,33.46051],[132.44294,33.46078],[132.44499,33.46205],[132.44602,33.46296],[132.44635,33.46312],[132.44923,33.46355],[132.45048,33.46357],[132.45205,33.46376],[132.45346,33.4638],[132.4559,33.46465],[132.457,33.46524]],[[132.53095,33.35009],[132.53042,33.35118],[132.52987,33.35183],[132.52747,33.35299],[132.52674,33.35358],[132.52585,33.35453],[132.52477,33.35526],[132.52423,33.35547],[132.52222,33.35586],[132.52119,33.35618],[132.51484,33.3584],[132.51401,33.35874],[132.51321,33.35919],[132.51264,33.35968],[132.51,33.36289]],[[132.457,33.46524],[132.45768,33.46563]],[[132.47268,33.3917],[132.47343,33.39148]],[[132.69573,33.73622],[132.69628,33.74125],[132.69633,33.74241],[132.6961,33.74411],[132.69491,33.74835],[132.69488,33.74881],[132.69496,33.74929],[132.69527,33.74983],[132.69586,33.7504],[132.69672,33.75098],[132.69884,33.75219],[132.70226,33.75524]],[[132.56825,33.22661],[132.56929,33.22739],[132.57012,33.22823],[132.57064,33.22931],[132.57078,33.22988],[132.57083,33.23102],[132.56975,33.2389]],[[132.57357,33.2557],[132.57344,33.25626]],[[132.50155,33.37966],[132.50121,33.38027]],[[132.56344,33.64717],[132.56268,33.64694]],[[132.58882,33.65487],[132.58827,33.65456],[132.58722,33.6542],[132.58587,33.65323],[132.58289,33.65197],[132.57244,33.64915],[132.57069,33.64884],[132.56963,33.6485],[132.56744,33.64836],[132.56344,33.64717]],[[132.67774,33.60118],[132.67852,33.60217],[132.67895,33.60309],[132.67971,33.6065],[132.68022,33.60765],[132.68073,33.60842],[132.68157,33.60919],[132.68351,33.61022],[132.68497,33.61122],[132.68668,33.61299],[132.68731,33.61378],[132.68832,33.61528],[132.69104,33.62005],[132.69159,33.62078],[132.69452,33.62308],[132.69506,33.62368],[132.69576,33.62468],[132.69767,33.62804],[132.69857,33.62873],[132.69948,33.62917],[132.70102,33.62974],[132.7044,33.63082],[132.70626,33.63168],[132.70733,33.63256],[132.70924,33.63521],[132.71002,33.63615],[132.71087,33.63691],[132.71195,33.63769],[132.71244,33.63818],[132.71297,33.63906],[132.71337,33.63997],[132.71353,33.64049],[132.7137,33.64199],[132.71359,33.64337],[132.71347,33.64389],[132.71208,33.6486]],[[132.43586,33.45781],[132.4365,33.45825]],[[132.54098,33.56216],[132.54202,33.56075],[132.54407,33.55944],[132.5449,33.55913],[132.54557,33.55899],[132.54646,33.55901],[132.54846,33.55928],[132.54904,33.55929],[132.54998,33.55917],[132.55264,33.55764],[132.5537,33.55669],[132.55496,33.55587]],[[132.45768,33.46563],[132.45917,33.4664],[132.46059,33.46668],[132.4613,33.46691],[132.46171,33.46718],[132.46357,33.46895],[132.46464,33.46957],[132.4657,33.47],[132.46693,33.47086],[132.46782,33.47099],[132.46924,33.47098],[132.47007,33.47112],[132.49749,33.48066],[132.49941,33.48138],[132.50032,33.48182],[132.50159,33.48202],[132.50321,33.48193],[132.50412,33.48211],[132.50451,33.4823],[132.50775,33.48451],[132.50887,33.48541],[132.51214,33.48964],[132.51242,33.48991],[132.51348,33.49046],[132.51424,33.49063],[132.51531,33.49072],[132.51614,33.49098],[132.51854,33.49208],[132.51889,33.49237],[132.51905,33.49261],[132.51917,33.49303],[132.51917,33.49362],[132.51912,33.49386],[132.5184,33.49516]],[[132.49909,33.59609],[132.50003,33.5952],[132.50072,33.59487],[132.50487,33.59415],[132.50611,33.59381],[132.50748,33.59312],[132.50879,33.59218],[132.51039,33.59021],[132.51112,33.58913],[132.51165,33.58863],[132.51236,33.58827],[132.51377,33.58812],[132.51412,33.588],[132.51469,33.58764],[132.51551,33.58694],[132.51646,33.58577],[132.51688,33.58478],[132.51748,33.58374],[132.51775,33.58341],[132.51827,33.58316],[132.52118,33.58237],[132.52173,33.58212],[132.52229,33.58169],[132.52449,33.57956],[132.52614,33.57866]],[[132.52614,33.57866],[132.52693,33.57822]],[[132.65847,33.7014],[132.65543,33.69898],[132.65471,33.69828],[132.65366,33.69695],[132.65222,33.69575],[132.64963,33.69337],[132.64716,33.69177],[132.64564,33.69118],[132.64423,33.69036],[132.64142,33.68973],[132.64064,33.68945],[132.64021,33.68903],[132.63945,33.68738],[132.63886,33.68644],[132.63751,33.68529],[132.6364,33.68464],[132.63404,33.68414],[132.6333,33.68381]],[[132.70226,33.75524],[132.70295,33.75588]],[[132.49861,33.59663],[132.49749,33.59785],[132.4964,33.59889],[132.49256,33.60169],[132.48933,33.60359],[132.48747,33.60454],[132.4872,33.60479],[132.48692,33.60522],[132.48644,33.60664],[132.48593,33.60726],[132.4849,33.60822],[132.48476,33.60857],[132.48445,33.61027],[132.48373,33.61212],[132.48375,33.61255],[132.48416,33.61335],[132.48474,33.61391],[132.4854,33.61435],[132.48667,33.61487]],[[132.57049,33.5417],[132.57056,33.54096]],[[132.70848,33.71635],[132.70834,33.71569]],[[132.52747,33.50833],[132.52678,33.50802]],[[132.55496,33.55587],[132.55565,33.55543]],[[132.69538,33.73302],[132.69571,33.73202],[132.69623,33.73124],[132.69663,33.73087],[132.69845,33.72954],[132.69917,33.72924],[132.70282,33.72821],[132.70352,33.72791],[132.70393,33.72768],[132.70529,33.72665],[132.70665,33.72543],[132.70821,33.72323],[132.70848,33.72271],[132.70867,33.72201],[132.70876,33.72123],[132.70882,33.71841],[132.70876,33.71755],[132.70848,33.71635]],[[132.53182,33.63731],[132.53111,33.63697]],[[132.67687,33.60031],[132.67774,33.60118]],[[132.65907,33.70187],[132.66057,33.70302],[132.66321,33.70467],[132.66391,33.70489],[132.66641,33.70533],[132.6672,33.70561],[132.66788,33.70601],[132.66838,33.70653],[132.66852,33.70679],[132.6688,33.70758],[132.66909,33.70898],[132.66937,33.70957],[132.66997,33.71004],[132.67185,33.71085],[132.67244,33.71131],[132.67388,33.71376],[132.67457,33.71511],[132.67562,33.71655],[132.67652,33.71724],[132.67819,33.71803],[132.67873,33.71841],[132.67949,33.71921],[132.68047,33.72057],[132.68096,33.72101],[132.68164,33.72136],[132.68213,33.72151],[132.6837,33.72178],[132.68462,33.72229],[132.68524,33.72288],[132.68653,33.72443],[132.69038,33.72763],[132.69481,33.73175],[132.69514,33.73222],[132.69538,33.73302]],[[132.52693,33.57822],[132.52981,33.57675],[132.53045,33.57653],[132.53238,33.5762],[132.53283,33.57604],[132.53347,33.57557],[132.53463,33.5744],[132.53528,33.5734],[132.53541,33.5729],[132.53526,33.56938],[132.53575,33.56829],[132.53645,33.56709],[132.53729,33.56622],[132.53965,33.56404],[132.54057,33.56274]],[[132.54057,33.56274],[132.54098,33.56216]],[[132.45801,33.42396],[132.45777,33.42459]],[[132.48667,33.61487],[132.48747,33.61516]],[[132.65907,33.70187],[132.65847,33.7014]],[[132.63262,33.68341],[132.62948,33.68125],[132.62824,33.67964],[132.62763,33.67919],[132.62673,33.67869],[132.62505,33.6782],[132.61966,33.67728],[132.61891,33.67706],[132.61834,33.67661],[132.61649,33.67482],[132.61428,33.67357],[132.61368,33.67316],[132.61243,33.67205],[132.61176,33.67133],[132.61029,33.66904],[132.60915,33.66802],[132.60821,33.66701],[132.60742,33.66637],[132.60614,33.66546],[132.60301,33.66385],[132.6015,33.66265],[132.59991,33.66161],[132.59875,33.66096],[132.5966,33.66006],[132.59466,33.65886],[132.59267,33.6579],[132.59166,33.65708],[132.59111,33.65647],[132.58946,33.65531]],[[132.45801,33.42396],[132.45879,33.42243],[132.45982,33.42098],[132.46038,33.42002],[132.46181,33.41735],[132.46192,33.4169],[132.46196,33.41612],[132.46172,33.4129],[132.46123,33.41179],[132.46062,33.41116],[132.45989,33.41075],[132.45774,33.41],[132.45709,33.40967],[132.45594,33.40883],[132.45556,33.40825],[132.45533,33.40762],[132.45535,33.40673],[132.45543,33.40646],[132.46029,33.39839],[132.46147,33.39667],[132.46202,33.39599],[132.46263,33.3954],[132.46359,33.39461],[132.46471,33.39398],[132.47268,33.3917]],[[132.51,33.36289],[132.50955,33.36346]],[[132.71173,33.6498],[132.71126,33.65141],[132.71098,33.65308],[132.71045,33.66528],[132.7101,33.67646],[132.7093,33.69477],[132.70885,33.70787],[132.70874,33.70955],[132.70824,33.71405],[132.70825,33.71512],[132.70834,33.71569]],[[132.54443,33.27373],[132.54433,33.27576],[132.54313,33.27825],[132.54292,33.27897],[132.54276,33.28007],[132.54254,33.28076],[132.54202,33.28156],[132.54183,33.28212],[132.54181,33.28432],[132.54126,33.2855],[132.54101,33.28644],[132.541,33.28908],[132.54087,33.29026],[132.54047,33.29268],[132.53958,33.29641]],[[132.54442,33.51757],[132.54369,33.51593],[132.5431,33.51522],[132.54287,33.51507],[132.54164,33.51474],[132.5379,33.51395],[132.53386,33.51237],[132.533,33.51192],[132.53272,33.51165],[132.53173,33.50984],[132.5315,33.50952],[132.53106,33.50915],[132.53045,33.5089],[132.52864,33.50877],[132.52825,33.50868],[132.52747,33.50833]],[[132.64634,33.55023],[132.64618,33.54873]],[[132.59812,33.53417],[132.59894,33.53414]],[[132.56975,33.2389],[132.56968,33.23958]],[[132.56968,33.23958],[132.56951,33.24095]],[[132.73801,33.7774],[132.73885,33.77776]],[[132.72748,33.773],[132.73801,33.7774]]]}}