{"type":"Feature","properties":{"id":"四国旅客鉄道_内子線","name":"内子線","operator":"四国旅客鉄道","railType":"普通鉄道(JR)","operatorType":"JR在来線","category":"rail","attribution":"国土数値情報（鉄道データ）国土交通省"},"geometry":{"type":"MultiLineString","coordinates":[[[132.61103,33.53326],[132.61184,33.53359]],[[132.63672,33.53833],[132.63599,33.53782]],[[132.59894,33.53414],[132.60238,33.53402],[132.60913,33.53306],[132.60975,33.53306],[132.61103,33.53326]],[[132.64634,33.55023],[132.64618,33.54873]],[[132.59812,33.53417],[132.59894,33.53414]],[[132.64618,33.54873],[132.64593,33.54665],[132.64569,33.54575],[132.64547,33.54524],[132.64488,33.54449],[132.64453,33.54415],[132.63898,33.53985],[132.63672,33.53833]],[[132.63599,33.53782],[132.63354,33.53631],[132.63102,33.53585],[132.63016,33.53549],[132.6297,33.53515],[132.62893,33.5343],[132.62839,33.53393],[132.62575,33.53327],[132.62449,33.53306],[132.6231,33.53306],[132.62149,33.53271],[132.61937,33.53292],[132.61486,33.53421],[132.6131,33.53397],[132.61184,33.53359]]]}}