{"type":"Feature","properties":{"id":"四国旅客鉄道_鳴門線","name":"鳴門線","operator":"四国旅客鉄道","railType":"普通鉄道(JR)","operatorType":"JR在来線","category":"rail","attribution":"国土数値情報（鉄道データ）国土交通省"},"geometry":{"type":"MultiLineString","coordinates":[[[134.60128,34.17323],[134.60347,34.17303],[134.60649,34.17392],[134.60739,34.17435],[134.60776,34.17461],[134.6081,34.17504],[134.60829,34.1756],[134.60846,34.17642],[134.60867,34.1789]],[[134.60058,34.17309],[134.60128,34.17323]],[[134.60867,34.1789],[134.60868,34.17944]],[[134.54064,34.15802],[134.53981,34.15801]],[[134.58463,34.1696],[134.58279,34.1686],[134.58197,34.16829],[134.57974,34.16826],[134.57763,34.16769]],[[134.58533,34.16988],[134.58853,34.17102],[134.5898,34.17138],[134.5917,34.17177],[134.59287,34.17184],[134.59432,34.17217],[134.59568,34.17206],[134.59721,34.17224],[134.60058,34.17309]],[[134.57678,34.16749],[134.57564,34.16723],[134.57373,34.16703],[134.5729,34.16687],[134.56987,34.16555],[134.56632,34.16466],[134.56475,34.16406],[134.56196,34.16329],[134.56098,34.16283],[134.56024,34.16259],[134.55909,34.16246],[134.55802,34.16219]],[[134.57763,34.16769],[134.57678,34.16749]],[[134.58533,34.16988],[134.58463,34.1696]],[[134.55725,34.1619],[134.55302,34.16026],[134.5509,34.1593],[134.54686,34.15824],[134.54601,34.15812],[134.54064,34.15802]],[[134.55802,34.16219],[134.55725,34.1619]],[[134.5292,34.15256],[134.52929,34.15188]],[[134.53981,34.15801],[134.53759,34.15814],[134.53701,34.1581],[134.53636,34.15791],[134.53289,34.15635],[134.53174,34.15558],[134.53021,34.15489],[134.52969,34.15449],[134.52943,34.15409],[134.5292,34.15331]],[[134.5292,34.15331],[134.5292,34.15256]]]}}