{"type":"Feature","properties":{"id":"四日市あすなろう鉄道_内部線","name":"内部線","operator":"四日市あすなろう鉄道","railType":"普通鉄道","operatorType":"第三セクター","category":"rail","attribution":"国土数値情報（鉄道データ）国土交通省"},"geometry":{"type":"MultiLineString","coordinates":[[[136.59203,34.92841],[136.59146,34.92786],[136.58831,34.9264],[136.58722,34.92579]],[[136.58722,34.92579],[136.5867,34.92529]],[[136.60458,34.95623],[136.60413,34.95569]],[[136.59858,34.94074],[136.59837,34.94007]],[[136.60413,34.95569],[136.60369,34.95505],[136.60333,34.95404],[136.60208,34.95298],[136.60172,34.95256],[136.6011,34.9502]],[[136.60095,34.94961],[136.59924,34.94297],[136.59858,34.94074]],[[136.6011,34.9502],[136.60095,34.94961]],[[136.59837,34.94007],[136.59625,34.93418]],[[136.59625,34.93418],[136.59602,34.93365]],[[136.61076,34.95941],[136.61011,34.95904]],[[136.59246,34.92894],[136.59203,34.92841]],[[136.61011,34.95904],[136.60815,34.95802],[136.60677,34.95797],[136.60603,34.95779],[136.60528,34.9571],[136.60458,34.95623]],[[136.59602,34.93365],[136.59559,34.93276],[136.59246,34.92894]],[[136.61872,34.96795],[136.61843,34.96598]],[[136.61843,34.96598],[136.6182,34.96447]],[[136.6182,34.96447],[136.61691,34.96293],[136.61574,34.9619],[136.61518,34.96156],[136.61357,34.96084],[136.61076,34.95941]]]}}