{"type":"Feature","properties":{"id":"土佐くろしお鉄道_宿毛線","name":"宿毛線","operator":"土佐くろしお鉄道","railType":"普通鉄道","operatorType":"第三セクター","category":"rail","attribution":"国土数値情報（鉄道データ）国土交通省"},"geometry":{"type":"MultiLineString","coordinates":[[[132.91452,32.97939],[132.90095,32.97899],[132.89745,32.97916],[132.89553,32.97916],[132.89068,32.97901],[132.88594,32.97854],[132.88508,32.97856],[132.88447,32.97866]],[[132.88447,32.97866],[132.88369,32.97886]],[[132.79543,32.95581],[132.79468,32.95552]],[[132.71398,32.93253],[132.71887,32.93249],[132.72265,32.93255],[132.72432,32.93277],[132.72832,32.93359]],[[132.72832,32.93359],[132.72909,32.93373]],[[132.91532,32.97941],[132.91452,32.97939]],[[132.7132,32.93251],[132.71398,32.93253]],[[132.88369,32.97886],[132.88223,32.97956],[132.88058,32.98076],[132.87948,32.98129],[132.87801,32.98167],[132.8773,32.98173],[132.87557,32.98161],[132.86855,32.97962],[132.86759,32.9792],[132.86031,32.97467],[132.85331,32.96935],[132.85021,32.96713],[132.84925,32.96667],[132.83343,32.96136]],[[132.8024,32.95634],[132.80161,32.95642]],[[132.79468,32.95552],[132.78458,32.95145],[132.78316,32.95073],[132.76429,32.93843],[132.7621,32.93728],[132.76112,32.93691],[132.75951,32.93643],[132.75811,32.93614],[132.73905,32.9339],[132.73577,32.93379],[132.73151,32.93386],[132.72909,32.93373]],[[132.91532,32.97941],[132.91689,32.97948],[132.91819,32.97965],[132.91966,32.97996],[132.92137,32.98049],[132.93199,32.98547],[132.93714,32.98828],[132.9381,32.98859],[132.93901,32.98863],[132.93963,32.98853],[132.9406,32.98822],[132.94122,32.98784],[132.94197,32.9871],[132.94348,32.98525]],[[132.83343,32.96136],[132.83267,32.96112]],[[132.83267,32.96112],[132.81794,32.95617],[132.81605,32.95565],[132.81417,32.95543],[132.81242,32.95544],[132.8024,32.95634]],[[132.80161,32.95642],[132.79927,32.9566],[132.79834,32.95656],[132.7966,32.95623],[132.79543,32.95581]],[[132.94348,32.98525],[132.94462,32.98384]]]}}