{"type":"Feature","properties":{"id":"埼玉新都市交通_伊奈線","name":"伊奈線","operator":"埼玉新都市交通","railType":"案内軌条式","operatorType":"第三セクター","category":"agt","attribution":"国土数値情報（鉄道データ）国土交通省"},"geometry":{"type":"MultiLineString","coordinates":[[[139.61726,35.99919],[139.6188,35.99721],[139.6202,35.99507],[139.62146,35.99273],[139.62208,35.99135]],[[139.6168,35.99972],[139.61559,36.0011],[139.61343,36.00319],[139.6114,36.00492],[139.60882,36.00691]],[[139.62225,35.96417],[139.62347,35.97072]],[[139.59968,36.01404],[139.60028,36.01357]],[[139.62225,35.96417],[139.62212,35.96351]],[[139.61687,35.93545],[139.617,35.93609]],[[139.62232,35.9907],[139.62312,35.98853],[139.62382,35.98591],[139.62406,35.98449],[139.62419,35.98311],[139.62425,35.98281],[139.62453,35.98227],[139.62461,35.98181],[139.62466,35.98037],[139.62455,35.97991]],[[139.62347,35.97072],[139.62357,35.97133]],[[139.6177,35.92058],[139.61702,35.92331],[139.61642,35.92805],[139.6164,35.93008],[139.6165,35.93241],[139.61687,35.93545]],[[139.61795,35.91995],[139.62177,35.90878],[139.62177,35.90857],[139.62137,35.90829],[139.62135,35.90813],[139.62146,35.90785],[139.62159,35.90777],[139.62216,35.90786]],[[139.617,35.93609],[139.61815,35.94233]],[[139.61955,35.94965],[139.61967,35.95036]],[[139.62083,35.95667],[139.62098,35.95735]],[[139.62216,35.90786],[139.62235,35.90773]],[[139.62098,35.95735],[139.62212,35.96351]],[[139.62455,35.97991],[139.62453,35.97929]],[[139.61726,35.99919],[139.6168,35.99972]],[[139.6183,35.94304],[139.61955,35.94965]],[[139.60028,36.01357],[139.60822,36.00741]],[[139.61795,35.91995],[139.6177,35.92058]],[[139.61815,35.94233],[139.6183,35.94304]],[[139.61967,35.95036],[139.62083,35.95667]],[[139.60822,36.00741],[139.60882,36.00691]],[[139.62453,35.97929],[139.6246,35.97887],[139.62458,35.9782],[139.62431,35.97724],[139.62424,35.97475],[139.62357,35.97133]],[[139.62208,35.99135],[139.62232,35.9907]]]}}