{"type":"Feature","properties":{"id":"埼玉高速鉄道_埼玉高速鉄道線","name":"埼玉高速鉄道線","operator":"埼玉高速鉄道","railType":"普通鉄道","operatorType":"第三セクター","category":"rail","attribution":"国土数値情報（鉄道データ）国土交通省"},"geometry":{"type":"MultiLineString","coordinates":[[[139.7431,35.87725],[139.74024,35.87964],[139.73661,35.88338],[139.73234,35.88754],[139.73192,35.888],[139.73009,35.89062],[139.72827,35.89304]],[[139.74424,35.87599],[139.7431,35.87725]],[[139.72076,35.78361],[139.71977,35.78384],[139.71942,35.78402],[139.71858,35.78492],[139.71844,35.78557],[139.71867,35.78673],[139.71963,35.78788],[139.72422,35.79269],[139.72582,35.79392],[139.72676,35.79483],[139.72733,35.79564],[139.72946,35.7995]],[[139.72946,35.7995],[139.7305,35.80064]],[[139.72346,35.7831],[139.72076,35.78361]],[[139.72827,35.89304],[139.72738,35.89431]],[[139.75379,35.85996],[139.7537,35.86185],[139.75231,35.86509],[139.7479,35.87188],[139.74725,35.87264],[139.74541,35.87444],[139.74424,35.87599]],[[139.73653,35.83],[139.73579,35.8316]],[[139.73579,35.8316],[139.73434,35.83456],[139.7341,35.83557],[139.73408,35.83617],[139.73417,35.83676],[139.73477,35.8386],[139.73471,35.841],[139.7348,35.84139],[139.73529,35.84202],[139.73603,35.84255],[139.73642,35.84272],[139.73712,35.84286]],[[139.7305,35.80064],[139.73194,35.80221],[139.73255,35.80307],[139.73588,35.81527]],[[139.73911,35.84304],[139.7408,35.84315],[139.74205,35.84333],[139.74306,35.8436],[139.74407,35.844],[139.74538,35.84487],[139.74676,35.84621],[139.75002,35.84993],[139.75232,35.85294],[139.75318,35.85421],[139.75362,35.85552],[139.75376,35.85818]],[[139.75376,35.85818],[139.75379,35.85996]],[[139.73631,35.81689],[139.73669,35.81837],[139.73685,35.81985],[139.7376,35.82158],[139.73788,35.82243],[139.73802,35.82317],[139.73793,35.82411],[139.7372,35.82833],[139.73653,35.83]],[[139.73588,35.81527],[139.73631,35.81689]],[[139.73712,35.84286],[139.73911,35.84304]]]}}