{"type":"Feature","properties":{"id":"多摩都市モノレール_多摩都市モノレール線","name":"多摩都市モノレール線","operator":"多摩都市モノレール","railType":"跨座式モノレール(軌道)","operatorType":"第三セクター","category":"monorail","attribution":"国土数値情報（鉄道データ）国土交通省"},"geometry":{"type":"MultiLineString","coordinates":[[[139.41264,35.69908],[139.41269,35.69997]],[[139.41241,35.69587],[139.41007,35.69159],[139.4094,35.69006]],[[139.41941,35.71913],[139.41822,35.72127],[139.41814,35.7216],[139.41811,35.7231]],[[139.41661,35.73875],[139.4165,35.73932]],[[139.41769,35.73245],[139.41661,35.73875]],[[139.41972,35.71856],[139.41941,35.71913]],[[139.4165,35.73932],[139.41595,35.74277],[139.41586,35.74549]],[[139.41308,35.70984],[139.41277,35.70935],[139.41271,35.70905],[139.41269,35.69997]],[[139.4181,35.72367],[139.41801,35.72622],[139.41808,35.72836],[139.41804,35.73022],[139.41778,35.73189]],[[139.41347,35.71025],[139.41308,35.70984]],[[139.41778,35.73189],[139.41769,35.73245]],[[139.41727,35.71449],[139.41998,35.71758],[139.42001,35.71791],[139.41972,35.71856]],[[139.41586,35.74549],[139.41587,35.74603]],[[139.41687,35.71405],[139.41347,35.71025]],[[139.41727,35.71449],[139.41687,35.71405]],[[139.41274,35.69647],[139.41309,35.69729],[139.41302,35.69759],[139.41263,35.6984],[139.41264,35.69908]],[[139.41274,35.69647],[139.41241,35.69587]],[[139.41811,35.7231],[139.4181,35.72367]],[[139.4094,35.69006],[139.40916,35.68954]],[[139.41516,35.66095],[139.41484,35.66035],[139.41361,35.65879],[139.41281,35.65746],[139.41171,35.65648],[139.41094,35.65554]],[[139.42215,35.63147],[139.42192,35.63212]],[[139.41057,35.65492],[139.41094,35.65554]],[[139.42192,35.63212],[139.42139,35.63331],[139.4209,35.63386],[139.41676,35.63666]],[[139.40372,35.64821],[139.40391,35.64886]],[[139.42267,35.62352],[139.4229,35.62419]],[[139.40916,35.68954],[139.40754,35.68553],[139.40578,35.68163],[139.40565,35.68115],[139.40579,35.68049],[139.406,35.68017],[139.40885,35.67843]],[[139.40391,35.64886],[139.40408,35.64936],[139.40444,35.64968],[139.40513,35.6501],[139.40585,35.65041],[139.40734,35.6508],[139.40783,35.65114],[139.40813,35.65142],[139.40829,35.65169],[139.40875,35.65289],[139.40902,35.65335],[139.40939,35.65375],[139.41028,35.65447],[139.41057,35.65492]],[[139.40837,35.64204],[139.40705,35.64247],[139.40498,35.6429],[139.40442,35.64316],[139.40419,35.6434],[139.40398,35.64406],[139.40404,35.64544],[139.40395,35.64578],[139.40349,35.64671],[139.40351,35.64725],[139.40372,35.64821]],[[139.40885,35.67843],[139.40946,35.67807]],[[139.40908,35.64173],[139.40837,35.64204]],[[139.41613,35.63706],[139.4147,35.63816],[139.41377,35.63933],[139.41317,35.63989],[139.41214,35.64041],[139.40908,35.64173]],[[139.4229,35.62419],[139.42376,35.62685],[139.42378,35.62749],[139.42368,35.62802],[139.42215,35.63147]],[[139.41962,35.67159],[139.4201,35.67104]],[[139.40946,35.67807],[139.41851,35.67239],[139.41962,35.67159]],[[139.41531,35.66163],[139.41554,35.66224],[139.41593,35.66279],[139.41879,35.6654],[139.4202,35.6676],[139.42062,35.66853],[139.42062,35.66922],[139.42044,35.67043],[139.4201,35.67104]],[[139.41676,35.63666],[139.41613,35.63706]],[[139.41516,35.66095],[139.41531,35.66163]]]}}