{"type":"Feature","properties":{"id":"大井川鐵道_大井川本線","name":"大井川本線","operator":"大井川鐵道","railType":"普通鉄道","operatorType":"民営","category":"rail","attribution":"国土数値情報（鉄道データ）国土交通省"},"geometry":{"type":"MultiLineString","coordinates":[[[138.11928,34.85047],[138.11906,34.85109],[138.11881,34.85147],[138.11559,34.85603],[138.11521,34.85705],[138.11486,34.85837],[138.11353,34.86022],[138.11273,34.86101],[138.10948,34.86323],[138.10742,34.86474],[138.10364,34.86969],[138.10215,34.87222],[138.10108,34.87367],[138.10045,34.87485],[138.10032,34.87545],[138.1004,34.87589],[138.1012,34.87797],[138.1014,34.88029],[138.10168,34.88151],[138.10172,34.8827]],[[138.08662,34.96202],[138.08577,34.96257]],[[138.12522,34.81871],[138.12643,34.81976]],[[138.08733,34.98644],[138.08739,34.98746],[138.08772,34.98822],[138.09074,34.9909],[138.09113,34.99139],[138.09134,34.99189],[138.09173,34.99413],[138.09181,34.99538],[138.09154,34.99617],[138.09083,34.99734]],[[138.09011,35.02247],[138.09023,35.02449],[138.091,35.02601],[138.09117,35.02676],[138.09119,35.0274],[138.09088,35.02856],[138.08934,35.03276],[138.08933,35.03331],[138.08951,35.03439],[138.08941,35.03485],[138.089,35.03587],[138.08832,35.03723],[138.08784,35.03873],[138.0878,35.03979],[138.08808,35.04261],[138.08819,35.0431],[138.08846,35.04366],[138.09013,35.04626],[138.09226,35.04837],[138.09457,35.04967],[138.09494,35.05013],[138.09536,35.05102]],[[138.10172,34.8827],[138.10175,34.88346]],[[138.12722,35.09158],[138.12772,35.09212]],[[138.12581,34.83558],[138.12459,34.83609],[138.1239,34.83651],[138.12314,34.83732],[138.12262,34.83857]],[[138.09536,35.05102],[138.0956,35.05164]],[[138.0956,35.05164],[138.0962,35.05331],[138.09669,35.05411],[138.09735,35.05489],[138.09824,35.05569],[138.10184,35.05789],[138.10295,35.05881],[138.10851,35.06543],[138.11031,35.06745],[138.11083,35.06842],[138.11095,35.06917],[138.1109,35.07008],[138.11099,35.07107],[138.11097,35.0721],[138.11061,35.07437]],[[138.12094,34.84443],[138.12073,34.84524]],[[138.12643,34.81976],[138.12773,34.82086],[138.12833,34.82122],[138.12939,34.8215],[138.13012,34.82154],[138.13085,34.82148],[138.1322,34.82111],[138.13591,34.81955],[138.13693,34.81923],[138.13828,34.81922],[138.1396,34.81954],[138.14019,34.81995],[138.14064,34.82055],[138.14086,34.82131],[138.14087,34.82209],[138.14041,34.82318],[138.13792,34.8255]],[[138.12238,34.83922],[138.12094,34.84443]],[[138.08771,34.95289],[138.08775,34.95387]],[[138.08993,34.90155],[138.09032,34.9022]],[[138.11061,35.07437],[138.11049,35.07504]],[[138.11049,35.07504],[138.1105,35.07594],[138.11061,35.07637],[138.1116,35.07828],[138.11194,35.07929],[138.11224,35.08206],[138.11208,35.08275],[138.11172,35.0834],[138.11127,35.084],[138.11035,35.08497],[138.11018,35.08528],[138.10993,35.08613],[138.10991,35.08671],[138.10999,35.08722],[138.1102,35.08773],[138.11051,35.08811],[138.11148,35.08872],[138.11244,35.08901],[138.11505,35.08946]],[[138.11592,35.08962],[138.11999,35.09031],[138.12275,35.0904],[138.12495,35.09022],[138.12528,35.09027],[138.12587,35.09041],[138.12626,35.09061],[138.12662,35.09089],[138.12722,35.09158]],[[138.11505,35.08946],[138.11592,35.08962]],[[138.12262,34.83857],[138.12238,34.83922]],[[138.09083,34.99734],[138.09047,34.99795]],[[138.08726,34.98558],[138.08733,34.98644]],[[138.08775,34.95387],[138.08787,34.95651],[138.08808,34.95742],[138.0886,34.95891],[138.08871,34.95991],[138.08865,34.96019],[138.08832,34.96078],[138.08774,34.96131],[138.08662,34.96202]],[[138.12646,34.8353],[138.12581,34.83558]],[[138.09047,34.99795],[138.08922,35.00012],[138.089,35.00065],[138.08878,35.00177],[138.08807,35.00372],[138.08811,35.0046],[138.08841,35.00519],[138.08893,35.00563],[138.09105,35.00665],[138.09173,35.00708],[138.09209,35.00741],[138.09339,35.00927],[138.09363,35.00978],[138.09379,35.01069],[138.09351,35.01194],[138.09299,35.01332],[138.09199,35.01497],[138.09095,35.01706],[138.09017,35.02079],[138.09011,35.02178]],[[138.10175,34.88346],[138.10171,34.8845],[138.10123,34.88605],[138.10052,34.8873],[138.09985,34.88803],[138.0983,34.88929],[138.09731,34.88984],[138.0926,34.89167],[138.09221,34.8919],[138.09086,34.89337],[138.09021,34.89424],[138.08978,34.89521],[138.08937,34.8991],[138.08958,34.90066],[138.08993,34.90155]],[[138.09011,35.02178],[138.09011,35.02247]],[[138.12772,35.09212],[138.1281,35.09273],[138.12821,35.09306],[138.128,35.0952],[138.12864,35.09759],[138.12876,35.10015],[138.12901,35.10113],[138.12961,35.10185],[138.13184,35.10396],[138.13273,35.1043],[138.13498,35.10476],[138.13578,35.10517],[138.13621,35.10575],[138.13675,35.10745]],[[138.13792,34.8255],[138.13738,34.82598]],[[138.08577,34.96257],[138.08504,34.9631],[138.08458,34.96362],[138.08431,34.96435],[138.08435,34.96507],[138.08478,34.96588],[138.08595,34.96709],[138.08722,34.96878],[138.08751,34.96969],[138.08759,34.97035],[138.0872,34.97218],[138.08714,34.97292],[138.08722,34.97338],[138.08752,34.974],[138.08796,34.97458],[138.08886,34.9754],[138.08961,34.97635],[138.09003,34.97703],[138.09015,34.97763],[138.09012,34.97819],[138.08993,34.97875],[138.08732,34.98362],[138.08719,34.98454],[138.08726,34.98558]],[[138.13738,34.82598],[138.12778,34.83456],[138.12697,34.83508],[138.12646,34.8353]],[[138.13675,35.10745],[138.13706,35.10809]],[[138.07803,34.94054],[138.07848,34.94116],[138.08047,34.94341],[138.08075,34.94384],[138.08099,34.94463],[138.08107,34.94548],[138.08135,34.94599],[138.08362,34.94855],[138.08617,34.95039],[138.08673,34.95088],[138.08728,34.95159],[138.08764,34.95243],[138.08771,34.95289]],[[138.08194,34.92149],[138.0799,34.92478],[138.07974,34.9255],[138.0794,34.92904],[138.07857,34.93086],[138.07752,34.93246],[138.0766,34.93497],[138.07644,34.93638],[138.07666,34.93807],[138.07751,34.93961]],[[138.09032,34.9022],[138.09153,34.90396],[138.09161,34.90446],[138.09137,34.90514],[138.09044,34.9064],[138.08996,34.90737],[138.08986,34.90777],[138.08976,34.90927],[138.08947,34.91019],[138.08818,34.91199],[138.088,34.91242],[138.08789,34.91332],[138.08797,34.91448],[138.08793,34.91524],[138.08776,34.91584],[138.08592,34.91775],[138.08374,34.91929],[138.083,34.91996],[138.08243,34.9207]],[[138.07751,34.93961],[138.07803,34.94054]],[[138.08243,34.9207],[138.08194,34.92149]],[[138.11948,34.84977],[138.11928,34.85047]],[[138.12073,34.84524],[138.11948,34.84977]]]}}