{"type":"Feature","properties":{"id":"大井川鐵道_井川線","name":"井川線","operator":"大井川鐵道","railType":"普通鉄道","operatorType":"民営","category":"rail","attribution":"国土数値情報（鉄道データ）国土交通省"},"geometry":{"type":"MultiLineString","coordinates":[[[138.14803,35.15003],[138.14862,35.15101],[138.14874,35.15252],[138.14862,35.15297],[138.14824,35.15325],[138.1479,35.15334],[138.14572,35.15334],[138.1453,35.15349],[138.14486,35.15388],[138.14454,35.15423],[138.14439,35.15457],[138.14413,35.15571],[138.14407,35.15656],[138.14386,35.15752],[138.14306,35.15869],[138.1431,35.159],[138.14325,35.15921],[138.1442,35.16018],[138.14453,35.16033],[138.14542,35.16039],[138.14571,35.1605],[138.14596,35.16076],[138.14613,35.16119],[138.14612,35.16182],[138.14595,35.16227],[138.14513,35.16315],[138.14457,35.16425],[138.14458,35.16471],[138.145,35.166],[138.14498,35.16643],[138.14476,35.16724]],[[138.14476,35.16724],[138.14457,35.16792]],[[138.1676,35.16488],[138.16842,35.16489]],[[138.13906,35.13576],[138.13928,35.1363]],[[138.15739,35.16867],[138.15883,35.16715],[138.15952,35.16657],[138.16026,35.16618],[138.16164,35.16589],[138.16254,35.1652],[138.16303,35.16496],[138.16667,35.16479],[138.1676,35.16488]],[[138.19458,35.19162],[138.19485,35.19172],[138.19504,35.19197],[138.1955,35.19341],[138.19694,35.19617],[138.19708,35.19669],[138.19759,35.19724],[138.19786,35.1978],[138.19816,35.19799],[138.19952,35.19847],[138.20097,35.19831],[138.20258,35.19845],[138.20397,35.19896],[138.20441,35.19919],[138.20465,35.19945],[138.20472,35.2001],[138.20453,35.20036],[138.20418,35.20053],[138.2036,35.20053],[138.20306,35.2007],[138.20265,35.20102],[138.20198,35.20181],[138.20132,35.20232],[138.2013,35.20245],[138.20142,35.20266],[138.20206,35.20295],[138.20273,35.20376],[138.20318,35.20405],[138.20479,35.20449],[138.20677,35.20441],[138.20713,35.20466],[138.20718,35.20502],[138.20707,35.20625],[138.20619,35.20825],[138.20604,35.209],[138.20607,35.20947],[138.20621,35.20965],[138.20735,35.21],[138.21057,35.21034],[138.21119,35.21053],[138.21274,35.21145],[138.21324,35.21199],[138.21353,35.2127],[138.21371,35.21287],[138.21437,35.2132],[138.2152,35.21327],[138.21592,35.21323],[138.21697,35.21299],[138.21783,35.21234],[138.21885,35.21113],[138.21959,35.2107],[138.22008,35.21073],[138.22042,35.211],[138.22069,35.21136],[138.22098,35.21203]],[[138.13706,35.10809],[138.1371,35.10841],[138.13731,35.10867],[138.13818,35.10892],[138.13888,35.10925],[138.13965,35.11015],[138.13972,35.11041],[138.13969,35.11076],[138.13884,35.11199],[138.13867,35.11247],[138.13867,35.11304],[138.13891,35.11358],[138.1391,35.1138],[138.14039,35.11472],[138.14077,35.11511],[138.14088,35.11552],[138.1407,35.11649]],[[138.17458,35.19178],[138.17435,35.19242]],[[138.13675,35.10745],[138.13706,35.10809]],[[138.14119,35.14148],[138.14165,35.14122],[138.14208,35.14122],[138.14295,35.14195],[138.14328,35.14211],[138.14648,35.1425],[138.14684,35.14261],[138.14692,35.14272],[138.1471,35.14377],[138.14779,35.14529],[138.14779,35.14563],[138.14686,35.14583],[138.14591,35.14624],[138.1455,35.14661],[138.1453,35.14719],[138.14547,35.14794],[138.14603,35.14863],[138.14698,35.14904],[138.14753,35.14953]],[[138.14457,35.16792],[138.14448,35.1687],[138.14464,35.16916],[138.14513,35.16953],[138.14583,35.16964],[138.14741,35.16968],[138.14828,35.16955],[138.15002,35.16834],[138.1506,35.16805],[138.15093,35.16798],[138.15144,35.1681],[138.15445,35.16977],[138.15485,35.1698],[138.1563,35.16956],[138.15653,35.1695],[138.15688,35.1692]],[[138.14089,35.14197],[138.14119,35.14148]],[[138.2213,35.21251],[138.22143,35.21254]],[[138.14753,35.14953],[138.14803,35.15003]],[[138.18523,35.17917],[138.18513,35.18013],[138.18515,35.18074],[138.18507,35.18107],[138.18432,35.18193],[138.18217,35.18373],[138.18158,35.18394],[138.18121,35.18398],[138.18005,35.1838],[138.17904,35.18374],[138.17847,35.18385],[138.17754,35.18419],[138.17676,35.18505],[138.17655,35.18514],[138.17603,35.18514],[138.17583,35.18523],[138.17527,35.18584],[138.17514,35.18607],[138.17612,35.18722],[138.17706,35.18877],[138.17717,35.1891],[138.17716,35.18945],[138.1769,35.19027],[138.17495,35.19103],[138.17474,35.19127],[138.17458,35.19178]],[[138.18032,35.16759],[138.18096,35.16802]],[[138.13404,35.12451],[138.13468,35.12493]],[[138.1407,35.11649],[138.14048,35.11713]],[[138.13468,35.12493],[138.13561,35.12585],[138.13587,35.12623],[138.13625,35.12713],[138.13703,35.12784],[138.13711,35.12807],[138.13728,35.1299],[138.13692,35.13183],[138.13636,35.133],[138.13652,35.13382],[138.13682,35.13416],[138.13865,35.13517],[138.13906,35.13576]],[[138.18096,35.16802],[138.18273,35.16934],[138.18324,35.16981],[138.18349,35.17036],[138.18367,35.17189],[138.1841,35.17252],[138.18592,35.17333],[138.1861,35.17351],[138.18626,35.17408],[138.18621,35.17625],[138.18648,35.17711],[138.18647,35.17745],[138.18622,35.17785],[138.18551,35.1782],[138.18534,35.17848]],[[138.17435,35.19242],[138.17387,35.19364],[138.1739,35.19384],[138.17416,35.19413],[138.17468,35.19428],[138.17634,35.19432],[138.17798,35.19421],[138.17956,35.19441],[138.17995,35.19465],[138.1801,35.19488],[138.18017,35.19549],[138.18043,35.19641],[138.18048,35.19717],[138.18064,35.19746],[138.18184,35.19786],[138.18368,35.19825],[138.18409,35.19825],[138.18427,35.19821],[138.18489,35.19774],[138.18558,35.19746],[138.18745,35.19731],[138.18909,35.19749],[138.19041,35.19703],[138.19089,35.19676],[138.19113,35.19656],[138.19151,35.1958],[138.19154,35.19452],[138.19225,35.19293],[138.19268,35.19244],[138.19391,35.19186]],[[138.19391,35.19186],[138.19458,35.19162]],[[138.14048,35.11713],[138.14029,35.11754],[138.14004,35.11768],[138.13784,35.11812],[138.13753,35.11829],[138.13723,35.1186],[138.13705,35.11901],[138.13706,35.11929],[138.13771,35.12079],[138.13773,35.12096],[138.13758,35.12133],[138.13725,35.12157],[138.13545,35.12164],[138.13515,35.12172],[138.13414,35.12243],[138.13373,35.12289],[138.1336,35.1234],[138.13377,35.1242],[138.13404,35.12451]],[[138.18534,35.17848],[138.18523,35.17917]],[[138.15688,35.1692],[138.15739,35.16867]],[[138.22098,35.21203],[138.2213,35.21251]],[[138.13928,35.1363],[138.13935,35.13682],[138.1393,35.13734],[138.13909,35.13779],[138.13882,35.13806],[138.13669,35.13832],[138.13598,35.1387],[138.13554,35.13919],[138.13527,35.13965],[138.13505,35.14031],[138.13512,35.14177],[138.13584,35.14298],[138.13743,35.14408],[138.13806,35.14429],[138.13976,35.14446],[138.14026,35.14435],[138.14056,35.14415],[138.14089,35.14197]],[[138.16842,35.16489],[138.17442,35.16402],[138.17519,35.16402],[138.1765,35.16452],[138.17734,35.16497],[138.17761,35.16523],[138.17791,35.16584],[138.17821,35.16618],[138.18032,35.16759]]]}}