{"type":"Feature","properties":{"id":"大阪市高速電気軌道_南港ポートタウン線","name":"南港ポートタウン線","operator":"大阪市高速電気軌道","railType":"案内軌条式","operatorType":"民営","category":"agt","attribution":"国土数値情報（鉄道データ）国土交通省"},"geometry":{"type":"MultiLineString","coordinates":[[[135.41182,34.64243],[135.41262,34.64272]],[[135.41155,34.63901],[135.41,34.64048],[135.40971,34.64094],[135.40979,34.64128],[135.41018,34.6418],[135.41182,34.64243]],[[135.41213,34.6385],[135.41155,34.63901]],[[135.43792,34.6138],[135.43732,34.61395],[135.43689,34.61434],[135.43506,34.61898]],[[135.43872,34.6138],[135.43792,34.6138]],[[135.42941,34.63089],[135.42864,34.63087]],[[135.42233,34.63087],[135.42063,34.63078],[135.4203,34.63091],[135.41916,34.63224],[135.41751,34.63367]],[[135.45814,34.61064],[135.4569,34.61085],[135.44781,34.61365],[135.44731,34.61378],[135.44631,34.61383]],[[135.41695,34.63419],[135.41751,34.63367]],[[135.45896,34.61055],[135.45814,34.61064]],[[135.47267,34.60919],[135.47145,34.60933]],[[135.47145,34.60933],[135.45896,34.61055]],[[135.43506,34.61898],[135.43481,34.61961]],[[135.44544,34.61381],[135.43872,34.6138]],[[135.43481,34.61961],[135.43177,34.62746],[135.43079,34.63035],[135.43062,34.6306],[135.43025,34.63078],[135.42941,34.63089]],[[135.41213,34.6385],[135.41695,34.63419]],[[135.44631,34.61383],[135.44544,34.61381]],[[135.42313,34.63089],[135.42233,34.63087]],[[135.42864,34.63087],[135.42313,34.63089]]]}}