{"type":"Feature","properties":{"id":"大阪市高速電気軌道_2号線(谷町線)","name":"2号線(谷町線)","operator":"大阪市高速電気軌道","railType":"軌道","operatorType":"民営","category":"tram","attribution":"国土数値情報（鉄道データ）国土交通省"},"geometry":{"type":"MultiLineString","coordinates":[[[135.56508,34.73901],[135.56361,34.73787]],[[135.57771,34.74902],[135.56508,34.73901]],[[135.5464,34.71562],[135.54443,34.71472]],[[135.55376,34.73057],[135.55104,34.72856],[135.55076,34.7281],[135.5495,34.72495]],[[135.53927,34.71009],[135.53783,34.70871],[135.53759,34.70855],[135.53721,34.70849]],[[135.52722,34.70901],[135.52586,34.70897],[135.5248,34.70883]],[[135.54901,34.7235],[135.5467,34.71596],[135.5464,34.71562]],[[135.5495,34.72495],[135.54901,34.7235]],[[135.56361,34.73787],[135.55797,34.73345],[135.55524,34.7316]],[[135.55524,34.7316],[135.55376,34.73057]],[[135.54443,34.71472],[135.54324,34.71413],[135.54245,34.71349],[135.53927,34.71009]],[[135.57892,34.74997],[135.57771,34.74902]],[[135.53721,34.70849],[135.52722,34.70901]],[[135.5248,34.70883],[135.51982,34.70813],[135.51342,34.71015]],[[135.5062,34.70769],[135.50493,34.70667]],[[135.50969,34.69766],[135.51197,34.69751]],[[135.50016,34.69969],[135.50076,34.69828],[135.50108,34.69816]],[[135.51062,34.71086],[135.51022,34.71079],[135.50984,34.71052],[135.5062,34.70769]],[[135.50493,34.70667],[135.50064,34.70337],[135.49953,34.7024],[135.49945,34.70224],[135.49949,34.70143]],[[135.49949,34.70143],[135.50016,34.69969]],[[135.51342,34.71015],[135.51141,34.71079],[135.51062,34.71086]],[[135.51233,34.64361],[135.51194,34.64222]],[[135.56431,34.60909],[135.56657,34.60896]],[[135.51703,34.67455],[135.51694,34.67426],[135.51658,34.671],[135.51604,34.66797]],[[135.51295,34.64601],[135.51233,34.64361]],[[135.51328,34.64773],[135.51295,34.64601]],[[135.51406,34.65765],[135.51386,34.65625],[135.51371,34.65358],[135.51371,34.65246],[135.51384,34.6512],[135.51354,34.64944]],[[135.51732,34.63686],[135.51925,34.6348]],[[135.51768,34.69711],[135.51791,34.69695],[135.51804,34.69672],[135.51808,34.69618],[135.5176,34.69344],[135.51725,34.69015]],[[135.51354,34.64944],[135.51328,34.64773]],[[135.5481,34.62211],[135.54858,34.62129],[135.5488,34.62049],[135.54885,34.61995]],[[135.52612,34.62763],[135.53061,34.62293],[135.53188,34.62196]],[[135.54885,34.61995],[135.5491,34.61011],[135.54927,34.60968],[135.5496,34.60936],[135.54981,34.60927],[135.55049,34.60921]],[[135.51725,34.69015],[135.51736,34.6882]],[[135.51563,34.66616],[135.51431,34.65917]],[[135.51728,34.68111],[135.51711,34.67586]],[[135.53188,34.62196],[135.53299,34.62146],[135.53375,34.62125]],[[135.57393,34.60168],[135.57446,34.59942],[135.5749,34.59876],[135.5754,34.59836],[135.5764,34.59795],[135.57853,34.59751],[135.57931,34.59739],[135.58198,34.59734]],[[135.51733,34.68321],[135.51728,34.68111]],[[135.51925,34.6348],[135.52431,34.62953]],[[135.52431,34.62953],[135.52612,34.62763]],[[135.51186,34.64196],[135.51204,34.64117],[135.51233,34.64068],[135.51255,34.64047],[135.51415,34.63978],[135.5149,34.63932],[135.51732,34.63686]],[[135.51194,34.64222],[135.51186,34.64196]],[[135.51711,34.67586],[135.51703,34.67455]],[[135.55369,34.60917],[135.56138,34.60924],[135.56431,34.60909]],[[135.55049,34.60921],[135.55369,34.60917]],[[135.58198,34.59734],[135.58366,34.59704]],[[135.51736,34.6882],[135.51733,34.68321]],[[135.53375,34.62125],[135.53563,34.62126],[135.53971,34.62168],[135.54663,34.62264],[135.54753,34.62252],[135.54795,34.62232],[135.5481,34.62211]],[[135.57359,34.60329],[135.57393,34.60168]],[[135.56657,34.60896],[135.57246,34.60766],[135.57282,34.60747],[135.57301,34.60723],[135.57326,34.60653],[135.57338,34.6048],[135.57359,34.60329]],[[135.51604,34.66797],[135.51563,34.66616]],[[135.51431,34.65917],[135.51406,34.65765]],[[135.50108,34.69816],[135.50969,34.69766]],[[135.51197,34.69751],[135.51232,34.69749]],[[135.51232,34.69749],[135.51437,34.69734]],[[135.51437,34.69734],[135.51768,34.69711]]]}}