{"type":"Feature","properties":{"id":"大阪市高速電気軌道_4号線(中央線)","name":"4号線(中央線)","operator":"大阪市高速電気軌道","railType":"軌道","operatorType":"民営","category":"tram","attribution":"国土数値情報（鉄道データ）国土交通省"},"geometry":{"type":"MultiLineString","coordinates":[[[135.59111,34.67876],[135.59282,34.67875]],[[135.57156,34.67834],[135.57343,34.67866]],[[135.57343,34.67866],[135.57488,34.67892],[135.57604,34.67902],[135.58695,34.67878],[135.59111,34.67876]],[[135.5439,34.68086],[135.54616,34.68058]],[[135.5003,34.68201],[135.50599,34.68191]],[[135.54616,34.68058],[135.55587,34.67932]],[[135.48866,34.68139],[135.49591,34.68189],[135.49719,34.68189],[135.49789,34.68202]],[[135.5312,34.68149],[135.5334,34.68147]],[[135.41262,34.64272],[135.41489,34.64352],[135.41641,34.64416],[135.42801,34.65137],[135.42854,34.65164],[135.43376,34.65365]],[[135.46144,34.66822],[135.45174,34.66489],[135.4514,34.66469],[135.4509,34.66418],[135.44908,34.66136]],[[135.55784,34.67906],[135.56273,34.67844],[135.56924,34.6783],[135.57156,34.67834]],[[135.48719,34.6813],[135.48621,34.68121],[135.48442,34.68086],[135.47921,34.67948],[135.47779,34.67862],[135.47433,34.67587]],[[135.51928,34.68132],[135.52292,34.68132],[135.52863,34.68152],[135.5312,34.68149]],[[135.41182,34.64243],[135.41262,34.64272]],[[135.50599,34.68191],[135.50821,34.68184]],[[135.47428,34.67583],[135.47288,34.67483]],[[135.43376,34.65365],[135.43489,34.65409]],[[135.5334,34.68147],[135.53948,34.68139],[135.5439,34.68086]],[[135.46288,34.66871],[135.46144,34.66822]],[[135.44908,34.66136],[135.44831,34.66017]],[[135.50821,34.68184],[135.51137,34.68176],[135.51718,34.68147]],[[135.47283,34.6748],[135.46942,34.67258],[135.46811,34.67157],[135.46696,34.67054],[135.46598,34.66992],[135.46541,34.66963],[135.46288,34.66871]],[[135.55587,34.67932],[135.55784,34.67906]],[[135.48866,34.68139],[135.48719,34.6813]],[[135.49789,34.68202],[135.5003,34.68201]],[[135.51718,34.68147],[135.51928,34.68132]],[[135.44831,34.66017],[135.44778,34.65947],[135.44696,34.65885],[135.43489,34.65409]],[[135.47288,34.67483],[135.47283,34.6748]],[[135.47433,34.67587],[135.47428,34.67583]]]}}