{"type":"Feature","properties":{"id":"大阪市高速電気軌道_6号線(堺筋線)","name":"6号線(堺筋線)","operator":"大阪市高速電気軌道","railType":"軌道","operatorType":"民営","category":"tram","attribution":"国土数値情報（鉄道データ）国土交通省"},"geometry":{"type":"MultiLineString","coordinates":[[[135.51074,34.71094],[135.51077,34.70879]],[[135.51077,34.70879],[135.51084,34.70461]],[[135.51099,34.6988],[135.51101,34.6971]],[[135.51084,34.70461],[135.51086,34.70304]],[[135.51086,34.70304],[135.51099,34.6988]],[[135.5063,34.67354],[135.50618,34.6675]],[[135.50612,34.66561],[135.50573,34.65706]],[[135.50359,34.6488],[135.50299,34.64695]],[[135.50543,34.65439],[135.50359,34.6488]],[[135.50618,34.6675],[135.50612,34.66561]],[[135.50644,34.68159],[135.50648,34.68353]],[[135.50644,34.68159],[135.50634,34.67575]],[[135.50672,34.69177],[135.50658,34.69117],[135.50655,34.6896]],[[135.50634,34.67575],[135.5063,34.67354]],[[135.49715,34.63769],[135.4968,34.63638]],[[135.50573,34.65706],[135.50566,34.65555],[135.50543,34.65439]],[[135.51101,34.6971],[135.51098,34.69554],[135.51065,34.69475],[135.51032,34.69428],[135.50962,34.69362],[135.50738,34.69259],[135.50672,34.69177]],[[135.50299,34.64695],[135.50263,34.64551],[135.50205,34.64505],[135.50011,34.64384],[135.49937,34.64317],[135.49851,34.64214],[135.49824,34.64162],[135.49715,34.63769]],[[135.50655,34.6896],[135.50648,34.68353]]]}}