{"type":"Feature","properties":{"id":"大阪市高速電気軌道_8号線（今里筋線）","name":"8号線（今里筋線）","operator":"大阪市高速電気軌道","railType":"軌道","operatorType":"民営","category":"tram","attribution":"国土数値情報（鉄道データ）国土交通省"},"geometry":{"type":"MultiLineString","coordinates":[[[135.55759,34.71527],[135.54703,34.71555],[135.5467,34.71545],[135.54647,34.71515],[135.54644,34.71358]],[[135.54728,34.76071],[135.54724,34.75953]],[[135.54724,34.75953],[135.54706,34.75576],[135.54689,34.75544],[135.54631,34.75492],[135.54524,34.75435],[135.54465,34.75258]],[[135.54465,34.75258],[135.54438,34.75165]],[[135.54438,34.75165],[135.54262,34.74565],[135.54274,34.7453],[135.54398,34.74445]],[[135.54398,34.74445],[135.54496,34.74353]],[[135.54496,34.74353],[135.54693,34.74159],[135.54888,34.7395],[135.5555,34.7321]],[[135.5555,34.7321],[135.55663,34.73092]],[[135.55663,34.73092],[135.56001,34.72775],[135.56068,34.72694],[135.56093,34.72621],[135.56083,34.72276]],[[135.56083,34.72276],[135.56079,34.72155]],[[135.54644,34.71358],[135.54644,34.71247]],[[135.54644,34.71247],[135.5463,34.70163]],[[135.5463,34.70163],[135.54629,34.70049]],[[135.54629,34.70049],[135.54618,34.69346]],[[135.54618,34.69346],[135.5461,34.69254]],[[135.5461,34.69254],[135.54542,34.687],[135.54471,34.68204]],[[135.54471,34.68204],[135.54456,34.68096]],[[135.54456,34.68096],[135.54319,34.67112]],[[135.54319,34.67112],[135.54296,34.66947]],[[135.56079,34.72155],[135.56055,34.71563],[135.56041,34.71539],[135.56025,34.7153],[135.55892,34.71524]],[[135.55892,34.71524],[135.55759,34.71527]]]}}