{"type":"Feature","properties":{"id":"大阪市高速電気軌道_7号線(長堀鶴見緑地線)","name":"7号線(長堀鶴見緑地線)","operator":"大阪市高速電気軌道","railType":"軌道","operatorType":"民営","category":"tram","attribution":"国土数値情報（鉄道データ）国土交通省"},"geometry":{"type":"MultiLineString","coordinates":[[[135.55954,34.70191],[135.54848,34.70056]],[[135.57341,34.70364],[135.57194,34.70344]],[[135.56101,34.70225],[135.55954,34.70191]],[[135.53052,34.69756],[135.52958,34.69656]],[[135.5931,34.71706],[135.59185,34.71643]],[[135.59185,34.71643],[135.588,34.71476],[135.58215,34.71199],[135.58137,34.7113]],[[135.54848,34.70056],[135.54702,34.70042]],[[135.58137,34.7113],[135.58005,34.71064]],[[135.58005,34.71064],[135.57533,34.70831],[135.57488,34.70795],[135.57475,34.70778],[135.57463,34.70738],[135.57458,34.70461],[135.57422,34.70404],[135.57397,34.70382],[135.57341,34.70364]],[[135.54702,34.70042],[135.54055,34.7001],[135.53269,34.69856],[135.53139,34.69815],[135.53052,34.69756]],[[135.57194,34.70344],[135.56821,34.70302],[135.56265,34.70268],[135.56101,34.70225]],[[135.53335,34.68301],[135.5334,34.68172]],[[135.49982,34.67535],[135.49833,34.67537]],[[135.50721,34.6753],[135.50575,34.6753]],[[135.52922,34.67468],[135.52338,34.67564],[135.51868,34.67601]],[[135.49833,34.67537],[135.49447,34.6755]],[[135.4792,34.67025],[135.47912,34.66916],[135.47948,34.6677],[135.4795,34.66724],[135.47936,34.66678],[135.47909,34.66635]],[[135.52947,34.69241],[135.53006,34.69133]],[[135.51868,34.67601],[135.51724,34.67605]],[[135.53071,34.6746],[135.52922,34.67468]],[[135.51181,34.67536],[135.50721,34.6753]],[[135.53006,34.69133],[135.53287,34.68589],[135.53316,34.68476],[135.53335,34.68301]],[[135.51724,34.67605],[135.51435,34.67598],[135.5132,34.6757]],[[135.47949,34.67146],[135.4792,34.67025]],[[135.52958,34.69656],[135.52847,34.69531],[135.52833,34.69498],[135.52831,34.69453],[135.52844,34.69416],[135.52947,34.69241]],[[135.50575,34.6753],[135.50092,34.67529],[135.49982,34.67535]],[[135.48621,34.67571],[135.48428,34.67586],[135.4834,34.67585],[135.48238,34.67562],[135.48186,34.67538],[135.48142,34.6751],[135.48085,34.67449],[135.47949,34.67146]],[[135.48771,34.67571],[135.48621,34.67571]],[[135.5132,34.6757],[135.51181,34.67536]],[[135.49447,34.6755],[135.49297,34.67557]],[[135.49297,34.67557],[135.48771,34.67571]],[[135.5334,34.68172],[135.53342,34.6808],[135.53335,34.68035],[135.53248,34.67609],[135.53215,34.67543],[135.53171,34.67483],[135.53125,34.67462],[135.53071,34.6746]],[[135.47845,34.66532],[135.47909,34.66635]]]}}