{"type":"Feature","properties":{"id":"大阪市高速電気軌道_5号線(千日前線)","name":"5号線(千日前線)","operator":"大阪市高速電気軌道","railType":"軌道","operatorType":"民営","category":"tram","attribution":"国土数値情報（鉄道データ）国土交通省"},"geometry":{"type":"MultiLineString","coordinates":[[[135.5548,34.652],[135.5552,34.65454]],[[135.5552,34.65454],[135.55581,34.65755],[135.55615,34.66021]],[[135.55336,34.64381],[135.5548,34.652]],[[135.48649,34.68086],[135.48735,34.67717],[135.48732,34.67616],[135.48711,34.67473]],[[135.48711,34.67473],[135.48691,34.67314]],[[135.49112,34.66822],[135.49517,34.66779],[135.49787,34.66736]],[[135.50508,34.66702],[135.50064,34.66715]],[[135.55639,34.66247],[135.55684,34.66713],[135.55679,34.66751],[135.55657,34.66788],[135.55632,34.66809],[135.55538,34.66824]],[[135.51535,34.66665],[135.51389,34.66676],[135.5078,34.66693]],[[135.48691,34.67314],[135.48653,34.67028],[135.4866,34.66948],[135.48674,34.66908],[135.48694,34.66886],[135.48757,34.6685],[135.48948,34.66838]],[[135.54242,34.66883],[135.5347,34.66633],[135.53007,34.66598]],[[135.55615,34.66021],[135.55639,34.66247]],[[135.5078,34.66693],[135.50508,34.66702]],[[135.55289,34.64184],[135.5531,34.64244],[135.55336,34.64381]],[[135.55304,34.66813],[135.54884,34.66753],[135.54582,34.66824]],[[135.47488,34.6949],[135.47486,34.69333]],[[135.50064,34.66715],[135.49787,34.66736]],[[135.53007,34.66598],[135.52772,34.66597]],[[135.55538,34.66824],[135.55304,34.66813]],[[135.47689,34.68856],[135.47736,34.68816],[135.48089,34.6862],[135.48208,34.68579],[135.48448,34.68516],[135.48486,34.68497],[135.48526,34.68428],[135.48596,34.68245]],[[135.52772,34.66597],[135.52137,34.666],[135.51858,34.66627]],[[135.48948,34.66838],[135.49112,34.66822]],[[135.48596,34.68245],[135.48649,34.68086]],[[135.51858,34.66627],[135.51535,34.66665]],[[135.47486,34.69333],[135.47487,34.69151],[135.47582,34.6901]],[[135.47582,34.6901],[135.47689,34.68856]],[[135.54582,34.66824],[135.54325,34.66889],[135.54242,34.66883]]]}}