{"type":"Feature","properties":{"id":"大阪市高速電気軌道_3号線(四つ橋線)","name":"3号線(四つ橋線)","operator":"大阪市高速電気軌道","railType":"軌道","operatorType":"民営","category":"tram","attribution":"国土数値情報（鉄道データ）国土交通省"},"geometry":{"type":"MultiLineString","coordinates":[[[135.49571,34.70032],[135.49558,34.69856]],[[135.49639,34.6435],[135.49671,34.64491]],[[135.49032,34.62345],[135.49066,34.62472]],[[135.49691,34.68195],[135.49684,34.68038],[135.49695,34.67685],[135.49683,34.67481]],[[135.494,34.63488],[135.49602,34.64196],[135.49639,34.6435]],[[135.49643,34.69062],[135.4968,34.68782],[135.49689,34.68355]],[[135.49683,34.67481],[135.49666,34.67307]],[[135.49773,34.6515],[135.49788,34.65524]],[[135.49671,34.64491],[135.49745,34.64842],[135.49773,34.6515]],[[135.48017,34.62144],[135.48415,34.62214],[135.48855,34.62212],[135.48894,34.62218],[135.48992,34.62282],[135.49012,34.62304],[135.49032,34.62345]],[[135.4963,34.69181],[135.49643,34.69062]],[[135.49788,34.65524],[135.49784,34.65735]],[[135.498,34.66257],[135.49784,34.65941],[135.49784,34.65735]],[[135.49798,34.66555],[135.498,34.66257]],[[135.49558,34.69856],[135.4954,34.69666],[135.4963,34.69181]],[[135.49718,34.66719],[135.49798,34.66555]],[[135.47854,34.62115],[135.48017,34.62144]],[[135.47315,34.60957],[135.47344,34.61508],[135.47374,34.61643],[135.4757,34.62027],[135.47631,34.62074],[135.47854,34.62115]],[[135.49689,34.68355],[135.49691,34.68195]],[[135.49666,34.67307],[135.4963,34.66992],[135.49659,34.66871],[135.49718,34.66719]],[[135.47307,34.60816],[135.47315,34.60957]],[[135.49066,34.62472],[135.49137,34.62744],[135.4936,34.63352]],[[135.4936,34.63352],[135.494,34.63488]]]}}