{"type":"Feature","properties":{"id":"大阪モノレール_大阪モノレール線","name":"大阪モノレール線","operator":"大阪モノレール","railType":"跨座式モノレール(軌道)","operatorType":"第三セクター","category":"monorail","attribution":"国土数値情報（鉄道データ）国土交通省"},"geometry":{"type":"MultiLineString","coordinates":[[[135.56508,34.80283],[135.56444,34.80356]],[[135.57916,34.74854],[135.58211,34.74308],[135.58236,34.74213],[135.58253,34.74092],[135.58261,34.73776]],[[135.56905,34.7647],[135.56847,34.76548]],[[135.56609,34.79444],[135.56613,34.79497],[135.56602,34.7961],[135.56666,34.79851],[135.56668,34.79977],[135.56659,34.80027],[135.5663,34.8011],[135.56584,34.80188],[135.56508,34.80283]],[[135.56133,34.7796],[135.56152,34.78045]],[[135.56444,34.80356],[135.56144,34.80715],[135.56074,34.80763],[135.55947,34.80801],[135.55501,34.80804]],[[135.56152,34.78045],[135.56583,34.79359]],[[135.57871,34.74934],[135.57916,34.74854]],[[135.56905,34.7647],[135.57133,34.76151],[135.5726,34.7602],[135.57569,34.75584],[135.57599,34.75519],[135.57632,34.75413],[135.57871,34.74934]],[[135.55501,34.80804],[135.55395,34.80804]],[[135.56583,34.79359],[135.56609,34.79444]],[[135.58262,34.73686],[135.58261,34.73776]],[[135.56847,34.76548],[135.56636,34.76853],[135.56205,34.77539],[135.56155,34.7764],[135.56119,34.77765],[135.56118,34.77865],[135.56133,34.7796]],[[135.55395,34.80804],[135.55139,34.80803],[135.54822,34.80789],[135.54514,34.80722],[135.54198,34.80739],[135.53725,34.80698],[135.53529,34.80689]],[[135.53529,34.80689],[135.5307,34.80677]],[[135.52962,34.80679],[135.5307,34.80677]],[[135.47481,34.80403],[135.47587,34.80452]],[[135.49461,34.80744],[135.49311,34.80733],[135.49102,34.80677],[135.48364,34.80613],[135.48001,34.80573],[135.47836,34.80537],[135.47587,34.80452]],[[135.51606,34.80565],[135.51503,34.80563]],[[135.45922,34.80018],[135.46121,34.79977],[135.46259,34.79967],[135.46456,34.79974],[135.46614,34.80002],[135.46695,34.80023],[135.46911,34.80109],[135.47072,34.80199],[135.47481,34.80403]],[[135.45816,34.80049],[135.45922,34.80018]],[[135.49576,34.80747],[135.49461,34.80744]],[[135.51503,34.80563],[135.51437,34.80565],[135.51286,34.80592],[135.50824,34.80647],[135.5012,34.80712],[135.49687,34.80745],[135.49576,34.80747]],[[135.52962,34.80679],[135.52286,34.80666],[135.52098,34.80643],[135.51714,34.80568],[135.51606,34.80565]],[[135.44162,34.79162],[135.44238,34.79099]],[[135.44915,34.79443],[135.44831,34.79595],[135.44754,34.79814],[135.4474,34.7993],[135.4475,34.79963],[135.44789,34.79999],[135.44843,34.80016],[135.44998,34.80042],[135.45237,34.80115],[135.4533,34.80132],[135.45485,34.80131],[135.45816,34.80049]],[[135.44238,34.79099],[135.44428,34.78953],[135.44503,34.78943],[135.44717,34.78945],[135.44858,34.78925],[135.44938,34.78939],[135.4499,34.78976],[135.45032,34.79025],[135.45076,34.79091],[135.45086,34.79132],[135.45078,34.79174],[135.45064,34.79201],[135.44968,34.79361]],[[135.44968,34.79361],[135.44915,34.79443]]]}}