{"type":"Feature","properties":{"id":"大阪モノレール_国際文化公園都市モノレール線（彩都線）","name":"国際文化公園都市モノレール線（彩都線）","operator":"大阪モノレール","railType":"跨座式モノレール(軌道)","operatorType":"第三セクター","category":"monorail","attribution":"国土数値情報（鉄道データ）国土交通省"},"geometry":{"type":"MultiLineString","coordinates":[[[135.53968,34.81105],[135.53951,34.81013]],[[135.53951,34.81013],[135.53923,34.80878],[135.53881,34.80831],[135.53633,34.80712],[135.53529,34.80689]],[[135.52967,34.81801],[135.52955,34.81755],[135.52949,34.8168],[135.52969,34.8164],[135.5299,34.81621],[135.53296,34.81518],[135.53731,34.81398],[135.53822,34.81363],[135.53868,34.81336],[135.53907,34.81301],[135.53969,34.81211],[135.53979,34.81166],[135.53968,34.81105]],[[135.52981,34.81889],[135.52967,34.81801]],[[135.52962,34.80679],[135.5307,34.80677]],[[135.53529,34.80689],[135.5307,34.80677]],[[135.52269,34.85476],[135.52304,34.85538]],[[135.52981,34.81889],[135.53005,34.81995],[135.53003,34.82015],[135.5285,34.82622],[135.52679,34.83429]],[[135.52679,34.83429],[135.52665,34.8349]],[[135.52665,34.8349],[135.52664,34.83737],[135.52649,34.83817],[135.52614,34.83912],[135.52559,34.83997],[135.52512,34.84049],[135.52226,34.84305],[135.52182,34.8437],[135.52163,34.8443],[135.52161,34.84515],[135.52194,34.85162],[135.52215,34.85315],[135.52236,34.85398],[135.52269,34.85476]]]}}