{"type":"Feature","properties":{"id":"天竜浜名湖鉄道_天竜浜名湖線","name":"天竜浜名湖線","operator":"天竜浜名湖鉄道","railType":"普通鉄道","operatorType":"第三セクター","category":"rail","attribution":"国土数値情報（鉄道データ）国土交通省"},"geometry":{"type":"MultiLineString","coordinates":[[[137.6817,34.81689],[137.68065,34.81691]],[[137.68065,34.81691],[137.67826,34.8169],[137.67692,34.81679],[137.66851,34.81432],[137.66781,34.81399],[137.66595,34.81246]],[[137.70968,34.81994],[137.70885,34.8199]],[[137.57409,34.79588],[137.56893,34.79636],[137.56504,34.79618],[137.56356,34.79634],[137.56266,34.79667],[137.56196,34.79714],[137.55902,34.79997],[137.55811,34.80078],[137.557,34.80156],[137.55607,34.80185],[137.55216,34.8025]],[[137.62195,34.80248],[137.62123,34.80224]],[[137.58629,34.79062],[137.5853,34.79136],[137.58183,34.79444],[137.58107,34.79496],[137.57999,34.79528],[137.57491,34.79581]],[[137.54165,34.78358],[137.54131,34.78225],[137.54071,34.78065],[137.54039,34.78029],[137.53974,34.77982],[137.53459,34.77725],[137.53376,34.77706],[137.53187,34.77701],[137.53087,34.77672],[137.53009,34.77627],[137.52945,34.77562],[137.52691,34.77227],[137.52647,34.77155],[137.5263,34.77053],[137.52611,34.76771],[137.52569,34.76588],[137.5253,34.7652],[137.52473,34.76476],[137.52401,34.76435],[137.51771,34.76133],[137.51679,34.76105],[137.51511,34.7608],[137.5141,34.76033],[137.5135,34.7599],[137.5129,34.7592],[137.51263,34.75853],[137.51242,34.75742],[137.51212,34.75412]],[[137.8896,34.81822],[137.88861,34.81789]],[[137.77431,34.83051],[137.77645,34.83073],[137.77771,34.83113],[137.7871,34.83527],[137.79002,34.83663],[137.79202,34.83746]],[[137.83015,34.84695],[137.82992,34.84753]],[[137.91766,34.82608],[137.91649,34.82519],[137.90786,34.82099]],[[137.6123,34.78978],[137.61144,34.7888],[137.61058,34.78821],[137.60989,34.78797],[137.60913,34.78788],[137.60523,34.7881],[137.59971,34.78924]],[[137.82992,34.84753],[137.82962,34.84851],[137.82938,34.85028],[137.82913,34.85134],[137.82824,34.85315],[137.82692,34.85518],[137.82642,34.85574],[137.82392,34.85802],[137.82271,34.85861],[137.82051,34.85903]],[[137.99471,34.7721],[137.97764,34.77762],[137.97604,34.77795],[137.97318,34.7782]],[[137.93143,34.8312],[137.93074,34.8316]],[[137.77431,34.83051],[137.77319,34.83039]],[[137.49448,34.7281],[137.49385,34.72768]],[[137.77319,34.83039],[137.76769,34.82979],[137.76637,34.82983],[137.75682,34.83261],[137.75584,34.83255],[137.75162,34.83178],[137.75061,34.83187],[137.74798,34.83246],[137.74392,34.83217],[137.74235,34.83227],[137.73946,34.83267],[137.73664,34.83433],[137.73542,34.83481],[137.73484,34.83487],[137.734,34.83483],[137.73258,34.83449]],[[137.79202,34.83746],[137.79314,34.83795]],[[137.86424,34.82626],[137.86582,34.82095],[137.8671,34.81881],[137.86809,34.81745],[137.86928,34.81626],[137.87196,34.81429],[137.87504,34.81188],[137.87584,34.81147],[137.87697,34.81122],[137.87819,34.81118],[137.87905,34.81129],[137.87983,34.81153],[137.88048,34.81189],[137.88745,34.81713],[137.88861,34.81789]],[[137.95488,34.80889],[137.95445,34.81054],[137.95412,34.81103],[137.95362,34.81147],[137.95105,34.81286],[137.95066,34.81326],[137.95036,34.81403],[137.95041,34.81453],[137.95098,34.81564],[137.95267,34.81741],[137.95286,34.81773],[137.95308,34.81849],[137.95296,34.81978]],[[137.96146,34.79312],[137.95611,34.80465],[137.95509,34.80804]],[[137.65146,34.80717],[137.64958,34.80713],[137.64673,34.80675],[137.63676,34.80472],[137.63559,34.80427],[137.6324,34.80252],[137.63102,34.80202],[137.62965,34.80171],[137.62813,34.80169],[137.62328,34.80247],[137.62195,34.80248]],[[137.80791,34.84642],[137.80797,34.84709]],[[137.66539,34.81211],[137.66098,34.81008],[137.65577,34.80781],[137.65471,34.80749],[137.65382,34.80732],[137.65244,34.80723]],[[137.59971,34.78924],[137.59879,34.78923]],[[137.70885,34.8199],[137.70655,34.81979],[137.70592,34.81969],[137.70525,34.81944],[137.70468,34.81914],[137.70438,34.81889],[137.70288,34.81694],[137.70259,34.81669],[137.69964,34.81535],[137.69857,34.81513],[137.69297,34.81509],[137.69176,34.81516],[137.69039,34.81537],[137.68386,34.81683],[137.6817,34.81689]],[[138.01245,34.76916],[138.00729,34.76848]],[[138.00729,34.76848],[138.00625,34.76852],[138.00513,34.76873],[138.00045,34.7702]],[[137.92461,34.83137],[137.92393,34.83086]],[[137.51212,34.75412],[137.51207,34.75349]],[[137.62123,34.80224],[137.6204,34.80186],[137.61969,34.80134],[137.61936,34.80083],[137.6186,34.79905],[137.61815,34.79822],[137.61758,34.79748],[137.61579,34.79582],[137.61511,34.79499],[137.61412,34.79218],[137.61276,34.79035]],[[137.95296,34.81978],[137.95283,34.82056]],[[137.71861,34.82841],[137.71794,34.82807]],[[137.59879,34.78923],[137.59825,34.78915],[137.59776,34.78891],[137.59477,34.78798],[137.5936,34.78784],[137.59245,34.78788],[137.59189,34.78797],[137.59076,34.78831],[137.58767,34.78979],[137.58693,34.79025]],[[138.00045,34.7702],[137.99967,34.77048]],[[137.84018,34.83677],[137.84114,34.83585],[137.84178,34.83543],[137.84255,34.83519],[137.84294,34.83517],[137.84462,34.83524],[137.85082,34.83674],[137.85308,34.8371],[137.85418,34.8371],[137.85495,34.83697],[137.85563,34.8368],[137.8571,34.83624],[137.85758,34.83596],[137.85799,34.83559],[137.85965,34.83366],[137.86119,34.83267],[137.86202,34.83205],[137.86243,34.83162],[137.8627,34.8312],[137.86288,34.83068],[137.86404,34.82693]],[[137.96394,34.78777],[137.96366,34.7884]],[[137.48348,34.72344],[137.48543,34.72308]],[[137.61276,34.79035],[137.6123,34.78978]],[[137.93074,34.8316],[137.92956,34.83216],[137.92865,34.83248],[137.92778,34.83266],[137.92712,34.83268],[137.92651,34.83259],[137.92603,34.83239],[137.92461,34.83137]],[[137.73181,34.83427],[137.72511,34.83236],[137.72384,34.8319],[137.72292,34.83134],[137.72007,34.8292],[137.71861,34.82841]],[[137.86404,34.82693],[137.86424,34.82626]],[[137.83934,34.83753],[137.83261,34.84388],[137.83077,34.84591],[137.83015,34.84695]],[[137.97318,34.7782],[137.97229,34.77828]],[[137.96366,34.7884],[137.96181,34.79238]],[[137.95509,34.80804],[137.95488,34.80889]],[[137.54587,34.79534],[137.54587,34.79467]],[[137.95283,34.82056],[137.95264,34.8212],[137.95229,34.82172],[137.94987,34.82408],[137.94963,34.82463],[137.94924,34.82595],[137.94901,34.82639],[137.94865,34.82673],[137.94806,34.82707],[137.94368,34.82898],[137.943,34.8292],[137.94101,34.82927],[137.93572,34.82917],[137.93513,34.82925],[137.93437,34.82952],[137.93143,34.8312]],[[137.82051,34.85903],[137.8195,34.85924]],[[137.58693,34.79025],[137.58629,34.79062]],[[137.66595,34.81246],[137.66539,34.81211]],[[137.99967,34.77048],[137.99541,34.77188]],[[137.81232,34.85927],[137.80905,34.85822],[137.80831,34.8579],[137.80763,34.85726],[137.8071,34.85636],[137.80695,34.8555],[137.80712,34.85147],[137.80722,34.85065],[137.80793,34.84764],[137.80797,34.84709]],[[137.73258,34.83449],[137.73181,34.83427]],[[137.99541,34.77188],[137.99471,34.7721]],[[137.97229,34.77828],[137.97083,34.77843],[137.96964,34.7787],[137.9686,34.77915],[137.96787,34.77975],[137.96749,34.78019],[137.96718,34.78075],[137.96394,34.78777]],[[137.5514,34.80263],[137.55055,34.80269],[137.54973,34.80262],[137.54902,34.80238],[137.54863,34.80216],[137.54783,34.80146],[137.54609,34.79936],[137.54595,34.79904],[137.5459,34.79843],[137.54587,34.79534]],[[137.5418,34.78426],[137.54165,34.78358]],[[137.8195,34.85924],[137.81677,34.8598],[137.81594,34.85989],[137.81457,34.85981],[137.81321,34.85953]],[[137.57491,34.79581],[137.57409,34.79588]],[[137.96181,34.79238],[137.96146,34.79312]],[[137.51207,34.75349],[137.51194,34.75083],[137.51165,34.74999],[137.51166,34.74911],[137.51193,34.74847],[137.51349,34.74662],[137.51376,34.7461],[137.51449,34.74246],[137.5145,34.74176],[137.51436,34.74133],[137.51387,34.74069],[137.50985,34.73797]],[[137.90786,34.82099],[137.90721,34.82065]],[[138.01668,34.76965],[138.01245,34.76916]],[[137.54587,34.79467],[137.54589,34.79203],[137.54582,34.79131],[137.54564,34.79077],[137.54488,34.78942],[137.54302,34.78692],[137.54245,34.786],[137.54212,34.78528],[137.5418,34.78426]],[[137.65244,34.80723],[137.65146,34.80717]],[[137.90721,34.82065],[137.90623,34.82023],[137.90468,34.81989],[137.8951,34.81888],[137.8896,34.81822]],[[137.84018,34.83677],[137.83934,34.83753]],[[137.55216,34.8025],[137.5514,34.80263]],[[137.79314,34.83795],[137.806,34.84387],[137.8068,34.84441],[137.80746,34.84517],[137.80772,34.84568],[137.80791,34.84642]],[[137.71794,34.82807],[137.71623,34.82712],[137.71575,34.82675],[137.71536,34.82632],[137.71505,34.82549],[137.71454,34.82322],[137.71418,34.822],[137.71393,34.82153],[137.71346,34.82094],[137.71293,34.82055],[137.71194,34.82018],[137.70968,34.81994]],[[137.49385,34.72768],[137.49347,34.72743],[137.48859,34.7233],[137.48793,34.72309],[137.48615,34.72294]],[[137.48615,34.72294],[137.48543,34.72308]],[[137.81321,34.85953],[137.81232,34.85927]],[[137.50985,34.73797],[137.50955,34.73777]],[[137.50955,34.73777],[137.49812,34.73036],[137.49448,34.7281]],[[137.92393,34.83086],[137.91778,34.82618]],[[137.91778,34.82618],[137.91766,34.82608]]]}}