{"type":"Feature","properties":{"id":"富山地方鉄道_支線","name":"支線","operator":"富山地方鉄道","railType":"軌道","operatorType":"民営","category":"tram","attribution":"国土数値情報（鉄道データ）国土交通省"},"geometry":{"type":"MultiLineString","coordinates":[[[137.20895,36.69271],[137.20893,36.6923]],[[137.21131,36.69867],[137.21037,36.69709],[137.20981,36.69578]],[[137.21156,36.69905],[137.21131,36.69867]],[[137.21227,36.70031],[137.21156,36.69905]],[[137.20981,36.69578],[137.20968,36.69538]],[[137.21431,36.6998],[137.21382,36.70001]],[[137.20968,36.69538],[137.20913,36.6939],[137.20895,36.69271]],[[137.21382,36.70001],[137.21271,36.70038]],[[137.21271,36.70038],[137.2125,36.70042],[137.21227,36.70031]]]}}