{"type":"Feature","properties":{"id":"富士急行_大月線","name":"大月線","operator":"富士急行","railType":"普通鉄道","operatorType":"民営","category":"rail","attribution":"国土数値情報（鉄道データ）国土交通省"},"geometry":{"type":"MultiLineString","coordinates":[[[138.9048,35.55109],[138.90446,35.55011]],[[138.90446,35.55011],[138.90422,35.54869],[138.9041,35.54833],[138.90391,35.54807],[138.90079,35.54586],[138.89944,35.54528],[138.89901,35.54502],[138.89865,35.5446],[138.89827,35.54372],[138.89798,35.54327],[138.89706,35.54278]],[[138.92898,35.57496],[138.92719,35.57328],[138.92601,35.57237],[138.91867,35.56811],[138.91637,35.56629]],[[138.90752,35.55673],[138.90775,35.55515],[138.90765,35.55453],[138.90688,35.55311],[138.90534,35.55209],[138.9051,35.55182],[138.9048,35.55109]],[[138.80437,35.49806],[138.80316,35.49787]],[[138.93801,35.60961],[138.93813,35.60919]],[[138.94164,35.61248],[138.94082,35.61215],[138.9393,35.61177],[138.93856,35.61134],[138.93804,35.61052],[138.93792,35.60992],[138.93801,35.60961]],[[138.88708,35.53881],[138.88109,35.53849],[138.87927,35.53814],[138.87854,35.53822],[138.87783,35.5385],[138.87674,35.53879],[138.87615,35.53876],[138.87554,35.53859],[138.87085,35.53645]],[[138.84599,35.52449],[138.84505,35.52413]],[[138.7951,35.48357],[138.79457,35.48361]],[[138.80316,35.49787],[138.80154,35.4976],[138.80056,35.49707],[138.79996,35.49647],[138.79812,35.49355]],[[138.93813,35.60919],[138.93826,35.60894],[138.94017,35.60732],[138.94085,35.60644],[138.94152,35.60496],[138.94161,35.60428],[138.94149,35.60374],[138.94115,35.60322],[138.94066,35.60284],[138.93717,35.6014],[138.93547,35.60038],[138.93418,35.59937],[138.93236,35.59732],[138.9313,35.59587],[138.93108,35.59524],[138.93106,35.59497],[138.93117,35.59382]],[[138.9295,35.57543],[138.92898,35.57496]],[[138.93124,35.59313],[138.93143,35.59192],[138.93186,35.59127],[138.93253,35.59075],[138.93414,35.58994],[138.93486,35.58932],[138.9352,35.58886],[138.93584,35.58737],[138.93609,35.58697],[138.93763,35.58504],[138.93812,35.58424],[138.9384,35.58348],[138.93842,35.583],[138.93835,35.58263],[138.93796,35.58199],[138.93586,35.58013],[138.93544,35.57988],[138.93343,35.57933],[138.93275,35.579],[138.9324,35.57867],[138.93088,35.57679],[138.9295,35.57543]],[[138.84505,35.52413],[138.8435,35.52331],[138.84133,35.52136],[138.83919,35.52001],[138.83841,35.51979],[138.83749,35.51979],[138.83533,35.5203],[138.83479,35.5204],[138.83427,35.52039],[138.83353,35.52023],[138.83274,35.51983],[138.83213,35.51908],[138.83144,35.51699],[138.83122,35.51648],[138.83086,35.51604],[138.83027,35.51566],[138.82767,35.51482],[138.82712,35.5144],[138.82691,35.51411],[138.82667,35.51346],[138.82665,35.51293],[138.8267,35.51259],[138.82728,35.51111],[138.82735,35.51052],[138.82723,35.51004],[138.82693,35.50955],[138.82589,35.50867]],[[138.93117,35.59382],[138.93124,35.59313]],[[138.81183,35.50203],[138.80961,35.501],[138.80688,35.49903],[138.80592,35.49846],[138.80528,35.49823],[138.80437,35.49806]],[[138.91578,35.5658],[138.9126,35.56342],[138.90873,35.56194],[138.9078,35.56125],[138.90733,35.56057],[138.90719,35.56011],[138.90717,35.55956],[138.90739,35.55768]],[[138.79154,35.48391],[138.79457,35.48361]],[[138.79784,35.4931],[138.79677,35.49142],[138.79612,35.49077],[138.79537,35.4903],[138.79133,35.48826],[138.79098,35.48802],[138.79054,35.48754],[138.79037,35.48725],[138.79017,35.4864],[138.79007,35.48593],[138.79011,35.48552],[138.79025,35.48511],[138.79055,35.48464],[138.79093,35.48429],[138.79154,35.48391]],[[138.87085,35.53645],[138.87005,35.53604]],[[138.82589,35.50867],[138.82525,35.50823]],[[138.91637,35.56629],[138.91578,35.5658]],[[138.8962,35.54239],[138.8901,35.53964],[138.88884,35.53916],[138.88785,35.53893]],[[138.90739,35.55768],[138.90752,35.55673]],[[138.79812,35.49355],[138.79784,35.4931]],[[138.94225,35.61287],[138.94164,35.61248]],[[138.82525,35.50823],[138.82475,35.50786],[138.82251,35.50657],[138.82028,35.50539],[138.81252,35.50229]],[[138.87005,35.53604],[138.86846,35.53523],[138.85929,35.53149],[138.85776,35.53096],[138.85625,35.53023],[138.8551,35.52956],[138.84911,35.52568],[138.84825,35.52525],[138.84599,35.52449]],[[138.8962,35.54239],[138.89706,35.54278]],[[138.88785,35.53893],[138.88708,35.53881]],[[138.81252,35.50229],[138.81183,35.50203]]]}}