{"type":"Feature","properties":{"id":"富山地方鉄道_立山線","name":"立山線","operator":"富山地方鉄道","railType":"普通鉄道","operatorType":"民営","category":"rail","attribution":"国土数値情報（鉄道データ）国土交通省"},"geometry":{"type":"MultiLineString","coordinates":[[[137.31648,36.65794],[137.31436,36.66401],[137.31421,36.66456],[137.31418,36.66504]],[[137.31752,36.68688],[137.31756,36.68834],[137.31813,36.69286],[137.31858,36.69827]],[[137.31785,36.64751],[137.31777,36.64825]],[[137.31983,36.60796],[137.31992,36.60865]],[[137.39551,36.57476],[137.39617,36.5751]],[[137.31417,36.66575],[137.31427,36.66725],[137.31442,36.66785],[137.31505,36.66918],[137.31543,36.66972],[137.31626,36.67155],[137.31743,36.67528],[137.31759,36.67605],[137.31772,36.67735],[137.31778,36.67943]],[[137.31674,36.65729],[137.31648,36.65794]],[[137.31777,36.68013],[137.31755,36.68626]],[[137.31976,36.60733],[137.32104,36.60132],[137.32128,36.6007],[137.32165,36.60009],[137.32404,36.59705],[137.33045,36.58849],[137.33541,36.58235]],[[137.31983,36.60796],[137.31976,36.60733]],[[137.31778,36.67943],[137.31777,36.68013]],[[137.31755,36.68626],[137.31752,36.68688]],[[137.31858,36.69827],[137.31835,36.69888]],[[137.33541,36.58235],[137.3359,36.58179]],[[137.31813,36.69925],[137.31835,36.69888]],[[137.31777,36.64825],[137.31719,36.65532],[137.31705,36.65636],[137.31674,36.65729]],[[137.39617,36.5751],[137.39725,36.57571],[137.39796,36.57636],[137.39857,36.57679],[137.39895,36.57694],[137.40106,36.57709],[137.40157,36.5772],[137.40227,36.57746],[137.40318,36.57818],[137.40363,36.57831],[137.40418,36.57819],[137.40497,36.57781],[137.40552,36.5778],[137.40589,36.57791],[137.40692,36.57855],[137.40763,36.57928],[137.40816,36.5795],[137.40944,36.57977],[137.41137,36.58056],[137.41354,36.58101],[137.4167,36.58235],[137.41798,36.58281],[137.41898,36.58305],[137.41948,36.58313],[137.42063,36.58306],[137.42163,36.58277],[137.42322,36.58201],[137.42518,36.58149],[137.42709,36.5814],[137.42885,36.58113],[137.4295,36.58121],[137.43069,36.58158],[137.43415,36.58305],[137.43693,36.58358],[137.43851,36.58359],[137.44028,36.58309],[137.44297,36.58296],[137.44398,36.583],[137.44477,36.58322]],[[137.32099,36.62199],[137.32102,36.62268]],[[137.32102,36.62268],[137.32131,36.62736],[137.32084,36.62905],[137.31941,36.633]],[[137.31941,36.633],[137.31921,36.63363]],[[137.3359,36.58179],[137.33751,36.57984],[137.33874,36.57887],[137.34325,36.5759],[137.34431,36.57539],[137.34503,36.57522],[137.3461,36.57515],[137.34691,36.57519],[137.35177,36.57556],[137.35537,36.57544],[137.35641,36.57535],[137.35751,36.5751],[137.35997,36.57408],[137.36121,36.57386],[137.36361,36.57434],[137.36832,36.57499],[137.36945,36.57478],[137.37097,36.57391],[137.37173,36.57358],[137.37268,36.57349],[137.37353,36.57366]],[[137.37353,36.57366],[137.37427,36.57383]],[[137.31992,36.60865],[137.32026,36.61181],[137.32099,36.62199]],[[137.37979,36.5729],[137.3806,36.57303]],[[137.37427,36.57383],[137.37502,36.57399],[137.37563,36.574],[137.37736,36.5731],[137.37825,36.5728],[137.37865,36.57276],[137.37979,36.5729]],[[137.44477,36.58322],[137.4452,36.58332]],[[137.31921,36.63363],[137.31904,36.63415],[137.31871,36.63598],[137.31785,36.64751]],[[137.3806,36.57303],[137.38164,36.5731],[137.3828,36.57301],[137.38693,36.57371],[137.39309,36.57365],[137.39384,36.57387],[137.39551,36.57476]],[[137.31418,36.66504],[137.31417,36.66575]]]}}