{"type":"Feature","properties":{"id":"富山地方鉄道_不二越線","name":"不二越線","operator":"富山地方鉄道","railType":"普通鉄道","operatorType":"民営","category":"rail","attribution":"国土数値情報（鉄道データ）国土交通省"},"geometry":{"type":"MultiLineString","coordinates":[[[137.23111,36.69676],[137.23053,36.6971]],[[137.23236,36.68753],[137.23256,36.6882]],[[137.23186,36.69629],[137.23111,36.69676]],[[137.23186,36.69629],[137.23269,36.69568],[137.23325,36.69476],[137.23364,36.69384],[137.23369,36.69287],[137.23337,36.69144]],[[137.22019,36.67],[137.22068,36.67062]],[[137.22884,36.67755],[137.22419,36.67433],[137.22068,36.67062]],[[137.22942,36.6781],[137.22971,36.67842],[137.23014,36.67913],[137.23065,36.68051],[137.23236,36.68753]],[[137.22884,36.67755],[137.22942,36.6781]],[[137.23321,36.69081],[137.23256,36.6882]],[[137.23337,36.69144],[137.23321,36.69081]]]}}