{"type":"Feature","properties":{"id":"富山地方鉄道_富山港線","name":"富山港線","operator":"富山地方鉄道","railType":"普通鉄道","operatorType":"民営","category":"rail","attribution":"国土数値情報（鉄道データ）国土交通省"},"geometry":{"type":"MultiLineString","coordinates":[[[137.22843,36.74841],[137.22829,36.74767]],[[137.22668,36.73548],[137.22658,36.73471]],[[137.22658,36.73471],[137.22615,36.73146]],[[137.22615,36.73146],[137.22605,36.7308]],[[137.22605,36.7308],[137.22494,36.72254]],[[137.22494,36.72254],[137.22485,36.72185]],[[137.22485,36.72185],[137.22475,36.72097],[137.22479,36.71946]],[[137.22479,36.71946],[137.22485,36.71883]],[[137.22485,36.71883],[137.22514,36.71535],[137.22465,36.71229]],[[137.22465,36.71229],[137.22453,36.71155]],[[137.22453,36.71155],[137.22363,36.70541],[137.22359,36.70383]],[[137.22359,36.70383],[137.22362,36.70331]],[[137.22829,36.74767],[137.22763,36.74256]],[[137.22763,36.74256],[137.22755,36.74187]],[[137.22755,36.74187],[137.22668,36.73548]],[[137.22362,36.70331],[137.22356,36.70308],[137.22343,36.70298],[137.22099,36.70306],[137.22012,36.70302]],[[137.21666,36.70354],[137.21617,36.70371]],[[137.23419,36.76095],[137.23403,36.76159]],[[137.23378,36.75722],[137.23411,36.75776]],[[137.2307,36.75226],[137.23378,36.75722]],[[137.23411,36.75776],[137.23432,36.7583],[137.23446,36.75923],[137.23419,36.76095]],[[137.23031,36.75163],[137.22869,36.749],[137.22843,36.74841]],[[137.23031,36.75163],[137.2307,36.75226]],[[137.21617,36.70371],[137.21514,36.70404],[137.21495,36.70406],[137.21471,36.70387]],[[137.21282,36.70147],[137.21317,36.70204]],[[137.21449,36.70348],[137.21399,36.70266],[137.2134,36.70238],[137.21317,36.70204]],[[137.21471,36.70387],[137.21449,36.70348]],[[137.21959,36.70299],[137.21831,36.70292],[137.21666,36.70354]],[[137.22012,36.70302],[137.21959,36.70299]]]}}