{"type":"Feature","properties":{"id":"富山地方鉄道_本線","name":"本線","operator":"富山地方鉄道","railType":"普通鉄道","operatorType":"民営","category":"rail","attribution":"国土数値情報（鉄道データ）国土交通省"},"geometry":{"type":"MultiLineString","coordinates":[[[137.35082,36.73492],[137.35112,36.73576]],[[137.5599,36.84039],[137.55994,36.84109]],[[137.33593,36.70206],[137.34221,36.70314]],[[137.51915,36.86359],[137.51988,36.86324]],[[137.40049,36.81563],[137.4002,36.81499]],[[137.55994,36.84109],[137.55987,36.84192],[137.55966,36.84246],[137.55849,36.84448],[137.5574,36.84573],[137.55692,36.84646]],[[137.3196,36.69874],[137.32329,36.69869],[137.3241,36.69885],[137.32692,36.69977]],[[137.32765,36.70001],[137.33099,36.70113],[137.33503,36.7019]],[[137.30611,36.70566],[137.30372,36.70569],[137.30061,36.70541],[137.29145,36.70342]],[[137.32692,36.69977],[137.32765,36.70001]],[[137.33478,36.75515],[137.336,36.75305],[137.33693,36.75166],[137.34,36.74663]],[[137.3196,36.69874],[137.31858,36.69894]],[[137.45051,36.87461],[137.45131,36.87474]],[[137.36158,36.77744],[137.3623,36.77787]],[[137.34043,36.74605],[137.34171,36.74474],[137.35096,36.73689],[137.35122,36.73634],[137.35112,36.73576]],[[137.54104,36.85783],[137.53744,36.85876],[137.53566,36.85909],[137.53417,36.85914],[137.53336,36.85942]],[[137.49363,36.87118],[137.49861,36.8715],[137.4996,36.87146],[137.50116,36.87117],[137.50558,36.86988]],[[137.35105,36.71767],[137.35114,36.71695]],[[137.58395,36.81574],[137.58322,36.81597]],[[137.35532,36.70459],[137.35666,36.70449]],[[137.55375,36.85543],[137.55468,36.85295],[137.55515,36.85022],[137.55535,36.84968],[137.55659,36.84718]],[[137.35105,36.71767],[137.34944,36.7303],[137.34946,36.73102],[137.35082,36.73492]],[[137.54182,36.85763],[137.54104,36.85783]],[[137.34847,36.76882],[137.34916,36.76936]],[[137.54182,36.85763],[137.54319,36.85729],[137.54442,36.85719],[137.54521,36.85734],[137.54643,36.85802],[137.54707,36.85824],[137.54787,36.8583],[137.54904,36.85821],[137.55119,36.85776],[137.55265,36.85724],[137.55313,36.85684],[137.55347,36.85612]],[[137.31813,36.69925],[137.3178,36.69963],[137.31694,36.70032],[137.30707,36.70537]],[[137.31858,36.69894],[137.31813,36.69925]],[[137.30707,36.70537],[137.30611,36.70566]],[[137.3948,36.80407],[137.39444,36.80347]],[[137.35114,36.71695],[137.35148,36.71452],[137.35351,36.70608],[137.35374,36.7055],[137.35399,36.7052],[137.35476,36.70474],[137.35532,36.70459]],[[137.40514,36.82637],[137.40485,36.82509],[137.40442,36.82406],[137.40049,36.81563]],[[137.48615,36.87184],[137.48714,36.87129],[137.48817,36.87095],[137.49281,36.87111]],[[137.42335,36.86621],[137.42448,36.86907],[137.42541,36.87038],[137.42676,36.87168],[137.42794,36.87242],[137.4289,36.87284],[137.43055,36.87337],[137.43403,36.87382],[137.44376,36.87406]],[[137.49281,36.87111],[137.49363,36.87118]],[[137.44457,36.87405],[137.44587,36.87404],[137.45051,36.87461]],[[137.50635,36.86967],[137.50998,36.86868],[137.51253,36.86789],[137.51448,36.86678],[137.51915,36.86359]],[[137.42304,36.86552],[137.42335,36.86621]],[[137.45131,36.87474],[137.45676,36.87548],[137.45755,36.87546],[137.45884,36.87515]],[[137.4054,36.82696],[137.40514,36.82637]],[[137.53336,36.85942],[137.53261,36.8598]],[[137.34,36.74663],[137.34043,36.74605]],[[137.29145,36.70342],[137.29018,36.7033]],[[137.55692,36.84646],[137.55659,36.84718]],[[137.47035,36.87355],[137.47115,36.8735]],[[137.48554,36.87219],[137.48615,36.87184]],[[137.33593,36.70206],[137.33503,36.7019]],[[137.50558,36.86988],[137.50635,36.86967]],[[137.47115,36.8735],[137.4757,36.87324],[137.4807,36.87306]],[[137.41602,36.84846],[137.41636,36.8492]],[[137.33443,36.75589],[137.33444,36.75672],[137.3348,36.75745],[137.33519,36.75798],[137.33672,36.75935],[137.33956,36.76161]],[[137.58322,36.81597],[137.58225,36.8161],[137.58025,36.81616],[137.57512,36.81768],[137.57491,36.81781],[137.57418,36.81868],[137.57351,36.81965],[137.57266,36.82159],[137.57181,36.82228],[137.5702,36.82403],[137.56794,36.82614],[137.56713,36.82702],[137.56393,36.83125],[137.56373,36.83171],[137.56361,36.83344],[137.56333,36.83398],[137.56283,36.83446],[137.56123,36.83546],[137.56081,36.8359],[137.56066,36.8362],[137.56058,36.83775],[137.55994,36.83976],[137.5599,36.84039]],[[137.38225,36.79049],[137.37188,36.7839]],[[137.45884,36.87515],[137.45968,36.87491]],[[137.4054,36.82696],[137.4059,36.82767],[137.4083,36.83215],[137.41602,36.84846]],[[137.34916,36.76936],[137.35172,36.77131],[137.36158,36.77744]],[[137.44376,36.87406],[137.44457,36.87405]],[[137.3623,36.77787],[137.37132,36.78355]],[[137.3575,36.70446],[137.35666,36.70449]],[[137.45968,36.87491],[137.46149,36.87464],[137.46597,36.87462],[137.46886,36.87379],[137.47035,36.87355]],[[137.37188,36.7839],[137.37132,36.78355]],[[137.33956,36.76161],[137.34029,36.76221]],[[137.33478,36.75515],[137.33443,36.75589]],[[137.41636,36.8492],[137.41789,36.85277],[137.41985,36.85776],[137.42304,36.86552]],[[137.34029,36.76221],[137.34847,36.76882]],[[137.51988,36.86324],[137.52103,36.86293],[137.5262,36.862],[137.53094,36.86052],[137.53261,36.8598]],[[137.39444,36.80347],[137.39367,36.80215],[137.3934,36.80142],[137.39341,36.80052],[137.39367,36.79941],[137.39359,36.79895],[137.39341,36.79848],[137.39315,36.79808],[137.39206,36.79676],[137.39085,36.79561],[137.3899,36.79497],[137.38626,36.79265],[137.38293,36.79089]],[[137.38293,36.79089],[137.38225,36.79049]],[[137.4002,36.81499],[137.396,36.80592],[137.3948,36.80407]],[[137.55375,36.85543],[137.55347,36.85612]],[[137.21431,36.6998],[137.21382,36.70001]],[[137.21611,36.69838],[137.21612,36.69882]],[[137.21567,36.6894],[137.21568,36.68964]],[[137.23214,36.69694],[137.23325,36.69709],[137.23598,36.69766],[137.24064,36.6979]],[[137.21612,36.69882],[137.21606,36.69901],[137.2159,36.69915],[137.21431,36.6998]],[[137.21607,36.69768],[137.21611,36.69838]],[[137.23214,36.69694],[137.23125,36.69698]],[[137.21595,36.69479],[137.21606,36.69725]],[[137.21606,36.69725],[137.21607,36.69768]],[[137.21579,36.69171],[137.21592,36.69436]],[[137.21492,36.70045],[137.21636,36.69987],[137.21794,36.69944],[137.22025,36.69847],[137.22119,36.69817],[137.22289,36.69801],[137.22615,36.69838],[137.22694,36.69837],[137.22786,36.69817],[137.23053,36.6971]],[[137.23053,36.6971],[137.23125,36.69698]],[[137.2667,36.6991],[137.28094,36.70283],[137.28369,36.70308],[137.29018,36.7033]],[[137.25254,36.69877],[137.25348,36.69865]],[[137.21576,36.68616],[137.21575,36.68662]],[[137.2667,36.6991],[137.26573,36.69883]],[[137.21568,36.68899],[137.21567,36.6894]],[[137.21576,36.69127],[137.21579,36.69171]],[[137.25348,36.69865],[137.25887,36.69868],[137.26195,36.69825],[137.26296,36.69823],[137.26343,36.69828],[137.26573,36.69883]],[[137.21575,36.68662],[137.21568,36.68899]],[[137.21456,36.70059],[137.21492,36.70045]],[[137.21592,36.69436],[137.21595,36.69479]],[[137.21946,36.67531],[137.21929,36.67561]],[[137.21929,36.67561],[137.21791,36.67832]],[[137.22078,36.67287],[137.22125,36.67171],[137.22055,36.67081]],[[137.21791,36.67832],[137.21771,36.67872]],[[137.21771,36.67872],[137.21674,36.68066]],[[137.21674,36.68066],[137.21656,36.68106]],[[137.22078,36.67287],[137.22057,36.67325]],[[137.22057,36.67325],[137.21946,36.67531]],[[137.21656,36.68106],[137.21606,36.68257],[137.21587,36.68341]],[[137.21587,36.68388],[137.21576,36.68616]],[[137.21979,36.66972],[137.22027,36.67043]],[[137.21587,36.68341],[137.21587,36.68388]],[[137.22027,36.67043],[137.22055,36.67081]],[[137.24153,36.69793],[137.24352,36.69805],[137.24633,36.69835],[137.25045,36.69912],[137.25149,36.69905],[137.25254,36.69877]],[[137.24064,36.6979],[137.24153,36.69793]],[[137.21569,36.68994],[137.21576,36.69127]],[[137.21568,36.68964],[137.21569,36.68994]],[[137.34221,36.70314],[137.34244,36.70318]],[[137.34244,36.70318],[137.35106,36.70464],[137.35272,36.70468],[137.35532,36.70459]],[[137.4807,36.87306],[137.48173,36.87303]],[[137.48173,36.87303],[137.4836,36.8729],[137.48466,36.87261],[137.48554,36.87219]]]}}