{"type":"Feature","properties":{"id":"富士急行_河口湖線","name":"河口湖線","operator":"富士急行","railType":"普通鉄道","operatorType":"民営","category":"rail","attribution":"国土数値情報（鉄道データ）国土交通省"},"geometry":{"type":"MultiLineString","coordinates":[[[138.7951,35.48357],[138.79457,35.48361]],[[138.79154,35.48391],[138.79457,35.48361]],[[138.79154,35.48391],[138.79008,35.48405],[138.78895,35.48428],[138.78755,35.48483],[138.78611,35.4858],[138.7831,35.48866],[138.78211,35.48939]],[[138.78211,35.48939],[138.78143,35.48973]],[[138.77005,35.49793],[138.76871,35.49803]],[[138.78143,35.48973],[138.77711,35.4917],[138.77647,35.49217],[138.77599,35.49266],[138.77415,35.49554],[138.77316,35.49661],[138.77245,35.49714],[138.77173,35.49751],[138.77083,35.49781],[138.77005,35.49793]]]}}