{"type":"Feature","properties":{"id":"小湊鐵道_小湊鐵道線","name":"小湊鐵道線","operator":"小湊鐵道","railType":"普通鉄道","operatorType":"民営","category":"rail","attribution":"国土数値情報（鉄道データ）国土交通省"},"geometry":{"type":"MultiLineString","coordinates":[[[140.14559,35.33752],[140.14621,35.33964],[140.14684,35.34355],[140.14848,35.34747],[140.14921,35.35146],[140.14954,35.35214],[140.15004,35.35282]],[[140.11456,35.42404],[140.11209,35.42831],[140.11188,35.42887],[140.11174,35.42969],[140.11407,35.43919]],[[140.1149,35.42348],[140.11456,35.42404]],[[140.13927,35.30189],[140.13994,35.30237]],[[140.13994,35.30237],[140.14102,35.30317],[140.14146,35.30363],[140.14165,35.30393],[140.14179,35.30437],[140.14181,35.30486],[140.14149,35.30578],[140.14056,35.30713],[140.13988,35.30837],[140.13938,35.30972],[140.13934,35.31392],[140.13952,35.31469],[140.13993,35.31541],[140.14241,35.31768],[140.14281,35.31829],[140.14291,35.31873],[140.14287,35.31932],[140.14257,35.32018]],[[140.19921,35.25022],[140.19627,35.25121],[140.19046,35.25334],[140.18862,35.25416],[140.18693,35.25514],[140.18403,35.25759],[140.18284,35.2582],[140.17966,35.25912],[140.1776,35.2601],[140.177,35.2602],[140.17444,35.26032],[140.17363,35.26046],[140.17249,35.26094],[140.17049,35.26205],[140.16816,35.26239],[140.16738,35.26259],[140.15975,35.2662]],[[140.14266,35.40011],[140.14195,35.40029]],[[140.14551,35.28338],[140.14635,35.28334]],[[140.16529,35.38107],[140.16568,35.38022],[140.16586,35.3793],[140.16586,35.37838],[140.16555,35.37776],[140.1646,35.37673],[140.16357,35.3759],[140.16075,35.37465],[140.15995,35.37418],[140.15871,35.37275],[140.15614,35.369],[140.15557,35.36838],[140.15474,35.36771]],[[140.14219,35.32083],[140.14182,35.32151],[140.14167,35.32206],[140.14176,35.32321],[140.14198,35.32412],[140.1423,35.3248],[140.14457,35.32861],[140.14465,35.32906],[140.1445,35.33173],[140.14503,35.33343],[140.1452,35.33431],[140.14519,35.33507],[140.14546,35.33694]],[[140.14257,35.32018],[140.14219,35.32083]],[[140.12684,35.46558],[140.12789,35.45934],[140.12627,35.45443]],[[140.11407,35.43919],[140.11426,35.43995]],[[140.1149,35.42348],[140.11687,35.42008],[140.11759,35.41919],[140.11822,35.41868],[140.12174,35.4169],[140.12197,35.41669],[140.1273,35.40618],[140.12787,35.40518],[140.12816,35.40479],[140.13097,35.40201],[140.13176,35.4015],[140.13221,35.40131],[140.1328,35.4012],[140.13361,35.40118],[140.1362,35.40143],[140.13699,35.40143],[140.14195,35.40029]],[[140.12606,35.45377],[140.1253,35.45149],[140.12505,35.45096],[140.12174,35.44724],[140.12128,35.44685],[140.11564,35.44352],[140.11496,35.44257],[140.11426,35.43995]],[[140.19998,35.24986],[140.19921,35.25022]],[[140.14266,35.40011],[140.1461,35.39912],[140.14716,35.39859],[140.14799,35.3979],[140.14821,35.39752],[140.14837,35.39692],[140.14833,35.39564],[140.14755,35.3924],[140.14651,35.39053],[140.14641,35.39014],[140.14645,35.38961],[140.14667,35.38912],[140.14714,35.38848],[140.14792,35.38799],[140.14876,35.38788],[140.15068,35.38802]],[[140.12684,35.46558],[140.12667,35.46626]],[[140.15135,35.38809],[140.15068,35.38802]],[[140.15051,35.35335],[140.15004,35.35282]],[[140.15135,35.38809],[140.15426,35.38826],[140.15533,35.38801],[140.15593,35.38768],[140.15756,35.38651],[140.16214,35.38307],[140.16277,35.3827],[140.16389,35.3822],[140.16477,35.3816]],[[140.16477,35.3816],[140.16529,35.38107]],[[140.15904,35.2666],[140.1557,35.26866],[140.15353,35.26973],[140.15256,35.27052],[140.15208,35.27148],[140.15173,35.27274],[140.15137,35.27368],[140.15035,35.27532],[140.15017,35.2759],[140.15021,35.27635],[140.15034,35.27668],[140.15135,35.27824],[140.15146,35.27894],[140.15131,35.27942],[140.15106,35.2798],[140.14862,35.28264],[140.14776,35.28312],[140.14635,35.28334]],[[140.12466,35.48152],[140.12551,35.48093],[140.12604,35.48034],[140.12612,35.48012],[140.12612,35.47955],[140.12577,35.47824],[140.12507,35.47617],[140.12502,35.47576],[140.12667,35.46626]],[[140.15975,35.2662],[140.15904,35.2666]],[[140.13927,35.30189],[140.1374,35.30055],[140.13701,35.30013],[140.13674,35.29941],[140.13682,35.29877],[140.13707,35.29805],[140.138,35.29614],[140.13842,35.29486],[140.13906,35.29367],[140.14011,35.29131],[140.14202,35.28912],[140.14263,35.28796],[140.14271,35.28755],[140.14274,35.28524],[140.14292,35.28462],[140.1431,35.28433],[140.14374,35.2838],[140.14445,35.28353],[140.14551,35.28338]],[[140.15051,35.35335],[140.15198,35.35504],[140.1532,35.35662],[140.1535,35.35719],[140.15377,35.35818],[140.15411,35.35972],[140.15412,35.36045],[140.15268,35.36385],[140.1525,35.36446],[140.15251,35.36483],[140.15268,35.36539],[140.15299,35.3659],[140.15375,35.36687],[140.15415,35.3672]],[[140.12606,35.45377],[140.12627,35.45443]],[[140.12466,35.48152],[140.12394,35.48194]],[[140.15415,35.3672],[140.15474,35.36771]],[[140.14546,35.33694],[140.14559,35.33752]],[[140.10019,35.49647],[140.09938,35.49759],[140.09867,35.49839],[140.09793,35.49905],[140.08796,35.50628],[140.08729,35.50686],[140.08687,35.50747],[140.08663,35.50801],[140.08647,35.50899],[140.08653,35.50956],[140.08688,35.51046],[140.08721,35.51091],[140.08849,35.51218]],[[140.10066,35.49577],[140.10019,35.49647]],[[140.10066,35.49577],[140.10448,35.48999],[140.1052,35.48943],[140.10642,35.48909],[140.11211,35.48874],[140.11298,35.48853],[140.11459,35.48771],[140.12394,35.48194]],[[140.08849,35.51218],[140.091,35.51405]]]}}