{"type":"Feature","properties":{"id":"小田急電鉄_小田原線","name":"小田原線","operator":"小田急電鉄","railType":"普通鉄道","operatorType":"民営","category":"rail","attribution":"国土数値情報（鉄道データ）国土交通省"},"geometry":{"type":"MultiLineString","coordinates":[[[139.69817,35.68316],[139.69913,35.68395]],[[139.69964,35.69047],[139.69978,35.68939],[139.70014,35.68823],[139.70074,35.68672],[139.70086,35.686],[139.70064,35.68536],[139.70038,35.685],[139.69913,35.68395]],[[139.66667,35.66095],[139.66802,35.66194]],[[139.69388,35.67908],[139.69509,35.68067],[139.69817,35.68316]],[[139.68843,35.66945],[139.68883,35.66957],[139.68964,35.67007]],[[139.67354,35.6658],[139.67422,35.66624],[139.67877,35.66849]],[[139.69329,35.67813],[139.69388,35.67908]],[[139.68843,35.66945],[139.68807,35.6694],[139.68606,35.6697]],[[139.68964,35.67007],[139.69014,35.67084],[139.69077,35.67314],[139.69125,35.67443],[139.69196,35.67584],[139.69329,35.67813]],[[139.69971,35.69189],[139.69964,35.69047]],[[139.66802,35.66194],[139.67254,35.66508]],[[139.67254,35.66508],[139.67354,35.6658]],[[139.681,35.66954],[139.68228,35.66999],[139.68332,35.67021],[139.68417,35.67019],[139.68606,35.6697]],[[139.67877,35.66849],[139.681,35.66954]],[[139.63778,35.65151],[139.63557,35.65087]],[[139.65434,35.65624],[139.66076,35.65814]],[[139.66076,35.65814],[139.66244,35.65857]],[[139.6481,35.65411],[139.65016,35.65503],[139.65276,35.6558]],[[139.65434,35.65624],[139.65276,35.6558]],[[139.63557,35.65087],[139.62533,35.64791]],[[139.66244,35.65857],[139.6638,35.65903],[139.66667,35.66095]],[[139.62533,35.64791],[139.62373,35.64744]],[[139.6481,35.65411],[139.64706,35.6537],[139.64607,35.65344]],[[139.63778,35.65151],[139.63925,35.65192],[139.64607,35.65344]],[[139.51514,35.60866],[139.51702,35.60939]],[[139.57331,35.6268],[139.57413,35.62803]],[[139.56975,35.62136],[139.57331,35.6268]],[[139.48078,35.5829],[139.47901,35.58243],[139.47734,35.58166],[139.47588,35.58033],[139.47286,35.57544],[139.47209,35.5743],[139.46962,35.57129],[139.46847,35.56956],[139.46771,35.56806],[139.46713,35.5672],[139.46634,35.56647],[139.46498,35.56558],[139.46393,35.56428]],[[139.58554,35.63613],[139.58802,35.63686]],[[139.52902,35.61463],[139.53226,35.6145],[139.53931,35.61467],[139.54065,35.61482]],[[139.49799,35.59023],[139.49983,35.59367],[139.50006,35.59424],[139.50064,35.59677],[139.50112,35.59791],[139.50196,35.59916],[139.50288,35.60006]],[[139.54065,35.61482],[139.54295,35.61506]],[[139.61064,35.64351],[139.62373,35.64744]],[[139.52706,35.61484],[139.52902,35.61463]],[[139.57807,35.63283],[139.57932,35.63374],[139.58084,35.63461],[139.58239,35.63522],[139.58554,35.63613]],[[139.56567,35.61773],[139.5671,35.6184],[139.56767,35.61878],[139.56827,35.61937],[139.56878,35.62007]],[[139.57669,35.63162],[139.57807,35.63283]],[[139.44575,35.54471],[139.44442,35.54312]],[[139.51702,35.60939],[139.5192,35.61039],[139.51983,35.61077],[139.52042,35.61122],[139.52123,35.612],[139.52239,35.61335],[139.52321,35.61403],[139.5238,35.61437],[139.52478,35.61473],[139.52529,35.61483],[139.52619,35.61489],[139.52706,35.61484]],[[139.49711,35.58891],[139.49799,35.59023]],[[139.46393,35.56428],[139.46295,35.56274]],[[139.54295,35.61506],[139.54806,35.61552],[139.55976,35.6156],[139.56049,35.61568],[139.56131,35.61589],[139.56355,35.61683]],[[139.57413,35.62803],[139.57588,35.63061],[139.57669,35.63162]],[[139.60895,35.64302],[139.61064,35.64351]],[[139.6002,35.64046],[139.60895,35.64302]],[[139.56878,35.62007],[139.56975,35.62136]],[[139.46295,35.56274],[139.46254,35.56206],[139.46218,35.56123],[139.46162,35.55921],[139.4615,35.55829],[139.4614,35.55572],[139.46126,35.55488],[139.46068,35.55367],[139.45964,35.55216],[139.45837,35.55118],[139.45712,35.5506],[139.45337,35.55008],[139.45235,35.54982],[139.45143,35.54944],[139.44913,35.54793],[139.44758,35.54678],[139.44642,35.54561],[139.44575,35.54471]],[[139.50828,35.60435],[139.51073,35.60642],[139.51224,35.60756],[139.51514,35.60866]],[[139.58802,35.63686],[139.59796,35.63981]],[[139.56355,35.61683],[139.56567,35.61773]],[[139.48287,35.58332],[139.49043,35.58489],[139.49151,35.58523],[139.49403,35.58626],[139.49523,35.58698],[139.49592,35.58753],[139.49711,35.58891]],[[139.59796,35.63981],[139.6002,35.64046]],[[139.48287,35.58332],[139.48078,35.5829]],[[139.50288,35.60006],[139.50667,35.60306]],[[139.50667,35.60306],[139.50828,35.60435]],[[139.42242,35.51486],[139.40909,35.49995]],[[139.44442,35.54312],[139.44345,35.54183],[139.44314,35.54129],[139.44224,35.53785],[139.44175,35.53671],[139.43879,35.53329]],[[139.39991,35.48025],[139.4,35.478],[139.39991,35.47613],[139.39877,35.46283],[139.39866,35.46226],[139.39823,35.46135],[139.39506,35.4564],[139.39421,35.45548],[139.39182,35.45355]],[[139.3652,35.43986],[139.36625,35.44047],[139.36738,35.44084],[139.37027,35.44152],[139.37752,35.44297]],[[139.42363,35.51625],[139.42242,35.51486]],[[139.36355,35.43856],[139.3652,35.43986]],[[139.37752,35.44297],[139.3783,35.44316]],[[139.43698,35.53111],[139.43569,35.52987],[139.42363,35.51625]],[[139.408,35.49877],[139.40215,35.49176],[139.40035,35.48939],[139.40002,35.48853],[139.3998,35.48721],[139.39986,35.48173]],[[139.40909,35.49995],[139.408,35.49877]],[[139.39986,35.48173],[139.39991,35.48025]],[[139.3901,35.45212],[139.38065,35.44434],[139.37938,35.44356],[139.3783,35.44316]],[[139.39182,35.45355],[139.3901,35.45212]],[[139.15154,35.28547],[139.15237,35.28467]],[[139.27125,35.37317],[139.27063,35.37266]],[[139.1856,35.3739],[139.18339,35.37419]],[[139.2779,35.38099],[139.2836,35.38333],[139.29816,35.38857],[139.3132,35.3958]],[[139.13063,35.33758],[139.13114,35.33907],[139.13174,35.33989],[139.13598,35.34304]],[[139.14491,35.2974],[139.14541,35.29614]],[[139.31439,35.39638],[139.3132,35.3958]],[[139.13567,35.32681],[139.13595,35.32618]],[[139.34465,35.41817],[139.3495,35.42189],[139.35022,35.42252],[139.35289,35.42666],[139.35435,35.42908],[139.35499,35.42994],[139.35664,35.43156],[139.36221,35.43739],[139.36277,35.43795],[139.36355,35.43856]],[[139.15237,35.28467],[139.15456,35.28261],[139.15487,35.28223],[139.1552,35.28139],[139.15528,35.28082],[139.15525,35.28018],[139.15441,35.27404],[139.15447,35.27212]],[[139.13063,35.33758],[139.13099,35.3366],[139.13567,35.32681]],[[139.2779,35.38099],[139.27666,35.38026]],[[139.27125,35.37317],[139.27205,35.37405],[139.27621,35.37976],[139.27666,35.38026]],[[139.22685,35.36956],[139.22531,35.37058]],[[139.13595,35.32618],[139.14163,35.3142],[139.14227,35.31229],[139.14252,35.31096]],[[139.31439,35.39638],[139.31806,35.39822],[139.31898,35.3988],[139.33423,35.40925],[139.335,35.41],[139.33664,35.41213],[139.33743,35.41293],[139.34119,35.41545],[139.34366,35.41737]],[[139.14541,35.29614],[139.14783,35.29012],[139.1486,35.2886],[139.14947,35.28739],[139.15154,35.28547]],[[139.18339,35.37419],[139.17622,35.37437],[139.17095,35.37547],[139.17027,35.37547],[139.1693,35.3752],[139.16652,35.3734],[139.16557,35.37263],[139.16389,35.37087],[139.16342,35.37027],[139.16319,35.36984],[139.1629,35.36879],[139.16254,35.36645],[139.16217,35.36581],[139.16154,35.36529],[139.15991,35.36427],[139.15935,35.36376],[139.159,35.36315],[139.15881,35.36231],[139.15879,35.3619],[139.15887,35.36154],[139.1599,35.35966],[139.16012,35.35889],[139.1602,35.35814],[139.15996,35.35737],[139.15861,35.35582],[139.15786,35.35521],[139.156,35.35403],[139.15532,35.35347],[139.15307,35.35014],[139.15013,35.34756],[139.1495,35.34715],[139.14883,35.34681],[139.14808,35.34655],[139.14477,35.34634],[139.14403,35.34622],[139.14257,35.34588],[139.14122,35.34537]],[[139.13598,35.34304],[139.13878,35.34432]],[[139.14252,35.31096],[139.14263,35.31034]],[[139.22531,35.37058],[139.2231,35.3719],[139.22187,35.37223],[139.22049,35.37225],[139.21295,35.37202],[139.20031,35.37009],[139.199,35.36999],[139.19825,35.37004],[139.19686,35.37032],[139.18655,35.37366],[139.1856,35.3739]],[[139.22685,35.36956],[139.22765,35.36867],[139.22934,35.36636],[139.23007,35.36582],[139.23075,35.36552],[139.23516,35.36473],[139.23876,35.36485],[139.23986,35.36458],[139.24359,35.36299],[139.24463,35.36285],[139.2455,35.36286],[139.25086,35.36438],[139.26124,35.36765],[139.26317,35.36855],[139.26899,35.37163],[139.27063,35.37266]],[[139.14061,35.34543],[139.14122,35.34537]],[[139.13063,35.33758],[139.13062,35.33809],[139.13073,35.33854],[139.13097,35.33911],[139.13153,35.3399],[139.13495,35.34246],[139.13598,35.34304]],[[139.15447,35.27212],[139.15454,35.27142]],[[139.14012,35.3449],[139.14122,35.34537]],[[139.13878,35.34432],[139.14012,35.3449]],[[139.34465,35.41817],[139.34366,35.41737]],[[139.14263,35.31034],[139.14442,35.29975],[139.14476,35.29787],[139.14491,35.2974]],[[139.15454,35.27142],[139.15544,35.26377],[139.15565,35.26262],[139.15671,35.25956],[139.15697,35.25851],[139.15693,35.2582],[139.1568,35.25794],[139.15595,35.25707]],[[139.15595,35.25707],[139.15491,35.25564]],[[139.43879,35.53329],[139.43698,35.53111]]]}}