{"type":"Feature","properties":{"id":"小田急電鉄_多摩線","name":"多摩線","operator":"小田急電鉄","railType":"普通鉄道","operatorType":"民営","category":"rail","attribution":"国土数値情報（鉄道データ）国土交通省"},"geometry":{"type":"MultiLineString","coordinates":[[[139.47118,35.61275],[139.47032,35.61354]],[[139.42533,35.62527],[139.42342,35.62459]],[[139.42342,35.62459],[139.41911,35.62283],[139.41638,35.6216],[139.41572,35.62121],[139.41483,35.62058],[139.41411,35.61991],[139.41218,35.61732]],[[139.41218,35.61732],[139.41117,35.61581]],[[139.50667,35.60306],[139.50828,35.60435]],[[139.49407,35.6],[139.4927,35.60046]],[[139.48074,35.60605],[139.47689,35.60826],[139.47558,35.6091],[139.47411,35.61018],[139.47118,35.61275]],[[139.44696,35.63024],[139.44524,35.63063],[139.44383,35.63078],[139.4426,35.63074],[139.44084,35.63042],[139.43135,35.62757],[139.42875,35.62667],[139.42533,35.62527]],[[139.46423,35.6191],[139.45953,35.62342],[139.45683,35.62603],[139.4553,35.62716],[139.45394,35.62795],[139.44916,35.62959]],[[139.48185,35.60545],[139.48074,35.60605]],[[139.46423,35.6191],[139.46574,35.61771]],[[139.47032,35.61354],[139.46574,35.61771]],[[139.4927,35.60046],[139.48788,35.60222],[139.48458,35.60391],[139.48185,35.60545]],[[139.44916,35.62959],[139.44696,35.63024]],[[139.49407,35.6],[139.49699,35.59901],[139.49786,35.59889],[139.49904,35.59886],[139.50008,35.59895],[139.50103,35.5992],[139.50288,35.60006]],[[139.50288,35.60006],[139.50667,35.60306]]]}}