{"type":"Feature","properties":{"id":"山万_ユーカリが丘線","name":"ユーカリが丘線","operator":"山万","railType":"案内軌条式","operatorType":"民営","category":"agt","attribution":"国土数値情報（鉄道データ）国土交通省"},"geometry":{"type":"MultiLineString","coordinates":[[[140.15541,35.73788],[140.15562,35.7374],[140.15564,35.73691],[140.15551,35.73626],[140.15373,35.73114]],[[140.15373,35.73109],[140.15379,35.73039]],[[140.15697,35.72252],[140.15647,35.72281],[140.15561,35.72419],[140.15538,35.72486],[140.15519,35.72585]],[[140.14865,35.73262],[140.14891,35.73205],[140.14949,35.73175],[140.15222,35.73151],[140.15339,35.73129],[140.15373,35.73114]],[[140.14854,35.74046],[140.14838,35.73979]],[[140.14844,35.73318],[140.14865,35.73262]],[[140.15511,35.72651],[140.15519,35.72585]],[[140.14838,35.73979],[140.14729,35.73555],[140.14804,35.73413],[140.14844,35.73318]],[[140.15373,35.73114],[140.15373,35.73109]],[[140.15697,35.72252],[140.15698,35.72197]],[[140.15379,35.73039],[140.15491,35.72765],[140.15511,35.72651]],[[140.15541,35.73788],[140.1549,35.7384]],[[140.14854,35.74046],[140.14866,35.7408],[140.14898,35.74107],[140.1496,35.74122],[140.15006,35.74117],[140.15328,35.73995],[140.1549,35.7384]]]}}