{"type":"Feature","properties":{"id":"山形鉄道_フラワー長井線","name":"フラワー長井線","operator":"山形鉄道","railType":"普通鉄道","operatorType":"第三セクター","category":"rail","attribution":"国土数値情報（鉄道データ）国土交通省"},"geometry":{"type":"MultiLineString","coordinates":[[[140.14917,38.04789],[140.14885,38.04657]],[[140.14917,38.04789],[140.15021,38.05213]],[[140.04617,38.05479],[140.0458,38.05515]],[[140.04466,38.05629],[140.0458,38.05515]],[[140.0438,38.05711],[140.0429,38.058]],[[140.03099,38.06888],[140.03698,38.06377],[140.0429,38.058]],[[140.04466,38.05629],[140.0438,38.05711]],[[140.09767,38.1883],[140.09717,38.18777]],[[140.09855,38.05733],[140.09769,38.05724]],[[140.14879,38.05582],[140.1397,38.06901],[140.13945,38.06926],[140.13864,38.06968],[140.13586,38.07066]],[[140.1228,38.06668],[140.12213,38.06623]],[[140.06504,38.05552],[140.06427,38.05536]],[[140.03353,38.10687],[140.0336,38.10619]],[[140.0466,38.16115],[140.04255,38.15408],[140.04211,38.15308],[140.04119,38.15031]],[[140.12213,38.06623],[140.11732,38.06336],[140.11695,38.06321],[140.11067,38.0617],[140.10972,38.06138],[140.10856,38.06064],[140.10652,38.05881],[140.1055,38.05825],[140.1041,38.05795],[140.09855,38.05733]],[[140.04698,38.16185],[140.0466,38.16115]],[[140.02945,38.07627],[140.02877,38.0742],[140.02872,38.07369],[140.02878,38.07339],[140.03041,38.06969],[140.03099,38.06888]],[[140.03283,38.11372],[140.03353,38.10687]],[[140.09717,38.18777],[140.09503,38.18569],[140.09436,38.18527],[140.09326,38.18491],[140.09236,38.18491],[140.09147,38.1851],[140.08685,38.18695],[140.08606,38.1872],[140.0854,38.1873],[140.08405,38.1872],[140.07896,38.18608]],[[140.15021,38.05213],[140.15017,38.05287],[140.14998,38.0538],[140.14964,38.05456],[140.14922,38.05519]],[[140.07126,38.18284],[140.07081,38.1823]],[[140.03275,38.1144],[140.03283,38.11372]],[[140.03452,38.09796],[140.03458,38.09728]],[[140.13474,38.07106],[140.13256,38.07173],[140.13178,38.07188],[140.13079,38.07185],[140.12977,38.07161],[140.12911,38.07124],[140.1228,38.06668]],[[140.09769,38.05724],[140.09497,38.05686],[140.09386,38.05634],[140.0934,38.0559],[140.09317,38.05555],[140.09254,38.05401],[140.09218,38.05342],[140.09123,38.05264],[140.08624,38.0514],[140.08555,38.05132],[140.07905,38.05166],[140.07778,38.05198],[140.07727,38.05222],[140.07331,38.05521],[140.07205,38.05582],[140.07088,38.05617],[140.0697,38.05631],[140.06854,38.05623],[140.06504,38.05552]],[[140.14922,38.05519],[140.14879,38.05582]],[[140.02975,38.07709],[140.02945,38.07627]],[[140.07081,38.1823],[140.06428,38.17328],[140.06384,38.17282],[140.06328,38.17244],[140.0624,38.17211],[140.05842,38.17147],[140.05749,38.17116],[140.05691,38.17085],[140.0518,38.16713],[140.04918,38.16506],[140.04826,38.16394],[140.04698,38.16185]],[[140.035,38.13071],[140.03226,38.12211],[140.03216,38.12155],[140.03217,38.11968],[140.03275,38.1144]],[[140.03523,38.1314],[140.035,38.13071]],[[140.13586,38.07066],[140.13474,38.07106]],[[140.03458,38.09728],[140.03511,38.09279],[140.03502,38.09196],[140.02975,38.07709]],[[140.06427,38.05536],[140.05718,38.05382],[140.05016,38.05354],[140.04915,38.05358],[140.04797,38.05385],[140.04707,38.0542],[140.04617,38.05479]],[[140.04119,38.15031],[140.04099,38.14964]],[[140.04099,38.14964],[140.03523,38.1314]],[[140.0336,38.10619],[140.03452,38.09796]],[[140.07828,38.18593],[140.07533,38.18521],[140.07383,38.18463],[140.07216,38.18367],[140.07126,38.18284]],[[140.07896,38.18608],[140.07828,38.18593]]]}}