{"type":"Feature","properties":{"id":"山陽電気鉄道_網干線","name":"網干線","operator":"山陽電気鉄道","railType":"普通鉄道","operatorType":"民営","category":"rail","attribution":"国土数値情報（鉄道データ）国土交通省"},"geometry":{"type":"MultiLineString","coordinates":[[[134.67512,34.79983],[134.67373,34.8004]],[[134.67581,34.79959],[134.67512,34.79983]],[[134.60149,34.79088],[134.61707,34.79625]],[[134.65079,34.80288],[134.63967,34.79853]],[[134.65165,34.80321],[134.65079,34.80288]],[[134.63967,34.79853],[134.63894,34.79829]],[[134.61707,34.79625],[134.61781,34.7965]],[[134.67373,34.8004],[134.66546,34.8041],[134.66432,34.80452],[134.66321,34.80474],[134.66161,34.80474],[134.65445,34.80406],[134.65357,34.80387],[134.65165,34.80321]],[[134.61781,34.7965],[134.62093,34.79754],[134.62185,34.79776],[134.6232,34.79791],[134.62715,34.79791]],[[134.60066,34.7906],[134.60149,34.79088]],[[134.62798,34.7979],[134.62715,34.79791]],[[134.63894,34.79829],[134.63796,34.79805],[134.63675,34.79792],[134.62798,34.7979]],[[134.58859,34.78711],[134.58952,34.78752],[134.59584,34.78909],[134.59908,34.79003],[134.60066,34.7906]],[[134.58778,34.78674],[134.58859,34.78711]]]}}