{"type":"Feature","properties":{"id":"岡山電気軌道_東山本線","name":"東山本線","operator":"岡山電気軌道","railType":"軌道","operatorType":"民営","category":"tram","attribution":"国土数値情報（鉄道データ）国土交通省"},"geometry":{"type":"MultiLineString","coordinates":[[[133.91996,34.66551],[133.9194,34.66551]],[[133.93871,34.65617],[133.93792,34.65617],[133.93779,34.65625],[133.93772,34.65651],[133.93805,34.65725],[133.93785,34.65746]],[[133.93728,34.65755],[133.93684,34.6576]],[[133.94271,34.65618],[133.93927,34.65618]],[[133.92301,34.66554],[133.91996,34.66551]],[[133.93058,34.65842],[133.93057,34.65888]],[[133.94325,34.65618],[133.94271,34.65618]],[[133.9256,34.66554],[133.92506,34.66554]],[[133.93634,34.65766],[133.93066,34.65828],[133.93058,34.65842]],[[133.93057,34.65888],[133.9305,34.66244]],[[133.9305,34.66244],[133.93051,34.66291]],[[133.93927,34.65618],[133.93871,34.65617]],[[133.92616,34.66555],[133.9256,34.66554]],[[133.92949,34.66556],[133.92616,34.66555]],[[133.93004,34.66557],[133.92949,34.66556]],[[133.93785,34.65746],[133.93728,34.65755]],[[133.92506,34.66554],[133.92356,34.66554]],[[133.93051,34.66291],[133.93041,34.66545],[133.93033,34.66556],[133.93004,34.66557]],[[133.93634,34.65766],[133.93684,34.6576]],[[133.92356,34.66554],[133.92301,34.66554]]]}}