{"type":"Feature","properties":{"id":"岳南電車_岳南線","name":"岳南線","operator":"岳南電車","railType":"普通鉄道","operatorType":"民営","category":"rail","attribution":"国土数値情報（鉄道データ）国土交通省"},"geometry":{"type":"MultiLineString","coordinates":[[[138.69023,35.15755],[138.69213,35.15529],[138.69243,35.15487],[138.69254,35.1545],[138.69251,35.15361],[138.69207,35.15266],[138.69104,35.14782],[138.69099,35.14735],[138.69116,35.14674],[138.69139,35.14636],[138.6921,35.14594],[138.69507,35.14534],[138.70088,35.14439]],[[138.71319,35.16151],[138.71167,35.16187],[138.71092,35.16227],[138.71065,35.16254],[138.70961,35.16436],[138.70856,35.16515],[138.7073,35.16553],[138.705,35.16605]],[[138.73431,35.16039],[138.73353,35.16055]],[[138.68985,35.15797],[138.69023,35.15755]],[[138.74264,35.16103],[138.7418,35.16096],[138.73906,35.15995],[138.73835,35.15984],[138.73698,35.15993],[138.73431,35.16039]],[[138.69239,35.16201],[138.69113,35.16182],[138.69058,35.1615],[138.69,35.16099]],[[138.71406,35.16145],[138.71319,35.16151]],[[138.73353,35.16055],[138.72773,35.16175],[138.72479,35.16111],[138.7238,35.16098]],[[138.72298,35.16092],[138.71916,35.16122],[138.71406,35.16145]],[[138.7238,35.16098],[138.72298,35.16092]],[[138.70088,35.14439],[138.70159,35.14449]],[[138.7042,35.16613],[138.70327,35.16602],[138.7027,35.16583],[138.70226,35.16551],[138.70178,35.16508],[138.70134,35.16449],[138.70063,35.1633],[138.6994,35.16189],[138.69892,35.16151],[138.69834,35.16132],[138.69717,35.16129],[138.69599,35.16146],[138.6951,35.16168],[138.69323,35.16193]],[[138.69,35.16099],[138.68946,35.16055]],[[138.7434,35.16093],[138.74383,35.16086],[138.74423,35.16067],[138.74477,35.16027],[138.74619,35.15867],[138.74738,35.15717],[138.74784,35.15676],[138.74884,35.15627],[138.75136,35.15539]],[[138.75136,35.15539],[138.7523,35.1551]],[[138.69323,35.16193],[138.69239,35.16201]],[[138.68946,35.16055],[138.68913,35.16008],[138.68906,35.15925],[138.68933,35.15854],[138.68985,35.15797]],[[138.7434,35.16093],[138.74264,35.16103]],[[138.705,35.16605],[138.7042,35.16613]]]}}