{"type":"Feature","properties":{"id":"島原鉄道_島原鉄道線","name":"島原鉄道線","operator":"島原鉄道","railType":"普通鉄道","operatorType":"民営","category":"rail","attribution":"国土数値情報（鉄道データ）国土交通省"},"geometry":{"type":"MultiLineString","coordinates":[[[130.3094,32.87161],[130.30829,32.87217]],[[130.17063,32.83004],[130.16983,32.83014]],[[130.19048,32.84069],[130.19168,32.84155],[130.19239,32.84217],[130.19926,32.85021],[130.20006,32.85083],[130.20095,32.8512],[130.20242,32.85149],[130.20479,32.85151],[130.20725,32.85273],[130.20923,32.85329],[130.20967,32.85363],[130.21121,32.85543],[130.21187,32.85582],[130.21299,32.85621]],[[130.3574,32.81461],[130.35688,32.81534]],[[130.1352,32.83426],[130.13425,32.83474],[130.13346,32.83492],[130.11622,32.8347],[130.11505,32.83473],[130.11411,32.83487]],[[130.37536,32.77551],[130.37579,32.77609]],[[130.27026,32.87164],[130.2694,32.87145]],[[130.11411,32.83487],[130.11288,32.83514]],[[130.14908,32.8231],[130.14916,32.82379]],[[130.1563,32.81901],[130.1553,32.81874]],[[130.35688,32.81534],[130.35618,32.81637],[130.35597,32.81687],[130.35559,32.81842],[130.35497,32.81983],[130.35203,32.8251],[130.35047,32.82769],[130.34999,32.82868],[130.34977,32.82925],[130.3499,32.83062],[130.34984,32.83107],[130.34963,32.8317],[130.34925,32.83217],[130.34836,32.83302],[130.34776,32.8339]],[[130.22596,32.86061],[130.22685,32.86156],[130.22774,32.86314],[130.22834,32.86372],[130.22927,32.86419],[130.23245,32.86489],[130.23323,32.86517],[130.23847,32.86881],[130.23928,32.86943],[130.24069,32.87073],[130.24277,32.8719],[130.24364,32.87267]],[[130.24444,32.87317],[130.24484,32.87331],[130.24586,32.87347],[130.24725,32.87338],[130.24942,32.87268],[130.25275,32.87209],[130.25461,32.87165],[130.25609,32.87149],[130.25955,32.87132],[130.26132,32.871],[130.26247,32.87096],[130.26377,32.87105],[130.26522,32.87157],[130.26596,32.87166],[130.2694,32.87145]],[[130.16983,32.83014],[130.16867,32.83029],[130.16781,32.83028],[130.16539,32.8298],[130.16495,32.82953],[130.16447,32.82902],[130.16408,32.8284],[130.16302,32.82583],[130.1627,32.82535],[130.16027,32.82275],[130.15845,32.82066],[130.15727,32.81961],[130.1563,32.81901]],[[130.06565,32.83738],[130.06681,32.83712]],[[130.14916,32.82379],[130.14918,32.82437],[130.14907,32.82495],[130.14872,32.8256],[130.14818,32.82615],[130.13588,32.83385]],[[130.1553,32.81874],[130.15431,32.81867],[130.15298,32.8189],[130.15156,32.81947],[130.15037,32.82014],[130.14966,32.82075],[130.14914,32.82163],[130.14901,32.82227],[130.14908,32.8231]],[[130.09267,32.83599],[130.09366,32.83631]],[[130.0412,32.85228],[130.04181,32.85019]],[[130.13588,32.83385],[130.1352,32.83426]],[[130.3745,32.78183],[130.37389,32.78332]],[[130.34468,32.84403],[130.34452,32.84487],[130.34417,32.84567],[130.343,32.84743],[130.34266,32.84782],[130.34209,32.84823],[130.33945,32.84979],[130.33883,32.85026],[130.33824,32.85082],[130.33701,32.85251],[130.33586,32.85355],[130.33481,32.85428],[130.32883,32.8578]],[[130.37579,32.77609],[130.37614,32.77669],[130.37623,32.77711],[130.37616,32.77875],[130.37581,32.77987],[130.37478,32.78128],[130.3745,32.78183]],[[130.34746,32.83459],[130.34719,32.83529],[130.34502,32.83949],[130.34481,32.84055],[130.34476,32.84337]],[[130.24364,32.87267],[130.24444,32.87317]],[[130.21373,32.8565],[130.21537,32.85709],[130.21705,32.85738],[130.21888,32.85814],[130.2201,32.85841],[130.2222,32.85944],[130.22278,32.85959],[130.22425,32.85978],[130.22495,32.85999],[130.22529,32.86019]],[[130.37054,32.76897],[130.37109,32.7694],[130.37163,32.77011],[130.37208,32.77131],[130.37328,32.77306],[130.37361,32.77405],[130.37382,32.7744],[130.37423,32.77483],[130.37536,32.77551]],[[130.37389,32.78332],[130.37262,32.78629],[130.37186,32.78753],[130.37093,32.78885],[130.37069,32.79004]],[[130.37069,32.79004],[130.37052,32.79115]],[[130.30829,32.87217],[130.30168,32.87395],[130.2912,32.87657],[130.29053,32.87668],[130.28879,32.87645],[130.28718,32.87613],[130.28473,32.87523],[130.28353,32.87491],[130.27873,32.8746],[130.27813,32.87448],[130.27772,32.87432],[130.27652,32.87344],[130.27523,32.87274],[130.2748,32.87261],[130.27247,32.87238],[130.27026,32.87164]],[[130.18936,32.84006],[130.19048,32.84069]],[[130.34476,32.84337],[130.34468,32.84403]],[[130.11288,32.83514],[130.10555,32.83726],[130.10352,32.83779],[130.10252,32.83796],[130.10109,32.83802],[130.09905,32.83791],[130.09699,32.83739],[130.09366,32.83631]],[[130.17063,32.83004],[130.17284,32.83],[130.17371,32.83021],[130.17468,32.83078],[130.176,32.83173],[130.17792,32.83345],[130.17932,32.8351],[130.18018,32.8357],[130.18191,32.83656],[130.18748,32.83903],[130.18936,32.84006]],[[130.32883,32.8578],[130.3282,32.85817]],[[130.37052,32.79115],[130.3701,32.79234],[130.36517,32.8024],[130.3574,32.81461]],[[130.06681,32.83712],[130.07053,32.83626],[130.07141,32.83599],[130.07562,32.83393],[130.07677,32.83348],[130.07716,32.83342],[130.07885,32.83348],[130.08536,32.83399]],[[130.34776,32.8339],[130.34746,32.83459]],[[130.0862,32.83406],[130.0875,32.83431],[130.09267,32.83599]],[[130.08536,32.83399],[130.0862,32.83406]],[[130.04244,32.84861],[130.04181,32.85019]],[[130.05238,32.84199],[130.05131,32.84272],[130.05032,32.84321],[130.04834,32.84372],[130.04729,32.84431],[130.04612,32.84472],[130.04358,32.84704],[130.04302,32.8477],[130.04244,32.84861]],[[130.3282,32.85817],[130.32685,32.85922],[130.32242,32.86378],[130.32111,32.86493],[130.31283,32.86945],[130.31112,32.87031],[130.3094,32.87161]],[[130.05309,32.84157],[130.05238,32.84199]],[[130.22529,32.86019],[130.22596,32.86061]],[[130.06565,32.83738],[130.0606,32.83857],[130.05842,32.83961],[130.05745,32.83997],[130.05486,32.84074],[130.05417,32.841],[130.05309,32.84157]],[[130.21299,32.85621],[130.21373,32.8565]],[[130.36968,32.7683],[130.37054,32.76897]]]}}