{"type":"Feature","properties":{"id":"嵯峨野観光鉄道_嵯峨野観光線","name":"嵯峨野観光線","operator":"嵯峨野観光鉄道","railType":"普通鉄道","operatorType":"民営","category":"rail","attribution":"国土数値情報（鉄道データ）国土交通省"},"geometry":{"type":"MultiLineString","coordinates":[[[135.60692,35.01335],[135.60939,35.01595],[135.6119,35.01903],[135.61308,35.02003],[135.61466,35.02162],[135.61511,35.02193],[135.61582,35.0222],[135.61688,35.02245],[135.61877,35.02268],[135.61981,35.02263],[135.62063,35.02245],[135.62103,35.02226],[135.62136,35.02198],[135.62206,35.0209],[135.62232,35.01943],[135.62277,35.01839],[135.62345,35.01777],[135.62392,35.01755],[135.62475,35.01733],[135.62672,35.01707],[135.63188,35.01675],[135.63302,35.01704],[135.63909,35.0198],[135.63953,35.02018],[135.6407,35.02236],[135.64226,35.02331],[135.64577,35.02574]],[[135.67056,35.01693],[135.66943,35.01667],[135.66844,35.0166],[135.66609,35.0174],[135.66544,35.01754],[135.65959,35.01801],[135.65848,35.01845],[135.658,35.01878],[135.65737,35.01958],[135.65634,35.02132],[135.65613,35.02186],[135.6559,35.02434],[135.65579,35.0247],[135.65526,35.02571],[135.6548,35.0262],[135.65412,35.02671],[135.65203,35.02771],[135.65087,35.02796],[135.65024,35.028],[135.64936,35.02788],[135.64867,35.02762],[135.64777,35.02713],[135.6467,35.02639]],[[135.60637,35.01275],[135.60692,35.01335]],[[135.67128,35.0171],[135.67056,35.01693]],[[135.6467,35.02639],[135.64577,35.02574]],[[135.68005,35.01868],[135.67871,35.019]],[[135.67871,35.019],[135.67775,35.01898],[135.67636,35.01875],[135.67238,35.01757]],[[135.67238,35.01757],[135.67128,35.0171]],[[135.68084,35.01853],[135.68005,35.01868]]]}}