{"type":"Feature","properties":{"id":"平成筑豊鉄道_田川線","name":"田川線","operator":"平成筑豊鉄道","railType":"普通鉄道","operatorType":"第三セクター","category":"rail","attribution":"国土数値情報（鉄道データ）国土交通省"},"geometry":{"type":"MultiLineString","coordinates":[[[130.81916,33.64232],[130.81772,33.6421],[130.81638,33.6421]],[[130.83048,33.64825],[130.83004,33.6481],[130.82904,33.64795],[130.82663,33.64778],[130.82545,33.64746],[130.82468,33.64699],[130.82409,33.64647],[130.82073,33.64314],[130.82026,33.64283],[130.81916,33.64232]],[[130.97074,33.72759],[130.96977,33.72991]],[[130.97355,33.72128],[130.972,33.72499],[130.97074,33.72759]],[[130.93963,33.65082],[130.93898,33.65035]],[[130.84134,33.65151],[130.83666,33.65042],[130.83514,33.64993],[130.83127,33.64847]],[[130.88383,33.61273],[130.87808,33.61278],[130.87681,33.613],[130.87598,33.61327],[130.87457,33.61408],[130.8734,33.61516],[130.87271,33.61591],[130.87204,33.61707],[130.87175,33.61804]],[[130.96398,33.67999],[130.96385,33.6793]],[[130.96302,33.68722],[130.96394,33.68281],[130.96408,33.68161],[130.96398,33.67999]],[[130.88479,33.61276],[130.88383,33.61273]],[[130.84272,33.65181],[130.84134,33.65151]],[[130.83048,33.64825],[130.83127,33.64847]],[[130.96541,33.70274],[130.9625,33.69784],[130.96203,33.69673],[130.9617,33.69548],[130.96161,33.69449],[130.96169,33.6935],[130.96287,33.68793]],[[130.96576,33.70335],[130.96541,33.70274]],[[130.96928,33.70946],[130.9689,33.70878]],[[130.89511,33.61586],[130.89186,33.61482],[130.88956,33.61431],[130.886,33.61302],[130.88479,33.61276]],[[130.96385,33.6793],[130.96371,33.67877],[130.96325,33.67773],[130.9624,33.67644],[130.96139,33.67535],[130.9594,33.67346],[130.95631,33.66978],[130.94924,33.66166]],[[130.86406,33.63816],[130.8633,33.63967],[130.86232,33.64246],[130.86162,33.64377],[130.8607,33.64481],[130.85788,33.64764],[130.85614,33.64993],[130.85527,33.65091],[130.85438,33.65152]],[[130.85359,33.65176],[130.85228,33.65185],[130.84937,33.65159],[130.84858,33.6516],[130.84534,33.65214],[130.84386,33.65207],[130.84272,33.65181]],[[130.87158,33.61887],[130.87175,33.61804]],[[130.91767,33.6359],[130.91665,33.63377],[130.91623,33.63251],[130.91592,33.63127],[130.91464,33.6242],[130.91404,33.62288],[130.91317,33.62186],[130.91254,33.62139],[130.91192,33.62107],[130.91021,33.62069],[130.90908,33.62025],[130.90807,33.61968],[130.90692,33.61883],[130.90612,33.61849],[130.9039,33.61811],[130.90127,33.6173],[130.9004,33.61716],[130.89945,33.61714],[130.89891,33.61702],[130.89584,33.61609]],[[130.87158,33.61887],[130.87035,33.62484],[130.86996,33.62586],[130.86934,33.62667],[130.86735,33.62829],[130.86659,33.62905],[130.86617,33.62961],[130.86584,33.6303],[130.86565,33.6314],[130.86535,33.63504],[130.86493,33.63641],[130.86436,33.63756]],[[130.86436,33.63756],[130.86406,33.63816]],[[130.94877,33.66111],[130.94081,33.65194],[130.93963,33.65082]],[[130.89584,33.61609],[130.89511,33.61586]],[[130.96287,33.68793],[130.96302,33.68722]],[[130.91806,33.63653],[130.91767,33.6359]],[[130.96928,33.70946],[130.97247,33.715],[130.97366,33.71721]],[[130.85438,33.65152],[130.85359,33.65176]],[[130.93898,33.65035],[130.938,33.6496],[130.93671,33.64883],[130.92237,33.64072],[130.92161,33.64021],[130.92017,33.63904],[130.91908,33.63785],[130.91806,33.63653]],[[130.94924,33.66166],[130.94877,33.66111]],[[130.9689,33.70878],[130.96576,33.70335]],[[130.97387,33.71789],[130.97398,33.7187],[130.97397,33.71935],[130.97355,33.72128]],[[130.97366,33.71721],[130.97387,33.71789]]]}}