{"type":"Feature","properties":{"id":"平成筑豊鉄道_糸田線","name":"糸田線","operator":"平成筑豊鉄道","railType":"普通鉄道","operatorType":"第三セクター","category":"rail","attribution":"国土数値情報（鉄道データ）国土交通省"},"geometry":{"type":"MultiLineString","coordinates":[[[130.77586,33.68323],[130.77733,33.68226]],[[130.77733,33.68226],[130.78104,33.68008],[130.78214,33.67908],[130.78251,33.67839],[130.78287,33.67665],[130.78317,33.67561]],[[130.79992,33.63095],[130.80051,33.62977]],[[130.79987,33.63107],[130.79992,33.63095]],[[130.79967,33.63188],[130.79987,33.63107]],[[130.78599,33.65625],[130.78653,33.65552],[130.78712,33.65491],[130.78895,33.6536],[130.79091,33.65173],[130.79185,33.65095],[130.79623,33.64833],[130.79709,33.64771]],[[130.78009,33.67241],[130.77983,33.67203],[130.77969,33.67161],[130.77964,33.67073],[130.77976,33.66996],[130.78066,33.66813]],[[130.78317,33.67561],[130.78315,33.675],[130.78303,33.67458],[130.78263,33.67397],[130.78062,33.67281]],[[130.78099,33.6675],[130.78353,33.66233],[130.78363,33.66188],[130.78369,33.66056],[130.78382,33.66012],[130.78543,33.657]],[[130.78062,33.67281],[130.78009,33.67241]],[[130.79709,33.64771],[130.7976,33.64715]],[[130.78066,33.66813],[130.78099,33.6675]],[[130.7976,33.64715],[130.79812,33.64613],[130.79827,33.64553],[130.79828,33.64502],[130.79808,33.64395],[130.79706,33.6412],[130.79702,33.64039],[130.79712,33.63954],[130.79748,33.63796],[130.79778,33.63715],[130.79847,33.63596],[130.799,33.63523],[130.79925,33.6347],[130.7994,33.63271],[130.79948,33.63227],[130.79967,33.63188]],[[130.78543,33.657],[130.78599,33.65625]]]}}