{"type":"Feature","properties":{"id":"平成筑豊鉄道_門司港レトロ観光線","name":"門司港レトロ観光線","operator":"平成筑豊鉄道","railType":"普通鉄道","operatorType":"第三セクター","category":"rail","attribution":"国土数値情報（鉄道データ）国土交通省"},"geometry":{"type":"MultiLineString","coordinates":[[[130.96537,33.94805],[130.96584,33.95215],[130.96584,33.95303],[130.96556,33.95361],[130.96485,33.95447],[130.96443,33.95551]],[[130.96236,33.94414],[130.96295,33.94478]],[[130.96516,33.94737],[130.96537,33.94805]],[[130.96295,33.94478],[130.96378,33.94544],[130.96464,33.94627],[130.96516,33.94737]],[[130.96443,33.95551],[130.96414,33.95625]],[[130.9677,33.96059],[130.96855,33.9606]],[[130.96414,33.95625],[130.96403,33.9568],[130.96406,33.95714],[130.96449,33.95878],[130.96491,33.95945],[130.96544,33.95988],[130.96579,33.96004],[130.9672,33.96054],[130.9677,33.96059]]]}}