{"type":"Feature","properties":{"id":"広島電鉄_皆実線","name":"皆実線","operator":"広島電鉄","railType":"軌道","operatorType":"民営","category":"tram","attribution":"国土数値情報（鉄道データ）国土交通省"},"geometry":{"type":"MultiLineString","coordinates":[[[132.47348,34.38982],[132.47378,34.39015]],[[132.47127,34.38724],[132.47348,34.38982]],[[132.46477,34.37445],[132.46494,34.37482]],[[132.46608,34.37757],[132.46665,34.37931],[132.46706,34.38025]],[[132.46494,34.37482],[132.46595,34.37722]],[[132.46595,34.37722],[132.46608,34.37757]],[[132.46706,34.38025],[132.4672,34.38058]],[[132.4672,34.38058],[132.46806,34.38244],[132.46873,34.38315]],[[132.47378,34.39015],[132.47463,34.39068],[132.47604,34.39136],[132.4761,34.39151],[132.47535,34.39289]],[[132.4752,34.39316],[132.47535,34.39289]],[[132.4752,34.39316],[132.47521,34.39343]],[[132.46873,34.38315],[132.469,34.38344]],[[132.469,34.38344],[132.46932,34.38383],[132.47102,34.38685]],[[132.47102,34.38685],[132.47127,34.38724]]]}}