{"type":"Feature","properties":{"id":"広島電鉄_白島線","name":"白島線","operator":"広島電鉄","railType":"軌道","operatorType":"民営","category":"tram","attribution":"国土数値情報（鉄道データ）国土交通省"},"geometry":{"type":"MultiLineString","coordinates":[[[132.46484,34.39793],[132.46497,34.39838]],[[132.46337,34.39375],[132.46356,34.39384],[132.46363,34.39397],[132.46396,34.39507]],[[132.46524,34.39922],[132.46537,34.39966]],[[132.46396,34.39507],[132.46408,34.39546]],[[132.46408,34.39546],[132.46484,34.39793]],[[132.46594,34.40153],[132.46603,34.40267],[132.46576,34.40387]],[[132.46497,34.39838],[132.46524,34.39922]],[[132.46581,34.4011],[132.46594,34.40153]],[[132.46576,34.40387],[132.46563,34.40426]],[[132.46537,34.39966],[132.46581,34.4011]],[[132.46337,34.39375],[132.46283,34.39388]]]}}