{"type":"Feature","properties":{"id":"広島電鉄_江波線","name":"江波線","operator":"広島電鉄","railType":"軌道","operatorType":"民営","category":"tram","attribution":"国土数値情報（鉄道データ）国土交通省"},"geometry":{"type":"MultiLineString","coordinates":[[[132.44266,34.3856],[132.44291,34.38601]],[[132.44519,34.38966],[132.44584,34.391],[132.44594,34.3914],[132.44631,34.39426]],[[132.43715,34.37478],[132.43729,34.37515]],[[132.44117,34.38318],[132.44139,34.38353]],[[132.43729,34.37515],[132.43835,34.37785],[132.43908,34.37947]],[[132.44291,34.38601],[132.44492,34.38923]],[[132.4393,34.37986],[132.44117,34.38318]],[[132.44492,34.38923],[132.44519,34.38966]],[[132.44139,34.38353],[132.44266,34.3856]],[[132.43908,34.37947],[132.4393,34.37986]],[[132.4356,34.37208],[132.43603,34.37234]],[[132.43603,34.37234],[132.43626,34.37248],[132.43715,34.37478]],[[132.44631,34.39426],[132.44636,34.39476]]]}}