{"type":"Feature","properties":{"id":"広島電鉄_宮島線","name":"宮島線","operator":"広島電鉄","railType":"普通鉄道","operatorType":"民営","category":"rail","attribution":"国土数値情報（鉄道データ）国土交通省"},"geometry":{"type":"MultiLineString","coordinates":[[[132.36142,34.36545],[132.36215,34.36551]],[[132.39236,34.37568],[132.39166,34.37528]],[[132.4111,34.386],[132.40424,34.38169]],[[132.39806,34.378],[132.39596,34.37754],[132.395,34.3772],[132.39236,34.37568]],[[132.42006,34.39172],[132.41738,34.38993]],[[132.30437,34.31254],[132.3049,34.31406]],[[132.36827,34.36661],[132.37107,34.36741],[132.37391,34.36811]],[[132.41174,34.38638],[132.4111,34.386]],[[132.32295,34.34461],[132.32251,34.34405]],[[132.42752,34.39659],[132.42464,34.39479],[132.42049,34.392]],[[132.32251,34.34405],[132.32027,34.34117]],[[132.3049,34.31406],[132.30519,34.31461]],[[132.33013,34.35343],[132.33084,34.3542],[132.33226,34.35514],[132.33531,34.35628],[132.33615,34.35677]],[[132.32547,34.34787],[132.32661,34.34907],[132.32751,34.35038],[132.32879,34.35166],[132.32971,34.35287]],[[132.32971,34.35287],[132.33013,34.35343]],[[132.4036,34.3813],[132.40188,34.38018],[132.39976,34.37851],[132.39888,34.37819]],[[132.41738,34.38993],[132.41681,34.38955]],[[132.3675,34.3664],[132.36827,34.36661]],[[132.3516,34.36428],[132.34827,34.36389],[132.34349,34.36363],[132.34261,34.36325],[132.34153,34.36229]],[[132.35237,34.36437],[132.3516,34.36428]],[[132.40424,34.38169],[132.4036,34.3813]],[[132.41681,34.38955],[132.41174,34.38638]],[[132.32547,34.34787],[132.32501,34.3473]],[[132.38542,34.3715],[132.38408,34.3707],[132.38312,34.37035],[132.37456,34.36826]],[[132.33615,34.35677],[132.33679,34.35718]],[[132.37456,34.36826],[132.37391,34.36811]],[[132.30417,34.31191],[132.30437,34.31254]],[[132.38612,34.37192],[132.38542,34.3715]],[[132.3411,34.36177],[132.33808,34.35821],[132.33764,34.35777],[132.33679,34.35718]],[[132.39166,34.37528],[132.38612,34.37192]],[[132.32027,34.34117],[132.31983,34.3406]],[[132.39888,34.37819],[132.39806,34.378]],[[132.30519,34.31461],[132.30567,34.31517],[132.30656,34.31583],[132.31137,34.31866],[132.31405,34.32133]],[[132.34153,34.36229],[132.3411,34.36177]],[[132.31843,34.32657],[132.31846,34.32736]],[[132.32501,34.3473],[132.32295,34.34461]],[[132.36215,34.36551],[132.36544,34.36585],[132.3675,34.3664]],[[132.42803,34.39688],[132.42752,34.39659]],[[132.35237,34.36437],[132.35612,34.36499],[132.36142,34.36545]],[[132.42049,34.392],[132.42006,34.39172]],[[132.31405,34.32133],[132.31471,34.3218]],[[132.31471,34.3218],[132.31688,34.32369],[132.31792,34.3248],[132.31829,34.32552],[132.31843,34.32657]],[[132.31983,34.3406],[132.31948,34.33994],[132.31921,34.3388],[132.31918,34.33833],[132.3195,34.3352],[132.31957,34.3328],[132.31972,34.33241],[132.32016,34.33192],[132.32028,34.33119],[132.32009,34.33051],[132.31875,34.32865],[132.31855,34.32815],[132.31846,34.32736]]]}}