{"type":"Feature","properties":{"id":"広島電鉄_本線","name":"本線","operator":"広島電鉄","railType":"軌道","operatorType":"民営","category":"tram","attribution":"国土数値情報（鉄道データ）国土交通省"},"geometry":{"type":"MultiLineString","coordinates":[[[132.46128,34.39425],[132.46067,34.3944]],[[132.47137,34.39258],[132.47089,34.39267]],[[132.42752,34.39659],[132.42803,34.39688]],[[132.46283,34.39388],[132.46128,34.39425]],[[132.47591,34.39545],[132.47572,34.39616],[132.47565,34.39621]],[[132.47601,34.39506],[132.47591,34.39545]],[[132.45857,34.39491],[132.45804,34.39504]],[[132.46337,34.39375],[132.46283,34.39388]],[[132.47565,34.39621],[132.47522,34.39645]],[[132.45357,34.39615],[132.45412,34.39601]],[[132.4675,34.39316],[132.46698,34.39317]],[[132.46067,34.3944],[132.45857,34.39491]],[[132.46698,34.39317],[132.46552,34.39324]],[[132.4572,34.39525],[132.45751,34.39517]],[[132.45751,34.39517],[132.45787,34.39508]],[[132.45787,34.39508],[132.45804,34.39504]],[[132.45664,34.39539],[132.4572,34.39525]],[[132.42803,34.39688],[132.4283,34.39695],[132.42863,34.39718],[132.42885,34.39721],[132.43385,34.39493]],[[132.46498,34.39334],[132.46337,34.39375]],[[132.44798,34.39723],[132.45022,34.39683]],[[132.47486,34.3933],[132.47521,34.39343]],[[132.47521,34.39343],[132.47598,34.39371],[132.47624,34.39392],[132.47601,34.39506]],[[132.43427,34.39473],[132.43532,34.39426],[132.43661,34.39399]],[[132.43851,34.39558],[132.43891,34.39551]],[[132.43385,34.39493],[132.43427,34.39473]],[[132.44742,34.39733],[132.44798,34.39723]],[[132.47089,34.39267],[132.4675,34.39316]],[[132.45022,34.39683],[132.45077,34.39674]],[[132.44083,34.39518],[132.44125,34.39512]],[[132.44636,34.39476],[132.44685,34.3966]],[[132.43711,34.39389],[132.43741,34.39392],[132.43765,34.39423],[132.43825,34.39552],[132.43851,34.39558]],[[132.4744,34.39314],[132.47394,34.39297],[132.47163,34.39255],[132.47137,34.39258]],[[132.45412,34.39601],[132.45664,34.39539]],[[132.46552,34.39324],[132.46498,34.39334]],[[132.44475,34.3944],[132.44597,34.39413],[132.44631,34.39426]],[[132.44424,34.39451],[132.44475,34.3944]],[[132.45077,34.39674],[132.45357,34.39615]],[[132.44125,34.39512],[132.44424,34.39451]],[[132.47486,34.3933],[132.4744,34.39314]],[[132.44631,34.39426],[132.44636,34.39476]],[[132.43891,34.39551],[132.44083,34.39518]],[[132.43661,34.39399],[132.43711,34.39389]],[[132.44701,34.39713],[132.44713,34.3973],[132.44742,34.39733]],[[132.44714,34.39755],[132.44742,34.39733]],[[132.44742,34.39733],[132.44798,34.39723]],[[132.44685,34.3966],[132.44701,34.39713]]]}}