{"type":"Feature","properties":{"id":"広島高速交通_広島新交通1号線","name":"広島新交通1号線","operator":"広島高速交通","railType":"案内軌条式(軌道)","operatorType":"第三セクター","category":"agt","attribution":"国土数値情報（鉄道データ）国土交通省"},"geometry":{"type":"MultiLineString","coordinates":[[[132.45378,34.47469],[132.4532,34.47507]],[[132.43881,34.47532],[132.43801,34.47516]],[[132.4532,34.47507],[132.45188,34.4758],[132.45075,34.47601],[132.44543,34.47574]],[[132.46476,34.41738],[132.46517,34.41865],[132.46534,34.42138],[132.4659,34.42295],[132.46626,34.42366],[132.46687,34.42451],[132.46752,34.42525],[132.46879,34.4264]],[[132.40491,34.45529],[132.40436,34.4539],[132.40417,34.45282],[132.40395,34.44755],[132.40431,34.44573],[132.40312,34.44214]],[[132.4196,34.46994],[132.41877,34.46983]],[[132.41263,34.46308],[132.41204,34.4626]],[[132.4627,34.41065],[132.46292,34.41134]],[[132.4711,34.46127],[132.4722,34.46053],[132.47511,34.45778]],[[132.47083,34.43512],[132.4713,34.43568]],[[132.40276,34.44147],[132.4023,34.4405],[132.40202,34.43803],[132.40183,34.43768],[132.40033,34.43572]],[[132.40033,34.43572],[132.39991,34.43516]],[[132.43801,34.47516],[132.43472,34.47444],[132.43133,34.47311]],[[132.45718,34.39377],[132.45805,34.39636]],[[132.47685,34.45145],[132.47703,34.45208]],[[132.46879,34.4264],[132.46933,34.4269]],[[132.43133,34.47311],[132.43049,34.47274]],[[132.47703,34.45208],[132.4778,34.45453],[132.47788,34.45491],[132.47784,34.45508],[132.47562,34.45727]],[[132.46453,34.4167],[132.46476,34.41738]],[[132.47562,34.45727],[132.47511,34.45778]],[[132.46247,34.46967],[132.45734,34.47236],[132.45378,34.47469]],[[132.45698,34.39316],[132.45718,34.39377]],[[132.40312,34.44214],[132.40276,34.44147]],[[132.47034,34.46176],[132.46682,34.46393],[132.46568,34.46468],[132.46547,34.4649],[132.46431,34.46662],[132.4637,34.4686],[132.46351,34.46897],[132.46326,34.46922]],[[132.46326,34.46922],[132.46247,34.46967]],[[132.47483,34.44367],[132.47533,34.44595],[132.47685,34.45145]],[[132.46292,34.41134],[132.46453,34.4167]],[[132.45805,34.39636],[132.45829,34.39705]],[[132.40517,34.45594],[132.40491,34.45529]],[[132.41877,34.46983],[132.4179,34.46964],[132.4171,34.46916],[132.41398,34.46638],[132.41369,34.46582],[132.41326,34.46392],[132.41298,34.46342],[132.41263,34.46308]],[[132.43049,34.47274],[132.42959,34.47253],[132.42783,34.47239],[132.42712,34.47223],[132.42376,34.47058],[132.4196,34.46994]],[[132.45829,34.39705],[132.45875,34.39846],[132.4588,34.39891],[132.45863,34.39919],[132.45741,34.40049],[132.45731,34.40092],[132.45744,34.4019],[132.45883,34.40506]],[[132.47471,34.44299],[132.47483,34.44367]],[[132.44543,34.47574],[132.44459,34.47568]],[[132.46933,34.4269],[132.4701,34.42761],[132.47021,34.42781],[132.47018,34.42818],[132.4694,34.43137],[132.46931,34.43188],[132.46933,34.43273],[132.46959,34.43349],[132.47083,34.43512]],[[132.4713,34.43568],[132.47314,34.43813],[132.47382,34.43937],[132.47406,34.43989],[132.47434,34.44091],[132.47471,34.44299]],[[132.4711,34.46127],[132.47034,34.46176]],[[132.41204,34.4626],[132.40942,34.46051],[132.40649,34.4584],[132.40617,34.45805],[132.40585,34.45753],[132.40517,34.45594]],[[132.44459,34.47568],[132.43881,34.47532]],[[132.45883,34.40506],[132.45907,34.4057]],[[132.45907,34.4057],[132.45939,34.40656],[132.46022,34.40745],[132.46102,34.40815]],[[132.46142,34.40851],[132.46221,34.40927],[132.4627,34.41065]],[[132.46102,34.40815],[132.46142,34.40851]]]}}