{"type":"Feature","properties":{"id":"広島電鉄_横川線","name":"横川線","operator":"広島電鉄","railType":"軌道","operatorType":"民営","category":"tram","attribution":"国土数値情報（鉄道データ）国土交通省"},"geometry":{"type":"MultiLineString","coordinates":[[[132.45011,34.40732],[132.4503,34.40903],[132.45056,34.40949]],[[132.44807,34.40059],[132.44821,34.40103]],[[132.45056,34.40949],[132.45074,34.40972]],[[132.44714,34.39755],[132.44807,34.40059]],[[132.44952,34.4048],[132.45003,34.40689]],[[132.44935,34.4044],[132.44952,34.4048]],[[132.44821,34.40103],[132.44887,34.40315],[132.44935,34.4044]],[[132.45003,34.40689],[132.45011,34.40732]],[[132.44701,34.39713],[132.44714,34.39755]]]}}