{"type":"Feature","properties":{"id":"広島電鉄_宇品線","name":"宇品線","operator":"広島電鉄","railType":"軌道","operatorType":"民営","category":"tram","attribution":"国土数値情報（鉄道データ）国土交通省"},"geometry":{"type":"MultiLineString","coordinates":[[[132.45416,34.38324],[132.4539,34.38366]],[[132.46412,34.36034],[132.46444,34.36394]],[[132.45765,34.39499],[132.45787,34.39508]],[[132.45639,34.39136],[132.45698,34.39309]],[[132.46469,34.3742],[132.46477,34.37445]],[[132.45944,34.35396],[132.45998,34.35392]],[[132.45578,34.38096],[132.45416,34.38324]],[[132.45918,34.37617],[132.4585,34.37712]],[[132.46423,34.37408],[132.46371,34.37421]],[[132.46444,34.36394],[132.46448,34.36434]],[[132.46462,34.37373],[132.46469,34.3742]],[[132.46463,34.36616],[132.46467,34.36652]],[[132.45998,34.35392],[132.46298,34.35381],[132.46308,34.35497]],[[132.45555,34.38891],[132.4557,34.38937]],[[132.4639,34.35782],[132.46393,34.35815]],[[132.46311,34.35532],[132.46308,34.35497]],[[132.46448,34.36434],[132.46463,34.36616]],[[132.45698,34.39309],[132.45712,34.39349]],[[132.46434,34.37406],[132.46454,34.37393],[132.46462,34.37373]],[[132.46371,34.37421],[132.46126,34.37464],[132.46023,34.37494],[132.45995,34.37509],[132.45949,34.37574]],[[132.46467,34.36652],[132.46484,34.36832]],[[132.45751,34.39517],[132.45765,34.39499]],[[132.46484,34.36832],[132.46488,34.36868]],[[132.4557,34.38937],[132.45622,34.39085]],[[132.46393,34.35815],[132.46409,34.35996]],[[132.45543,34.35279],[132.45612,34.3526]],[[132.46434,34.37406],[132.46469,34.3742]],[[132.45622,34.39085],[132.45639,34.39136]],[[132.45712,34.39349],[132.45765,34.39499]],[[132.4539,34.38366],[132.45381,34.38393],[132.45438,34.38557]],[[132.45818,34.37757],[132.45609,34.38052]],[[132.46488,34.36868],[132.46462,34.37139]],[[132.45609,34.38052],[132.45578,34.38096]],[[132.46311,34.35532],[132.46318,34.35578],[132.46386,34.35738],[132.4639,34.35782]],[[132.45452,34.38597],[132.45555,34.38891]],[[132.46423,34.37408],[132.46434,34.37406]],[[132.45949,34.37574],[132.45918,34.37617]],[[132.45612,34.3526],[132.45698,34.35238],[132.4572,34.35249],[132.45769,34.35393],[132.45789,34.35407],[132.45944,34.35396]],[[132.45438,34.38557],[132.45452,34.38597]],[[132.46409,34.35996],[132.46412,34.36034]],[[132.46458,34.37173],[132.46454,34.3725],[132.46462,34.37373]],[[132.4585,34.37712],[132.45818,34.37757]],[[132.46462,34.37139],[132.46458,34.37173]],[[132.45787,34.39508],[132.45804,34.39504]],[[132.45664,34.39539],[132.4572,34.39525]],[[132.45857,34.39491],[132.45804,34.39504]],[[132.4572,34.39525],[132.45751,34.39517]]]}}