{"type":"Feature","properties":{"id":"弘南鉄道_大鰐線","name":"大鰐線","operator":"弘南鉄道","railType":"普通鉄道","operatorType":"民営","category":"rail","attribution":"国土数値情報（鉄道データ）国土交通省"},"geometry":{"type":"MultiLineString","coordinates":[[[140.48703,40.56415],[140.48631,40.56444]],[[140.51725,40.55777],[140.51859,40.55763],[140.52715,40.55591]],[[140.47059,40.58367],[140.47001,40.58602],[140.46965,40.58694],[140.46863,40.59038],[140.46834,40.59161],[140.46827,40.59265]],[[140.56782,40.52192],[140.56604,40.52171]],[[140.49677,40.56079],[140.49752,40.56056]],[[140.52715,40.55591],[140.5279,40.5557]],[[140.48063,40.56708],[140.47998,40.5675]],[[140.48631,40.56444],[140.48187,40.56631],[140.48063,40.56708]],[[140.55054,40.54291],[140.5526,40.53602]],[[140.55289,40.53513],[140.55415,40.53079],[140.55441,40.53027],[140.55739,40.52561]],[[140.55781,40.52497],[140.55864,40.52395],[140.55953,40.52339],[140.56059,40.52285],[140.56279,40.52265],[140.56352,40.52243],[140.56506,40.52178],[140.56604,40.52171]],[[140.49752,40.56056],[140.49982,40.55992],[140.5014,40.55964],[140.5158,40.5579]],[[140.47278,40.57692],[140.47263,40.5774]],[[140.48703,40.56415],[140.4912,40.56238],[140.49677,40.56079]],[[140.55739,40.52561],[140.55781,40.52497]],[[140.55039,40.54343],[140.55054,40.54291]],[[140.46823,40.5933],[140.46823,40.59402],[140.46843,40.59458],[140.46867,40.59497],[140.46922,40.59548],[140.47062,40.5962],[140.47129,40.59672],[140.47151,40.59698],[140.4716,40.59728],[140.47159,40.59822],[140.47206,40.59892]],[[140.47998,40.5675],[140.47862,40.56852],[140.47403,40.57342],[140.47368,40.57409],[140.47278,40.57692]],[[140.5158,40.5579],[140.51725,40.55777]],[[140.54111,40.55109],[140.54184,40.55072]],[[140.5279,40.5557],[140.53104,40.55416],[140.53178,40.55398],[140.53199,40.55395],[140.53448,40.55426],[140.53599,40.55412],[140.53638,40.55395],[140.54111,40.55109]],[[140.5526,40.53602],[140.55289,40.53513]],[[140.47206,40.59892],[140.47252,40.5994]],[[140.47073,40.58307],[140.47059,40.58367]],[[140.47263,40.5774],[140.47073,40.58307]],[[140.46827,40.59265],[140.46823,40.5933]],[[140.54184,40.55072],[140.54781,40.54927],[140.54826,40.54912],[140.54914,40.54856],[140.54942,40.54818],[140.54975,40.54607],[140.55039,40.54343]]]}}