{"type":"Feature","properties":{"id":"愛知環状鉄道_愛知環状鉄道線","name":"愛知環状鉄道線","operator":"愛知環状鉄道","railType":"普通鉄道","operatorType":"第三セクター","category":"rail","attribution":"国土数値情報（鉄道データ）国土交通省"},"geometry":{"type":"MultiLineString","coordinates":[[[137.15343,35.08703],[137.15365,35.08869]],[[137.16284,35.12153],[137.16256,35.12228]],[[137.16116,35.10555],[137.16067,35.10476]],[[137.04481,35.26428],[137.05015,35.2643],[137.05085,35.26428],[137.05196,35.26408],[137.05394,35.2634],[137.06523,35.25912],[137.06626,35.25857],[137.06756,35.25767],[137.06825,35.25704],[137.06896,35.25624],[137.06957,35.2554],[137.07006,35.25452],[137.0716,35.25119]],[[137.10239,35.19765],[137.10379,35.19694],[137.10557,35.19558],[137.10625,35.19483],[137.10722,35.19351],[137.1077,35.19249],[137.10804,35.19147],[137.10827,35.19021],[137.10824,35.18879],[137.1068,35.18209],[137.10641,35.1798],[137.10636,35.17901],[137.10646,35.17767],[137.107,35.17534]],[[137.08136,35.20721],[137.0829,35.20592]],[[137.15098,35.05509],[137.15209,35.05171],[137.15233,35.05072],[137.15242,35.04977],[137.15225,35.04837],[137.15202,35.0476],[137.15141,35.04643],[137.14709,35.03983]],[[137.14671,35.03925],[137.13916,35.02774]],[[137.15117,35.07147],[137.15118,35.07084],[137.15176,35.06678],[137.15187,35.06541],[137.1518,35.06427],[137.15097,35.05742],[137.15089,35.05579]],[[137.1073,35.1745],[137.10794,35.17318],[137.10839,35.17244],[137.10987,35.17043],[137.11597,35.16415],[137.11733,35.16265],[137.11854,35.1611],[137.11931,35.15945],[137.12068,35.15506]],[[137.12086,35.1544],[137.12068,35.15506]],[[137.14849,35.13301],[137.15464,35.13144],[137.15591,35.13105],[137.15679,35.13063],[137.15825,35.12961],[137.15941,35.12864],[137.16,35.12801],[137.1611,35.12644],[137.16256,35.12228]],[[137.15089,35.05579],[137.15098,35.05509]],[[137.16067,35.10476],[137.15734,35.09929],[137.15502,35.09522],[137.1545,35.09381],[137.15434,35.09312],[137.15365,35.08869]],[[137.0716,35.25119],[137.07236,35.24951]],[[137.13915,34.99655],[137.13983,34.99602]],[[137.13285,35.01271],[137.13267,35.01211]],[[137.13404,35.13685],[137.1328,35.13747],[137.13117,35.13862],[137.12628,35.14263],[137.12533,35.14361],[137.1247,35.1444],[137.12386,35.14562],[137.12329,35.14674],[137.12086,35.1544]],[[137.07861,35.22659],[137.0783,35.22532]],[[137.13915,34.99655],[137.13521,34.99951],[137.13411,35.00044],[137.13298,35.00167],[137.13193,35.00325],[137.13147,35.00481],[137.13136,35.00577],[137.13138,35.00713],[137.13165,35.00847],[137.13267,35.01211]],[[137.14709,35.03983],[137.14671,35.03925]],[[137.107,35.17534],[137.1073,35.1745]],[[137.15119,35.07211],[137.15343,35.08703]],[[137.15119,35.07211],[137.15117,35.07147]],[[137.13916,35.02774],[137.1388,35.0272]],[[137.13983,34.99602],[137.14958,34.98866],[137.15052,34.98784],[137.1513,34.98708],[137.15239,34.98581],[137.15453,34.98287]],[[137.1388,35.0272],[137.1359,35.02272],[137.13531,35.02148],[137.13285,35.01271]],[[137.07236,35.24951],[137.07853,35.23628],[137.07925,35.2344],[137.07954,35.23315],[137.07963,35.23241],[137.07961,35.23073],[137.07929,35.229],[137.07861,35.22659]],[[137.0829,35.20592],[137.08735,35.20213],[137.08837,35.20146],[137.08988,35.20075],[137.09202,35.20006],[137.09959,35.19849],[137.10123,35.19806]],[[137.04481,35.26428],[137.04171,35.26423]],[[137.15494,34.98229],[137.15453,34.98287]],[[137.10123,35.19806],[137.10239,35.19765]],[[137.16116,35.10555],[137.1628,35.10821],[137.16434,35.11094],[137.16483,35.11213],[137.16509,35.1132],[137.16513,35.11424],[137.165,35.11532],[137.16284,35.12153]],[[137.13494,35.13649],[137.1374,35.13579],[137.14762,35.13323]],[[137.0783,35.22532],[137.07602,35.21647],[137.07571,35.21461],[137.07583,35.21373],[137.07636,35.21215],[137.07683,35.21138],[137.07751,35.21058],[137.07842,35.20973],[137.08136,35.20721]],[[137.13494,35.13649],[137.13404,35.13685]],[[137.14762,35.13323],[137.14849,35.13301]],[[137.15613,34.93229],[137.15594,34.93297],[137.15543,34.93395],[137.15477,34.93488],[137.15339,34.93642],[137.15261,34.93871],[137.15198,34.94092]],[[137.15654,34.93131],[137.15613,34.93229]],[[137.15715,34.92679],[137.15685,34.93017],[137.15654,34.93131]],[[137.15198,34.94092],[137.15179,34.94165]],[[137.15179,34.94165],[137.15101,34.94475],[137.15086,34.94567],[137.15086,34.94658],[137.15148,34.95221],[137.152,34.95425],[137.15249,34.95561]],[[137.15249,34.95561],[137.15307,34.95707]],[[137.1578,34.97263],[137.15806,34.97398],[137.15814,34.975],[137.15811,34.97637],[137.15787,34.97755],[137.15722,34.97905],[137.15494,34.98229]],[[137.15307,34.95707],[137.15462,34.96039],[137.15532,34.96242],[137.1576,34.97188]],[[137.15739,34.9239],[137.15715,34.92679]],[[137.1576,34.97188],[137.1578,34.97263]]]}}