{"type":"Feature","properties":{"id":"新京成電鉄_新京成線","name":"新京成線","operator":"新京成電鉄","railType":"普通鉄道","operatorType":"民営","category":"rail","attribution":"国土数値情報（鉄道データ）国土交通省"},"geometry":{"type":"MultiLineString","coordinates":[[[140.02411,35.68379],[140.02307,35.68399]],[[140.02558,35.68349],[140.02411,35.68379]],[[140.0418,35.72164],[140.04255,35.72101]],[[139.97525,35.79065],[139.97423,35.79132],[139.9734,35.79172],[139.9688,35.7932],[139.9681,35.79351],[139.96775,35.79377],[139.96716,35.79444],[139.96598,35.79679]],[[140.02863,35.74872],[140.02965,35.74408],[140.02978,35.74265],[140.02959,35.74199],[140.02935,35.74165],[140.02665,35.73844]],[[139.97553,35.78187],[139.97537,35.78085],[139.97548,35.78025],[139.97558,35.77997],[139.97584,35.77964],[139.97646,35.77922],[139.98595,35.77603],[139.98699,35.7758],[139.98924,35.77639]],[[140.02665,35.73844],[140.02592,35.73758]],[[139.97582,35.78279],[139.97694,35.78697],[139.9772,35.7883],[139.97713,35.78892],[139.97696,35.78926],[139.97673,35.78953],[139.9761,35.79]],[[139.96556,35.79778],[139.96598,35.79679]],[[140.03001,35.73],[140.03186,35.7286],[140.03438,35.72697]],[[140.03559,35.72624],[140.03823,35.72449],[140.0418,35.72164]],[[140.02298,35.69046],[140.02451,35.68991]],[[140.02845,35.74964],[140.02863,35.74872]],[[140.02802,35.70096],[140.02702,35.70035]],[[140.02451,35.68991],[140.02561,35.68961],[140.02648,35.68912],[140.02678,35.68861],[140.02671,35.68809],[140.02646,35.6876],[140.02621,35.6873],[140.02528,35.68664],[140.02468,35.68647],[140.02339,35.68634],[140.02303,35.68623],[140.02257,35.6859],[140.02233,35.68542],[140.02235,35.68498],[140.02268,35.68436],[140.02307,35.68399]],[[140.02431,35.75365],[140.02608,35.75291],[140.02708,35.75232],[140.02768,35.75164],[140.02799,35.75106],[140.02845,35.74964]],[[140.02592,35.73758],[140.02541,35.73689],[140.02498,35.73596],[140.02494,35.73514],[140.02518,35.73416],[140.02567,35.73338],[140.02629,35.73275],[140.02886,35.73084]],[[139.97582,35.78279],[139.97553,35.78187]],[[139.99037,35.77672],[139.99805,35.77907]],[[139.97525,35.79065],[139.9761,35.79]],[[140.02702,35.70035],[140.026,35.69948],[140.02561,35.69867],[140.02555,35.69806],[140.02572,35.69561],[140.02567,35.69508],[140.02552,35.69469],[140.02485,35.69394],[140.02295,35.69257],[140.02239,35.69198],[140.02232,35.69175],[140.02235,35.69117],[140.02259,35.69078],[140.02298,35.69046]],[[140.00066,35.77247],[140.00266,35.77744],[140.00278,35.77826],[140.00265,35.77869],[140.00236,35.77908],[140.00155,35.7796],[140.00073,35.77973],[139.99926,35.77941]],[[140.03438,35.72697],[140.03559,35.72624]],[[140.02431,35.75365],[140.02315,35.75412]],[[140.03708,35.70943],[140.03633,35.70877]],[[139.98924,35.77639],[139.99037,35.77672]],[[140.00026,35.77148],[140.00066,35.77247]],[[140.04255,35.72101],[140.04348,35.71999],[140.04378,35.71908],[140.04369,35.71822],[140.04295,35.71586]],[[140.02315,35.75412],[140.0147,35.75754]],[[140.03633,35.70877],[140.03184,35.7048],[140.03083,35.7038],[140.02925,35.70201],[140.02802,35.70096]],[[140.01318,35.75817],[140.01012,35.75951],[140.00978,35.75976],[140.00865,35.76089],[140.0011,35.7689],[140.00024,35.77015],[140.00013,35.77091],[140.00026,35.77148]],[[139.99926,35.77941],[139.99805,35.77907]],[[140.04264,35.71489],[140.04233,35.71409],[140.04208,35.71376],[140.03708,35.70943]],[[140.0147,35.75754],[140.01318,35.75817]],[[140.02886,35.73084],[140.03001,35.73]],[[140.04295,35.71586],[140.04264,35.71489]],[[139.92942,35.78922],[139.92992,35.78919],[139.93088,35.78931],[139.93256,35.7897],[139.93642,35.79067],[139.93707,35.79107]],[[139.92815,35.78947],[139.92942,35.78922]],[[139.90039,35.78349],[139.90127,35.7852]],[[139.91617,35.78961],[139.91769,35.79065],[139.91851,35.79089],[139.91899,35.79098],[139.92014,35.79095],[139.92173,35.79074]],[[139.94998,35.80331],[139.95337,35.80401],[139.95437,35.80404],[139.95561,35.80374],[139.96184,35.8018],[139.96308,35.80132],[139.96369,35.80092],[139.96424,35.80036],[139.96496,35.79923],[139.96556,35.79778]],[[139.9155,35.78915],[139.91617,35.78961]],[[139.92173,35.79074],[139.92293,35.79057]],[[139.93707,35.79107],[139.93744,35.79132],[139.93798,35.79186]],[[139.90127,35.7852],[139.90216,35.78757],[139.90251,35.78792],[139.90319,35.7883],[139.90368,35.78846],[139.90734,35.78902],[139.90806,35.78902],[139.91165,35.78814],[139.91286,35.78808],[139.91373,35.78823],[139.91467,35.78865],[139.9155,35.78915]],[[139.92815,35.78947],[139.92293,35.79057]],[[139.93798,35.79186],[139.93825,35.79222],[139.93875,35.7935],[139.93979,35.79576],[139.94048,35.79677],[139.94425,35.80133],[139.9449,35.80176],[139.94581,35.80211],[139.94889,35.80299]],[[139.94889,35.80299],[139.94998,35.80331]]]}}