{"type":"Feature","properties":{"id":"明知鉄道_明知線","name":"明知線","operator":"明知鉄道","railType":"普通鉄道","operatorType":"第三セクター","category":"rail","attribution":"国土数値情報（鉄道データ）国土交通省"},"geometry":{"type":"MultiLineString","coordinates":[[[137.42915,35.44606],[137.4314,35.44486],[137.43272,35.44438],[137.43339,35.44428],[137.43689,35.44419],[137.4379,35.44403],[137.4384,35.44386],[137.43872,35.44367],[137.4392,35.44321],[137.44064,35.44057],[137.44151,35.43962],[137.4433,35.43798],[137.44371,35.43747],[137.44466,35.43588],[137.44545,35.43516],[137.4459,35.43497],[137.44756,35.43462],[137.44835,35.43429],[137.44882,35.43395],[137.44954,35.43297],[137.4503,35.43221],[137.45063,35.43199],[137.45234,35.43129],[137.45466,35.42974],[137.45555,35.42949],[137.45801,35.42963],[137.45956,35.42953],[137.46067,35.42908],[137.46182,35.42829],[137.46236,35.42771],[137.46277,35.42707],[137.46301,35.42636],[137.46306,35.42548],[137.46273,35.42219],[137.46146,35.41887]],[[137.43433,35.36902],[137.43404,35.36822]],[[137.46123,35.41833],[137.46082,35.41701],[137.46066,35.41453],[137.4603,35.41333],[137.45981,35.41273],[137.45946,35.41245],[137.45707,35.41075],[137.45673,35.41017],[137.4567,35.40989],[137.45691,35.40914],[137.45742,35.4084],[137.45843,35.40741],[137.4586,35.40714],[137.45901,35.40594],[137.4591,35.4054],[137.45857,35.40347],[137.45826,35.40145],[137.45826,35.40108],[137.45834,35.40089],[137.45892,35.39991]],[[137.43723,35.38701],[137.43521,35.38524],[137.43453,35.38447],[137.43352,35.38261],[137.43258,35.37987]],[[137.46146,35.41887],[137.46123,35.41833]],[[137.45934,35.39928],[137.4598,35.39851],[137.45997,35.39802],[137.45999,35.39727],[137.4599,35.39685],[137.45969,35.39651],[137.45945,35.39627],[137.4586,35.39573],[137.45694,35.39513],[137.4563,35.39457],[137.45577,35.39396],[137.45496,35.39337],[137.45375,35.39301],[137.45134,35.39311],[137.45032,35.39299],[137.4485,35.39246],[137.44458,35.39189],[137.44313,35.39158],[137.44227,35.39121],[137.44168,35.39083],[137.43773,35.38745]],[[137.43773,35.38745],[137.43723,35.38701]],[[137.45892,35.39991],[137.45934,35.39928]],[[137.42848,35.44647],[137.42915,35.44606]],[[137.38753,35.30643],[137.38721,35.30552]],[[137.40772,35.35503],[137.40685,35.35501]],[[137.43404,35.36822],[137.43327,35.36609],[137.43288,35.36529],[137.43171,35.36375],[137.42604,35.35878],[137.4248,35.35785],[137.42381,35.35761],[137.42163,35.35772],[137.42124,35.35765],[137.42085,35.35752],[137.41931,35.35666],[137.41843,35.35639],[137.41793,35.35635],[137.41646,35.35649],[137.41534,35.35678],[137.41265,35.35802],[137.41127,35.35802],[137.41096,35.35791],[137.41032,35.35743],[137.40936,35.35568],[137.40912,35.35545],[137.40843,35.35514],[137.40772,35.35503]],[[137.41051,35.45657],[137.41291,35.4577],[137.41362,35.4579],[137.41462,35.45793],[137.41551,35.45769],[137.42134,35.45509],[137.42307,35.45403],[137.42386,35.45343],[137.42445,35.45285],[137.42498,35.45187],[137.42557,35.44933],[137.42602,35.44827],[137.42694,35.44736],[137.42848,35.44647]],[[137.40894,35.45571],[137.41051,35.45657]],[[137.39569,35.35056],[137.39572,35.34974]],[[137.39572,35.34974],[137.39559,35.34908],[137.39521,35.34831],[137.39462,35.34767],[137.39334,35.34664],[137.39295,35.34622],[137.39268,35.34569],[137.39232,35.3415],[137.39264,35.34061],[137.39365,35.33915],[137.39384,35.33845],[137.39367,35.33778],[137.39329,35.33709],[137.39167,35.33482],[137.39107,35.33429],[137.38985,35.3335],[137.3897,35.3333],[137.38955,35.33307],[137.38904,35.33155],[137.38829,35.32991],[137.38829,35.32933],[137.38907,35.32774],[137.38913,35.32739],[137.38901,35.32677],[137.38827,35.3257],[137.38797,35.3251],[137.38796,35.3244],[137.38845,35.3232],[137.38909,35.32246]],[[137.38909,35.32246],[137.38955,35.32185]],[[137.40894,35.45571],[137.40665,35.45447]],[[137.38955,35.32185],[137.38991,35.32113],[137.39027,35.32003],[137.39101,35.31622],[137.3921,35.31461],[137.39228,35.31418],[137.39229,35.31357],[137.39203,35.31285],[137.39162,35.31238],[137.39009,35.31163],[137.38954,35.31108],[137.38898,35.31],[137.38753,35.30643]],[[137.40685,35.35501],[137.40524,35.35491],[137.39981,35.35393],[137.39737,35.35362],[137.3969,35.3535],[137.39627,35.35312],[137.39573,35.35249],[137.39562,35.35189],[137.39569,35.35056]],[[137.43258,35.37987],[137.43244,35.37944]],[[137.43244,35.37944],[137.43225,35.37865],[137.43226,35.37792],[137.43488,35.3715],[137.43482,35.3705],[137.43433,35.36902]]]}}