{"type":"Feature","properties":{"id":"智頭急行_智頭線","name":"智頭線","operator":"智頭急行","railType":"普通鉄道","operatorType":"第三セクター","category":"rail","attribution":"国土数値情報（鉄道データ）国土交通省"},"geometry":{"type":"MultiLineString","coordinates":[[[134.22569,35.26454],[134.2267,35.25818],[134.22731,35.25613]],[[134.22547,35.26567],[134.22569,35.26454]],[[134.33568,35.16002],[134.33588,35.16067]],[[134.32794,35.12334],[134.32771,35.12447]],[[134.33588,35.16067],[134.33715,35.16474],[134.33785,35.16728],[134.33806,35.16869],[134.33807,35.16931],[134.33763,35.17478],[134.33734,35.17761],[134.33685,35.18039],[134.33698,35.18222],[134.33767,35.18624],[134.33703,35.18816]],[[134.32771,35.12447],[134.32661,35.12982],[134.32633,35.13153],[134.32613,35.13412],[134.32605,35.13773],[134.32633,35.13884],[134.32869,35.14594],[134.33071,35.15164],[134.33133,35.15288],[134.33177,35.15347],[134.33364,35.15539],[134.33427,35.15615],[134.33463,35.15672],[134.33515,35.15807],[134.33568,35.16002]],[[134.27941,35.25561],[134.27877,35.25615]],[[134.32794,35.12334],[134.32835,35.12126],[134.32836,35.12047],[134.32804,35.11838],[134.32716,35.11478],[134.32711,35.11435],[134.32717,35.11325],[134.32774,35.11079],[134.32872,35.1078],[134.32988,35.10462],[134.33041,35.10218]],[[134.27941,35.25561],[134.28073,35.25411],[134.28162,35.25294],[134.28301,35.25047],[134.28343,35.24944],[134.28448,35.24655],[134.2851,35.24417],[134.28567,35.24129],[134.28619,35.23647],[134.28636,35.23579],[134.28669,35.235],[134.28728,35.23401],[134.28844,35.23292]],[[134.33684,35.18887],[134.33703,35.18816]],[[134.28905,35.23248],[134.29189,35.22998],[134.33447,35.19454],[134.33509,35.19387],[134.33563,35.19287],[134.33684,35.18887]],[[134.33054,35.10152],[134.33041,35.10218]],[[134.27877,35.25615],[134.2761,35.25785],[134.27474,35.25854],[134.27407,35.25878],[134.27262,35.25903],[134.26431,35.2588],[134.25206,35.25926],[134.24805,35.25954],[134.24545,35.25993],[134.24437,35.25994],[134.24171,35.25963],[134.2402,35.25904],[134.23901,35.25841],[134.23808,35.25771],[134.23742,35.25712],[134.23591,35.25547],[134.23544,35.25509],[134.23482,35.25471],[134.23351,35.25422],[134.23235,35.25405],[134.23159,35.25404],[134.23028,35.25423],[134.22866,35.25493],[134.22823,35.25524],[134.22731,35.25613]],[[134.28844,35.23292],[134.28905,35.23248]],[[134.35235,34.86648],[134.35353,34.86609],[134.3547,34.86552]],[[134.34894,34.86686],[134.35029,34.86682],[134.35235,34.86648]],[[134.35584,35.0033],[134.35747,35.00406]],[[134.35408,34.9985],[134.35411,35.00122],[134.35423,35.00182],[134.35454,35.00231],[134.35486,35.00261],[134.35584,35.0033]],[[134.35747,35.00406],[134.36026,35.00532],[134.36192,35.0054],[134.36309,35.00523]],[[134.35408,34.9985],[134.35408,34.99024],[134.35385,34.98651],[134.35369,34.98558],[134.35324,34.98419],[134.35131,34.97969],[134.34746,34.97271],[134.34601,34.96964],[134.34546,34.96801],[134.34507,34.9665],[134.34474,34.96472],[134.34423,34.96103]],[[134.35764,35.08226],[134.35719,35.083],[134.3562,35.08406],[134.34159,35.09634],[134.34082,35.0968],[134.33994,35.09708],[134.33829,35.09726],[134.33527,35.09733],[134.33356,35.09773],[134.33246,35.09834],[134.33203,35.0987],[134.33133,35.09948],[134.33095,35.10009],[134.33054,35.10152]],[[134.35275,34.91847],[134.35257,34.91915]],[[134.3578,35.08158],[134.35764,35.08226]],[[134.34894,34.86686],[134.34577,34.86638],[134.34508,34.86638],[134.34363,34.86663],[134.34282,34.86703],[134.33983,34.86941],[134.33865,34.87058],[134.33793,34.87162],[134.33769,34.87214],[134.33749,34.87312],[134.3375,34.87405],[134.33794,34.87546],[134.33952,34.87844],[134.34242,34.88349],[134.34527,34.88899],[134.34617,34.89047],[134.34696,34.8914],[134.34765,34.8919],[134.34853,34.89238],[134.35089,34.89341],[134.3521,34.89416],[134.35281,34.89481],[134.35373,34.89607]],[[134.35373,34.89607],[134.35402,34.89672]],[[134.37202,35.04401],[134.37251,35.04508],[134.37277,35.04608],[134.37275,35.04711],[134.3725,35.04788],[134.37229,35.04829],[134.37164,35.04905],[134.37124,35.04938],[134.36853,35.05105],[134.36809,35.05148],[134.36758,35.05223],[134.36731,35.05293],[134.36729,35.05342],[134.36799,35.05587],[134.36797,35.05679],[134.36772,35.05758],[134.366,35.06133],[134.36496,35.06333],[134.3633,35.0654],[134.36192,35.06732],[134.3604,35.06968],[134.35983,35.07098],[134.35949,35.07225],[134.3578,35.08158]],[[134.37173,35.04337],[134.37202,35.04401]],[[134.34423,34.96103],[134.34415,34.96035]],[[134.34415,34.96035],[134.34358,34.95549],[134.34359,34.95462],[134.34386,34.95362],[134.34424,34.95278],[134.34489,34.95181],[134.34786,34.94871],[134.34818,34.94824],[134.34861,34.94722],[134.34885,34.94627],[134.35051,34.92751],[134.35257,34.91915]],[[134.35402,34.89672],[134.35434,34.89767],[134.35448,34.89841],[134.35443,34.90021],[134.35265,34.90851],[134.3524,34.91033],[134.35246,34.9113],[134.35324,34.91406],[134.35335,34.91492],[134.35325,34.91637],[134.35275,34.91847]],[[134.36309,35.00523],[134.36399,35.00535],[134.36455,35.00555],[134.36494,35.00584],[134.36576,35.00669],[134.36699,35.00851],[134.36708,35.00879],[134.36745,35.01242],[134.36814,35.02042],[134.36812,35.02127],[134.36799,35.02209],[134.36678,35.02731],[134.36641,35.02834],[134.36505,35.03052],[134.36483,35.03147],[134.36491,35.03237],[134.36526,35.03312],[134.36584,35.03384],[134.36831,35.03618],[134.36925,35.03794],[134.37173,35.04337]]]}}