{"type":"Feature","properties":{"id":"札幌市_東豊線","name":"東豊線","operator":"札幌市","railType":"案内軌条式","operatorType":"公営","category":"agt","attribution":"国土数値情報（鉄道データ）国土交通省"},"geometry":{"type":"MultiLineString","coordinates":[[[141.35406,43.06555],[141.35371,43.06693]],[[141.3558,43.07695],[141.36445,43.07811]],[[141.37193,43.09342],[141.37164,43.09466]],[[141.35407,43.0767],[141.3558,43.07695]],[[141.36899,43.10551],[141.36931,43.10414]],[[141.36445,43.07811],[141.36609,43.07832]],[[141.35371,43.06693],[141.35232,43.07234],[141.35183,43.07438],[141.35178,43.07491],[141.35192,43.0753],[141.35231,43.07591],[141.35316,43.07645],[141.35407,43.0767]],[[141.36931,43.10414],[141.37164,43.09466]],[[141.36699,43.11366],[141.3673,43.11238]],[[141.36609,43.07832],[141.37315,43.07934],[141.37385,43.07972],[141.37443,43.08032],[141.37462,43.08085],[141.37462,43.08156]],[[141.35514,43.06139],[141.35406,43.06555]],[[141.3673,43.11238],[141.36899,43.10551]],[[141.37462,43.08156],[141.37423,43.0832]],[[141.37423,43.0832],[141.37193,43.09342]],[[141.35546,43.06011],[141.35514,43.06139]],[[141.35716,43.05342],[141.35682,43.05477]],[[141.4025,43.02219],[141.39926,43.02527],[141.39848,43.02689],[141.39698,43.02953]],[[141.38513,43.03656],[141.37677,43.04174]],[[141.39698,43.02953],[141.39643,43.03041]],[[141.37677,43.04174],[141.37556,43.04248]],[[141.40327,43.02146],[141.4025,43.02219]],[[141.38648,43.0358],[141.38513,43.03656]],[[141.37556,43.04248],[141.36948,43.04633],[141.36929,43.04659],[141.3691,43.04716]],[[141.36881,43.04826],[141.36838,43.04978],[141.3682,43.04996],[141.36791,43.05009],[141.3676,43.05018],[141.36059,43.05097],[141.3586,43.05127],[141.35796,43.05148],[141.35762,43.05176],[141.35716,43.05342]],[[141.39643,43.03041],[141.39505,43.0325],[141.39453,43.03293],[141.39338,43.03367],[141.39246,43.03401],[141.39147,43.03423],[141.39043,43.03409],[141.38981,43.03415],[141.38648,43.0358]],[[141.35682,43.05477],[141.35546,43.06011]],[[141.3691,43.04716],[141.36881,43.04826]]]}}