{"type":"Feature","properties":{"id":"札幌市交通事業振興公社_山鼻西線","name":"山鼻西線","operator":"札幌市交通事業振興公社","railType":"軌道","operatorType":"第三セクター","category":"tram","attribution":"国土数値情報（鉄道データ）国土交通省"},"geometry":{"type":"MultiLineString","coordinates":[[[141.33516,43.056],[141.33529,43.05648]],[[141.33687,43.03707],[141.33682,43.03755]],[[141.33584,43.04519],[141.33549,43.04807]],[[141.33506,43.05135],[141.33501,43.05179]],[[141.33641,43.04085],[141.3359,43.04472]],[[141.33767,43.03089],[141.33731,43.03375]],[[141.33725,43.03418],[141.33687,43.03707]],[[141.33977,43.0304],[141.33775,43.03027],[141.33773,43.03043]],[[141.33682,43.03755],[141.33646,43.04043]],[[141.33646,43.04043],[141.33641,43.04085]],[[141.33501,43.05179],[141.33474,43.05447],[141.33516,43.056]],[[141.33773,43.03043],[141.33767,43.03089]],[[141.33543,43.04846],[141.33506,43.05135]],[[141.33731,43.03375],[141.33725,43.03418]],[[141.33549,43.04807],[141.33543,43.04846]],[[141.3359,43.04472],[141.33584,43.04519]],[[141.34039,43.03044],[141.33977,43.0304]]]}}