{"type":"Feature","properties":{"id":"札幌市交通事業振興公社_1条線","name":"1条線","operator":"札幌市交通事業振興公社","railType":"軌道","operatorType":"第三セクター","category":"tram","attribution":"国土数値情報（鉄道データ）国土交通省"},"geometry":{"type":"MultiLineString","coordinates":[[[141.34168,43.05747],[141.34227,43.05756]],[[141.34701,43.05822],[141.35155,43.05886]],[[141.35155,43.05886],[141.35214,43.05893]],[[141.33529,43.05648],[141.33551,43.05663],[141.34168,43.05747]],[[141.33516,43.056],[141.33529,43.05648]],[[141.34227,43.05756],[141.34643,43.05814]],[[141.34643,43.05814],[141.34701,43.05822]]]}}