{"type":"Feature","properties":{"id":"札幌市_東西線","name":"東西線","operator":"札幌市","railType":"案内軌条式","operatorType":"公営","category":"agt","attribution":"国土数値情報（鉄道データ）国土交通省"},"geometry":{"type":"MultiLineString","coordinates":[[[141.37215,43.05779],[141.37039,43.05913],[141.36819,43.06103],[141.36769,43.06141],[141.3671,43.06172],[141.36628,43.06196],[141.36565,43.062],[141.36286,43.06165]],[[141.27873,43.08889],[141.28178,43.08675],[141.28453,43.08494],[141.28957,43.08191]],[[141.27679,43.09016],[141.27873,43.08889]],[[141.3512,43.05994],[141.35343,43.06024]],[[141.36286,43.06165],[141.36099,43.0614]],[[141.28957,43.08191],[141.29087,43.08115]],[[141.32942,43.05712],[141.33139,43.05736]],[[141.35343,43.06024],[141.36099,43.0614]],[[141.34251,43.05882],[141.3512,43.05994]],[[141.37336,43.05673],[141.37215,43.05779]],[[141.3144,43.06169],[141.31473,43.06024]],[[141.31465,43.07002],[141.31513,43.06978],[141.31571,43.06904],[141.31592,43.0681],[141.31577,43.06769],[141.31404,43.06477],[141.31386,43.06432],[141.3144,43.06169]],[[141.34028,43.05855],[141.34251,43.05882]],[[141.29087,43.08115],[141.29309,43.07988],[141.29372,43.07962],[141.2945,43.07941],[141.29745,43.07893],[141.29925,43.0784],[141.3038,43.07584]],[[141.30509,43.07505],[141.31037,43.07186],[141.31256,43.07088]],[[141.3038,43.07584],[141.30509,43.07505]],[[141.33139,43.05736],[141.34028,43.05855]],[[141.31256,43.07088],[141.31465,43.07002]],[[141.47386,43.03823],[141.47349,43.03645],[141.47247,43.03499],[141.47223,43.03481],[141.46548,43.03246]],[[141.4358,43.03015],[141.43453,43.03051]],[[141.42197,43.0361],[141.41181,43.03994]],[[141.32049,43.05587],[141.32942,43.05712]],[[141.41013,43.04059],[141.40567,43.04295],[141.39671,43.04601]],[[141.39671,43.04601],[141.3947,43.04669]],[[141.42396,43.03535],[141.42197,43.0361]],[[141.31473,43.06024],[141.31564,43.0563],[141.31579,43.0561],[141.31633,43.05563],[141.31678,43.05547],[141.31709,43.05543],[141.31854,43.0556]],[[141.45412,43.02829],[141.45217,43.02757]],[[141.46346,43.03175],[141.45942,43.03031],[141.45412,43.02829]],[[141.41181,43.03994],[141.41013,43.04059]],[[141.31854,43.0556],[141.32049,43.05587]],[[141.384,43.05222],[141.38549,43.05135]],[[141.384,43.05222],[141.3796,43.05533],[141.37522,43.05531],[141.3746,43.05567],[141.37336,43.05673]],[[141.43453,43.03051],[141.43294,43.03099],[141.43036,43.03214],[141.42773,43.03341],[141.42554,43.03475],[141.42396,43.03535]],[[141.45217,43.02757],[141.45105,43.02714],[141.45,43.027],[141.44883,43.02701],[141.448,43.02715],[141.4358,43.03015]],[[141.46548,43.03246],[141.46346,43.03175]],[[141.47417,43.03963],[141.47386,43.03823]],[[141.3947,43.04669],[141.39392,43.04697],[141.39184,43.04797],[141.38693,43.05052],[141.38549,43.05135]]]}}