{"type":"Feature","properties":{"id":"札幌市交通事業振興公社_山鼻線","name":"山鼻線","operator":"札幌市交通事業振興公社","railType":"軌道","operatorType":"第三セクター","category":"tram","attribution":"国土数値情報（鉄道データ）国土交通省"},"geometry":{"type":"MultiLineString","coordinates":[[[141.3516,43.03483],[141.35188,43.03247]],[[141.35194,43.03212],[141.35188,43.03247]],[[141.34453,43.03073],[141.34851,43.03102]],[[141.34974,43.04925],[141.34941,43.05148]],[[141.34941,43.05148],[141.3493,43.05194]],[[141.34955,43.05516],[141.35242,43.05552]],[[141.3516,43.03483],[141.35153,43.03529]],[[141.35069,43.04145],[141.35065,43.04189]],[[141.3493,43.05194],[141.34857,43.05487],[141.34863,43.05502],[141.34897,43.05507]],[[141.34039,43.03044],[141.33977,43.0304]],[[141.35017,43.04568],[141.35065,43.04189]],[[141.35114,43.03809],[141.35109,43.03853]],[[141.35017,43.04568],[141.35012,43.04613]],[[141.35069,43.04145],[141.35109,43.03853]],[[141.34979,43.04878],[141.35012,43.04613]],[[141.34979,43.04878],[141.34974,43.04925]],[[141.34039,43.03044],[141.34391,43.03069]],[[141.34916,43.03107],[141.352,43.03125],[141.35194,43.03212]],[[141.34851,43.03102],[141.34916,43.03107]],[[141.35114,43.03809],[141.35153,43.03529]],[[141.35242,43.05552],[141.35304,43.0556]],[[141.34897,43.05507],[141.34955,43.05516]],[[141.34391,43.03069],[141.34453,43.03073]]]}}