{"type":"Feature","properties":{"id":"札幌市_南北線","name":"南北線","operator":"札幌市","railType":"案内軌条式","operatorType":"公営","category":"agt","attribution":"国土数値情報（鉄道データ）国土交通省"},"geometry":{"type":"MultiLineString","coordinates":[[[141.33865,43.10771],[141.33893,43.10732],[141.3404,43.10644],[141.34061,43.10605],[141.342,43.10066]],[[141.33831,43.10897],[141.33865,43.10771]],[[141.34862,43.07419],[141.34837,43.07521]],[[141.34687,43.08118],[141.34664,43.08211]],[[141.34837,43.07521],[141.34687,43.08118]],[[141.342,43.10066],[141.34226,43.09955]],[[141.34226,43.09955],[141.34469,43.09018]],[[141.35082,43.06526],[141.35051,43.06646]],[[141.3523,43.05938],[141.35198,43.06063]],[[141.34664,43.08211],[141.34583,43.08578],[141.34496,43.08904]],[[141.35051,43.06646],[141.34862,43.07419]],[[141.34469,43.09018],[141.34496,43.08904]],[[141.35198,43.06063],[141.35082,43.06526]],[[141.35625,43.03983],[141.35542,43.04061]],[[141.35847,42.99062],[141.35862,42.99174]],[[141.36744,43.0173],[141.36728,43.01635]],[[141.35493,43.04906],[141.35351,43.05466]],[[141.35542,43.04061],[141.35466,43.04192],[141.35455,43.04226],[141.35453,43.04286],[141.3546,43.04389],[141.35518,43.04715],[141.35518,43.04789]],[[141.35322,43.05594],[141.3523,43.05938]],[[141.35797,42.987],[141.35847,42.99062]],[[141.36728,43.01635],[141.36577,43.00933],[141.36505,43.00648]],[[141.35518,43.04789],[141.35493,43.04906]],[[141.37123,43.02614],[141.37107,43.02566],[141.37065,43.02498],[141.36836,43.02295],[141.36791,43.02233],[141.36769,43.02144],[141.36766,43.01923],[141.36744,43.0173]],[[141.36176,43.03712],[141.36063,43.03778]],[[141.36063,43.03778],[141.35986,43.03822],[141.3577,43.03904],[141.35625,43.03983]],[[141.35351,43.05466],[141.35322,43.05594]],[[141.36505,43.00648],[141.36478,43.00553]],[[141.36767,43.03472],[141.36549,43.0355],[141.36176,43.03712]],[[141.35862,42.99174],[141.35927,42.99582],[141.35939,42.99636],[141.3596,42.99685],[141.36052,42.99837],[141.36386,43.00322],[141.36448,43.00453],[141.36478,43.00553]],[[141.37149,43.02732],[141.37123,43.02614]],[[141.36907,43.03452],[141.36767,43.03472]],[[141.36907,43.03452],[141.37131,43.03436],[141.37223,43.0338],[141.37259,43.03336],[141.37269,43.03312],[141.3727,43.03262],[141.37149,43.02732]]]}}