{"type":"Feature","properties":{"id":"札幌市交通事業振興公社_都心線","name":"都心線","operator":"札幌市交通事業振興公社","railType":"軌道","operatorType":"第三セクター","category":"tram","attribution":"国土数値情報（鉄道データ）国土交通省"},"geometry":{"type":"MultiLineString","coordinates":[[[141.35214,43.05893],[141.35251,43.05896],[141.35263,43.05887],[141.35294,43.05769]],[[141.3528,43.05723],[141.3524,43.05883],[141.35214,43.05893]],[[141.35304,43.0556],[141.35316,43.05581],[141.3529,43.05685]],[[141.3529,43.05685],[141.3528,43.05723]],[[141.35305,43.05729],[141.35339,43.05585],[141.35332,43.05571],[141.35304,43.0556]],[[141.35294,43.05769],[141.35305,43.05729]],[[141.35155,43.05886],[141.35214,43.05893]],[[141.35242,43.05552],[141.35304,43.0556]]]}}