{"type":"Feature","properties":{"id":"東京都_6号線三田線","name":"6号線三田線","operator":"東京都","railType":"普通鉄道","operatorType":"公営","category":"rail","attribution":"国土数値情報（鉄道データ）国土交通省"},"geometry":{"type":"MultiLineString","coordinates":[[[139.68499,35.77726],[139.68401,35.77707],[139.68325,35.7771],[139.6824,35.77746],[139.682,35.77778],[139.681,35.77906],[139.67932,35.78157],[139.67898,35.78258],[139.67898,35.78342]],[[139.66035,35.78912],[139.65529,35.79004]],[[139.71848,35.74893],[139.72025,35.74875]],[[139.67914,35.78469],[139.67913,35.78534],[139.67898,35.78578],[139.67863,35.78617],[139.67822,35.78642],[139.67741,35.78662],[139.67367,35.78699]],[[139.67169,35.78717],[139.66844,35.78745],[139.66224,35.78875]],[[139.64682,35.79169],[139.64455,35.7921]],[[139.70946,35.75179],[139.71065,35.75082]],[[139.71065,35.75082],[139.71198,35.74975],[139.71254,35.74957],[139.71496,35.74925],[139.71848,35.74893]],[[139.69416,35.7769],[139.69337,35.77773],[139.69298,35.77803],[139.69179,35.77844],[139.69121,35.77856],[139.69043,35.7786],[139.68984,35.77854],[139.68673,35.77767]],[[139.65529,35.79004],[139.65337,35.7904]],[[139.70253,35.76837],[139.70169,35.7696]],[[139.72814,35.74404],[139.72931,35.74279]],[[139.66224,35.78875],[139.66035,35.78912]],[[139.70169,35.7696],[139.70034,35.77113],[139.69849,35.77305],[139.69677,35.77468],[139.69583,35.77532],[139.6953,35.77578]],[[139.6953,35.77578],[139.69416,35.7769]],[[139.70575,35.76072],[139.70546,35.76148]],[[139.67367,35.78699],[139.67169,35.78717]],[[139.70546,35.76148],[139.70338,35.76689],[139.70253,35.76837]],[[139.72025,35.74875],[139.72133,35.74866],[139.72201,35.74841],[139.72696,35.74522],[139.72814,35.74404]],[[139.67898,35.78342],[139.67914,35.78469]],[[139.68673,35.77767],[139.68499,35.77726]],[[139.65337,35.7904],[139.64682,35.79169]],[[139.70946,35.75179],[139.70893,35.75219],[139.70866,35.75323],[139.70575,35.76072]],[[139.75541,35.70269],[139.75483,35.70459]],[[139.75249,35.72204],[139.75193,35.72063]],[[139.73865,35.7333],[139.74131,35.73107],[139.74409,35.72845]],[[139.74409,35.72845],[139.7454,35.72748]],[[139.72931,35.74279],[139.73691,35.7347],[139.73742,35.73426]],[[139.75483,35.70459],[139.75347,35.70913]],[[139.7454,35.72748],[139.74928,35.72522],[139.75159,35.7244],[139.75186,35.72404],[139.7523,35.7231],[139.75257,35.72225],[139.75249,35.72204]],[[139.75193,35.72063],[139.75137,35.71912],[139.75237,35.71365],[139.75302,35.71077]],[[139.75347,35.70913],[139.75302,35.71077]],[[139.73742,35.73426],[139.73865,35.7333]],[[139.75989,35.67589],[139.7604,35.67735]],[[139.75567,35.66983],[139.75501,35.66852]],[[139.76286,35.6849],[139.76335,35.68698],[139.76402,35.68914],[139.76414,35.68993],[139.76408,35.69017],[139.76394,35.69033],[139.76221,35.69073],[139.76047,35.69204],[139.75898,35.69267],[139.75882,35.69281],[139.75857,35.69411]],[[139.7604,35.67735],[139.76236,35.68324]],[[139.75829,35.69575],[139.75802,35.69648],[139.75553,35.7009],[139.75568,35.70169],[139.75541,35.70269]],[[139.75857,35.69411],[139.75829,35.69575]],[[139.75501,35.66852],[139.75183,35.66169]],[[139.76236,35.68324],[139.76286,35.6849]],[[139.75183,35.66169],[139.75114,35.66028]],[[139.75567,35.66983],[139.75631,35.67106],[139.75755,35.6731],[139.75952,35.67502],[139.75969,35.67523],[139.75989,35.67589]],[[139.7499,35.65468],[139.75021,35.6566]],[[139.71542,35.6332],[139.7159,35.63177]],[[139.73469,35.64385],[139.73388,35.64244]],[[139.74961,35.65275],[139.74897,35.64869]],[[139.74983,35.65416],[139.7499,35.65468]],[[139.72671,35.63814],[139.72501,35.6374]],[[139.75114,35.66028],[139.75046,35.65884],[139.75021,35.6566]],[[139.72501,35.6374],[139.72276,35.63643],[139.72088,35.63544],[139.7174,35.63523],[139.71675,35.63513],[139.71612,35.63491],[139.71564,35.63461],[139.71546,35.63434],[139.71532,35.63377],[139.71542,35.6332]],[[139.7356,35.64549],[139.73469,35.64385]],[[139.74881,35.6476],[139.74814,35.64731],[139.74405,35.64722],[139.74254,35.64782],[139.74215,35.6479],[139.74121,35.64788],[139.7401,35.64756],[139.73879,35.64686],[139.73684,35.64615],[139.7356,35.64549]],[[139.74897,35.64869],[139.74881,35.6476]],[[139.74983,35.65416],[139.74961,35.65275]],[[139.73388,35.64244],[139.73305,35.64077],[139.7329,35.64061],[139.73242,35.64037],[139.73028,35.64007],[139.72976,35.63983],[139.72777,35.63862],[139.72671,35.63814]]]}}