{"type":"Feature","properties":{"id":"東京地下鉄_3号線銀座線","name":"3号線銀座線","operator":"東京地下鉄","railType":"普通鉄道","operatorType":"民営","category":"rail","attribution":"国土数値情報（鉄道データ）国土交通省"},"geometry":{"type":"MultiLineString","coordinates":[[[139.77313,35.68156],[139.77354,35.6822]],[[139.77339,35.68764],[139.77107,35.69329]],[[139.77285,35.70716],[139.77209,35.70571],[139.77181,35.70319]],[[139.77455,35.71154],[139.7767,35.71213]],[[139.77071,35.69414],[139.77032,35.69515],[139.77032,35.69534],[139.7712,35.69768],[139.77172,35.70237]],[[139.76583,35.67195],[139.7649,35.67105]],[[139.79803,35.71107],[139.79752,35.71042]],[[139.7698,35.67619],[139.77043,35.67721]],[[139.7898,35.71001],[139.78291,35.71126]],[[139.77181,35.70319],[139.77172,35.70237]],[[139.78291,35.71126],[139.78151,35.71151]],[[139.79752,35.71042],[139.79673,35.70949],[139.79646,35.70928],[139.79593,35.70909],[139.79518,35.70898],[139.79081,35.70981]],[[139.77354,35.6822],[139.7743,35.68347],[139.77461,35.68464],[139.77378,35.68671]],[[139.79081,35.70981],[139.7898,35.71001]],[[139.77043,35.67721],[139.77313,35.68156]],[[139.77107,35.69329],[139.77071,35.69414]],[[139.77315,35.70838],[139.77285,35.70716]],[[139.78151,35.71151],[139.77743,35.71225],[139.7767,35.71213]],[[139.7698,35.67619],[139.76929,35.67539],[139.76876,35.67475],[139.76583,35.67195]],[[139.77378,35.68671],[139.77339,35.68764]],[[139.77455,35.71154],[139.7743,35.71145],[139.77383,35.71054],[139.77339,35.70937],[139.77315,35.70838]],[[139.72318,35.67247],[139.72511,35.67311]],[[139.73814,35.67552],[139.73773,35.67621]],[[139.74139,35.67187],[139.73914,35.67339],[139.7389,35.67372],[139.73814,35.67552]],[[139.71314,35.66578],[139.71666,35.6699],[139.71698,35.6701],[139.71725,35.67016]],[[139.72511,35.67311],[139.72666,35.67365],[139.73133,35.67506],[139.73608,35.67785],[139.73678,35.67779],[139.73704,35.67752]],[[139.74139,35.67187],[139.7425,35.67116]],[[139.75056,35.67],[139.74968,35.67032]],[[139.71725,35.67016],[139.7184,35.67059]],[[139.7184,35.67059],[139.7224,35.67224],[139.72318,35.67247]],[[139.75935,35.66709],[139.75767,35.66766]],[[139.75767,35.66766],[139.75056,35.67]],[[139.7649,35.67105],[139.76092,35.66739],[139.76055,35.66716],[139.75989,35.66702],[139.75935,35.66709]],[[139.73773,35.67621],[139.73724,35.67699],[139.73704,35.67752]],[[139.74968,35.67032],[139.74906,35.67052],[139.74677,35.67025],[139.74376,35.67071],[139.74303,35.67091],[139.7425,35.67116]],[[139.7118,35.66431],[139.71078,35.66324],[139.71027,35.66285],[139.70614,35.66023],[139.70507,35.65977],[139.70338,35.65932]],[[139.7118,35.66431],[139.71314,35.66578]],[[139.70197,35.65887],[139.70338,35.65932]]]}}