{"type":"Feature","properties":{"id":"東京地下鉄_8号線有楽町線","name":"8号線有楽町線","operator":"東京地下鉄","railType":"普通鉄道","operatorType":"民営","category":"rail","attribution":"国土数値情報（鉄道データ）国土交通省"},"geometry":{"type":"MultiLineString","coordinates":[[[139.78386,35.66522],[139.78333,35.66572],[139.78153,35.66683],[139.77986,35.66844],[139.77934,35.6688],[139.77515,35.66991],[139.77451,35.67016]],[[139.77451,35.67016],[139.77268,35.6709]],[[139.79672,35.65438],[139.79527,35.65593]],[[139.78386,35.66522],[139.78495,35.6642]],[[139.76349,35.67571],[139.76564,35.67523],[139.76591,35.67508]],[[139.82535,35.64564],[139.81726,35.64487],[139.81435,35.64399],[139.8139,35.64404],[139.8127,35.64439],[139.81103,35.64531]],[[139.76765,35.67394],[139.77139,35.67143],[139.77268,35.6709]],[[139.79527,35.65593],[139.79178,35.65932],[139.79124,35.65975],[139.79042,35.66025],[139.78774,35.66174],[139.78617,35.66307],[139.78608,35.663],[139.78495,35.6642]],[[139.76591,35.67508],[139.76765,35.67394]],[[139.81103,35.64531],[139.80963,35.64624]],[[139.82535,35.64564],[139.82786,35.64592]],[[139.80963,35.64624],[139.80503,35.64912],[139.80401,35.64964],[139.80096,35.65077],[139.80014,35.65127],[139.79846,35.65262],[139.79672,35.65438]],[[139.64248,35.77087],[139.63855,35.77183],[139.63811,35.77201],[139.63724,35.77249],[139.6365,35.77301],[139.63565,35.77376],[139.63452,35.77495],[139.63258,35.776]],[[139.65526,35.75697],[139.65727,35.75577],[139.65849,35.75488],[139.66065,35.75323],[139.6645,35.75005]],[[139.63258,35.776],[139.62976,35.77748]],[[139.65526,35.75697],[139.65334,35.75814]],[[139.6785,35.74388],[139.68054,35.74291]],[[139.6645,35.75005],[139.66644,35.74919]],[[139.62976,35.77748],[139.62909,35.77784],[139.62865,35.77895],[139.6286,35.77949],[139.62838,35.78023],[139.62822,35.78053],[139.62743,35.78114],[139.62724,35.78144]],[[139.65334,35.75814],[139.65161,35.75938],[139.65131,35.75997],[139.65048,35.76508],[139.65017,35.7665],[139.6497,35.76779],[139.6494,35.76802],[139.64887,35.76819],[139.64589,35.76893],[139.64552,35.76909]],[[139.66644,35.74919],[139.67588,35.74501]],[[139.67588,35.74501],[139.6785,35.74388]],[[139.64552,35.76909],[139.64248,35.77087]],[[139.61391,35.78793],[139.62283,35.78429],[139.62724,35.78144]],[[139.73315,35.70964],[139.73511,35.70895]],[[139.7098,35.72954],[139.71197,35.72883]],[[139.71787,35.72659],[139.71986,35.72531]],[[139.69029,35.73751],[139.69465,35.73429],[139.69606,35.73371],[139.69736,35.73342]],[[139.68851,35.73884],[139.69029,35.73751]],[[139.6996,35.73301],[139.70163,35.73276],[139.70374,35.7328],[139.70439,35.73263],[139.70509,35.73228]],[[139.71197,35.72883],[139.71259,35.72856],[139.71379,35.7278],[139.71505,35.72719],[139.71686,35.72709],[139.71742,35.72689],[139.71787,35.72659]],[[139.71986,35.72531],[139.72099,35.72454],[139.72335,35.72322],[139.72457,35.72231],[139.72705,35.72003]],[[139.70509,35.73228],[139.70526,35.73211],[139.70934,35.72988],[139.7098,35.72954]],[[139.72785,35.71833],[139.73022,35.71332],[139.73168,35.71061],[139.73203,35.7102],[139.73315,35.70964]],[[139.72705,35.72003],[139.72785,35.71833]],[[139.68054,35.74291],[139.68643,35.74016],[139.68851,35.73884]],[[139.69736,35.73342],[139.6996,35.73301]],[[139.76108,35.67623],[139.76349,35.67571]],[[139.73511,35.70895],[139.7417,35.70793],[139.74252,35.70748],[139.74306,35.70699],[139.7435,35.7064],[139.74421,35.70411],[139.74429,35.70375],[139.74418,35.70271],[139.74389,35.70231]],[[139.74256,35.70035],[139.74132,35.69856],[139.73763,35.69367]],[[139.73763,35.69367],[139.73614,35.69149]],[[139.73699,35.6856],[139.73771,35.68397]],[[139.73771,35.68397],[139.73861,35.68177],[139.73961,35.67965],[139.74007,35.67898],[139.74068,35.67845]],[[139.73614,35.69149],[139.73565,35.69038],[139.7354,35.6894],[139.73554,35.68892],[139.73699,35.6856]],[[139.75081,35.67721],[139.75029,35.67708],[139.74879,35.67713],[139.74788,35.67728],[139.74738,35.67745],[139.74677,35.6778],[139.7461,35.67797],[139.74367,35.67757],[139.74295,35.67757]],[[139.75296,35.67772],[139.75081,35.67721]],[[139.74389,35.70231],[139.74256,35.70035]],[[139.74068,35.67845],[139.74174,35.67781],[139.74295,35.67757]],[[139.75296,35.67772],[139.75394,35.6778],[139.75486,35.67776],[139.75526,35.67766],[139.75648,35.67711],[139.75796,35.67677],[139.76108,35.67623]],[[139.61182,35.78877],[139.61391,35.78793]]]}}