{"type":"Feature","properties":{"id":"東京地下鉄_11号線半蔵門線","name":"11号線半蔵門線","operator":"東京地下鉄","railType":"普通鉄道","operatorType":"民営","category":"rail","attribution":"国土数値情報（鉄道データ）国土交通省"},"geometry":{"type":"MultiLineString","coordinates":[[[139.79827,35.68204],[139.79665,35.68195],[139.79598,35.68183],[139.79553,35.68163],[139.79521,35.68135],[139.79378,35.67942],[139.79305,35.67874],[139.79254,35.67844],[139.79212,35.67833],[139.79175,35.67835],[139.79098,35.67856],[139.78861,35.67967],[139.78788,35.68015],[139.78576,35.68231]],[[139.78576,35.68231],[139.78457,35.68368]],[[139.81576,35.6879],[139.81558,35.68951]],[[139.81415,35.70668],[139.81487,35.69861]],[[139.76604,35.68657],[139.76839,35.68636],[139.77032,35.68541],[139.77145,35.68523]],[[139.81415,35.70668],[139.81335,35.71026]],[[139.77145,35.68523],[139.77471,35.68463]],[[139.76377,35.68692],[139.76604,35.68657]],[[139.81487,35.69861],[139.81504,35.69627]],[[139.77471,35.68463],[139.77849,35.68493],[139.78084,35.68564],[139.78173,35.68562],[139.78252,35.68548],[139.78331,35.68514],[139.78457,35.68368]],[[139.81576,35.6879],[139.81593,35.68618],[139.81592,35.68461],[139.81572,35.68346],[139.81553,35.68318],[139.8153,35.68303],[139.81075,35.6827],[139.80141,35.6822]],[[139.81504,35.69627],[139.81558,35.68951]],[[139.80141,35.6822],[139.79827,35.68204]],[[139.71171,35.66441],[139.71305,35.66588]],[[139.72311,35.67264],[139.72504,35.67327]],[[139.71305,35.66588],[139.71657,35.67001],[139.71717,35.67033],[139.72107,35.67191],[139.72311,35.67264]],[[139.75691,35.696],[139.75821,35.69604],[139.7584,35.69585]],[[139.73774,35.6783],[139.73999,35.67851]],[[139.72504,35.67327],[139.72659,35.67382],[139.73126,35.67523],[139.73312,35.67626],[139.73601,35.67801],[139.73659,35.67803],[139.73774,35.6783]],[[139.75691,35.696],[139.75692,35.69592],[139.75387,35.69581],[139.75222,35.69561],[139.75215,35.69569]],[[139.75215,35.69569],[139.75008,35.69533]],[[139.74158,35.68445],[139.74181,35.68631]],[[139.75008,35.69533],[139.75008,35.69526],[139.74891,35.69505],[139.74545,35.694]],[[139.74545,35.694],[139.74482,35.69358],[139.7442,35.69299],[139.74375,35.69217],[139.74345,35.69119],[139.74206,35.68764],[139.74181,35.68631]],[[139.7584,35.69585],[139.75931,35.69555],[139.76005,35.69498],[139.76072,35.6942],[139.76101,35.69348],[139.76104,35.69291],[139.7608,35.6888],[139.76115,35.68783],[139.76162,35.68725],[139.76377,35.68692]],[[139.73999,35.67851],[139.74107,35.6787],[139.74142,35.679],[139.74183,35.67971],[139.74184,35.68189],[139.74155,35.68418],[139.74158,35.68445]],[[139.71171,35.66441],[139.71069,35.66334],[139.71018,35.66295],[139.70604,35.66027],[139.70487,35.65993],[139.7021,35.65945]],[[139.7021,35.65945],[139.69997,35.65945]]]}}