{"type":"Feature","properties":{"id":"東京地下鉄_4号線丸ノ内線分岐線","name":"4号線丸ノ内線分岐線","operator":"東京地下鉄","railType":"普通鉄道","operatorType":"民営","category":"rail","attribution":"国土数値情報（鉄道データ）国土交通省"},"geometry":{"type":"MultiLineString","coordinates":[[[139.68157,35.69716],[139.67806,35.69758],[139.67591,35.69767]],[[139.68284,35.69701],[139.68157,35.69716]],[[139.67348,35.69136],[139.6689,35.69089]],[[139.67448,35.69207],[139.67416,35.69177],[139.67348,35.69136]],[[139.66741,35.69075],[139.66654,35.6904],[139.66518,35.68963],[139.66428,35.68898],[139.66392,35.68833],[139.66374,35.68719],[139.66302,35.68508],[139.66252,35.68478],[139.65867,35.68367]],[[139.65867,35.68367],[139.6572,35.68336]],[[139.67591,35.69767],[139.67483,35.69697],[139.67409,35.69628],[139.6745,35.69312],[139.67448,35.69207]],[[139.6689,35.69089],[139.66741,35.69075]]]}}