{"type":"Feature","properties":{"id":"東京地下鉄_4号線丸ノ内線","name":"4号線丸ノ内線","operator":"東京地下鉄","railType":"普通鉄道","operatorType":"民営","category":"rail","attribution":"国土数値情報（鉄道データ）国土交通省"},"geometry":{"type":"MultiLineString","coordinates":[[[139.765,35.68273],[139.7646,35.68114]],[[139.76746,35.69535],[139.76745,35.69439]],[[139.76443,35.67358],[139.76413,35.67325],[139.76382,35.67306],[139.76323,35.67289]],[[139.76608,35.68639],[139.76566,35.68478],[139.765,35.68273]],[[139.76526,35.70017],[139.76593,35.69995],[139.76622,35.69973],[139.76683,35.6989],[139.76721,35.69799],[139.76747,35.697],[139.76753,35.69645],[139.76741,35.69598],[139.76746,35.69535]],[[139.76355,35.70069],[139.76526,35.70017]],[[139.76745,35.69439],[139.76745,35.69218],[139.76633,35.68736]],[[139.7646,35.68114],[139.76467,35.68076],[139.76566,35.67968],[139.76564,35.67933],[139.76515,35.67771],[139.76525,35.67692],[139.76571,35.67548],[139.76564,35.67523],[139.76496,35.67421],[139.76443,35.67358]],[[139.76633,35.68736],[139.76608,35.68639]],[[139.75164,35.70734],[139.7561,35.70742]],[[139.75164,35.70734],[139.75008,35.70728]],[[139.73649,35.71758],[139.7373,35.71682]],[[139.7373,35.71682],[139.73815,35.71578],[139.73909,35.71419],[139.74045,35.71273],[139.74131,35.71198],[139.74623,35.70825],[139.74677,35.70788],[139.7475,35.70752],[139.74859,35.70728],[139.75008,35.70728]],[[139.75831,35.70747],[139.7595,35.70728]],[[139.62077,35.70419],[139.61875,35.70416]],[[139.71196,35.73008],[139.71391,35.72928],[139.71659,35.73013],[139.71864,35.73068],[139.72134,35.73079],[139.72192,35.73068],[139.72505,35.72896],[139.7288,35.72652]],[[139.72991,35.72574],[139.73218,35.72418],[139.73276,35.72362],[139.73327,35.72294],[139.73418,35.72124],[139.73496,35.71926],[139.73521,35.71888],[139.73649,35.71758]],[[139.71034,35.73061],[139.71196,35.73008]],[[139.7288,35.72652],[139.72991,35.72574]],[[139.7595,35.70728],[139.76006,35.70685],[139.76077,35.70613]],[[139.7561,35.70742],[139.75831,35.70747]],[[139.73814,35.67552],[139.73773,35.67621]],[[139.73773,35.67621],[139.73724,35.67699],[139.73704,35.67752]],[[139.74627,35.67572],[139.74677,35.67593],[139.74734,35.67605],[139.74836,35.676],[139.7519,35.67456]],[[139.72037,35.68793],[139.71828,35.68774]],[[139.74455,35.67429],[139.74546,35.67482],[139.74627,35.67572]],[[139.7299,35.68512],[139.72973,35.68559],[139.7295,35.6858],[139.72821,35.68616],[139.72343,35.68787],[139.72255,35.68803],[139.72189,35.68805],[139.72037,35.68793]],[[139.73704,35.67752],[139.73679,35.67792],[139.73657,35.67804],[139.7337,35.6785],[139.73307,35.67884],[139.73282,35.67909],[139.73262,35.67951],[139.73216,35.68015],[139.73074,35.68145],[139.73029,35.68234],[139.73009,35.68326]],[[139.76323,35.67289],[139.76239,35.67277],[139.76075,35.67224],[139.7604,35.67224],[139.76002,35.67228],[139.75718,35.67326],[139.75646,35.67316],[139.75585,35.67321],[139.75346,35.67391]],[[139.75346,35.67391],[139.7519,35.67456]],[[139.76077,35.70613],[139.76118,35.70487],[139.7618,35.7043],[139.76205,35.70181],[139.76244,35.70163],[139.76317,35.70092],[139.76355,35.70069]],[[139.73009,35.68326],[139.73008,35.68424],[139.7299,35.68512]],[[139.73814,35.67552],[139.73934,35.67428],[139.74039,35.67367],[139.74103,35.67354],[139.74208,35.67358],[139.74342,35.67381],[139.74455,35.67429]],[[139.67029,35.6975],[139.66873,35.69745]],[[139.67591,35.69767],[139.67029,35.6975]],[[139.68157,35.69716],[139.67806,35.69758],[139.67591,35.69767]],[[139.70489,35.69087],[139.70353,35.69149]],[[139.64926,35.69788],[139.64776,35.69784]],[[139.70353,35.69149],[139.70213,35.69209],[139.7013,35.69235]],[[139.63624,35.69918],[139.63491,35.69973]],[[139.6932,35.69428],[139.69192,35.69475]],[[139.71185,35.68834],[139.70998,35.68871]],[[139.65759,35.69806],[139.6552,35.69806],[139.64926,35.69788]],[[139.69192,35.69475],[139.68661,35.69639],[139.68284,35.69701]],[[139.659,35.69787],[139.65759,35.69806]],[[139.64776,35.69784],[139.64275,35.69775],[139.64114,35.69783],[139.64024,35.69794],[139.63841,35.69844],[139.63624,35.69918]],[[139.7013,35.69235],[139.69979,35.69251]],[[139.69979,35.69251],[139.69922,35.6923],[139.69874,35.69227],[139.69821,35.6924],[139.69796,35.69264],[139.69691,35.69319],[139.6932,35.69428]],[[139.63491,35.69973],[139.63105,35.70134],[139.62975,35.70198],[139.627,35.70358],[139.62546,35.70383],[139.62377,35.7043],[139.62331,35.70436],[139.62221,35.70437],[139.62077,35.70419]],[[139.66873,35.69745],[139.66179,35.69752],[139.659,35.69787]],[[139.70998,35.68871],[139.70946,35.68882],[139.70854,35.68916],[139.70489,35.69087]],[[139.71828,35.68774],[139.71592,35.68757],[139.71524,35.68763],[139.71185,35.68834]],[[139.68284,35.69701],[139.68157,35.69716]]]}}