{"type":"Feature","properties":{"id":"東京地下鉄_2号線日比谷線","name":"2号線日比谷線","operator":"東京地下鉄","railType":"普通鉄道","operatorType":"民営","category":"rail","attribution":"国土数値情報（鉄道データ）国土交通省"},"geometry":{"type":"MultiLineString","coordinates":[[[139.76464,35.67155],[139.76337,35.67241]],[[139.77663,35.71099],[139.77653,35.71051],[139.77626,35.7074]],[[139.79182,35.7299],[139.79278,35.73055],[139.79326,35.73066],[139.79392,35.73072],[139.79541,35.73057],[139.79644,35.73067],[139.79753,35.73113],[139.79832,35.73174]],[[139.77626,35.7074],[139.77612,35.70591]],[[139.77169,35.66731],[139.77123,35.66704],[139.77092,35.66699],[139.77047,35.66701],[139.77003,35.66713],[139.76836,35.66849]],[[139.78504,35.72131],[139.78388,35.71983]],[[139.79924,35.73288],[139.80001,35.73396],[139.80106,35.7362],[139.80145,35.73743],[139.8018,35.73936],[139.80333,35.74456],[139.80363,35.74545],[139.80418,35.7466],[139.80499,35.74797]],[[139.79051,35.72867],[139.79024,35.72841],[139.78716,35.72402],[139.78504,35.72131]],[[139.76691,35.66977],[139.76836,35.66849]],[[139.79924,35.73288],[139.79832,35.73174]],[[139.78179,35.6869],[139.78289,35.68562]],[[139.77764,35.71199],[139.77687,35.71146],[139.77663,35.71099]],[[139.79182,35.7299],[139.79051,35.72867]],[[139.78005,35.67976],[139.7792,35.67839]],[[139.7792,35.67839],[139.77775,35.67606]],[[139.77817,35.69112],[139.77778,35.69152],[139.7771,35.69258],[139.776,35.69552],[139.77547,35.69673],[139.7755,35.69719]],[[139.77817,35.69112],[139.77935,35.68973]],[[139.77935,35.68973],[139.78179,35.6869]],[[139.77612,35.70591],[139.77556,35.7003],[139.77555,35.69874]],[[139.7755,35.69719],[139.77555,35.69874]],[[139.78289,35.68562],[139.78316,35.6852],[139.78318,35.68473],[139.7829,35.68386],[139.7817,35.6825],[139.78005,35.67976]],[[139.77693,35.67467],[139.77512,35.67026],[139.77375,35.6689],[139.77326,35.66854]],[[139.77775,35.67606],[139.77693,35.67467]],[[139.76464,35.67155],[139.76691,35.66977]],[[139.77326,35.66854],[139.77169,35.66731]],[[139.77764,35.71199],[139.77834,35.71248],[139.77974,35.71451],[139.78388,35.71983]],[[139.80499,35.74797],[139.80518,35.74855]],[[139.80518,35.74855],[139.806,35.75126]],[[139.73206,35.66325],[139.73232,35.66319],[139.73452,35.66216],[139.73783,35.66116],[139.74146,35.65977],[139.7421,35.65986],[139.7428,35.66024],[139.74305,35.66048],[139.74419,35.66206]],[[139.75144,35.67452],[139.75068,35.67323]],[[139.74526,35.66319],[139.74636,35.66438],[139.74677,35.66503],[139.74755,35.66681]],[[139.76337,35.67241],[139.76131,35.67378]],[[139.74419,35.66206],[139.74526,35.66319]],[[139.75144,35.67452],[139.7526,35.67637],[139.75344,35.67704],[139.75411,35.67725],[139.7546,35.67731],[139.75895,35.67546],[139.75989,35.67476]],[[139.73025,35.66235],[139.73206,35.66325]],[[139.75989,35.67476],[139.76131,35.67378]],[[139.69815,35.64352],[139.69952,35.64469]],[[139.70808,35.64646],[139.70864,35.6469],[139.70924,35.6477]],[[139.70064,35.64561],[139.70088,35.64568],[139.70209,35.64653],[139.70261,35.64665],[139.70312,35.64652],[139.70634,35.64618],[139.70732,35.64617],[139.70808,35.64646]],[[139.70064,35.64561],[139.69952,35.64469]],[[139.72216,35.6524],[139.72241,35.65375],[139.72362,35.65589],[139.72385,35.65659],[139.72388,35.65718],[139.72358,35.65901],[139.72369,35.6594],[139.72416,35.65982],[139.72452,35.65999],[139.72791,35.66121],[139.73025,35.66235]],[[139.72226,35.6506],[139.72216,35.6524]],[[139.70924,35.6477],[139.71103,35.6488],[139.7113,35.64883],[139.71223,35.64857],[139.71384,35.64838],[139.71508,35.64838],[139.72071,35.64927],[139.72143,35.64956],[139.722,35.64997],[139.72216,35.65019],[139.72226,35.6506]],[[139.748,35.66785],[139.74848,35.66887],[139.74912,35.66991],[139.75039,35.67278],[139.75068,35.67323]],[[139.74755,35.66681],[139.748,35.66785]]]}}