{"type":"Feature","properties":{"id":"東京都_10号線新宿線","name":"10号線新宿線","operator":"東京都","railType":"普通鉄道","operatorType":"公営","category":"rail","attribution":"国土数値情報（鉄道データ）国土交通省"},"geometry":{"type":"MultiLineString","coordinates":[[[139.8839,35.68608],[139.88188,35.6858]],[[139.79919,35.68807],[139.7972,35.68804]],[[139.7972,35.68804],[139.79276,35.68797],[139.79133,35.68807],[139.78898,35.68839]],[[139.81666,35.689],[139.81483,35.6889]],[[139.77411,35.69562],[139.76856,35.69589],[139.76788,35.69561]],[[139.78898,35.68839],[139.78727,35.68879]],[[139.78727,35.68879],[139.78573,35.68968],[139.78473,35.6904]],[[139.78369,35.69134],[139.78216,35.69268]],[[139.78216,35.69268],[139.78003,35.69447],[139.77854,35.69542],[139.77626,35.69553]],[[139.80517,35.68834],[139.79919,35.68807]],[[139.81483,35.6889],[139.80708,35.68848]],[[139.89831,35.6941],[139.89731,35.69268]],[[139.78463,35.69052],[139.78369,35.69134]],[[139.90318,35.70543],[139.90254,35.70458],[139.90232,35.70414],[139.90131,35.69926],[139.90103,35.69836],[139.89956,35.69596],[139.89831,35.6941]],[[139.76788,35.69561],[139.76584,35.69482]],[[139.86487,35.68382],[139.86284,35.68375]],[[139.86284,35.68375],[139.86189,35.68383],[139.86073,35.68415],[139.84892,35.68926]],[[139.89731,35.69268],[139.89583,35.69061],[139.89391,35.68881],[139.89306,35.68831],[139.89044,35.68715],[139.88954,35.68689],[139.88866,35.68668],[139.8839,35.68608]],[[139.83522,35.68985],[139.8335,35.68968]],[[139.80708,35.68848],[139.80517,35.68834]],[[139.92627,35.72263],[139.92253,35.71783],[139.92157,35.71668],[139.92082,35.71602],[139.92003,35.71546],[139.91903,35.71496],[139.91576,35.71363],[139.91288,35.71204],[139.90745,35.7086],[139.90532,35.70735],[139.90459,35.70681]],[[139.82536,35.68934],[139.81666,35.689]],[[139.84561,35.69032],[139.84452,35.69035],[139.84106,35.69004],[139.83935,35.68997],[139.83779,35.69009],[139.83522,35.68985]],[[139.92749,35.72407],[139.92627,35.72263]],[[139.8335,35.68968],[139.829,35.68928],[139.82728,35.68933]],[[139.77626,35.69553],[139.77411,35.69562]],[[139.90459,35.70681],[139.90318,35.70543]],[[139.84892,35.68926],[139.84756,35.68985],[139.84561,35.69032]],[[139.88188,35.6858],[139.86937,35.68411],[139.86487,35.68382]],[[139.76584,35.69482],[139.7653,35.69462],[139.76441,35.69443],[139.76376,35.69438],[139.76291,35.69445],[139.76069,35.69599],[139.76044,35.69606],[139.75912,35.69606]],[[139.82728,35.68933],[139.82536,35.68934]],[[139.75215,35.69569],[139.75008,35.69533]],[[139.72357,35.6923],[139.72159,35.69236]],[[139.73828,35.69171],[139.74163,35.69269],[139.74421,35.69356]],[[139.75691,35.696],[139.75912,35.69606]],[[139.74545,35.694],[139.74421,35.69356]],[[139.73828,35.69171],[139.73649,35.6912]],[[139.75215,35.69569],[139.75219,35.69575],[139.75324,35.69591],[139.75432,35.69601],[139.75691,35.69606],[139.75691,35.696]],[[139.75008,35.69533],[139.75003,35.69539],[139.74886,35.69518],[139.74539,35.69412],[139.74445,35.69374],[139.74421,35.69356]],[[139.73649,35.6912],[139.73542,35.69086],[139.7347,35.69075],[139.73266,35.69132],[139.73076,35.69111],[139.72869,35.69117],[139.72736,35.69146],[139.72588,35.69208],[139.72357,35.6923]],[[139.69932,35.68871],[139.69791,35.68815]],[[139.72159,35.69236],[139.71744,35.69124],[139.71702,35.6912],[139.71578,35.69137],[139.71516,35.69136],[139.7141,35.69119],[139.71277,35.69123],[139.70969,35.6916],[139.70914,35.69159],[139.70749,35.69114]],[[139.70749,35.69114],[139.70558,35.69054]],[[139.70558,35.69054],[139.70326,35.68962],[139.69997,35.68897],[139.69932,35.68871]],[[139.78473,35.6904],[139.78463,35.69052]]]}}