{"type":"Feature","properties":{"id":"東京地下鉄_9号線千代田線","name":"9号線千代田線","operator":"東京地下鉄","railType":"普通鉄道","operatorType":"民営","category":"rail","attribution":"国土数値情報（鉄道データ）国土交通省"},"geometry":{"type":"MultiLineString","coordinates":[[[139.80421,35.74838],[139.80385,35.74778],[139.80325,35.74723],[139.80265,35.7469],[139.80208,35.74674],[139.79844,35.74655],[139.79775,35.74658],[139.79707,35.74639],[139.79589,35.7463]],[[139.78197,35.74483],[139.78247,35.74514],[139.78341,35.74549],[139.78635,35.74584],[139.78885,35.74598],[139.79055,35.74643],[139.79589,35.7463]],[[139.8046,35.75002],[139.80548,35.75251],[139.80605,35.7537],[139.80659,35.75457],[139.8096,35.75817],[139.81118,35.75987],[139.81182,35.76037],[139.81296,35.76093],[139.81389,35.76114],[139.82364,35.76216]],[[139.76785,35.73281],[139.76593,35.7319]],[[139.76994,35.70582],[139.76985,35.70405],[139.7696,35.70301],[139.76911,35.70202],[139.76761,35.7005],[139.76576,35.69759]],[[139.76576,35.69759],[139.76514,35.69626]],[[139.83208,35.77653],[139.83199,35.77517],[139.83187,35.77453],[139.8307,35.7715],[139.83038,35.77027],[139.83048,35.76571],[139.83083,35.76402],[139.83075,35.7635],[139.83059,35.7632],[139.82991,35.7628],[139.82614,35.76241]],[[139.83211,35.77725],[139.83208,35.77653]],[[139.77946,35.74118],[139.78063,35.74296]],[[139.77946,35.74118],[139.77703,35.73749],[139.7766,35.73699],[139.77473,35.73573],[139.76785,35.73281]],[[139.8046,35.75002],[139.80421,35.74838]],[[139.76593,35.7319],[139.76513,35.7314],[139.76404,35.7299],[139.76362,35.72908],[139.76347,35.7287],[139.7637,35.72734],[139.76356,35.7266]],[[139.77002,35.70779],[139.76994,35.70582]],[[139.76517,35.7179],[139.76633,35.71675]],[[139.76514,35.69626],[139.76508,35.69613],[139.76526,35.69499],[139.76527,35.69442],[139.76439,35.68997],[139.76437,35.68918],[139.76355,35.68613]],[[139.76633,35.71675],[139.76796,35.71444],[139.76851,35.71254],[139.76867,35.71105],[139.76944,35.71041],[139.76968,35.71005],[139.77002,35.70779]],[[139.78197,35.74483],[139.7839,35.7453],[139.78574,35.74533],[139.78975,35.74568],[139.79227,35.74563],[139.79589,35.7463]],[[139.78063,35.74296],[139.78197,35.74483]],[[139.82614,35.76241],[139.82364,35.76216]],[[139.76356,35.7266],[139.76305,35.72489]],[[139.76305,35.72489],[139.76271,35.72335],[139.76259,35.72161],[139.76264,35.7206],[139.76311,35.72002],[139.76517,35.7179]],[[139.72701,35.6673],[139.72586,35.66624],[139.72541,35.66593]],[[139.76146,35.67956],[139.76015,35.67574],[139.7599,35.67517],[139.7595,35.67469]],[[139.75803,35.67322],[139.75749,35.67271],[139.75698,35.67198],[139.75608,35.67156],[139.75479,35.67133],[139.7526,35.67223]],[[139.7595,35.67469],[139.75803,35.67322]],[[139.76302,35.68437],[139.7621,35.68145]],[[139.7621,35.68145],[139.76146,35.67956]],[[139.73711,35.67267],[139.73645,35.67218],[139.73576,35.67149]],[[139.76355,35.68613],[139.76302,35.68437]],[[139.74458,35.67386],[139.74179,35.6733]],[[139.74179,35.6733],[139.74024,35.67328],[139.73917,35.67337],[139.73871,35.6733],[139.73752,35.67289],[139.73711,35.67267]],[[139.75094,35.67289],[139.74796,35.67405],[139.74748,35.6743],[139.74714,35.67437],[139.74458,35.67386]],[[139.7526,35.67223],[139.75094,35.67289]],[[139.73576,35.67149],[139.73505,35.67091],[139.7338,35.67011],[139.7336,35.6699],[139.73215,35.66903],[139.73162,35.66884],[139.7304,35.66878],[139.72908,35.66838],[139.72754,35.66779],[139.72701,35.6673]],[[139.67877,35.66849],[139.681,35.66954]],[[139.7105,35.66606],[139.71219,35.66524]],[[139.68606,35.6697],[139.68647,35.66953],[139.68738,35.66933],[139.68868,35.66926]],[[139.681,35.66954],[139.68228,35.66999],[139.68332,35.67021],[139.68417,35.67019],[139.68606,35.6697]],[[139.68868,35.66926],[139.6909,35.66894]],[[139.70481,35.66874],[139.7105,35.66606]],[[139.6909,35.66894],[139.69237,35.66881],[139.69477,35.66892],[139.70091,35.66971],[139.70213,35.66965],[139.70307,35.66949]],[[139.71219,35.66524],[139.71279,35.66498],[139.71563,35.66316],[139.71668,35.66299],[139.71777,35.66319],[139.71873,35.66392],[139.71913,35.66407],[139.72415,35.66538],[139.72541,35.66593]],[[139.70307,35.66949],[139.70481,35.66874]]]}}