{"type":"Feature","properties":{"id":"東京都_1号線浅草線","name":"1号線浅草線","operator":"東京都","railType":"普通鉄道","operatorType":"公営","category":"rail","attribution":"国土数値情報（鉄道データ）国土交通省"},"geometry":{"type":"MultiLineString","coordinates":[[[139.78263,35.68662],[139.7845,35.68785],[139.78475,35.68816],[139.78503,35.68892],[139.78514,35.68968],[139.78473,35.6904]],[[139.78473,35.6904],[139.78463,35.69052]],[[139.78263,35.68662],[139.78171,35.68608]],[[139.79725,35.70949],[139.79785,35.70969],[139.79853,35.70977],[139.79912,35.70972],[139.79977,35.70957],[139.80221,35.70847],[139.80368,35.70854]],[[139.78497,35.69304],[139.78463,35.69052]],[[139.79141,35.70361],[139.79322,35.70513],[139.79369,35.70561],[139.79488,35.70699],[139.79594,35.70849]],[[139.76645,35.66901],[139.7678,35.6703]],[[139.80544,35.70865],[139.80989,35.70889],[139.81051,35.7091],[139.81158,35.70972]],[[139.77242,35.67617],[139.77181,35.67517]],[[139.77547,35.68109],[139.77242,35.67617]],[[139.76342,35.66673],[139.76415,35.66711],[139.76645,35.66901]],[[139.78693,35.69834],[139.78954,35.70211],[139.7903,35.70268]],[[139.78171,35.68608],[139.78057,35.68548],[139.77891,35.68491],[139.77825,35.6846],[139.77774,35.68425],[139.77699,35.68359],[139.77607,35.68209]],[[139.79725,35.70949],[139.79594,35.70849]],[[139.77607,35.68209],[139.77547,35.68109]],[[139.78497,35.69304],[139.78531,35.69531],[139.78568,35.6963],[139.78598,35.69687]],[[139.7903,35.70268],[139.79141,35.70361]],[[139.80368,35.70854],[139.80544,35.70865]],[[139.78598,35.69687],[139.78693,35.69834]],[[139.77181,35.67517],[139.77048,35.6732],[139.7678,35.6703]],[[139.81158,35.70972],[139.81324,35.71072]],[[139.76342,35.66673],[139.76287,35.66652]],[[139.75852,35.66432],[139.75947,35.66544]],[[139.75947,35.66544],[139.76049,35.66671],[139.76104,35.66654],[139.76172,35.66647],[139.76287,35.66652]],[[139.72975,35.63122],[139.73098,35.63214]],[[139.7248,35.62752],[139.72693,35.62932],[139.72848,35.63022],[139.72975,35.63122]],[[139.75015,35.64815],[139.7496,35.64799],[139.74881,35.6476]],[[139.71611,35.61374],[139.71664,35.61511]],[[139.70679,35.58793],[139.71116,35.59376],[139.71171,35.59575]],[[139.75477,35.65738],[139.75525,35.66032],[139.75852,35.66432]],[[139.70583,35.58658],[139.70585,35.58668]],[[139.72357,35.6267],[139.7248,35.62752]],[[139.73938,35.63746],[139.74008,35.6388]],[[139.7384,35.63483],[139.73938,35.63746]],[[139.73098,35.63214],[139.73225,35.63259],[139.73378,35.63269],[139.73543,35.63265],[139.73636,35.63286],[139.73731,35.63359],[139.7384,35.63483]],[[139.71199,35.59714],[139.71344,35.60442]],[[139.71664,35.61511],[139.7176,35.61716],[139.7208,35.62336],[139.72157,35.62499],[139.72185,35.62542],[139.72357,35.6267]],[[139.75477,35.65738],[139.75459,35.65591]],[[139.71344,35.60442],[139.71374,35.60593]],[[139.71374,35.60593],[139.71435,35.60899],[139.71611,35.61374]],[[139.70585,35.58668],[139.70679,35.58793]],[[139.74881,35.6476],[139.74677,35.64667],[139.74431,35.64518],[139.74345,35.64456],[139.74266,35.6437],[139.74008,35.6388]],[[139.75459,35.65591],[139.75388,35.65121],[139.75308,35.64912],[139.75286,35.64893],[139.75015,35.64815]],[[139.71171,35.59575],[139.71199,35.59714]]]}}