{"type":"Feature","properties":{"id":"東京都_12号線大江戸線","name":"12号線大江戸線","operator":"東京都","railType":"普通鉄道","operatorType":"公営","category":"rail","attribution":"国土数値情報（鉄道データ）国土交通省"},"geometry":{"type":"MultiLineString","coordinates":[[[139.78479,35.66441],[139.78338,35.66338]],[[139.76632,35.6653],[139.76461,35.66669],[139.76426,35.66684],[139.76342,35.66673]],[[139.79322,35.70513],[139.79366,35.70451],[139.79432,35.7041],[139.79536,35.70392],[139.79608,35.70395]],[[139.79875,35.68222],[139.79858,35.68367]],[[139.78338,35.66338],[139.77778,35.65938]],[[139.79858,35.68367],[139.79826,35.68726]],[[139.77778,35.65938],[139.77653,35.65851]],[[139.79814,35.68875],[139.79749,35.69603]],[[139.79737,35.69751],[139.79749,35.69603]],[[139.76718,35.66462],[139.76632,35.6653]],[[139.79737,35.69751],[139.79692,35.70272],[139.79676,35.7035],[139.79644,35.70379],[139.79608,35.70395]],[[139.7915,35.70578],[139.79074,35.70605],[139.78272,35.70692]],[[139.79826,35.68726],[139.79814,35.68875]],[[139.79542,35.67324],[139.79479,35.6723]],[[139.79542,35.67324],[139.79591,35.67424],[139.79612,35.67506],[139.79609,35.6756],[139.79632,35.67618],[139.79905,35.67962],[139.79906,35.68001],[139.79875,35.68222]],[[139.793,35.70522],[139.79322,35.70513]],[[139.78479,35.66441],[139.79246,35.6702],[139.79425,35.6717],[139.79479,35.6723]],[[139.77387,35.70788],[139.7811,35.70709]],[[139.77653,35.65851],[139.77554,35.65783],[139.77473,35.65739],[139.77423,35.65734],[139.7731,35.65753],[139.77241,35.65814],[139.77189,35.6592],[139.77143,35.66041],[139.77099,35.66113],[139.77033,35.66193],[139.76939,35.66282],[139.76718,35.66462]],[[139.79322,35.70513],[139.79426,35.70513],[139.79469,35.70508],[139.79503,35.70494],[139.79535,35.70472],[139.79608,35.70395]],[[139.77226,35.70804],[139.77387,35.70788]],[[139.793,35.70522],[139.7915,35.70578]],[[139.78272,35.70692],[139.7811,35.70709]],[[139.64923,35.74248],[139.64909,35.74314],[139.64842,35.7443],[139.64818,35.74491],[139.64805,35.74545],[139.64791,35.74727],[139.64774,35.74785],[139.64748,35.74833],[139.64706,35.74878],[139.64653,35.74916],[139.6457,35.74956],[139.64161,35.75108]],[[139.62997,35.75848],[139.62851,35.75846]],[[139.64161,35.75108],[139.63991,35.75164]],[[139.63991,35.75164],[139.63707,35.75263],[139.63571,35.75323],[139.63522,35.75356],[139.63483,35.75391],[139.63453,35.75443],[139.63384,35.75671],[139.63318,35.75751],[139.63236,35.75812],[139.63184,35.75835],[139.63122,35.75848],[139.62997,35.75848]],[[139.7598,35.70754],[139.76143,35.70758]],[[139.67133,35.73221],[139.6698,35.73277]],[[139.65551,35.73748],[139.65363,35.73715]],[[139.68387,35.72282],[139.68351,35.72329],[139.68315,35.72395]],[[139.75136,35.7085],[139.75298,35.70849]],[[139.68662,35.71452],[139.68842,35.71841],[139.68849,35.71879],[139.68844,35.71915],[139.68827,35.71956],[139.68804,35.71981],[139.68535,35.72162],[139.68435,35.72235],[139.68387,35.72282]],[[139.64918,35.74074],[139.64923,35.74248]],[[139.76143,35.70758],[139.76368,35.70754],[139.76573,35.70734],[139.76628,35.70741],[139.76708,35.70767],[139.76797,35.70815],[139.76844,35.7083],[139.77226,35.70804]],[[139.68296,35.70672],[139.68354,35.70802]],[[139.68315,35.72395],[139.68184,35.72666],[139.68123,35.72734],[139.67975,35.72828],[139.67761,35.72947],[139.67385,35.73121],[139.67133,35.73221]],[[139.74646,35.70335],[139.74698,35.70366],[139.74723,35.70398],[139.74792,35.70598],[139.74838,35.70678],[139.74888,35.70737],[139.7494,35.7078],[139.75031,35.7083],[139.75136,35.7085]],[[139.68354,35.70802],[139.686,35.71321]],[[139.74503,35.70285],[139.74392,35.70266]],[[139.74392,35.70266],[139.74279,35.70285],[139.74114,35.70344],[139.74072,35.70345],[139.73958,35.70328]],[[139.6698,35.73277],[139.66636,35.73397],[139.6634,35.73469],[139.6604,35.73656],[139.65988,35.73676],[139.65605,35.73754],[139.65551,35.73748]],[[139.65363,35.73715],[139.65188,35.73702],[139.65119,35.7371],[139.65039,35.73742],[139.6499,35.7378],[139.64953,35.7382],[139.64927,35.73868],[139.64916,35.73991],[139.64918,35.74074]],[[139.75298,35.70849],[139.75364,35.70847],[139.75396,35.70838],[139.75551,35.70759],[139.7561,35.70742]],[[139.7561,35.70742],[139.75831,35.70747]],[[139.75831,35.70747],[139.7598,35.70754]],[[139.686,35.71321],[139.68662,35.71452]],[[139.74646,35.70335],[139.74503,35.70285]],[[139.73076,35.66448],[139.73179,35.66365]],[[139.73531,35.70062],[139.73184,35.69948],[139.73042,35.69915],[139.72994,35.69915],[139.72843,35.69936],[139.72599,35.6994]],[[139.71894,35.6994],[139.71743,35.69893]],[[139.73958,35.70328],[139.73915,35.7031],[139.7378,35.70176],[139.73677,35.70121]],[[139.76245,35.66625],[139.76009,35.66358]],[[139.76009,35.66358],[139.75974,35.66317],[139.75909,35.66139],[139.75887,35.65992],[139.75838,35.65798],[139.75803,35.65713],[139.75776,35.65675],[139.75759,35.65667],[139.75643,35.65662]],[[139.72434,35.67216],[139.72362,35.67368]],[[139.72439,35.69952],[139.72236,35.69973],[139.72102,35.70003],[139.71894,35.6994]],[[139.72434,35.67216],[139.7247,35.67181],[139.72598,35.67143],[139.7264,35.67121],[139.72682,35.6699],[139.72729,35.66759],[139.72754,35.66695],[139.73076,35.66448]],[[139.73677,35.70121],[139.73531,35.70062]],[[139.72362,35.67368],[139.72338,35.6742],[139.7231,35.67447],[139.72246,35.67477],[139.72223,35.67502],[139.72033,35.6785],[139.71973,35.67907],[139.71927,35.6793],[139.71808,35.6796],[139.71583,35.67963]],[[139.71583,35.67963],[139.71392,35.68008]],[[139.72599,35.6994],[139.72439,35.69952]],[[139.76287,35.66652],[139.76245,35.66625]],[[139.76342,35.66673],[139.76287,35.66652]],[[139.68293,35.69717],[139.68299,35.69858]],[[139.69952,35.68716],[139.69918,35.68809]],[[139.71392,35.68008],[139.70936,35.68118],[139.70695,35.68113],[139.70613,35.68099],[139.7051,35.68052],[139.70455,35.68037],[139.70416,35.68034],[139.70361,35.68042],[139.70316,35.68057],[139.70273,35.68083],[139.70238,35.68118],[139.70218,35.68154],[139.70174,35.683]],[[139.68299,35.69858],[139.68304,35.70042],[139.68298,35.70085],[139.68254,35.70184],[139.68244,35.70246],[139.68275,35.70593],[139.68296,35.70672]],[[139.68535,35.6902],[139.68398,35.6896]],[[139.71743,35.69893],[139.7149,35.69788],[139.71442,35.69777],[139.71095,35.69766],[139.70852,35.69779]],[[139.69345,35.69073],[139.6918,35.69045]],[[139.69901,35.69382],[139.69931,35.6925]],[[139.70131,35.68456],[139.70114,35.68511],[139.69985,35.68656],[139.69952,35.68716]],[[139.6918,35.69045],[139.68912,35.69006],[139.68794,35.69016],[139.68647,35.69046],[139.68569,35.69038],[139.68535,35.6902]],[[139.70686,35.698],[139.70462,35.69824],[139.69922,35.69802],[139.69856,35.69797],[139.69824,35.69787],[139.69801,35.69747],[139.69805,35.69699],[139.69901,35.69382]],[[139.69918,35.68809],[139.69876,35.69026],[139.69865,35.6905],[139.69843,35.69067],[139.69764,35.6909],[139.69706,35.69094],[139.69428,35.69085]],[[139.68398,35.6896],[139.68332,35.68938],[139.68271,35.68942],[139.68217,35.68963],[139.68193,35.68997],[139.6818,35.69041],[139.68188,35.69165],[139.68287,35.69656],[139.68293,35.69717]],[[139.69345,35.69073],[139.69428,35.69085]],[[139.69932,35.69234],[139.69923,35.69194],[139.69899,35.69163],[139.69817,35.69129],[139.69428,35.69085]],[[139.69931,35.6925],[139.69932,35.69234]],[[139.70852,35.69779],[139.70686,35.698]],[[139.70174,35.683],[139.70131,35.68456]],[[139.73682,35.65633],[139.73972,35.65578],[139.74215,35.65515],[139.74342,35.65505]],[[139.75498,35.65674],[139.75643,35.65662]],[[139.75021,35.6566],[139.7507,35.65686],[139.75174,35.65706],[139.75498,35.65674]],[[139.7499,35.65468],[139.75021,35.6566]],[[139.74497,35.65489],[139.74611,35.65468],[139.74828,35.65387],[139.74858,35.65384],[139.74928,35.65395],[139.74961,35.65421],[139.7499,35.65468]],[[139.73179,35.66365],[139.73232,35.66319],[139.73284,35.66203],[139.73287,35.66132],[139.7324,35.65926],[139.73253,35.65834],[139.73268,35.65795],[139.73322,35.65733],[139.73352,35.65714],[139.73402,35.65694],[139.73539,35.65665]],[[139.73539,35.65665],[139.73682,35.65633]],[[139.74342,35.65505],[139.74497,35.65489]]]}}