{"type":"Feature","properties":{"id":"東日本旅客鉄道_五日市線","name":"五日市線","operator":"東日本旅客鉄道","railType":"普通鉄道(JR)","operatorType":"JR在来線","category":"rail","attribution":"国土数値情報（鉄道データ）国土交通省"},"geometry":{"type":"MultiLineString","coordinates":[[[139.22876,35.73271],[139.23034,35.73368],[139.23063,35.73381],[139.23123,35.7339],[139.23208,35.73369],[139.23613,35.73126],[139.2369,35.73098],[139.23788,35.73107],[139.24127,35.73163],[139.24217,35.73168],[139.24534,35.7312],[139.25071,35.73133],[139.25233,35.73129],[139.25557,35.73102]],[[139.34112,35.72421],[139.34285,35.72202]],[[139.33609,35.72813],[139.33697,35.72755],[139.34112,35.72421]],[[139.25704,35.73089],[139.25557,35.73102]],[[139.33609,35.72813],[139.33537,35.72845]],[[139.28745,35.72795],[139.28605,35.72815]],[[139.34285,35.72202],[139.34409,35.72037]],[[139.3124,35.72594],[139.31095,35.72593]],[[139.28605,35.72815],[139.28053,35.72877],[139.27072,35.72962]],[[139.31095,35.72593],[139.3055,35.72585],[139.30274,35.72589],[139.28745,35.72795]],[[139.22876,35.73271],[139.22748,35.73158]],[[139.26945,35.72976],[139.25704,35.73089]],[[139.33537,35.72845],[139.33448,35.72868],[139.33372,35.72871],[139.32233,35.72635],[139.31907,35.72578],[139.31454,35.72595],[139.3124,35.72594]],[[139.27072,35.72962],[139.26945,35.72976]]]}}