{"type":"Feature","properties":{"id":"東海旅客鉄道_紀勢線","name":"紀勢線","operator":"東海旅客鉄道","railType":"普通鉄道(JR)","operatorType":"JR在来線","category":"rail","attribution":"国土数値情報（鉄道データ）国土交通省"},"geometry":{"type":"MultiLineString","coordinates":[[[136.20215,34.00142],[136.20295,34.00153]],[[136.33941,34.20911],[136.34046,34.20955]],[[136.33818,34.20858],[136.33941,34.20911]],[[136.24237,34.01547],[136.24274,34.01607],[136.24294,34.01674]],[[136.09921,33.89016],[136.10073,33.89145],[136.1049,33.89387],[136.10757,33.89529],[136.11477,33.90044],[136.11736,33.90194]],[[135.99505,33.72356],[135.99384,33.7251]],[[136.20295,34.00153],[136.20917,34.00247],[136.21062,34.0029],[136.21275,34.00381],[136.21593,34.0044],[136.23618,34.01133],[136.23781,34.01192],[136.23894,34.01247],[136.2402,34.01342],[136.24187,34.01491],[136.24237,34.01547]],[[136.44865,34.85017],[136.45235,34.8497]],[[136.11878,33.90254],[136.12494,33.90502],[136.13762,33.90992]],[[136.19018,34.07366],[136.19013,34.075]],[[136.54653,34.50367],[136.54609,34.5033],[136.54525,34.50236]],[[136.22798,34.14205],[136.22633,34.14155],[136.22514,34.141],[136.21815,34.13671],[136.21653,34.13564],[136.21583,34.13506],[136.21543,34.13457],[136.21509,34.13386],[136.21491,34.13292],[136.21499,34.13232],[136.21533,34.13143],[136.22676,34.11259]],[[136.41093,34.33067],[136.41131,34.33192]],[[136.35962,34.27838],[136.36473,34.2806],[136.36574,34.28117],[136.36664,34.28196],[136.36772,34.284],[136.36786,34.28488],[136.36784,34.2864],[136.36809,34.28711],[136.36833,34.28745],[136.36954,34.28854],[136.3722,34.2919],[136.37268,34.29247],[136.37334,34.29306],[136.37425,34.29348],[136.375,34.2936],[136.37625,34.29352],[136.37718,34.29331],[136.37848,34.29314],[136.37889,34.29318],[136.38001,34.29354],[136.38246,34.29539],[136.38626,34.29688],[136.38704,34.29733],[136.38755,34.2978],[136.38786,34.29829],[136.3882,34.29979],[136.38863,34.30077],[136.3891,34.30125],[136.38996,34.30169],[136.39047,34.30181],[136.39162,34.3019],[136.3928,34.30164],[136.39352,34.30129],[136.39487,34.30011]],[[136.19013,34.075],[136.19018,34.07747],[136.19034,34.07821],[136.19094,34.07915],[136.19296,34.08078],[136.19334,34.08126],[136.1936,34.08177],[136.19375,34.08246],[136.19374,34.08304],[136.19362,34.08353],[136.19301,34.08506],[136.19293,34.08551],[136.19297,34.08614],[136.1954,34.09469],[136.19702,34.10079],[136.19742,34.10185],[136.19779,34.10236],[136.19857,34.10291],[136.19917,34.10316],[136.1999,34.10334],[136.2041,34.10379],[136.20469,34.10392],[136.20649,34.10453],[136.20768,34.10461],[136.20826,34.10451],[136.20907,34.1042],[136.21172,34.10264],[136.21224,34.10245],[136.2139,34.10213],[136.21585,34.1019],[136.21801,34.10188],[136.21956,34.10203],[136.22211,34.10251],[136.22297,34.10278],[136.22417,34.10344],[136.22482,34.10398],[136.22551,34.1047],[136.2259,34.1053],[136.22673,34.10685],[136.22737,34.1082],[136.22752,34.10868],[136.22767,34.10977],[136.22758,34.11087],[136.22748,34.11124]],[[136.14391,33.92835],[136.14369,33.92889],[136.14365,33.92967],[136.14375,33.9304],[136.14405,33.931],[136.14487,33.93174],[136.15058,33.93572],[136.15127,33.93584],[136.17789,33.93776],[136.1788,33.93799],[136.17977,33.93844],[136.1806,33.93912]],[[136.02408,33.7603],[136.02901,33.77385],[136.03062,33.77585],[136.03088,33.77628],[136.03141,33.77823],[136.03201,33.77964],[136.03236,33.78019],[136.03527,33.78358],[136.03568,33.7842],[136.03599,33.78492],[136.03628,33.78639],[136.03625,33.78882],[136.03672,33.79014],[136.03682,33.79068],[136.03683,33.79113],[136.03634,33.79319],[136.03622,33.79439],[136.03634,33.79497],[136.03681,33.79627],[136.03827,33.79939],[136.0386,33.79991],[136.03999,33.80176],[136.04202,33.8042]],[[136.49956,34.76215],[136.49922,34.7634]],[[136.11736,33.90194],[136.11878,33.90254]],[[136.49922,34.7634],[136.49827,34.76658],[136.4978,34.7677],[136.49704,34.76888],[136.49319,34.77432],[136.49227,34.77523],[136.49147,34.77579],[136.48854,34.77701],[136.48754,34.77764],[136.48725,34.77792],[136.48444,34.78157],[136.48395,34.78227],[136.48372,34.78277],[136.48266,34.7881],[136.48261,34.78876],[136.48317,34.79308],[136.48342,34.79392],[136.48372,34.79438],[136.4843,34.79494],[136.48582,34.79613],[136.48616,34.79656],[136.48639,34.79713],[136.48691,34.79936],[136.4869,34.80016],[136.48685,34.80047],[136.48618,34.80181],[136.48538,34.80465],[136.48502,34.80546],[136.48462,34.806],[136.48403,34.80655],[136.48145,34.80861],[136.48086,34.80936],[136.48051,34.81034],[136.47964,34.81358]],[[136.13762,33.90992],[136.13858,33.91031]],[[136.01593,33.73707],[136.0192,33.73993],[136.01983,33.74068],[136.02016,33.74142],[136.02034,33.74234],[136.01992,33.74395],[136.01987,33.74439],[136.01992,33.74539],[136.02032,33.7465],[136.02106,33.74789],[136.02286,33.75433],[136.0231,33.7555],[136.02337,33.75794],[136.02383,33.75962]],[[136.39487,34.30011],[136.3965,34.29909]],[[136.0151,33.73638],[136.01593,33.73707]],[[136.08581,33.87645],[136.0871,33.87812],[136.08786,33.87882],[136.0888,33.87926],[136.09086,33.87967],[136.09191,33.88007],[136.09364,33.88144],[136.09579,33.88404],[136.09618,33.88471],[136.09736,33.88749],[136.09834,33.88913]],[[136.47452,34.42022],[136.47256,34.41945]],[[136.512,34.66625],[136.50592,34.6562],[136.50556,34.65546],[136.50533,34.65483],[136.50336,34.64651],[136.50339,34.64543],[136.50619,34.63407],[136.50752,34.61851]],[[135.99384,33.7251],[135.99224,33.72746],[135.99217,33.72838],[135.99238,33.72958],[135.99306,33.7309],[135.99812,33.73919],[135.99872,33.73967],[135.99977,33.74009],[136.00036,33.7402],[136.00114,33.74016],[136.00194,33.73995],[136.00907,33.73607],[136.00984,33.73569],[136.0109,33.73534],[136.01169,33.73521],[136.01302,33.73534],[136.01408,33.73564],[136.0151,33.73638]],[[136.062,33.83915],[136.0627,33.84039]],[[136.50891,34.4451],[136.50977,34.44401]],[[136.51077,34.7334],[136.51067,34.7354]],[[136.1806,33.93912],[136.18106,33.93969]],[[136.53638,34.57617],[136.53518,34.57752]],[[136.22676,34.11259],[136.22748,34.11124]],[[136.57358,34.51475],[136.57264,34.51706]],[[136.28318,34.16818],[136.28636,34.16934],[136.29334,34.1716],[136.29394,34.17181],[136.29456,34.17214],[136.29516,34.17272],[136.29566,34.17354],[136.29649,34.1758],[136.29704,34.1766],[136.29782,34.17726],[136.30099,34.17873],[136.30172,34.17923],[136.30234,34.17982],[136.3059,34.18385],[136.30631,34.18452],[136.30735,34.18766],[136.30803,34.18922],[136.30898,34.19063],[136.3098,34.19141],[136.31176,34.19237],[136.31454,34.19355],[136.3155,34.19405],[136.31811,34.19612],[136.3195,34.19655],[136.32206,34.19651],[136.3229,34.19657],[136.32427,34.19696],[136.32551,34.19754],[136.32622,34.19825],[136.33133,34.20495],[136.33236,34.20643],[136.33276,34.20682],[136.33346,34.20721],[136.33411,34.20743],[136.33664,34.20797],[136.33818,34.20858]],[[136.19023,33.97131],[136.18925,33.97199]],[[136.13858,33.91031],[136.14089,33.91145],[136.14177,33.91197],[136.1429,33.91303],[136.14433,33.91606],[136.14736,33.92212],[136.14756,33.92341],[136.14749,33.92386],[136.14731,33.92432],[136.14679,33.92502],[136.14457,33.92739]],[[136.50752,34.61851],[136.50766,34.61674]],[[136.57264,34.51706],[136.57023,34.52377],[136.57014,34.52455],[136.57021,34.52515],[136.57043,34.52594],[136.57104,34.52754],[136.57118,34.52815],[136.57118,34.52902],[136.57093,34.52985],[136.5704,34.53064],[136.56885,34.53188],[136.56814,34.53217],[136.56489,34.5332],[136.56388,34.53364],[136.56292,34.53417],[136.56181,34.53491],[136.56091,34.53566],[136.56009,34.53672],[136.55845,34.53944],[136.55826,34.53991],[136.55785,34.54206],[136.55684,34.54496],[136.55638,34.54723],[136.55386,34.55334]],[[136.50831,34.74378],[136.5098,34.74093],[136.51032,34.73971],[136.51067,34.7354]],[[136.49956,34.76215],[136.50036,34.75933],[136.50103,34.75756],[136.50165,34.75619],[136.50611,34.74805],[136.50831,34.74378]],[[136.35886,34.27789],[136.35962,34.27838]],[[136.41264,34.36087],[136.41135,34.35934]],[[136.50488,34.70241],[136.50632,34.69948],[136.50776,34.69584],[136.5084,34.6937],[136.50913,34.69073],[136.51229,34.67735],[136.51335,34.67338],[136.51364,34.67196],[136.51377,34.67095],[136.51375,34.66994],[136.5135,34.66888],[136.51324,34.66831]],[[136.53979,34.47887],[136.53829,34.47806]],[[136.3965,34.29909],[136.39774,34.29864],[136.399,34.29839],[136.40018,34.29844],[136.40113,34.2987],[136.40189,34.29925],[136.4057,34.30336],[136.40605,34.30398],[136.40614,34.30469],[136.40609,34.30537],[136.40599,34.30567],[136.40565,34.30621],[136.4051,34.3068],[136.40366,34.30776],[136.40316,34.30839],[136.40293,34.30898],[136.40286,34.3095],[136.40293,34.31014],[136.40314,34.31075],[136.40343,34.31117],[136.4037,34.31141],[136.41219,34.31701],[136.41307,34.31773],[136.41389,34.31888],[136.41409,34.31953],[136.41414,34.32005],[136.41407,34.32066],[136.41379,34.32153],[136.41291,34.32269],[136.41104,34.32487],[136.41083,34.32525],[136.41037,34.32662],[136.41026,34.32712],[136.41029,34.32817],[136.41042,34.32896],[136.41093,34.33067]],[[136.54525,34.50236],[136.54417,34.50135],[136.54345,34.50052],[136.54302,34.49968],[136.54293,34.49892],[136.54334,34.49794],[136.54664,34.49364],[136.54686,34.49327],[136.5471,34.49258],[136.54713,34.49195],[136.54626,34.48755],[136.5463,34.48609],[136.54685,34.48382],[136.54681,34.48321],[136.54645,34.48251],[136.54584,34.48182],[136.54389,34.48057],[136.54351,34.48037],[136.54138,34.47971],[136.53979,34.47887]],[[136.22956,34.14228],[136.22798,34.14205]],[[136.50414,34.7038],[136.50183,34.70728],[136.50013,34.71014],[136.49996,34.71093],[136.49989,34.71375],[136.50004,34.71512],[136.5023,34.72314],[136.50282,34.72385],[136.5034,34.72434],[136.50596,34.72556],[136.50706,34.72638],[136.50763,34.7271],[136.50901,34.72917],[136.51004,34.73026],[136.51054,34.73109],[136.51076,34.73183],[136.51077,34.7334]],[[136.51324,34.66831],[136.512,34.66625]],[[136.50488,34.70241],[136.50414,34.7038]],[[136.55386,34.55334],[136.55324,34.55472]],[[136.51757,34.59169],[136.51618,34.59243],[136.51517,34.59311],[136.51453,34.59373],[136.51389,34.59455],[136.51328,34.59569],[136.50873,34.60565],[136.50859,34.60606],[136.50831,34.60808],[136.50766,34.61674]],[[136.53518,34.57752],[136.53278,34.5802],[136.52744,34.58379],[136.52593,34.5855],[136.52432,34.58808],[136.52348,34.58894],[136.52157,34.59001],[136.51757,34.59169]],[[136.0428,33.80528],[136.04769,33.81324],[136.05032,33.81768],[136.051,33.81902],[136.05256,33.82314],[136.05524,33.82769]],[[136.08538,33.87592],[136.08581,33.87645]],[[136.35646,34.25752],[136.35673,34.25864]],[[136.02383,33.75962],[136.02408,33.7603]],[[136.0627,33.84039],[136.07334,33.85959],[136.07505,33.86252],[136.07571,33.86347],[136.08538,33.87592]],[[136.34208,34.21018],[136.3435,34.21069],[136.34446,34.21079],[136.3478,34.21016],[136.34823,34.21015],[136.34891,34.21035],[136.3516,34.21182],[136.35221,34.21225],[136.3526,34.21254],[136.35377,34.21383],[136.35414,34.21409],[136.35461,34.21431],[136.35543,34.21452],[136.35691,34.21473],[136.35878,34.21564],[136.35992,34.21605],[136.36115,34.21615],[136.36217,34.21589],[136.36313,34.21522],[136.36462,34.21364],[136.36559,34.21301],[136.36648,34.2128],[136.36705,34.21278],[136.36779,34.21287],[136.36888,34.2134],[136.3695,34.21398],[136.37,34.21499],[136.36996,34.21623],[136.3695,34.21712],[136.36886,34.21775],[136.36675,34.21882],[136.36569,34.21962],[136.36514,34.22026],[136.36424,34.22167],[136.36251,34.22409],[136.36184,34.22481],[136.36124,34.22522],[136.3609,34.22534],[136.35941,34.22546],[136.35771,34.22592],[136.35711,34.22631],[136.35666,34.22673],[136.35621,34.22756],[136.35612,34.22799],[136.35619,34.22854],[136.35643,34.22899],[136.35801,34.2312],[136.35828,34.23169],[136.35844,34.23227],[136.35841,34.23304],[136.35811,34.23362],[136.35711,34.23491],[136.35551,34.23656],[136.3549,34.23755],[136.35474,34.23817],[136.35573,34.25084],[136.35646,34.25752]],[[136.40812,34.39443],[136.40996,34.39507]],[[136.40812,34.39443],[136.40444,34.39331],[136.40364,34.39273],[136.40312,34.39209],[136.4029,34.39133],[136.40301,34.39027],[136.40328,34.38961],[136.40425,34.38798],[136.40499,34.38732],[136.40563,34.38696],[136.40647,34.38663],[136.41027,34.38559],[136.41152,34.38497],[136.41267,34.38395],[136.41324,34.38365],[136.41502,34.38323],[136.41553,34.38301],[136.4163,34.38249],[136.41669,34.38204],[136.41698,34.38125],[136.41704,34.38086],[136.41701,34.38031],[136.41678,34.37977],[136.41619,34.37897],[136.41507,34.37787],[136.41477,34.37735],[136.4143,34.37621],[136.4143,34.37516],[136.41532,34.37239],[136.41532,34.37113],[136.41514,34.37041],[136.41393,34.36707],[136.41376,34.36636],[136.41382,34.36578],[136.41441,34.3641],[136.41434,34.36331],[136.41405,34.3626],[136.41264,34.36087]],[[136.22366,34.06202],[136.22235,34.0618]],[[136.28318,34.16818],[136.28159,34.1672]],[[136.33818,34.20858],[136.33895,34.20868],[136.33954,34.20887],[136.34089,34.20947],[136.34208,34.21018]],[[136.41131,34.33192],[136.41204,34.33439],[136.41211,34.33527],[136.41208,34.33576],[136.41172,34.3376],[136.41125,34.33908],[136.41091,34.33985],[136.41018,34.34059],[136.40971,34.34091],[136.40524,34.34315],[136.40468,34.3436],[136.40415,34.34444],[136.40332,34.34711],[136.40244,34.348],[136.40143,34.34864],[136.40093,34.34923],[136.40057,34.34997],[136.4005,34.35081],[136.40067,34.35143],[136.40106,34.3521],[136.4015,34.35251],[136.40246,34.35314],[136.40301,34.3534],[136.40483,34.35371],[136.40638,34.35415],[136.40727,34.35462],[136.40807,34.35542],[136.41135,34.35934]],[[136.50977,34.44401],[136.51109,34.44224],[136.51126,34.44156],[136.51126,34.44082],[136.51115,34.4404],[136.51073,34.43978],[136.51023,34.43926],[136.50945,34.43881],[136.50858,34.4386],[136.50553,34.43846],[136.49987,34.43953],[136.49934,34.43956],[136.49877,34.43951],[136.49789,34.43928],[136.4971,34.43889],[136.49681,34.43865],[136.49635,34.43801],[136.4962,34.43764],[136.49585,34.43584],[136.49569,34.43546],[136.49502,34.43471],[136.492,34.43215],[136.49131,34.43143],[136.49096,34.43086],[136.4908,34.43026],[136.49085,34.42942],[136.49095,34.42906],[136.49238,34.42596],[136.49252,34.42512],[136.49235,34.42431],[136.49207,34.42381],[136.49175,34.4234],[136.4912,34.42295],[136.49078,34.42273],[136.48997,34.4225],[136.48554,34.422],[136.48183,34.42121],[136.48118,34.42114],[136.47868,34.42126],[136.47745,34.42119],[136.4763,34.42087],[136.47452,34.42022]],[[136.34046,34.20955],[136.34208,34.21018]],[[136.05524,33.82769],[136.05562,33.82833]],[[136.24294,34.01674],[136.24331,34.01852],[136.2434,34.02002],[136.24492,34.03315],[136.24495,34.03404],[136.24479,34.03558],[136.24444,34.03726],[136.24315,34.03997],[136.24277,34.04156],[136.24268,34.04362],[136.24273,34.0477],[136.24295,34.04997],[136.24321,34.05151],[136.24326,34.05286],[136.2423,34.05998],[136.24203,34.06083],[136.24171,34.06147],[136.24098,34.06239],[136.24068,34.06263],[136.24022,34.06283],[136.23962,34.06301],[136.23821,34.06326],[136.23516,34.06346],[136.23436,34.06359],[136.23347,34.0639],[136.23207,34.06463],[136.23101,34.06486],[136.22953,34.06474],[136.22883,34.0646],[136.22685,34.0639],[136.22463,34.06246],[136.22366,34.06202]],[[136.35673,34.25864],[136.35694,34.25902],[136.35725,34.25936],[136.35931,34.26073],[136.35976,34.26145],[136.36018,34.26258],[136.36019,34.26326],[136.35988,34.26559],[136.35984,34.26642],[136.36,34.26704],[136.3603,34.26761],[136.36055,34.26916],[136.36053,34.26983],[136.36034,34.27043],[136.3597,34.27148],[136.35769,34.27314],[136.35737,34.27351],[136.35699,34.2746],[136.35708,34.27562],[136.35748,34.27642],[136.35818,34.27726],[136.35886,34.27789]],[[136.55324,34.55472],[136.5522,34.55702],[136.55156,34.5578],[136.55084,34.55842],[136.54885,34.55964],[136.54803,34.56038],[136.5477,34.56089],[136.54696,34.56278],[136.54631,34.56419],[136.54594,34.56491],[136.54517,34.56607],[136.53638,34.57617]],[[136.22235,34.0618],[136.22112,34.06194],[136.21892,34.06259],[136.21577,34.06318],[136.21447,34.06339],[136.21361,34.0634],[136.21279,34.06324],[136.2122,34.06303],[136.20844,34.06105],[136.20771,34.06089],[136.20667,34.06084],[136.20563,34.06097],[136.20506,34.06115],[136.2042,34.06159],[136.20366,34.06202],[136.20179,34.06432],[136.20096,34.06488],[136.20037,34.06517],[136.19919,34.06554],[136.19857,34.06562],[136.19535,34.06553],[136.19459,34.06563],[136.19319,34.06607],[136.19198,34.06684],[136.19099,34.06794],[136.19051,34.06888],[136.19034,34.0699],[136.19018,34.07366]],[[136.18925,33.97199],[136.18624,33.97417],[136.18587,33.97452],[136.1854,33.97526],[136.18532,33.97562],[136.18541,33.97585],[136.19054,33.9859],[136.19731,33.99955],[136.19788,34.00014],[136.19873,34.00065],[136.20215,34.00142]],[[136.57471,34.51155],[136.57358,34.51475]],[[136.54653,34.50367],[136.5507,34.50779],[136.55218,34.50914],[136.55241,34.50932],[136.55333,34.50973],[136.55433,34.50981],[136.55483,34.50976],[136.56565,34.50794],[136.57144,34.50802],[136.57277,34.50841],[136.57329,34.5087],[136.57388,34.50921],[136.57422,34.50959],[136.57451,34.51021],[136.57471,34.51155]],[[136.53829,34.47806],[136.53523,34.47638],[136.52617,34.47072],[136.52556,34.47001],[136.52513,34.46917],[136.52408,34.46621],[136.52342,34.46535],[136.52235,34.46444],[136.52116,34.46392],[136.52069,34.46379],[136.51761,34.46337],[136.51596,34.46285],[136.51323,34.46244],[136.51256,34.46221],[136.51155,34.46154],[136.50566,34.45616],[136.50523,34.45558],[136.50494,34.45475],[136.50493,34.45437],[136.50511,34.45348],[136.5077,34.44683],[136.50786,34.44649],[136.50891,34.4451]],[[136.40996,34.39507],[136.41291,34.39612],[136.41406,34.39669],[136.41483,34.39734],[136.41547,34.39811],[136.41676,34.39918],[136.42176,34.40298],[136.42326,34.40372],[136.42482,34.40407],[136.42614,34.40403],[136.42839,34.40331],[136.42991,34.40257],[136.4306,34.40234],[136.4327,34.40188],[136.43335,34.4018],[136.43392,34.40186],[136.43492,34.4022],[136.43631,34.40283],[136.43909,34.40477],[136.44105,34.40636],[136.44245,34.40768],[136.44436,34.40902],[136.44559,34.40959],[136.44668,34.40987],[136.44947,34.41028],[136.45081,34.41067],[136.45297,34.41164],[136.454,34.41187],[136.45471,34.41184],[136.45515,34.41173],[136.45786,34.41069],[136.45854,34.41054],[136.45932,34.41049],[136.46077,34.41074],[136.46131,34.41101],[136.46232,34.41191],[136.46296,34.41312],[136.46373,34.41406],[136.46885,34.41789],[136.46959,34.4183],[136.47256,34.41945]],[[136.05562,33.82833],[136.062,33.83915]],[[136.28159,34.1672],[136.28008,34.16601],[136.27945,34.16564],[136.27609,34.16438],[136.27557,34.16413],[136.27501,34.16373],[136.27452,34.1632],[136.2743,34.16283],[136.27316,34.16044],[136.2724,34.1596],[136.27121,34.15904],[136.26865,34.15854],[136.26799,34.15824],[136.26723,34.15772],[136.2666,34.15686],[136.26487,34.15409],[136.26426,34.1536],[136.26318,34.15306],[136.26123,34.15256],[136.25803,34.1507],[136.25707,34.15037],[136.25601,34.15015],[136.25551,34.14992],[136.24815,34.14557],[136.24684,34.14505],[136.24515,34.14467],[136.24436,34.14434],[136.24392,34.14397],[136.24364,34.14361],[136.2426,34.14135],[136.24232,34.14091],[136.2419,34.14045],[136.24117,34.13994],[136.24004,34.1396],[136.23944,34.13955],[136.23857,34.13963],[136.23277,34.14194],[136.23131,34.14225],[136.22956,34.14228]],[[136.47966,34.81501],[136.48003,34.81593],[136.48109,34.81773],[136.48138,34.81861],[136.48145,34.81915],[136.48131,34.82004],[136.48111,34.82059],[136.48067,34.82123],[136.47989,34.82176],[136.47739,34.82264],[136.47689,34.82295],[136.47639,34.82349],[136.4746,34.82599],[136.47371,34.82661],[136.47102,34.82763],[136.46803,34.82904],[136.46663,34.82934],[136.46316,34.82971],[136.4626,34.82987],[136.46197,34.83017],[136.4611,34.8308],[136.45817,34.83442],[136.45778,34.83524],[136.45744,34.83659],[136.45733,34.83764],[136.45742,34.84361],[136.45723,34.84487],[136.45676,34.84585],[136.45422,34.8488],[136.4532,34.84947],[136.45236,34.84976],[136.45235,34.8497]],[[136.47964,34.81358],[136.47957,34.8142],[136.47966,34.81501]],[[136.09834,33.88913],[136.09921,33.89016]],[[136.04202,33.8042],[136.0428,33.80528]],[[136.14457,33.92739],[136.14391,33.92835]],[[136.18106,33.93969],[136.18206,33.94103],[136.18899,33.95119],[136.19555,33.96049],[136.196,33.96133],[136.1964,33.96239],[136.19648,33.96328],[136.19607,33.9644],[136.19312,33.96916],[136.19208,33.97014],[136.19023,33.97131]]]}}