{"type":"Feature","properties":{"id":"東海旅客鉄道_武豊線","name":"武豊線","operator":"東海旅客鉄道","railType":"普通鉄道(JR)","operatorType":"JR在来線","category":"rail","attribution":"国土数値情報（鉄道データ）国土交通省"},"geometry":{"type":"MultiLineString","coordinates":[[[136.97065,34.99338],[136.97119,34.99096],[136.97186,34.98197]],[[136.96801,34.99839],[136.97028,34.99433]],[[136.9622,35.00801],[136.96298,35.00688]],[[136.9622,35.00801],[136.96141,35.00938]],[[136.97028,34.99433],[136.97065,34.99338]],[[136.96298,35.00688],[136.96415,35.00535]],[[136.96415,35.00535],[136.9662,35.00325],[136.96682,35.00226],[136.96717,35.0014],[136.96801,34.99839]],[[136.96298,35.00688],[136.96388,35.00526]],[[136.96388,35.00526],[136.96801,34.99839]],[[136.97186,34.98197],[136.97194,34.9808]],[[136.9212,34.85379],[136.92097,34.85275]],[[136.97293,34.96747],[136.97353,34.9595],[136.97364,34.95733],[136.9736,34.95679],[136.97326,34.95533],[136.97103,34.95032]],[[136.9238,34.87473],[136.92317,34.87384]],[[136.97103,34.95032],[136.97037,34.94887]],[[136.97288,34.96826],[136.97293,34.96747]],[[136.96119,34.91944],[136.96102,34.91858]],[[136.93032,34.89347],[136.93031,34.89221],[136.93046,34.89112],[136.9312,34.88782],[136.93137,34.88668],[136.93132,34.88601],[136.93119,34.8856],[136.93089,34.88497],[136.9238,34.87473]],[[136.97194,34.9808],[136.97288,34.96826]],[[136.97037,34.94887],[136.96515,34.93745],[136.96446,34.93578],[136.96366,34.93214],[136.96119,34.91944]],[[136.92317,34.87384],[136.92228,34.87218],[136.92192,34.87113],[136.9216,34.86938],[136.92156,34.86608],[136.92177,34.85919],[136.92176,34.85655],[136.9212,34.85379]],[[136.94046,34.90317],[136.93438,34.9021],[136.93351,34.90178],[136.93267,34.90114],[136.93206,34.90045],[136.93163,34.89955],[136.93054,34.89475]],[[136.93054,34.89475],[136.93032,34.89347]],[[136.96102,34.91858],[136.96048,34.91653],[136.95947,34.91448],[136.95174,34.90638],[136.95007,34.90523],[136.94863,34.90464],[136.94812,34.90449],[136.94223,34.90348]],[[136.94223,34.90348],[136.94046,34.90317]]]}}