{"type":"Feature","properties":{"id":"東武鉄道_東上本線","name":"東上本線","operator":"東武鉄道","railType":"普通鉄道","operatorType":"民営","category":"rail","attribution":"国土数値情報（鉄道データ）国土交通省"},"geometry":{"type":"MultiLineString","coordinates":[[[139.37636,36.04496],[139.3743,36.04537]],[[139.40117,36.03572],[139.40038,36.03711],[139.39991,36.03768],[139.39921,36.03831],[139.39808,36.03897],[139.39306,36.04111],[139.39083,36.04183],[139.38903,36.04227],[139.37636,36.04496]],[[139.47642,35.91488],[139.47777,35.91339]],[[139.3963,35.97132],[139.38999,35.96333],[139.38925,35.96218],[139.38897,35.96146],[139.38888,35.96065],[139.38893,35.95972],[139.38916,35.95887],[139.38957,35.95826],[139.39017,35.95779],[139.3909,35.9574],[139.39207,35.95721],[139.39309,35.95721]],[[139.40803,35.94945],[139.40929,35.94841]],[[139.40929,35.94841],[139.42102,35.93882],[139.42302,35.93735]],[[139.39739,35.97264],[139.3963,35.97132]],[[139.39663,35.957],[139.39597,35.95721],[139.39523,35.95729]],[[139.40803,35.94945],[139.4004,35.9556],[139.39874,35.95636],[139.39663,35.957]],[[139.47777,35.91339],[139.48228,35.90813]],[[139.40187,36.03392],[139.40117,36.03572]],[[139.42502,35.93609],[139.42302,35.93735]],[[139.398,36.00191],[139.39736,36.004]],[[139.39739,35.97264],[139.39806,35.97366],[139.40048,35.98217],[139.40064,35.98281],[139.40067,35.98337],[139.40056,35.98624],[139.40064,35.98908],[139.40062,35.99276],[139.398,36.00191]],[[139.44521,35.92511],[139.46764,35.92038],[139.47029,35.91972],[139.47098,35.91935],[139.47177,35.91878],[139.47508,35.91611],[139.47642,35.91488]],[[139.42502,35.93609],[139.42667,35.93503],[139.44098,35.92645],[139.4417,35.92611],[139.44288,35.92574]],[[139.39523,35.95729],[139.39309,35.95721]],[[139.39736,36.004],[139.39695,36.00563],[139.397,36.0067],[139.39723,36.00754],[139.39763,36.00836],[139.40125,36.01351],[139.40171,36.0145],[139.40201,36.01575],[139.40247,36.02637],[139.4025,36.02852],[139.40233,36.0313],[139.40209,36.0331],[139.40187,36.03392]],[[139.44521,35.92511],[139.44288,35.92574]],[[139.70225,35.7487],[139.70308,35.74809]],[[139.69521,35.75587],[139.69825,35.75436],[139.6993,35.75345],[139.70025,35.75213],[139.70099,35.75086],[139.70143,35.74992],[139.70225,35.7487]],[[139.71632,35.74449],[139.71685,35.74387],[139.71722,35.74294],[139.71724,35.74247],[139.71715,35.74199],[139.71676,35.74104]],[[139.63376,35.77702],[139.63212,35.7781]],[[139.68788,35.75916],[139.68523,35.75991],[139.68332,35.76058],[139.67692,35.7633]],[[139.67692,35.7633],[139.67549,35.76393]],[[139.64433,35.77067],[139.64182,35.77181],[139.6403,35.77263],[139.63376,35.77702]],[[139.64537,35.7703],[139.64433,35.77067]],[[139.69521,35.75587],[139.69356,35.75669]],[[139.68964,35.75865],[139.68788,35.75916]],[[139.66165,35.76875],[139.64922,35.76954],[139.64783,35.7697],[139.64537,35.7703]],[[139.62724,35.78144],[139.63212,35.7781]],[[139.61391,35.78793],[139.62283,35.78429],[139.62724,35.78144]],[[139.69356,35.75669],[139.68964,35.75865]],[[139.67549,35.76393],[139.66957,35.76656],[139.66746,35.76742],[139.66563,35.76805],[139.66343,35.76855]],[[139.71495,35.74551],[139.71543,35.74527],[139.71632,35.74449]],[[139.66343,35.76855],[139.66165,35.76875]],[[139.70308,35.74809],[139.70424,35.74764],[139.70513,35.74744],[139.71302,35.74606],[139.71495,35.74551]],[[139.71128,35.73137],[139.71106,35.73099]],[[139.71676,35.74104],[139.71603,35.73963]],[[139.71603,35.73963],[139.71341,35.73441],[139.71224,35.73284],[139.71128,35.73137]],[[139.57381,35.82312],[139.57459,35.82263]],[[139.56176,35.83102],[139.56316,35.8301]],[[139.5518,35.83754],[139.56176,35.83102]],[[139.54057,35.84489],[139.53834,35.84631]],[[139.54977,35.83886],[139.54057,35.84489]],[[139.57601,35.82171],[139.57658,35.82133]],[[139.53834,35.84631],[139.53402,35.84928],[139.53192,35.85103],[139.52907,35.85397],[139.52382,35.85991]],[[139.56316,35.8301],[139.57381,35.82312]],[[139.48228,35.90813],[139.48401,35.90627]],[[139.48401,35.90627],[139.49483,35.89375],[139.49692,35.89148]],[[139.5518,35.83754],[139.54977,35.83886]],[[139.57459,35.82263],[139.57601,35.82171]],[[139.60054,35.79596],[139.60098,35.79465],[139.60145,35.79387],[139.60212,35.79315],[139.60289,35.79257],[139.6038,35.79207],[139.61182,35.78877]],[[139.57381,35.82312],[139.57454,35.82241],[139.57581,35.82163],[139.57658,35.82133]],[[139.58796,35.8139],[139.59328,35.81028],[139.5951,35.80861],[139.59655,35.80688],[139.59743,35.80536],[139.59816,35.8037],[139.60006,35.79757]],[[139.52236,35.86158],[139.51245,35.87321]],[[139.52382,35.85991],[139.52236,35.86158]],[[139.58664,35.81479],[139.58796,35.8139]],[[139.60006,35.79757],[139.60054,35.79596]],[[139.49768,35.89056],[139.50395,35.88313]],[[139.49768,35.89056],[139.50395,35.88313]],[[139.51245,35.87321],[139.51129,35.87453]],[[139.57658,35.82133],[139.58664,35.81479]],[[139.49768,35.89056],[139.49692,35.89148]],[[139.61182,35.78877],[139.61391,35.78793]],[[139.51129,35.87453],[139.50395,35.88313]],[[139.23379,36.10845],[139.23322,36.10999],[139.23255,36.11089],[139.2318,36.11154],[139.23094,36.11213],[139.22962,36.11266],[139.22845,36.11279],[139.22498,36.11279],[139.22396,36.11289],[139.22249,36.11322],[139.21954,36.11413],[139.21769,36.11448],[139.21627,36.11453],[139.21498,36.11447],[139.20929,36.11381]],[[139.32695,36.04474],[139.32333,36.04638],[139.31853,36.04869],[139.31762,36.04923],[139.31491,36.05108],[139.31449,36.05133],[139.31369,36.05163],[139.31294,36.05178],[139.31222,36.05181],[139.30902,36.05134],[139.30758,36.05132],[139.30662,36.05148],[139.30555,36.05187],[139.30408,36.05271],[139.29968,36.05633],[139.29876,36.05685],[139.2978,36.0572],[139.29659,36.05728],[139.29601,36.05719],[139.29499,36.05695],[139.29423,36.05654],[139.29352,36.05587],[139.29324,36.05546],[139.29253,36.05402],[139.29138,36.05256],[139.29063,36.05191],[139.29017,36.05162],[139.28937,36.05135],[139.2887,36.05129],[139.28766,36.05138],[139.28281,36.05277],[139.28155,36.05352],[139.27859,36.05567],[139.27796,36.05601],[139.27703,36.05635],[139.27499,36.0567],[139.26584,36.05711],[139.2649,36.05722],[139.2637,36.05757],[139.26121,36.05854]],[[139.19985,36.11719],[139.19871,36.11758],[139.19737,36.11784],[139.19669,36.11783],[139.19426,36.11742]],[[139.23764,36.07594],[139.2376,36.0748]],[[139.19426,36.11742],[139.1931,36.1172]],[[139.2376,36.0748],[139.23758,36.07322],[139.23772,36.07271],[139.23809,36.07198],[139.23883,36.07114],[139.24009,36.07014],[139.25075,36.06261],[139.25142,36.06215],[139.25245,36.06164],[139.2577,36.05983],[139.26009,36.05892]],[[139.26121,36.05854],[139.26009,36.05892]],[[139.34516,36.04338],[139.34597,36.04365]],[[139.34516,36.04338],[139.33934,36.0415],[139.33769,36.04123],[139.33611,36.04124],[139.33458,36.04154],[139.33336,36.04196],[139.32853,36.04403]],[[139.20798,36.11364],[139.20706,36.11355],[139.20616,36.11357],[139.20495,36.11385],[139.20441,36.1141],[139.2016,36.11586],[139.20057,36.1167]],[[139.23421,36.10728],[139.23379,36.10845]],[[139.20057,36.1167],[139.19985,36.11719]],[[139.20929,36.11381],[139.20798,36.11364]],[[139.32853,36.04403],[139.32695,36.04474]],[[139.3743,36.04537],[139.37041,36.04622],[139.36662,36.0469],[139.36025,36.04755],[139.35853,36.04753],[139.35726,36.04733],[139.35614,36.04704],[139.34597,36.04365]],[[139.23421,36.10728],[139.23585,36.10285],[139.23596,36.10186],[139.23569,36.10077],[139.23446,36.09858],[139.23436,36.09815],[139.23431,36.09726],[139.23467,36.09625],[139.23611,36.09431],[139.23638,36.09373],[139.23655,36.09299],[139.2365,36.09179]],[[139.23644,36.09098],[139.2363,36.08999],[139.23581,36.08824],[139.23579,36.08651],[139.23592,36.08537],[139.23607,36.08484],[139.23763,36.08219],[139.23787,36.08142],[139.23764,36.07594]],[[139.2365,36.09179],[139.23644,36.09098]]]}}