{"type":"Feature","properties":{"id":"東急電鉄_世田谷線","name":"世田谷線","operator":"東急電鉄","railType":"軌道","operatorType":"民営","category":"tram","attribution":"国土数値情報（鉄道データ）国土交通省"},"geometry":{"type":"MultiLineString","coordinates":[[[139.64116,35.66591],[139.64196,35.6658]],[[139.64189,35.66056],[139.64222,35.66526],[139.64218,35.66562],[139.64196,35.6658]],[[139.6419,35.65984],[139.64189,35.66056]],[[139.65535,35.64395],[139.65463,35.64382]],[[139.65952,35.64585],[139.65884,35.64564],[139.65798,35.64524],[139.65625,35.64426],[139.65535,35.64395]],[[139.65042,35.64346],[139.64758,35.64318],[139.64667,35.64338]],[[139.66961,35.64413],[139.66876,35.64408]],[[139.64667,35.64338],[139.64641,35.64352],[139.64615,35.64385]],[[139.66672,35.64438],[139.66598,35.64466]],[[139.66876,35.64408],[139.66791,35.64409],[139.66672,35.64438]],[[139.64636,35.65452],[139.64588,35.65525],[139.6426,35.65828],[139.64206,35.65908],[139.6419,35.65984]],[[139.65126,35.64353],[139.65042,35.64346]],[[139.64503,35.64791],[139.64649,35.65334],[139.64647,35.65385]],[[139.64647,35.65385],[139.64646,35.65428],[139.64636,35.65452]],[[139.65463,35.64382],[139.65126,35.64353]],[[139.66598,35.64466],[139.66284,35.64594],[139.66185,35.64613],[139.66099,35.64612],[139.6603,35.646]],[[139.64481,35.64719],[139.64503,35.64791]],[[139.6603,35.646],[139.65952,35.64585]],[[139.64615,35.64385],[139.64491,35.64604],[139.64478,35.64655],[139.64481,35.64719]]]}}