{"type":"Feature","properties":{"id":"東日本旅客鉄道_山田線","name":"山田線","operator":"東日本旅客鉄道","railType":"普通鉄道(JR)","operatorType":"JR在来線","category":"rail","attribution":"国土数値情報（鉄道データ）国土交通省"},"geometry":{"type":"MultiLineString","coordinates":[[[141.94644,39.6401],[141.94275,39.6409],[141.94171,39.64085],[141.93745,39.64038]],[[141.17095,39.71607],[141.17195,39.71612]],[[141.13036,39.70654],[141.13006,39.70699],[141.12988,39.70771],[141.12994,39.70872],[141.13015,39.70927],[141.13081,39.70999],[141.13138,39.71037],[141.13388,39.71152],[141.13503,39.71179],[141.13647,39.71168],[141.13868,39.71074],[141.13987,39.71048],[141.14233,39.71068],[141.14745,39.7114]],[[141.13473,39.7027],[141.13036,39.70654]],[[141.91239,39.63239],[141.91153,39.63211]],[[141.2812,39.74159],[141.28059,39.74198]],[[141.3395,39.71109],[141.34171,39.71036],[141.34219,39.71007],[141.34346,39.70882],[141.34362,39.70856],[141.34382,39.70755],[141.34379,39.70611],[141.34397,39.70536],[141.34418,39.70506],[141.34609,39.70308],[141.34628,39.70271],[141.34611,39.69954],[141.34639,39.69845],[141.3464,39.69795],[141.34557,39.69536],[141.33766,39.6767],[141.33757,39.67643],[141.33759,39.67612],[141.33772,39.67561],[141.33809,39.67477],[141.33908,39.67354],[141.33957,39.6732],[141.34032,39.67292],[141.34087,39.67277],[141.34237,39.67258],[141.34343,39.67229],[141.34475,39.67137],[141.34531,39.6709],[141.34565,39.67043],[141.34591,39.66949],[141.34627,39.66678],[141.34649,39.66587],[141.34823,39.65987],[141.34822,39.65872],[141.34807,39.6583],[141.34731,39.65701],[141.3472,39.65654],[141.34719,39.65545],[141.34753,39.6549],[141.34857,39.65388],[141.35114,39.652]],[[141.35171,39.65147],[141.35281,39.65012],[141.35417,39.64795],[141.35482,39.64723],[141.35739,39.64509],[141.35773,39.64489],[141.35841,39.64466],[141.35978,39.64456],[141.36183,39.64487],[141.36316,39.64492],[141.36415,39.64475],[141.36639,39.64414],[141.37146,39.64357],[141.37563,39.64219],[141.37681,39.64205],[141.37824,39.64214],[141.38209,39.6427],[141.38663,39.64311],[141.39151,39.64334],[141.39317,39.64332],[141.39968,39.64289],[141.40152,39.64261],[141.40546,39.64158],[141.40656,39.64144],[141.42075,39.64027],[141.42866,39.63789],[141.43421,39.63719],[141.43611,39.63652],[141.43709,39.63605]],[[141.17195,39.71612],[141.18073,39.71665],[141.18194,39.71695],[141.18304,39.71756],[141.18348,39.71797],[141.1839,39.71855],[141.18412,39.71905],[141.18573,39.7239],[141.18574,39.72451],[141.18526,39.72599],[141.18521,39.72646],[141.18539,39.7273],[141.18553,39.72756],[141.18605,39.72804],[141.18767,39.72926],[141.1881,39.73002],[141.18821,39.73094],[141.18821,39.73235],[141.18869,39.73633],[141.1892,39.7375],[141.19242,39.73991],[141.19293,39.74013],[141.19405,39.74026],[141.19503,39.74024],[141.19735,39.74018],[141.19908,39.74],[141.2,39.74003],[141.20105,39.74028],[141.20158,39.7406],[141.20206,39.74107],[141.20355,39.74347]],[[141.93745,39.64038],[141.93254,39.63981],[141.93096,39.63936],[141.93038,39.6391],[141.92943,39.63849],[141.92765,39.63693],[141.92684,39.63635],[141.92583,39.63578],[141.9226,39.6342],[141.92006,39.63305],[141.91925,39.63294],[141.91588,39.63293],[141.91427,39.63275],[141.91239,39.63239]],[[141.59798,39.64059],[141.59724,39.64094]],[[141.83892,39.62965],[141.83877,39.62894]],[[141.33869,39.71137],[141.33585,39.71245],[141.33526,39.71295],[141.33473,39.71397],[141.33464,39.71455],[141.33469,39.71496],[141.33534,39.71706],[141.3353,39.71893],[141.33537,39.71942],[141.33564,39.71999],[141.33739,39.72182],[141.33773,39.72247],[141.33778,39.72282],[141.33745,39.72425],[141.33709,39.7248],[141.3355,39.72606],[141.33501,39.72672],[141.33479,39.7272],[141.33462,39.72841],[141.33418,39.72945],[141.33388,39.72989],[141.33346,39.73028],[141.33233,39.731],[141.33174,39.73122],[141.33086,39.73131],[141.32758,39.7308],[141.32602,39.73111],[141.32345,39.73259],[141.31237,39.73852],[141.3105,39.7396],[141.30996,39.73976],[141.30877,39.73992],[141.30834,39.73986],[141.30372,39.73882],[141.30319,39.73848],[141.30245,39.73769],[141.30156,39.73655],[141.30077,39.73585],[141.29993,39.73548],[141.29925,39.73537],[141.2977,39.73537],[141.29708,39.73553],[141.29635,39.73592],[141.29556,39.73653],[141.29324,39.73886],[141.29281,39.73909],[141.29215,39.7393],[141.29134,39.73941],[141.29039,39.73943],[141.28746,39.73888],[141.28622,39.73886],[141.28572,39.73895],[141.28516,39.7391],[141.2812,39.74159]],[[141.13802,39.69969],[141.13473,39.7027]],[[141.86178,39.63079],[141.86106,39.63004]],[[141.14745,39.7114],[141.14855,39.71156]],[[141.20355,39.74347],[141.20407,39.74435]],[[141.14855,39.71156],[141.15396,39.71235],[141.15464,39.71268],[141.15625,39.71407],[141.15697,39.71456],[141.15771,39.71487],[141.16198,39.71544],[141.16387,39.71509],[141.16437,39.71508],[141.17095,39.71607]],[[141.91153,39.63211],[141.91009,39.63159],[141.90909,39.63133],[141.90805,39.6313],[141.90647,39.63142],[141.9051,39.63162],[141.90386,39.63207],[141.90254,39.63286],[141.88897,39.63338],[141.88775,39.63328],[141.88616,39.63268],[141.8851,39.63239],[141.88434,39.63239],[141.88251,39.63271],[141.88127,39.63259],[141.88019,39.63225],[141.87829,39.63136],[141.87677,39.63103],[141.87541,39.63101],[141.87285,39.63125],[141.87142,39.63145],[141.86799,39.63213],[141.86661,39.63227],[141.86519,39.63218],[141.86378,39.63185],[141.86253,39.63136],[141.86178,39.63079]],[[141.20407,39.74435],[141.20477,39.74554],[141.20514,39.74598],[141.20581,39.74652],[141.20653,39.74685],[141.2073,39.74703],[141.20803,39.74708],[141.20943,39.74693],[141.21546,39.74602],[141.21738,39.74559],[141.22088,39.74544],[141.22126,39.74535],[141.22227,39.74465],[141.22298,39.74388],[141.22396,39.74301],[141.22536,39.74244],[141.22727,39.74233],[141.22918,39.74243],[141.23031,39.74261],[141.23235,39.74326],[141.2326,39.74328],[141.23679,39.743],[141.23774,39.74275],[141.2382,39.74252],[141.23997,39.74104],[141.24054,39.74068],[141.24162,39.74023],[141.2426,39.73989],[141.24319,39.73978],[141.24607,39.73978],[141.24786,39.73903],[141.24904,39.73868],[141.25045,39.73871],[141.25297,39.73904],[141.25483,39.73892],[141.25702,39.73908],[141.2575,39.73905],[141.25908,39.73863],[141.26033,39.73857],[141.26144,39.73881],[141.26288,39.73944],[141.2638,39.73951],[141.26488,39.73941],[141.26625,39.73899],[141.27,39.73718],[141.27091,39.73701],[141.27193,39.73714],[141.2723,39.73727],[141.27318,39.73782],[141.27338,39.73808],[141.27366,39.73879],[141.27375,39.73999],[141.27329,39.74077],[141.27294,39.74115],[141.27228,39.74161],[141.27047,39.74228],[141.26971,39.74268],[141.26909,39.74313],[141.26838,39.74402],[141.26833,39.74485],[141.26849,39.74564],[141.26867,39.74605],[141.26923,39.74685],[141.2695,39.74705],[141.26991,39.74725],[141.2709,39.74745],[141.2716,39.74742],[141.27222,39.74727],[141.273,39.74692],[141.27551,39.74548],[141.28059,39.74198]],[[141.4378,39.63566],[141.43709,39.63605]],[[141.35114,39.652],[141.35171,39.65147]],[[141.3395,39.71109],[141.33869,39.71137]],[[141.79877,39.62082],[141.79782,39.62121],[141.79742,39.62129],[141.79634,39.62141],[141.79561,39.62129],[141.79311,39.61937],[141.79029,39.61801],[141.78948,39.61735],[141.78909,39.61683],[141.78877,39.61614],[141.78814,39.61377],[141.78796,39.61233],[141.78807,39.61066],[141.788,39.60996],[141.78772,39.60943],[141.78706,39.60876],[141.78645,39.60734],[141.78562,39.60673],[141.78485,39.60649],[141.78412,39.60649],[141.78294,39.60686],[141.78116,39.60774],[141.77968,39.60867],[141.77889,39.60926],[141.778,39.61014],[141.77742,39.61051],[141.77642,39.61093],[141.77545,39.611],[141.77428,39.61076],[141.77377,39.61049],[141.77354,39.61025],[141.77313,39.60953],[141.77219,39.60702],[141.77145,39.60594],[141.77008,39.60512],[141.76838,39.60461],[141.76788,39.60455]],[[141.62608,39.61684],[141.62937,39.61346],[141.63191,39.6111],[141.6337,39.60994],[141.63521,39.60915],[141.63619,39.60896],[141.63768,39.60905],[141.63854,39.60926],[141.64403,39.61106],[141.64507,39.61127],[141.64614,39.61117],[141.64719,39.61081],[141.64797,39.61011],[141.64842,39.60921],[141.64895,39.60867],[141.64935,39.60838],[141.65045,39.60783],[141.65102,39.6074],[141.65153,39.60683],[141.65179,39.60603],[141.65173,39.60553],[141.65151,39.60502],[141.6509,39.60438],[141.65021,39.60396],[141.64757,39.60284],[141.64698,39.6025],[141.64678,39.60228],[141.64647,39.60164],[141.6458,39.59909],[141.64605,39.59829],[141.64652,39.5976],[141.6473,39.59688],[141.64857,39.59631],[141.64964,39.59605],[141.65206,39.59581],[141.65396,39.59603],[141.65491,39.59604],[141.65664,39.59584],[141.65776,39.59551],[141.6593,39.59476],[141.66319,39.59258],[141.66394,39.59189],[141.66436,39.59116],[141.66507,39.59023],[141.66549,39.58991],[141.66636,39.58949],[141.66679,39.58937],[141.66765,39.58929],[141.6689,39.58939],[141.67008,39.58994],[141.6719,39.59111],[141.67262,39.59148],[141.67395,39.59197],[141.67456,39.59208],[141.67508,39.59231],[141.67555,39.59256],[141.67703,39.59362],[141.67912,39.59565],[141.68115,39.59715]],[[141.68186,39.59752],[141.68265,39.59788],[141.68625,39.59913],[141.68805,39.60047],[141.68884,39.60087],[141.68974,39.60111],[141.69037,39.60113],[141.69178,39.60097],[141.69264,39.60108],[141.69339,39.60139],[141.69521,39.60275],[141.69566,39.60295],[141.69641,39.60309],[141.69695,39.60301],[141.69753,39.60281],[141.69785,39.60264],[141.69893,39.60174],[141.69942,39.60154],[141.70481,39.60025],[141.7061,39.60015],[141.7091,39.60078],[141.7101,39.60076],[141.71055,39.60061],[141.71126,39.60021],[141.71162,39.5998],[141.71177,39.59942],[141.71182,39.59833],[141.71191,39.59798],[141.71235,39.59725],[141.71311,39.59659],[141.71399,39.5963],[141.71617,39.59608],[141.71691,39.59593],[141.71928,39.59515],[141.7199,39.59509],[141.72069,39.59518],[141.72286,39.59628],[141.72804,39.59771],[141.72905,39.59823],[141.73021,39.59931],[141.7309,39.59978],[141.73128,39.59989],[141.73212,39.59994],[141.73292,39.59979],[141.7357,39.59865],[141.73771,39.59821],[141.73925,39.59778],[141.74471,39.59611],[141.74527,39.59579],[141.74631,39.59485],[141.74702,39.59452],[141.74892,39.59402],[141.74998,39.59398],[141.75094,39.59416],[141.7518,39.5946],[141.75256,39.59565],[141.75304,39.59664],[141.75337,39.59694],[141.75394,39.59716],[141.75539,39.59754],[141.75635,39.59764],[141.7573,39.59752],[141.75862,39.59715],[141.75933,39.59709],[141.76027,39.59731],[141.76074,39.59756],[141.76115,39.59807],[141.76138,39.59876],[141.76144,39.59932],[141.76125,39.6011],[141.76139,39.60193],[141.7617,39.60261],[141.76214,39.60319],[141.76304,39.60394],[141.76354,39.60416],[141.76428,39.60432],[141.76697,39.60449]],[[141.62554,39.61738],[141.62608,39.61684]],[[141.79983,39.62037],[141.79877,39.62082]],[[141.68115,39.59715],[141.68186,39.59752]],[[141.59724,39.64094],[141.59515,39.64179],[141.59376,39.64215],[141.59206,39.64207],[141.59103,39.64223],[141.5905,39.64253],[141.58991,39.64331],[141.58978,39.64373],[141.58966,39.64489],[141.58952,39.64532],[141.58934,39.64565],[141.5889,39.64616],[141.58849,39.64645],[141.5881,39.64665],[141.58358,39.64821],[141.58107,39.64884],[141.57968,39.64898],[141.57824,39.64885],[141.57701,39.64855],[141.57303,39.64727],[141.57156,39.64649],[141.57025,39.64568],[141.56911,39.64514],[141.56832,39.64491],[141.56691,39.64495],[141.56473,39.64524],[141.56357,39.64528],[141.56285,39.64529],[141.56072,39.6451],[141.55865,39.64485],[141.55664,39.64445],[141.55497,39.64383],[141.55411,39.64342],[141.55378,39.64337],[141.55302,39.64339],[141.5489,39.64401],[141.54628,39.64416],[141.54559,39.64392],[141.54485,39.64341],[141.54438,39.6429],[141.54315,39.64106],[141.54245,39.6405],[141.54204,39.64034],[141.54136,39.64026],[141.53974,39.64036],[141.53868,39.64032],[141.53801,39.64009],[141.53739,39.63961],[141.53714,39.63919],[141.53689,39.63835],[141.53689,39.6381],[141.537,39.63758],[141.53761,39.63641],[141.53768,39.63589],[141.53752,39.63537],[141.53687,39.63441],[141.53597,39.63366],[141.53517,39.63327],[141.53322,39.63252],[141.52954,39.63138],[141.52872,39.63125],[141.52798,39.63145],[141.52563,39.63239],[141.52481,39.63258],[141.5237,39.63259],[141.52283,39.63231],[141.5225,39.63208],[141.5221,39.63165],[141.52192,39.63131],[141.5218,39.62975],[141.5216,39.62936],[141.52108,39.6288],[141.52076,39.62858],[141.51898,39.62777],[141.51679,39.62727],[141.51605,39.62701],[141.51523,39.6264],[141.51413,39.62498],[141.51281,39.62413],[141.51165,39.62352]],[[141.83877,39.62894],[141.83833,39.6271],[141.8381,39.62649],[141.83794,39.62615],[141.83714,39.62527],[141.83641,39.6248],[141.83298,39.62326],[141.83228,39.62303],[141.82894,39.62281],[141.82794,39.62283],[141.82658,39.62303],[141.82563,39.62335],[141.82464,39.62389],[141.8224,39.62561],[141.8216,39.62606],[141.82079,39.62618],[141.81894,39.62615],[141.81707,39.62586],[141.81574,39.62544],[141.8129,39.62379],[141.81151,39.62278],[141.81123,39.62212],[141.81121,39.6209],[141.81082,39.62025],[141.8104,39.61991],[141.80948,39.6194],[141.80728,39.61847],[141.80625,39.61823],[141.80515,39.61832],[141.80381,39.61873],[141.79983,39.62037]],[[141.59798,39.64059],[141.59884,39.64001],[141.59927,39.6394],[141.59942,39.63878],[141.59909,39.63757],[141.59911,39.63691],[141.59927,39.63638],[141.60357,39.63111],[141.60541,39.62874],[141.60622,39.62815],[141.60679,39.6279],[141.6073,39.62776],[141.60832,39.62769],[141.60897,39.62783],[141.61068,39.6287],[141.61216,39.62917],[141.61256,39.62923],[141.61303,39.62918],[141.61403,39.62899],[141.61474,39.62872],[141.61569,39.62802],[141.6161,39.62741],[141.61674,39.62582],[141.61727,39.62489],[141.61773,39.62445],[141.62071,39.62212],[141.62194,39.62103],[141.62361,39.61943],[141.62554,39.61738]],[[141.76788,39.60455],[141.76697,39.60449]],[[141.5109,39.62322],[141.50947,39.62288],[141.50812,39.62285],[141.50692,39.62265],[141.50571,39.62184],[141.50521,39.6213],[141.50509,39.62086],[141.50506,39.62049],[141.50537,39.6192],[141.5053,39.6182],[141.50483,39.61767],[141.50432,39.61726],[141.50386,39.61696],[141.50257,39.61634],[141.5011,39.61599],[141.49979,39.61603],[141.4991,39.61617],[141.498,39.6166],[141.49487,39.6187],[141.4943,39.61879],[141.4935,39.61876],[141.49288,39.61861],[141.49241,39.61832],[141.4909,39.61674],[141.49046,39.61656],[141.48853,39.61608],[141.48828,39.61593],[141.48711,39.61452],[141.48647,39.61406],[141.48584,39.61374],[141.48525,39.61356],[141.48462,39.6135],[141.48328,39.61354],[141.48257,39.61376],[141.48035,39.61476],[141.47762,39.61515],[141.47713,39.61528],[141.47638,39.61575],[141.47589,39.61617],[141.47558,39.61654],[141.47542,39.61687],[141.47527,39.61746],[141.47535,39.62107],[141.47513,39.6216],[141.47439,39.62227],[141.47402,39.62244],[141.47086,39.62336],[141.47032,39.62371],[141.46825,39.62557],[141.46786,39.62577],[141.46575,39.62631],[141.4646,39.62671],[141.46399,39.62673],[141.46194,39.62651],[141.46102,39.62681],[141.46054,39.62719],[141.46017,39.62767],[141.45981,39.62901],[141.45949,39.62957],[141.45908,39.63004],[141.45836,39.63056],[141.45193,39.63332],[141.45087,39.63357],[141.44713,39.63352],[141.44571,39.63339],[141.44348,39.63291],[141.44203,39.63294],[141.44085,39.63336],[141.44043,39.63359],[141.43844,39.63526],[141.4378,39.63566]],[[141.51165,39.62352],[141.5109,39.62322]],[[141.93521,39.3839],[141.93501,39.38321]],[[141.88923,39.30779],[141.88895,39.30842]],[[141.86106,39.63004],[141.86008,39.62923],[141.85915,39.62892],[141.85828,39.62889],[141.8569,39.62928],[141.85562,39.6299],[141.85438,39.63073],[141.85284,39.63261],[141.85058,39.63399],[141.84779,39.63538],[141.84657,39.63577],[141.84577,39.63592],[141.8451,39.63595],[141.84444,39.63587],[141.8438,39.63568],[141.84091,39.63443],[141.84042,39.63399],[141.8398,39.63332],[141.8395,39.63275],[141.83892,39.62965]],[[141.94829,39.63969],[141.94644,39.6401]]]}}