{"type":"Feature","properties":{"id":"東海旅客鉄道_高山線","name":"高山線","operator":"東海旅客鉄道","railType":"普通鉄道(JR)","operatorType":"JR在来線","category":"rail","attribution":"国土数値情報（鉄道データ）国土交通省"},"geometry":{"type":"MultiLineString","coordinates":[[[137.27746,36.05161],[137.27955,36.04936],[137.27995,36.04864],[137.28011,36.04813],[137.28013,36.04755],[137.27991,36.04676],[137.27956,36.04619],[137.2785,36.04486],[137.27826,36.04425],[137.27816,36.04315],[137.27818,36.04193],[137.27829,36.0415],[137.27858,36.04092],[137.27913,36.04027],[137.28013,36.03956],[137.28075,36.03939],[137.28473,36.0387],[137.28676,36.03736],[137.28981,36.0366],[137.29138,36.03572],[137.29163,36.03551],[137.29202,36.03489],[137.29221,36.03411],[137.29222,36.03392],[137.29152,36.03144],[137.29175,36.03048],[137.2921,36.02999],[137.29255,36.02956],[137.29437,36.02854],[137.29514,36.02799],[137.29534,36.02779],[137.29567,36.02711],[137.29566,36.02615],[137.2952,36.02408],[137.29505,36.02351],[137.29444,36.0223],[137.294,36.02181],[137.29337,36.02141],[137.29155,36.02079],[137.2908,36.0204],[137.29023,36.01981],[137.28992,36.01916],[137.2899,36.01852],[137.29007,36.01787],[137.29082,36.01707],[137.29214,36.01596],[137.29262,36.01518],[137.29335,36.01237],[137.29325,36.00995],[137.29314,36.00921],[137.29248,36.00751],[137.29246,36.00671],[137.29262,36.00499],[137.29251,36.00429],[137.29229,36.00386],[137.29148,36.00314],[137.2909,36.00277],[137.28854,36.0017]],[[137.28854,36.0017],[137.28735,36.00121]],[[137.27746,36.05161],[137.27619,36.05307]],[[137.27619,36.05307],[137.2755,36.05389],[137.27499,36.05487],[137.27485,36.05533],[137.27425,36.05874],[137.27385,36.0593],[137.26916,36.06474],[137.2689,36.06514],[137.26875,36.06564],[137.26875,36.06773],[137.26865,36.06811],[137.26832,36.06865],[137.2679,36.06906],[137.26341,36.07139],[137.24794,36.07967],[137.24725,36.07988],[137.24613,36.07976],[137.24549,36.07949],[137.24396,36.07859],[137.243,36.07842],[137.24213,36.07847],[137.24146,36.07866],[137.24057,36.07931],[137.24009,36.08016],[137.24009,36.0809],[137.24098,36.08398],[137.24117,36.08451],[137.24157,36.08524],[137.24294,36.08646],[137.24358,36.08689],[137.24715,36.08821]],[[137.16946,36.24961],[137.16852,36.25018]],[[137.18205,36.38362],[137.18194,36.38425]],[[137.14488,36.26138],[137.14308,36.26189],[137.14183,36.26232],[137.14117,36.26264],[137.13999,36.26345],[137.13937,36.2642],[137.13913,36.26526],[137.1391,36.26783],[137.13897,36.26846],[137.13881,36.26879],[137.13779,36.27013],[137.13732,36.27124],[137.13691,36.27445],[137.13666,36.27522],[137.13615,36.27574],[137.13568,36.27607],[137.13313,36.27739],[137.13243,36.27807],[137.12932,36.28324],[137.12905,36.28386],[137.12881,36.28478],[137.12843,36.28548],[137.12401,36.29143],[137.12304,36.29238],[137.12246,36.29278],[137.12086,36.29361],[137.11909,36.29405],[137.11727,36.29408],[137.11621,36.29426],[137.11514,36.29481],[137.11462,36.29517],[137.11427,36.29561],[137.11392,36.2964],[137.11381,36.2985],[137.11352,36.29959]],[[137.14638,36.26087],[137.14488,36.26138]],[[137.19238,36.23532],[137.18911,36.23737],[137.18814,36.2378]],[[137.14175,36.32778],[137.14337,36.32813],[137.14545,36.32843],[137.14869,36.32845],[137.14993,36.329],[137.15206,36.33127],[137.15269,36.3317],[137.15324,36.33195],[137.15411,36.33224],[137.15498,36.33241],[137.15805,36.33247],[137.15939,36.33267],[137.15995,36.33291],[137.16062,36.33345],[137.16139,36.3343],[137.1634,36.33601],[137.16372,36.33643],[137.16484,36.3372],[137.16723,36.33828],[137.1694,36.33912],[137.17112,36.33965],[137.1732,36.34014],[137.17635,36.34058],[137.17774,36.34067],[137.17912,36.34104],[137.17989,36.34141],[137.18051,36.34185],[137.18221,36.34394],[137.18236,36.3442],[137.1825,36.34473],[137.18283,36.34835],[137.18311,36.34893],[137.1838,36.34958],[137.18686,36.35154],[137.18763,36.35213],[137.18808,36.35266],[137.18911,36.35481],[137.18923,36.35551],[137.18917,36.35741],[137.18937,36.35852],[137.19184,36.36587],[137.19208,36.36693],[137.19193,36.36773],[137.19159,36.36828],[137.1907,36.36917],[137.18978,36.36964],[137.18243,36.37073],[137.18152,36.3711],[137.18091,36.37155],[137.18046,36.37204],[137.17888,36.37424],[137.17841,36.37532],[137.17837,36.37592],[137.17855,36.37659],[137.17884,36.37722],[137.1792,36.37769],[137.18095,36.37934],[137.18137,36.38],[137.18192,36.3816],[137.18209,36.38238],[137.18205,36.38362]],[[137.16946,36.24961],[137.18814,36.2378]],[[137.14007,36.32727],[137.14175,36.32778]],[[137.25131,36.14142],[137.25046,36.14895],[137.25037,36.14926],[137.24698,36.15764],[137.24217,36.16906],[137.2418,36.17034],[137.2418,36.17076],[137.24193,36.17125],[137.2457,36.18066]],[[137.11319,36.30022],[137.11352,36.29959]],[[137.18917,36.23714],[137.18814,36.2378]],[[137.2153,36.21143],[137.2132,36.21282],[137.2121,36.21365],[137.21019,36.2156],[137.19805,36.23058],[137.19652,36.23233],[137.19609,36.23271],[137.1908,36.23611]],[[137.1908,36.23611],[137.18917,36.23714]],[[137.18194,36.38425],[137.18154,36.38528],[137.18006,36.38795],[137.17892,36.39377],[137.17886,36.3947],[137.17897,36.39525],[137.17956,36.39637],[137.18159,36.39933],[137.18205,36.40022],[137.18374,36.40556],[137.18418,36.40642],[137.18465,36.40705],[137.18663,36.40922],[137.18748,36.41002],[137.18789,36.41026],[137.18976,36.41089],[137.19041,36.41128],[137.19104,36.41179],[137.1921,36.41516],[137.1923,36.41558]],[[137.2457,36.18066],[137.24597,36.18131]],[[137.19264,36.41613],[137.19645,36.42165],[137.19673,36.42306],[137.19672,36.42392],[137.19695,36.42462],[137.19705,36.42527],[137.19754,36.42632],[137.19801,36.42695],[137.19845,36.428],[137.19874,36.42846],[137.20165,36.43031],[137.21585,36.43765],[137.21754,36.43928],[137.22,36.44226],[137.22149,36.44429],[137.22167,36.44444],[137.22203,36.44458],[137.22331,36.44476],[137.22946,36.44491],[137.23026,36.44507],[137.23383,36.44704],[137.23422,36.44748],[137.23452,36.448],[137.23611,36.44985],[137.2378,36.4512],[137.23887,36.45223],[137.23915,36.45265],[137.23935,36.45315],[137.23983,36.4554],[137.24039,36.45682],[137.24123,36.45792],[137.24154,36.45846],[137.24193,36.4588],[137.24265,36.4592],[137.24354,36.45983],[137.24425,36.46056],[137.24508,36.46172],[137.24523,36.46213],[137.24528,36.46269],[137.24511,36.46375],[137.24486,36.46441],[137.244,36.46573],[137.24174,36.46831],[137.23829,36.47141]],[[137.24715,36.08821],[137.24818,36.08854]],[[137.19264,36.41613],[137.1923,36.41558]],[[137.24818,36.08854],[137.24957,36.08905],[137.2502,36.08944],[137.25075,36.09011],[137.25155,36.09177],[137.25434,36.09465],[137.25565,36.09541],[137.25674,36.09586],[137.25745,36.09627],[137.25887,36.09733],[137.26089,36.09906],[137.26189,36.0998],[137.26394,36.10109],[137.26437,36.10145],[137.26487,36.10214],[137.2652,36.10295],[137.26536,36.10381],[137.26578,36.10801],[137.26578,36.10846],[137.26561,36.10906],[137.26226,36.11645],[137.25958,36.12326],[137.25933,36.12373],[137.25349,36.13096],[137.25255,36.13234],[137.25226,36.13316],[137.25219,36.13424],[137.25149,36.13996]],[[137.21624,36.21081],[137.2153,36.21143]],[[137.24597,36.18131],[137.24698,36.18371],[137.2476,36.18466],[137.24816,36.18528],[137.24936,36.18622],[137.25586,36.19072],[137.25682,36.19171],[137.25734,36.19256],[137.25773,36.19353],[137.25862,36.19675],[137.25864,36.19734],[137.25836,36.19804],[137.25812,36.19839],[137.25712,36.19924],[137.25647,36.19947],[137.25577,36.1996],[137.24698,36.20046],[137.23565,36.20141],[137.2344,36.20157],[137.23361,36.20178],[137.23286,36.20201],[137.23183,36.20252],[137.22543,36.20648],[137.21971,36.20876],[137.21825,36.20949],[137.21624,36.21081]],[[137.11319,36.30022],[137.11256,36.30105],[137.11025,36.30308],[137.10985,36.30352],[137.10942,36.3043],[137.10943,36.30532],[137.10958,36.30592],[137.10986,36.30638],[137.11119,36.3075],[137.11428,36.30934],[137.11541,36.30976],[137.11953,36.31059],[137.12994,36.31249],[137.13155,36.31283],[137.13233,36.31329],[137.13258,36.31359],[137.133,36.31449],[137.13422,36.31809],[137.13486,36.31969],[137.13569,36.32251],[137.13606,36.32323],[137.1377,36.32561],[137.13882,36.32654],[137.14007,36.32727]],[[137.25149,36.13996],[137.25131,36.14142]],[[137.16852,36.25018],[137.16677,36.25122],[137.16316,36.25311],[137.15239,36.25836],[137.14916,36.25989],[137.14638,36.26087]],[[137.01427,35.44624],[137.01119,35.44641],[137.00992,35.44643],[137.00906,35.44634],[137.00509,35.44531],[137.00396,35.44475],[137.00285,35.44391],[136.99703,35.43835],[136.98823,35.42941],[136.98671,35.42817],[136.98601,35.42772],[136.98524,35.42736],[136.98412,35.42701],[136.97767,35.42647]],[[137.18425,35.57976],[137.18543,35.57899]],[[137.1831,35.63294],[137.18313,35.6336]],[[137.20451,35.91175],[137.20482,35.91017]],[[137.1831,35.63294],[137.18357,35.62799],[137.18337,35.62662],[137.18305,35.62515],[137.18283,35.62465],[137.18235,35.62398],[137.1817,35.62352],[137.18055,35.62312],[137.17843,35.62307],[137.17514,35.62282],[137.1718,35.62304],[137.17133,35.62301],[137.17048,35.62279],[137.16956,35.6222],[137.16638,35.61871],[137.16589,35.61785],[137.16575,35.61727],[137.16581,35.6168],[137.16669,35.61422],[137.1671,35.61365],[137.16754,35.61324],[137.16785,35.61301],[137.16884,35.61264],[137.17019,35.61245],[137.17323,35.61184],[137.17375,35.61167],[137.17433,35.61139],[137.17514,35.61075],[137.17536,35.61042],[137.17554,35.60977],[137.17546,35.60849],[137.17438,35.60316],[137.17158,35.59951],[137.17101,35.59902],[137.17006,35.59839],[137.16903,35.59788],[137.1685,35.59743],[137.16812,35.59693],[137.1679,35.59643],[137.16771,35.59564],[137.16774,35.5942],[137.16791,35.59344],[137.17017,35.59052],[137.17077,35.58956],[137.17159,35.58762],[137.1718,35.58626],[137.17201,35.58552],[137.17241,35.58469],[137.17309,35.58382],[137.17431,35.58269],[137.17476,35.58235],[137.17573,35.58202],[137.18233,35.58056],[137.18311,35.58032],[137.18425,35.57976]],[[137.20482,35.91017],[137.20591,35.90482],[137.20609,35.90433],[137.20801,35.90084],[137.20837,35.9],[137.20905,35.89763],[137.2092,35.89692],[137.2092,35.89639],[137.20904,35.89498],[137.20909,35.89443],[137.2093,35.89368],[137.21191,35.88768],[137.21195,35.88716],[137.21188,35.88663],[137.21171,35.8861],[137.21095,35.88452],[137.21071,35.88075],[137.21082,35.87997],[137.21093,35.87968],[137.21301,35.87649],[137.21342,35.87557]],[[137.18543,35.57899],[137.18825,35.57695],[137.18886,35.5763],[137.18921,35.57579],[137.1896,35.57471],[137.18961,35.5737],[137.18933,35.57303],[137.18893,35.57252],[137.18838,35.572],[137.18781,35.57101],[137.18712,35.56868],[137.1868,35.56694],[137.18619,35.56591],[137.18441,35.56362],[137.18309,35.56116],[137.18272,35.55999],[137.18277,35.55847],[137.18257,35.55769],[137.1822,35.55706],[137.18184,35.5567],[137.18139,35.55644],[137.18059,35.55622],[137.17913,35.55613],[137.17271,35.5566],[137.17233,35.55654],[137.16979,35.55569],[137.1668,35.55511],[137.16563,35.55474],[137.16449,35.55364],[137.1637,35.55266],[137.16339,35.55214],[137.16307,35.55133],[137.16293,35.5501],[137.16281,35.54971],[137.16189,35.5482],[137.16096,35.54734],[137.16053,35.54709],[137.16005,35.54695],[137.15872,35.54694],[137.15716,35.54727],[137.15623,35.54772],[137.15428,35.54928],[137.15382,35.54949],[137.15317,35.54965],[137.15185,35.54971],[137.15125,35.54958],[137.14986,35.54896],[137.14887,35.54817],[137.14264,35.54414],[137.14039,35.54272],[137.13936,35.54225],[137.13832,35.54218],[137.1376,35.54236],[137.13591,35.54331],[137.1354,35.54355],[137.13486,35.54368],[137.1341,35.54376],[137.1329,35.54366],[137.13183,35.54319],[137.13148,35.54285],[137.13115,35.54242],[137.13053,35.54113],[137.13021,35.54068],[137.12953,35.54008],[137.1285,35.53965],[137.12766,35.53952],[137.12663,35.53959],[137.12222,35.5411],[137.11984,35.54139]],[[137.20085,35.72516],[137.20037,35.72609]],[[137.25172,35.79715],[137.25257,35.7963],[137.25327,35.79542],[137.25377,35.79447],[137.2542,35.79308]],[[137.25615,35.95012],[137.25757,35.95145]],[[137.08784,35.51561],[137.0864,35.51426]],[[137.1646,35.66196],[137.16417,35.66301]],[[137.04815,35.45774],[137.04692,35.45697]],[[137.16417,35.66301],[137.16406,35.6634],[137.16403,35.664],[137.16415,35.66494],[137.16436,35.66543],[137.16494,35.66615],[137.16606,35.66673],[137.16878,35.66731],[137.17001,35.66769],[137.17058,35.66807],[137.17099,35.66847],[137.17137,35.6691],[137.17151,35.66985],[137.17154,35.67084],[137.17144,35.67118],[137.17076,35.672],[137.16863,35.67322],[137.16792,35.67409],[137.16744,35.67509],[137.16703,35.67631],[137.16684,35.6774],[137.16677,35.68085],[137.16694,35.68199],[137.16771,35.68555],[137.16842,35.6864],[137.16948,35.68735],[137.17002,35.68796],[137.17093,35.68984],[137.17207,35.69115],[137.17255,35.69179],[137.17273,35.69216],[137.1731,35.69382],[137.17341,35.69651],[137.17394,35.698],[137.17417,35.69836],[137.17476,35.69885],[137.178,35.7004],[137.17993,35.70154],[137.18123,35.70215],[137.18192,35.70264],[137.18254,35.70344],[137.18273,35.70392],[137.18327,35.70665],[137.18474,35.70884],[137.18532,35.70949],[137.18578,35.70981],[137.18644,35.71012],[137.18744,35.71035],[137.19093,35.7109],[137.19194,35.71119],[137.19301,35.71169],[137.19447,35.71285],[137.19513,35.7136],[137.19554,35.71455],[137.19555,35.71508],[137.19534,35.71688],[137.19571,35.71873],[137.19612,35.71993],[137.19634,35.7203],[137.197,35.72071],[137.1998,35.72156],[137.20036,35.72193],[137.20073,35.72239],[137.20091,35.72294],[137.20098,35.72371],[137.20085,35.72516]],[[137.06496,35.48646],[137.06433,35.48436],[137.06379,35.48326],[137.06289,35.48218],[137.06202,35.48146],[137.0582,35.47897],[137.05772,35.47851],[137.05642,35.47661],[137.05352,35.47194],[137.05325,35.47145],[137.05285,35.47021],[137.05131,35.46404],[137.05131,35.46263],[137.05146,35.46144],[137.05136,35.46069],[137.05106,35.46005],[137.05058,35.45941],[137.04989,35.4588],[137.04815,35.45774]],[[137.24004,35.80532],[137.2431,35.80129],[137.2445,35.80017],[137.24562,35.79961],[137.24967,35.79825],[137.25172,35.79715]],[[137.04692,35.45697],[137.02893,35.44588],[137.02815,35.44547],[137.02635,35.44496]],[[137.02635,35.44496],[137.0212,35.44543]],[[137.21435,35.8737],[137.2147,35.87315],[137.21566,35.87209],[137.21786,35.87028],[137.21863,35.86935],[137.22174,35.86539],[137.22239,35.86423],[137.22297,35.86291],[137.22438,35.85958],[137.22465,35.85863],[137.22456,35.85788],[137.22372,35.856],[137.22323,35.85438],[137.22336,35.85339],[137.22396,35.85165],[137.2249,35.84967]],[[137.21342,35.87557],[137.21389,35.87446],[137.21435,35.8737]],[[137.0864,35.51426],[137.07792,35.50635],[137.07662,35.50534],[137.07233,35.50243],[137.07107,35.50149],[137.06968,35.50009],[137.06862,35.49867],[137.06805,35.49756],[137.06772,35.49667],[137.0653,35.48772]],[[137.11777,35.54113],[137.11657,35.54072],[137.11552,35.54024],[137.1146,35.53958],[137.11411,35.53904],[137.11378,35.53852],[137.11331,35.53734],[137.11333,35.53636],[137.11367,35.53479],[137.11379,35.53228],[137.11443,35.5285],[137.11422,35.52599],[137.11383,35.52357],[137.11365,35.52286],[137.11334,35.52243],[137.11228,35.52174],[137.1111,35.52134],[137.10836,35.52106],[137.10742,35.52105],[137.10603,35.52126],[137.09877,35.52343],[137.09742,35.52352],[137.09614,35.52333],[137.09513,35.52291],[137.09251,35.52151],[137.09172,35.52096],[137.09078,35.51982],[137.08968,35.51778],[137.08905,35.51682],[137.08784,35.51561]],[[137.0653,35.48772],[137.06496,35.48646]],[[137.23502,35.92834],[137.23609,35.92854]],[[137.20037,35.72609],[137.19935,35.72773],[137.19886,35.72892],[137.1988,35.72941],[137.19894,35.72994],[137.19938,35.73068],[137.19996,35.73122],[137.20086,35.7317],[137.20151,35.7319],[137.20602,35.7327],[137.20878,35.73373],[137.20931,35.73403],[137.20985,35.73453],[137.21026,35.73517],[137.21045,35.73574],[137.21056,35.74006],[137.21068,35.74089],[137.21108,35.74162],[137.21262,35.74389],[137.2139,35.74563],[137.21434,35.74608],[137.21507,35.74658],[137.22285,35.75012],[137.22337,35.75034],[137.22621,35.75115],[137.22692,35.75142],[137.22844,35.75253],[137.22905,35.75317],[137.22949,35.75403],[137.22977,35.7548],[137.2298,35.75538],[137.22973,35.75574],[137.22959,35.7561],[137.22918,35.75668],[137.22731,35.75841],[137.22697,35.75896],[137.22684,35.75968],[137.22704,35.7606],[137.22781,35.76217],[137.22811,35.76656],[137.2283,35.76786],[137.22855,35.76858],[137.22904,35.76935],[137.2299,35.77045],[137.23134,35.77203],[137.2321,35.77311],[137.23308,35.77519],[137.23382,35.77648],[137.23513,35.77746],[137.23729,35.77862],[137.23819,35.77894],[137.2394,35.77904],[137.24228,35.7785],[137.2435,35.77836],[137.24526,35.77834],[137.24582,35.77842],[137.24888,35.77933],[137.24989,35.77972],[137.25102,35.78036],[137.25205,35.78121],[137.25245,35.78172],[137.25349,35.7838],[137.25389,35.78506],[137.25422,35.78709],[137.25486,35.78843],[137.25495,35.78881],[137.25497,35.78908],[137.25433,35.79186],[137.2542,35.79308]],[[137.11984,35.54139],[137.11843,35.54131],[137.11777,35.54113]],[[137.24004,35.80532],[137.23898,35.80659]],[[137.25172,35.79715],[137.25257,35.79658],[137.25337,35.7957],[137.25402,35.79442],[137.25422,35.79354],[137.2542,35.79308]],[[137.22557,35.84855],[137.22807,35.84544],[137.22828,35.8451],[137.22841,35.84468],[137.22838,35.8438],[137.22798,35.84207],[137.22788,35.84109],[137.22793,35.84072],[137.22869,35.83933],[137.22899,35.83846],[137.22956,35.83337],[137.22967,35.83137],[137.22979,35.83091],[137.23036,35.82992],[137.23145,35.82895],[137.23212,35.82816],[137.2362,35.82195],[137.23668,35.82104],[137.23682,35.81873],[137.23687,35.81446],[137.23737,35.80887],[137.23783,35.808],[137.23898,35.80659]],[[137.25757,35.95145],[137.25855,35.9528],[137.2589,35.95408],[137.25881,35.95536],[137.25818,35.9577],[137.25813,35.95817],[137.25818,35.95927],[137.25878,35.96223],[137.25935,35.96459],[137.26146,35.97021],[137.26186,35.97069],[137.26238,35.97107],[137.26462,35.97198],[137.2657,35.97272],[137.26874,35.97664],[137.26963,35.97752],[137.2705,35.97798],[137.27125,35.97823],[137.27358,35.97841],[137.27448,35.97868],[137.2751,35.97905],[137.27751,35.98137],[137.27818,35.98227],[137.27846,35.98303],[137.27854,35.98422],[137.27833,35.98533],[137.27776,35.98612],[137.27615,35.98716],[137.27553,35.98782],[137.27522,35.98842],[137.27508,35.98898],[137.27522,35.98951],[137.27566,35.99027],[137.27616,35.99082],[137.27902,35.99268],[137.28058,35.99459],[137.28129,35.99534],[137.28345,35.99672],[137.28388,35.99731],[137.28437,35.9992],[137.28484,35.9998],[137.28539,36.00024],[137.28735,36.00121]],[[137.18313,35.6336],[137.18338,35.63447],[137.18391,35.6356],[137.18436,35.63615],[137.185,35.63651],[137.18773,35.63751],[137.18816,35.63782],[137.18882,35.63856],[137.18928,35.63953],[137.18942,35.64044],[137.18929,35.64134],[137.18895,35.64211],[137.18819,35.64294],[137.18721,35.64359],[137.18493,35.64495],[137.18384,35.64532],[137.1826,35.64554],[137.17435,35.64583],[137.17304,35.64614],[137.17209,35.64653],[137.17178,35.64676],[137.17137,35.64729],[137.17038,35.64917],[137.16628,35.65281],[137.16586,35.65322],[137.16531,35.65401],[137.16519,35.65438],[137.16516,35.65493],[137.16533,35.65577],[137.16588,35.6568],[137.16651,35.65757],[137.16669,35.65793],[137.16677,35.65827],[137.16673,35.65896],[137.16649,35.6596],[137.16515,35.66108],[137.1646,35.66196]],[[137.2249,35.84967],[137.22557,35.84855]],[[137.20451,35.91175],[137.2042,35.91335],[137.20432,35.91537],[137.20426,35.9165],[137.20337,35.91897],[137.2034,35.91982],[137.20369,35.92126],[137.20403,35.92233],[137.20475,35.92341],[137.20722,35.9263],[137.20788,35.92693],[137.20852,35.92729],[137.20894,35.92746],[137.20958,35.92758],[137.21084,35.92756],[137.21394,35.92637],[137.2149,35.92623],[137.2157,35.92622],[137.21718,35.92655],[137.22042,35.92774],[137.22133,35.92795],[137.22317,35.92793],[137.22583,35.92726],[137.2273,35.92714],[137.22926,35.92734],[137.23502,35.92834]],[[137.23609,35.92854],[137.24075,35.92943],[137.242,35.92981],[137.24265,35.93013],[137.24491,35.93171],[137.24699,35.93321],[137.24807,35.93409],[137.24851,35.93463],[137.24884,35.93535],[137.24939,35.93878],[137.2512,35.94397],[137.2519,35.94523],[137.25275,35.94652],[137.25615,35.95012]],[[136.97767,35.42647],[136.97595,35.42632]],[[137.01794,35.44579],[137.01427,35.44624]],[[137.0212,35.44543],[137.01794,35.44579]],[[136.75464,35.40974],[136.75841,35.40933]],[[136.75841,35.40933],[136.76476,35.40864],[136.76606,35.4084],[136.76701,35.40812]],[[136.83651,35.40061],[136.87059,35.40318]],[[136.76701,35.40812],[136.76995,35.40741],[136.80237,35.40216]],[[136.80237,35.40216],[136.80334,35.40201]],[[136.80334,35.40201],[136.82003,35.39938],[136.83464,35.40046]],[[136.83464,35.40046],[136.83651,35.40061]],[[136.90053,35.40384],[136.89182,35.40314],[136.89106,35.40315],[136.88922,35.40334],[136.88474,35.40406],[136.88364,35.40412],[136.87267,35.40334]],[[136.947,35.3974],[136.9451,35.39772]],[[136.9451,35.39772],[136.9097,35.40433],[136.90802,35.40439],[136.90179,35.40393]],[[136.87267,35.40334],[136.87059,35.40318]],[[136.97595,35.42632],[136.97106,35.42596],[136.9684,35.42564],[136.96712,35.4251],[136.96621,35.42442],[136.96538,35.42359],[136.96306,35.42096],[136.96151,35.41968],[136.96073,35.41888],[136.95993,35.41765],[136.95953,35.41658],[136.95943,35.41591],[136.9595,35.41477],[136.95984,35.4138],[136.96053,35.41269],[136.96065,35.4122],[136.96078,35.40836],[136.96079,35.40705],[136.96054,35.40542],[136.96024,35.40462],[136.9597,35.40364],[136.95892,35.40268],[136.95622,35.40008],[136.9548,35.39878],[136.95399,35.39814],[136.95349,35.39787],[136.95168,35.39725],[136.95079,35.39711],[136.94926,35.39707],[136.947,35.3974]],[[136.90179,35.40393],[136.90053,35.40384]],[[137.2374,36.4722],[137.23829,36.47141]]]}}