{"type":"Feature","properties":{"id":"東日本旅客鉄道_磐越東線","name":"磐越東線","operator":"東日本旅客鉄道","railType":"普通鉄道(JR)","operatorType":"JR在来線","category":"rail","attribution":"国土数値情報（鉄道データ）国土交通省"},"geometry":{"type":"MultiLineString","coordinates":[[[140.38913,37.39936],[140.3886,37.39693]],[[140.39003,37.40251],[140.38913,37.39936]],[[140.86259,37.12552],[140.86278,37.12138],[140.86278,37.12044],[140.86265,37.11989],[140.86228,37.11935],[140.86185,37.11894],[140.85982,37.11742],[140.85963,37.11706],[140.85939,37.11625],[140.85937,37.11527],[140.85957,37.11479],[140.85977,37.11447],[140.86205,37.11187],[140.86219,37.11162],[140.86236,37.11096],[140.86173,37.10323],[140.86147,37.10242],[140.85953,37.1005],[140.85915,37.09918],[140.85983,37.09652],[140.85987,37.09521],[140.85995,37.09486],[140.86066,37.09305],[140.86196,37.09075],[140.862,37.08997],[140.86156,37.08884],[140.86146,37.08832],[140.86179,37.08683],[140.86608,37.08099]],[[140.65963,37.32534],[140.65939,37.32877],[140.65907,37.33006],[140.65863,37.33123],[140.65157,37.3453],[140.65066,37.34649],[140.64976,37.34726],[140.64526,37.35006]],[[140.64391,37.35091],[140.64041,37.35311],[140.63996,37.35347],[140.63915,37.35439],[140.6386,37.3555],[140.63839,37.35677],[140.63839,37.36127],[140.63822,37.36997],[140.63683,37.37637],[140.63651,37.37815],[140.63621,37.37924],[140.63544,37.38091],[140.63354,37.38353],[140.63077,37.38701]],[[140.66219,37.25334],[140.65348,37.25893],[140.65218,37.25994],[140.6468,37.26496],[140.6454,37.26601],[140.64512,37.26637],[140.64412,37.26825],[140.64269,37.27014],[140.64189,37.2709],[140.63814,37.27403],[140.63721,37.27503]],[[140.57509,37.44279],[140.57413,37.44346]],[[140.66332,37.25257],[140.66219,37.25334]],[[140.8268,37.17897],[140.82607,37.17932]],[[140.63604,37.27646],[140.63542,37.27752],[140.63483,37.2788],[140.63438,37.28018],[140.63413,37.28137],[140.63396,37.28281],[140.63371,37.28669],[140.63376,37.28842],[140.63401,37.28933],[140.63706,37.29427],[140.63729,37.2946],[140.63822,37.29551],[140.63881,37.29584],[140.63971,37.29613],[140.64066,37.29629],[140.64327,37.29648],[140.64442,37.29682],[140.64519,37.29718],[140.64583,37.29768],[140.64658,37.29853],[140.64936,37.30284],[140.64985,37.30337],[140.65154,37.30472],[140.65352,37.30587],[140.65531,37.30678],[140.65616,37.30732],[140.65658,37.30771],[140.65709,37.30836],[140.65768,37.30944],[140.65974,37.31453],[140.6601,37.316],[140.66018,37.31663],[140.66016,37.31767],[140.6597,37.32415]],[[140.64526,37.35006],[140.64391,37.35091]],[[140.60612,37.4202],[140.60643,37.4195],[140.6097,37.41344],[140.61085,37.41048],[140.61129,37.40968],[140.61279,37.40811],[140.61901,37.40242],[140.62163,37.39932],[140.62323,37.39755],[140.62618,37.39532],[140.62692,37.39459],[140.6274,37.3939],[140.62755,37.39354],[140.62869,37.38998],[140.63008,37.38797]],[[140.47952,37.44957],[140.47758,37.45008]],[[140.86246,37.12739],[140.86259,37.12552]],[[140.52135,37.45452],[140.52076,37.45409],[140.52017,37.45384]],[[140.82607,37.17932],[140.82497,37.18001],[140.82344,37.18131],[140.82254,37.18187],[140.82069,37.18283],[140.82004,37.18306],[140.81854,37.1834],[140.81767,37.18378],[140.8173,37.18408],[140.81693,37.18443],[140.81658,37.18497],[140.81634,37.18618],[140.81629,37.18777],[140.81603,37.18841],[140.81541,37.1892],[140.81501,37.18957],[140.81465,37.18983],[140.81383,37.19023],[140.81345,37.19036],[140.81183,37.19061],[140.80943,37.19058],[140.80753,37.19153],[140.80673,37.19183],[140.8056,37.19211],[140.80441,37.19221],[140.80354,37.192],[140.80264,37.19155],[140.801,37.19053],[140.80023,37.19021],[140.79923,37.19002],[140.79829,37.19015],[140.79752,37.19044],[140.79243,37.19331],[140.79134,37.19355],[140.78936,37.19351],[140.78813,37.19378],[140.78741,37.19413],[140.78712,37.19436],[140.78684,37.19464],[140.78645,37.19523],[140.78611,37.19553],[140.78534,37.19606],[140.78472,37.19637],[140.78088,37.19793],[140.77863,37.19858],[140.77698,37.19933],[140.77428,37.20029],[140.77357,37.2004],[140.77283,37.2004],[140.77092,37.20008],[140.7697,37.20012],[140.76865,37.20045],[140.76686,37.20143],[140.76565,37.20174],[140.75983,37.2017],[140.75889,37.20179],[140.75751,37.20233],[140.75538,37.2038],[140.75468,37.2042],[140.75107,37.20539]],[[140.60557,37.42132],[140.60494,37.42237],[140.60424,37.4231],[140.60284,37.42393],[140.60086,37.42525],[140.59754,37.42697],[140.59386,37.42863],[140.59261,37.42938],[140.5882,37.4333],[140.58483,37.43582],[140.57509,37.44279]],[[140.60612,37.4202],[140.60557,37.42132]],[[140.8268,37.17897],[140.82712,37.17878],[140.82747,37.17841],[140.82866,37.17671],[140.82893,37.17608],[140.82907,37.1755],[140.82914,37.17415],[140.82902,37.17347],[140.82867,37.17288],[140.82841,37.1726],[140.82775,37.17205],[140.82537,37.171],[140.82506,37.1708],[140.82473,37.17045],[140.82458,37.17016],[140.82433,37.16937],[140.82434,37.16874],[140.82457,37.16799],[140.82519,37.16724],[140.82617,37.16657],[140.82649,37.1656],[140.8266,37.16493],[140.82646,37.16432],[140.82483,37.16071],[140.82467,37.15913],[140.82502,37.15838],[140.8273,37.15585],[140.82795,37.15454],[140.82849,37.15372],[140.82936,37.15308],[140.83139,37.15238],[140.83235,37.15164],[140.83278,37.15084],[140.83333,37.14925],[140.8335,37.14894],[140.83444,37.14777],[140.83599,37.14611],[140.83816,37.14427],[140.84021,37.14226],[140.84239,37.14126],[140.84422,37.1408],[140.8481,37.13945],[140.85163,37.13735],[140.85327,37.13656],[140.85437,37.1362],[140.85696,37.13572],[140.8583,37.13537],[140.85961,37.13464],[140.86091,37.13376],[140.86153,37.13315],[140.86229,37.13204],[140.86246,37.12739]],[[140.86608,37.08099],[140.86659,37.08029]],[[140.57413,37.44346],[140.57222,37.44458],[140.568,37.44655],[140.5631,37.44871],[140.56243,37.44897],[140.55819,37.45013],[140.55556,37.45076],[140.55451,37.45087],[140.55367,37.45085],[140.54785,37.44991],[140.54601,37.44983],[140.54166,37.45],[140.54001,37.45009],[140.53909,37.45026],[140.53493,37.4518],[140.53376,37.45256],[140.53311,37.45324],[140.53253,37.45415],[140.53235,37.45487],[140.53227,37.45543],[140.53238,37.45667],[140.53312,37.45853],[140.53331,37.45942],[140.5332,37.46055],[140.53289,37.46138],[140.53248,37.46224],[140.53152,37.46363],[140.53041,37.46445],[140.52928,37.46481],[140.52813,37.46475],[140.52732,37.46462],[140.52674,37.46441],[140.52583,37.46393],[140.52495,37.46312],[140.52433,37.46209],[140.52381,37.46102],[140.52293,37.45886],[140.52269,37.45799],[140.52259,37.45693],[140.52239,37.45604],[140.52201,37.45524],[140.52135,37.45452]],[[140.89063,37.05819],[140.88922,37.05817],[140.88795,37.05798],[140.88552,37.05732],[140.87926,37.0554]],[[140.87926,37.0554],[140.8777,37.05528],[140.87653,37.05539],[140.87597,37.05552],[140.87508,37.0559],[140.8741,37.05653],[140.87374,37.05684],[140.87325,37.05759],[140.87303,37.05853],[140.87301,37.05976],[140.87446,37.07242],[140.8745,37.07308],[140.87442,37.07354],[140.87386,37.0746],[140.87305,37.07539],[140.87205,37.07591],[140.86999,37.07655],[140.86899,37.07722],[140.86835,37.07789],[140.86659,37.08029]],[[140.65963,37.32534],[140.6597,37.32415]],[[140.52017,37.45384],[140.51944,37.45366],[140.51871,37.45361],[140.51782,37.45364],[140.51695,37.4538],[140.51633,37.45403],[140.51577,37.45436],[140.51291,37.45663],[140.51218,37.45709],[140.51099,37.45749],[140.51027,37.45755],[140.50949,37.45749],[140.50736,37.4566],[140.5061,37.45596],[140.50529,37.45573],[140.50425,37.45566],[140.50205,37.45591],[140.501,37.45592],[140.50027,37.4558],[140.4996,37.45555],[140.49865,37.45507],[140.49691,37.45384],[140.49457,37.45274],[140.49282,37.45139],[140.49208,37.45049],[140.49135,37.44991],[140.48972,37.4493],[140.48606,37.44837],[140.48488,37.44828],[140.48405,37.44839],[140.47952,37.44957]],[[140.63721,37.27503],[140.63604,37.27646]],[[140.47758,37.45008],[140.47589,37.45046],[140.47486,37.4505],[140.47382,37.45034],[140.47308,37.4501],[140.47249,37.44981],[140.47023,37.44819],[140.46972,37.44767],[140.46933,37.44689],[140.46875,37.44423],[140.46905,37.44161],[140.46899,37.44098],[140.46808,37.43967],[140.46755,37.43847],[140.4674,37.43726],[140.46749,37.43475],[140.46723,37.4341],[140.46675,37.43361],[140.46178,37.42956],[140.4608,37.42884],[140.45889,37.42769],[140.45808,37.4269],[140.45631,37.42488],[140.455,37.42389],[140.45402,37.42335],[140.45318,37.42312],[140.4514,37.42304],[140.45058,37.4229],[140.44896,37.42212],[140.44665,37.42067],[140.44625,37.42049],[140.44366,37.42007],[140.44106,37.41926],[140.44054,37.41894],[140.43922,37.41761],[140.43871,37.41722],[140.43781,37.41683],[140.43735,37.41674],[140.4364,37.41671]],[[140.89408,37.05825],[140.89063,37.05819]],[[140.63008,37.38797],[140.63077,37.38701]],[[140.74951,37.20588],[140.74516,37.20739],[140.74407,37.2079],[140.74292,37.2087],[140.74254,37.20888],[140.74041,37.20934],[140.73964,37.20959],[140.73773,37.21123],[140.73685,37.21182],[140.73576,37.21198],[140.73371,37.21212],[140.73267,37.21234],[140.7317,37.21291],[140.73011,37.21425],[140.72914,37.21492],[140.72799,37.21544],[140.72532,37.21646],[140.72326,37.21697],[140.72168,37.21718],[140.71879,37.21734],[140.71776,37.21762],[140.71636,37.21845],[140.71217,37.22178],[140.70713,37.2286],[140.70691,37.22881],[140.70625,37.22911],[140.70339,37.23021],[140.70025,37.23093],[140.69821,37.23179],[140.69697,37.23257],[140.6962,37.23278],[140.69557,37.23275],[140.69454,37.23233],[140.69288,37.23147],[140.69052,37.23081],[140.68847,37.23065],[140.68764,37.23073],[140.68707,37.231],[140.68591,37.23215],[140.68564,37.23261],[140.68557,37.23295],[140.68572,37.23405],[140.68702,37.23767],[140.68705,37.23801],[140.68699,37.2387],[140.68689,37.23898],[140.68655,37.23956],[140.68617,37.23998],[140.68257,37.24214],[140.67934,37.24389],[140.67357,37.24556],[140.67148,37.24633],[140.66642,37.25051],[140.66332,37.25257]],[[140.39003,37.40251],[140.39009,37.40279]],[[140.39009,37.40279],[140.39064,37.40473]],[[140.39064,37.40473],[140.39137,37.40651],[140.39192,37.40756],[140.3928,37.40876],[140.39413,37.41001],[140.40787,37.41971],[140.40944,37.42064],[140.41073,37.42124],[140.41119,37.42138],[140.41944,37.42235],[140.4207,37.42237],[140.42191,37.42226],[140.4232,37.42191],[140.42395,37.4216],[140.42587,37.42057],[140.42625,37.42029],[140.42679,37.41972],[140.42781,37.41832],[140.42876,37.41758],[140.4313,37.41682],[140.43204,37.41672],[140.43422,37.41669]],[[140.4364,37.41671],[140.43422,37.41669]],[[140.75107,37.20539],[140.74951,37.20588]]]}}