{"type":"Feature","properties":{"id":"東海旅客鉄道_東海道線","name":"東海道線","operator":"東海旅客鉄道","railType":"普通鉄道(JR)","operatorType":"JR在来線","category":"rail","attribution":"国土数値情報（鉄道データ）国土交通省"},"geometry":{"type":"MultiLineString","coordinates":[[[138.8179,35.11872],[138.82003,35.11776]],[[138.79199,35.12542],[138.7947,35.12445]],[[138.82003,35.11776],[138.85337,35.10319],[138.85397,35.10305],[138.85896,35.10298]],[[139.07621,35.10266],[139.07335,35.1009],[139.07214,35.10029],[139.07059,35.09968],[139.06988,35.0995],[139.06811,35.09924],[139.06433,35.09876],[139.06318,35.09873],[139.05593,35.09948],[139.00933,35.10471],[138.9819,35.10764],[138.97256,35.10872]],[[138.90887,35.12585],[138.91276,35.12654]],[[138.9699,35.10865],[138.97147,35.10878],[138.97256,35.10872]],[[139.07967,35.10512],[139.07621,35.10266]],[[138.7947,35.12445],[138.80489,35.12113],[138.80635,35.12082],[138.80824,35.12058],[138.81071,35.12062],[138.81296,35.12043],[138.81402,35.12024],[138.8148,35.12003],[138.8179,35.11872]],[[138.86288,35.10321],[138.86475,35.10345],[138.86601,35.10372],[138.86762,35.10436],[138.90499,35.12456],[138.90666,35.12532],[138.90782,35.12566],[138.90887,35.12585]],[[138.85896,35.10298],[138.86215,35.10312]],[[138.91276,35.12654],[138.91685,35.12728],[138.91877,35.12755],[138.92047,35.12754],[138.92183,35.12734],[138.92393,35.12662],[138.93428,35.12234],[138.9363,35.12157],[138.94383,35.11962],[138.94511,35.11889],[138.94568,35.11843],[138.94629,35.11779],[138.9484,35.11498],[138.94971,35.11338],[138.9576,35.10832],[138.95866,35.10775],[138.95975,35.10738],[138.96084,35.10719],[138.96205,35.10715],[138.963,35.10727],[138.9699,35.10865]],[[138.86215,35.10312],[138.86288,35.10321]],[[138.65382,35.15116],[138.65036,35.15134]],[[138.65036,35.15134],[138.64305,35.15183]],[[138.12522,34.81871],[138.12643,34.81976]],[[138.28667,34.86015],[138.28452,34.85946]],[[138.31698,34.87163],[138.3158,34.87117],[138.31454,34.87053],[138.30191,34.86498],[138.28667,34.86015]],[[138.12643,34.81976],[138.12741,34.82053],[138.12855,34.82108],[138.12971,34.82129],[138.13051,34.82129],[138.13124,34.82118],[138.13227,34.82086],[138.13606,34.81926],[138.13702,34.819],[138.14098,34.81861],[138.14528,34.81851],[138.14706,34.8186],[138.14831,34.81898]],[[138.31998,34.87294],[138.32088,34.87343],[138.32142,34.87383],[138.32336,34.87488],[138.32395,34.87542],[138.32487,34.87646],[138.32579,34.87834],[138.32633,34.87988],[138.32869,34.88514],[138.33396,34.89282],[138.33605,34.89565],[138.33703,34.89641],[138.33793,34.89696],[138.34353,34.89944],[138.34468,34.90019],[138.3459,34.90121],[138.34665,34.902],[138.35189,34.90769],[138.35286,34.90887],[138.35317,34.90928],[138.35401,34.91098],[138.35414,34.91143],[138.35449,34.91384],[138.35473,34.91471],[138.35517,34.91578],[138.3567,34.91861],[138.35837,34.92082]],[[138.36027,34.92293],[138.36301,34.926],[138.36343,34.92681],[138.36352,34.92719],[138.36365,34.92905],[138.36405,34.93999]],[[138.42963,34.99499],[138.43986,35.00153]],[[138.64305,35.15183],[138.63956,35.15203],[138.63627,35.15202],[138.6349,35.15185],[138.63304,35.15142],[138.63179,35.15109],[138.62962,35.15028],[138.62337,35.14775],[138.62189,35.14705],[138.62044,35.14583],[138.61975,35.14492],[138.61953,35.14444],[138.61897,35.14236]],[[138.28452,34.85946],[138.2604,34.85181],[138.25638,34.85057],[138.25381,34.84989]],[[138.43986,35.00153],[138.44192,35.00288]],[[138.20239,34.83606],[138.20477,34.83675]],[[138.74612,35.13616],[138.74485,35.13638]],[[138.60846,35.11957],[138.60763,35.11921]],[[138.1743,34.83013],[138.17255,34.83017]],[[138.41363,34.98455],[138.41517,34.98556]],[[138.52077,35.05169],[138.52304,35.05334]],[[138.74485,35.13638],[138.73323,35.13838],[138.70407,35.14362]],[[138.39042,34.97261],[138.38741,34.97098]],[[138.35837,34.92082],[138.36027,34.92293]],[[138.25193,34.84925],[138.24865,34.84826],[138.24365,34.8466],[138.23964,34.84541],[138.2154,34.83963],[138.20477,34.83675]],[[138.58206,35.11382],[138.57574,35.11191],[138.57495,35.11161],[138.57307,35.1106],[138.57206,35.10995],[138.56985,35.10833],[138.56836,35.10737],[138.56539,35.10595],[138.55661,35.10228],[138.55564,35.10156],[138.55321,35.09771]],[[138.44192,35.00288],[138.45308,35.01005],[138.45419,35.01066],[138.4552,35.01109],[138.45644,35.01135],[138.4576,35.01149],[138.47552,35.01279],[138.47632,35.0129],[138.4771,35.01314],[138.47781,35.01344],[138.48359,35.01646],[138.48578,35.01766],[138.48797,35.01903],[138.4885,35.01966],[138.48881,35.02036],[138.48895,35.02097],[138.48906,35.0226]],[[138.74612,35.13616],[138.77481,35.13097],[138.77812,35.13006],[138.79199,35.12542]],[[138.08721,34.76233],[138.10282,34.76821],[138.10532,34.76922],[138.10609,34.7697],[138.10787,34.77148],[138.10917,34.77248],[138.11188,34.77373],[138.11624,34.77539],[138.11696,34.77588],[138.1176,34.77655],[138.11956,34.77983],[138.12003,34.78045],[138.1207,34.78105],[138.12125,34.78135],[138.12254,34.7818],[138.1262,34.78278],[138.12743,34.78342],[138.12812,34.78406],[138.12848,34.78467],[138.1287,34.78526],[138.12882,34.78568],[138.12883,34.78644],[138.12866,34.78711],[138.12741,34.78956],[138.127,34.79088],[138.12657,34.79289],[138.12604,34.79363],[138.12565,34.79403],[138.12349,34.79532],[138.12272,34.79626],[138.12173,34.79824],[138.11903,34.80437]],[[138.61845,35.1399],[138.61771,35.13691],[138.61764,35.13601],[138.61772,35.13515],[138.61932,35.13029],[138.61934,35.12929],[138.61896,35.12815],[138.61719,35.12561],[138.61697,35.12542],[138.60989,35.12032],[138.60926,35.11992],[138.60846,35.11957]],[[138.14831,34.81898],[138.14976,34.81968],[138.15057,34.82023],[138.15907,34.82912],[138.15994,34.82965],[138.16072,34.83001],[138.16167,34.83031],[138.16239,34.8304]],[[138.41363,34.98455],[138.41166,34.98324]],[[138.17255,34.83017],[138.16353,34.83045],[138.16239,34.8304]],[[138.70407,35.14362],[138.70121,35.14415]],[[138.48914,35.0242],[138.48951,35.0287],[138.48991,35.02992],[138.49067,35.03107],[138.49377,35.03495],[138.49492,35.03616],[138.4969,35.03787],[138.50549,35.04581],[138.50674,35.04645],[138.5075,35.04669],[138.50848,35.04685],[138.51356,35.04719],[138.51484,35.04745],[138.51584,35.0481],[138.52077,35.05169]],[[138.36405,34.93999],[138.36413,34.94193]],[[138.55321,35.09771],[138.55243,35.09654]],[[138.41517,34.98556],[138.42963,34.99499]],[[138.12522,34.81871],[138.12454,34.81823],[138.12405,34.81773],[138.11732,34.81189],[138.11656,34.81097],[138.11612,34.81013],[138.11597,34.80915],[138.1163,34.808],[138.11695,34.80702],[138.11827,34.80561],[138.11903,34.80437]],[[138.11903,34.80437],[138.11776,34.80739],[138.11762,34.80803],[138.11773,34.80909],[138.11787,34.80973],[138.11813,34.81042],[138.11907,34.81208],[138.12024,34.81358],[138.12172,34.81521],[138.12344,34.81684],[138.12522,34.81871]],[[138.08721,34.76233],[138.08413,34.76122]],[[138.14831,34.81898],[138.14969,34.81943],[138.15082,34.82016],[138.15913,34.82889],[138.15943,34.82913],[138.16052,34.82973],[138.16174,34.83023],[138.16239,34.8304]],[[138.58371,35.11426],[138.58206,35.11382]],[[138.36413,34.94193],[138.36435,34.94773],[138.36444,34.9485],[138.36469,34.94938],[138.36514,34.95038],[138.36597,34.95151],[138.37173,34.95744],[138.37953,34.96512],[138.38168,34.96735],[138.38306,34.96848],[138.38741,34.97098]],[[138.61897,35.14236],[138.61845,35.1399]],[[138.31998,34.87294],[138.31698,34.87163]],[[138.52304,35.05334],[138.52741,35.05642],[138.53615,35.06093],[138.53766,35.06202],[138.53817,35.06251],[138.53878,35.06326],[138.53966,35.06459],[138.53986,35.06505],[138.54018,35.06593],[138.54017,35.06613],[138.54043,35.06708],[138.54081,35.06802],[138.54158,35.06907],[138.54188,35.06963],[138.54229,35.07136],[138.5428,35.07301],[138.54393,35.07506],[138.54471,35.07617],[138.54582,35.07801],[138.54661,35.08027],[138.54796,35.08662],[138.54875,35.089],[138.55044,35.09329],[138.55243,35.09654]],[[138.48906,35.0226],[138.48914,35.0242]],[[138.41517,34.98556],[138.41831,34.98687],[138.42061,34.98814],[138.42426,34.99064],[138.42963,34.99499]],[[138.20239,34.83606],[138.18121,34.83018],[138.17973,34.82996],[138.1743,34.83013]],[[138.70121,35.14415],[138.67642,35.14859],[138.66664,35.15027],[138.66352,35.15062],[138.65382,35.15116]],[[138.25381,34.84989],[138.25193,34.84925]],[[138.60763,35.11921],[138.60232,35.11732],[138.59802,35.11598],[138.59661,35.11572],[138.58715,35.11473],[138.58371,35.11426]],[[138.41166,34.98324],[138.40572,34.97932],[138.4052,34.97907],[138.40071,34.97755],[138.39614,34.97564],[138.39042,34.97261]],[[136.96415,35.00535],[136.96601,35.00382],[136.96746,35.00293],[136.96877,35.00225],[136.97127,35.00117]],[[136.98991,34.99841],[136.99117,34.99806]],[[136.97127,35.00117],[136.97332,35.00071],[136.97643,34.99937]],[[136.96388,35.00526],[136.96518,35.00377],[136.96718,35.0026],[136.96884,35.00181],[136.97037,35.00135],[136.97127,35.00117]],[[136.99117,34.99806],[137.00787,34.99153]],[[136.97127,35.00117],[136.97478,34.99981],[136.97643,34.99937]],[[137.04499,34.97683],[137.04228,34.97788]],[[136.97643,34.99937],[136.97898,34.99885],[136.98015,34.99881],[136.98528,34.99895],[136.98711,34.99888],[136.98799,34.9988],[136.98991,34.99841]],[[137.01155,34.99008],[137.00787,34.99153]],[[136.96298,35.00688],[136.96388,35.00526]],[[136.9622,35.00801],[136.96141,35.00938]],[[136.9622,35.00801],[136.96298,35.00688]],[[136.96298,35.00688],[136.96415,35.00535]],[[136.69282,35.39593],[136.69445,35.3966]],[[136.69445,35.3966],[136.69773,35.39773],[136.72265,35.40436]],[[136.72265,35.40436],[136.72387,35.40469]],[[136.78129,35.34714],[136.78097,35.34899]],[[136.72387,35.40469],[136.7438,35.41004],[136.74477,35.41023],[136.74705,35.41046],[136.7487,35.41041],[136.75464,35.40974]],[[136.75464,35.40974],[136.75841,35.40933]],[[136.75841,35.40933],[136.76476,35.40864],[136.76606,35.4084],[136.76701,35.40812]],[[136.76701,35.40812],[136.76766,35.40777],[136.76864,35.40705],[136.76951,35.40609],[136.76991,35.40545],[136.77145,35.40195],[136.77317,35.39769],[136.78088,35.37942],[136.78111,35.37862],[136.78131,35.37719],[136.78126,35.37513],[136.77955,35.36249],[136.77932,35.35914],[136.77932,35.35777],[136.77945,35.35578],[136.78097,35.34899]],[[136.8824,35.16994],[136.88108,35.17258]],[[136.88155,35.17257],[136.88005,35.1743]],[[136.92572,35.09624],[136.9181,35.11079],[136.91759,35.11191],[136.91111,35.12871]],[[136.88284,35.17005],[136.88155,35.17257]],[[136.82149,35.25199],[136.8297,35.23482],[136.83383,35.22656]],[[136.84723,35.21117],[136.84765,35.21028],[136.84801,35.20989],[136.85142,35.20675]],[[136.95451,35.03576],[136.95199,35.04816],[136.95113,35.0503],[136.94901,35.05395]],[[136.89177,35.14644],[136.89086,35.14714],[136.89029,35.14773]],[[136.84723,35.21117],[136.85142,35.20675]],[[136.88108,35.17258],[136.88023,35.17377]],[[136.95465,35.03497],[136.95451,35.03576]],[[136.90183,35.14241],[136.89964,35.14326]],[[136.96141,35.00938],[136.95964,35.01252],[136.95873,35.0147],[136.95465,35.03497]],[[136.88005,35.1743],[136.88023,35.17377]],[[136.83383,35.22656],[136.83527,35.22432]],[[136.9408,35.06814],[136.93976,35.07006]],[[136.84405,35.21451],[136.84723,35.21117]],[[136.82043,35.25408],[136.80509,35.28584],[136.80323,35.28956],[136.79795,35.30086]],[[136.93976,35.07006],[136.93082,35.08657],[136.92697,35.09397]],[[136.89029,35.14773],[136.88935,35.14923],[136.88884,35.15053],[136.8875,35.15582],[136.88635,35.16077],[136.88547,35.16405],[136.88477,35.16584],[136.88284,35.17005]],[[136.79681,35.30314],[136.78438,35.3287],[136.78332,35.33127],[136.78238,35.3342],[136.78164,35.33711],[136.78167,35.33977],[136.78129,35.34714]],[[136.86224,35.19879],[136.86042,35.20048]],[[136.86224,35.19879],[136.86333,35.19731],[136.86466,35.19502],[136.86703,35.18967],[136.86748,35.18893],[136.8685,35.18772],[136.86962,35.18661],[136.87205,35.18445],[136.87517,35.18152],[136.87697,35.17965],[136.87773,35.17869],[136.87867,35.17712],[136.88005,35.1743]],[[136.91111,35.12871],[136.91015,35.13111]],[[136.91015,35.13111],[136.90862,35.13496],[136.90777,35.13675],[136.90696,35.13807],[136.9055,35.13978],[136.90507,35.14016],[136.90348,35.14139],[136.90183,35.14241]],[[136.92697,35.09397],[136.92572,35.09624]],[[136.84405,35.21451],[136.84622,35.21296],[136.84649,35.21269],[136.84682,35.21222],[136.84723,35.21117]],[[136.88205,35.16976],[136.88071,35.17227]],[[136.83527,35.22432],[136.83703,35.22211],[136.83863,35.22029],[136.84405,35.21451]],[[136.79681,35.30314],[136.79795,35.30086]],[[136.89964,35.14326],[136.89377,35.1454],[136.89235,35.14608],[136.89177,35.14644]],[[136.88071,35.17227],[136.88023,35.17377]],[[136.85142,35.20675],[136.8526,35.20557],[136.8534,35.2049],[136.85443,35.20424],[136.85578,35.20359],[136.85749,35.20259],[136.86042,35.20048]],[[136.82043,35.25408],[136.82149,35.25199]],[[138.01668,34.76965],[138.01245,34.76916]],[[138.01245,34.76916],[138.00729,34.76848]],[[137.48348,34.72344],[137.48543,34.72308]],[[137.48615,34.72294],[137.48543,34.72308]],[[138.08413,34.76122],[138.08159,34.76025],[138.08051,34.76013],[138.0795,34.76019],[138.06585,34.76252],[138.06395,34.76333],[138.05956,34.76565],[138.05902,34.76608],[138.05706,34.76802],[138.05544,34.76924],[138.05367,34.77109],[138.05254,34.77197],[138.04626,34.77357],[138.04099,34.77557],[138.04028,34.77579],[138.03944,34.77592],[138.03794,34.77581],[138.02041,34.7703],[138.01883,34.76997],[138.01668,34.76965]],[[137.82083,34.71192],[137.81877,34.71225]],[[137.47606,34.72368],[137.4773,34.7236],[137.47899,34.72364],[137.48036,34.72393]],[[137.60165,34.69074],[137.59521,34.69324],[137.59241,34.69397],[137.5904,34.69425],[137.5789,34.69436],[137.57045,34.69428]],[[137.62525,34.68571],[137.61629,34.68576],[137.61443,34.68589],[137.61218,34.68642],[137.60453,34.68955]],[[137.96078,34.75204],[137.9582,34.7511],[137.92719,34.74181]],[[137.47606,34.72368],[137.47903,34.72395],[137.48036,34.72393]],[[137.60453,34.68955],[137.60165,34.69074]],[[137.81877,34.71225],[137.81202,34.71372],[137.80794,34.7149],[137.79693,34.71745],[137.7934,34.71824],[137.78936,34.71899],[137.78694,34.71923],[137.78518,34.71915],[137.78398,34.71895],[137.78282,34.71864],[137.7809,34.71778]],[[137.96078,34.75204],[137.96291,34.75287]],[[137.68,34.69042],[137.6752,34.69033],[137.67361,34.69015],[137.6725,34.6899],[137.66961,34.68899],[137.66123,34.68573],[137.65944,34.68531],[137.65687,34.68523],[137.64732,34.68533],[137.63623,34.68546],[137.62741,34.68567]],[[137.54734,34.71621],[137.54504,34.71733]],[[137.92719,34.74181],[137.9248,34.74106]],[[137.57045,34.69428],[137.56752,34.69427]],[[137.85085,34.71017],[137.84476,34.71008],[137.84212,34.7102],[137.82867,34.71134],[137.82402,34.71159],[137.82083,34.71192]],[[137.7366,34.70473],[137.73546,34.70428],[137.73349,34.70321]],[[137.9248,34.74106],[137.92166,34.74011],[137.91832,34.73894],[137.91492,34.73794],[137.91405,34.73762],[137.91224,34.73673],[137.88653,34.71924]],[[137.85369,34.71026],[137.85085,34.71017]],[[137.68269,34.69043],[137.68,34.69042]],[[137.62741,34.68567],[137.62525,34.68571]],[[137.48615,34.72294],[137.497,34.72083],[137.50406,34.71967],[137.50561,34.71975],[137.51249,34.72119],[137.51392,34.72139],[137.52327,34.72155],[137.53529,34.72152],[137.5362,34.72141],[137.53682,34.72124],[137.54504,34.71733]],[[138.00729,34.76848],[138.00299,34.76791],[138.00068,34.76743],[137.99976,34.76706],[137.99837,34.76627],[137.99674,34.76568],[137.99517,34.76522],[137.99306,34.76475],[137.99189,34.76437],[137.9859,34.76192],[137.96599,34.75415],[137.96291,34.75287]],[[137.44036,34.72545],[137.45322,34.72244],[137.45549,34.7221],[137.45766,34.72211],[137.47606,34.72368]],[[137.56752,34.69427],[137.56485,34.69436],[137.56405,34.69448],[137.56275,34.69481],[137.56092,34.69544],[137.5595,34.69616],[137.55777,34.69782],[137.55652,34.69923],[137.5562,34.69991],[137.55355,34.71053],[137.55322,34.71138],[137.55203,34.71296],[137.55075,34.71428],[137.54897,34.71548],[137.54734,34.71621]],[[137.7809,34.71778],[137.77791,34.71635]],[[137.73349,34.70321],[137.73197,34.70216],[137.72748,34.69879],[137.72616,34.69798],[137.72511,34.6975],[137.72351,34.69693],[137.71584,34.69486],[137.70518,34.69175],[137.70081,34.69082],[137.69779,34.69042],[137.68269,34.69043]],[[137.43738,34.72614],[137.44036,34.72545]],[[137.77791,34.71635],[137.76722,34.71112],[137.76513,34.71029],[137.76308,34.70964],[137.76016,34.70891],[137.7587,34.70866],[137.74698,34.70727],[137.74364,34.70674],[137.73947,34.70569],[137.7366,34.70473]],[[137.38333,34.76105],[137.38506,34.75846],[137.38864,34.7527],[137.38947,34.75182],[137.39768,34.74405],[137.39957,34.74246],[137.40012,34.74209],[137.41525,34.73278],[137.41648,34.73204],[137.41763,34.73147],[137.41933,34.73079],[137.42105,34.73029],[137.43738,34.72614]],[[137.1648,34.85853],[137.16774,34.84793],[137.16812,34.84702],[137.16972,34.84467],[137.17323,34.8401],[137.1754,34.83748]],[[137.20071,34.82507],[137.20007,34.82489],[137.19867,34.82475],[137.19711,34.82484],[137.19628,34.82502],[137.18767,34.8282],[137.18535,34.82941],[137.18393,34.83035],[137.18317,34.8309],[137.17798,34.83518]],[[137.31783,34.81229],[137.32285,34.81107],[137.32398,34.81072],[137.32572,34.81],[137.35181,34.79744]],[[137.2292,34.82235],[137.22557,34.82314]],[[137.16411,34.8608],[137.1648,34.85853]],[[137.35356,34.79661],[137.35181,34.79744]],[[137.08777,34.95991],[137.08492,34.96102]],[[137.28367,34.81601],[137.28213,34.81548]],[[137.15654,34.93131],[137.15646,34.93212],[137.1562,34.93334],[137.15576,34.93425],[137.15507,34.93516],[137.15424,34.93594],[137.15311,34.93677],[137.15207,34.93737],[137.15095,34.93789],[137.15017,34.93816]],[[137.12402,34.94636],[137.13807,34.94196],[137.1479,34.93911],[137.15017,34.93816]],[[137.24951,34.81825],[137.25567,34.81708],[137.26108,34.81633],[137.26306,34.81578],[137.26814,34.81401],[137.26944,34.81369],[137.27192,34.8137],[137.2776,34.81426],[137.27962,34.81465],[137.28213,34.81548]],[[137.28367,34.81601],[137.28507,34.8163],[137.2865,34.81646],[137.29415,34.81701],[137.29669,34.81712],[137.29855,34.81706],[137.301,34.81657],[137.31534,34.81288]],[[137.22557,34.82314],[137.209,34.82675],[137.2074,34.82703],[137.2062,34.82703],[137.20469,34.82675],[137.20224,34.82577]],[[137.12229,34.94688],[137.11623,34.94873],[137.11447,34.94936],[137.08777,34.95991]],[[137.1754,34.83748],[137.17798,34.83518]],[[137.24656,34.81879],[137.24951,34.81825]],[[137.24656,34.81879],[137.23708,34.82067],[137.2292,34.82235]],[[137.12402,34.94636],[137.12229,34.94688]],[[137.20224,34.82577],[137.20071,34.82507]],[[137.15613,34.93229],[137.15577,34.93301],[137.15493,34.93433],[137.15365,34.93577],[137.15229,34.93692],[137.15118,34.93763],[137.15017,34.93816]],[[137.31783,34.81229],[137.31534,34.81288]],[[137.35356,34.79661],[137.35743,34.79469],[137.35993,34.79319],[137.36109,34.7923],[137.36272,34.79087],[137.3656,34.78796],[137.36718,34.78597],[137.38141,34.76404]],[[137.15654,34.93131],[137.15613,34.93229]],[[137.15739,34.9239],[137.15715,34.92679]],[[137.15715,34.92679],[137.15685,34.93017],[137.15654,34.93131]],[[137.38333,34.76105],[137.38175,34.7635]],[[137.38175,34.7635],[137.38141,34.76404]],[[137.08492,34.96102],[137.06298,34.96967]],[[137.05986,34.97091],[137.04499,34.97683]],[[137.06298,34.96967],[137.05986,34.97091]],[[136.62061,35.36703],[136.61592,35.36718]],[[136.6449,35.3741],[136.63348,35.36889],[136.63148,35.36817],[136.62975,35.36769],[136.62703,35.36721],[136.62475,35.367],[136.62061,35.36703]],[[136.47674,35.3645],[136.47874,35.36507],[136.47945,35.36541]],[[136.47945,35.36541],[136.48321,35.3654],[136.48446,35.36551]],[[136.47455,35.36425],[136.47674,35.3645]],[[136.47945,35.36541],[136.48003,35.36579],[136.48046,35.36619],[136.48192,35.36805],[136.48259,35.36877],[136.48336,35.36935],[136.48638,35.3709],[136.48966,35.37369],[136.49053,35.37463],[136.49105,35.37552],[136.49127,35.3763],[136.49133,35.3767],[136.4912,35.37983],[136.49136,35.38072],[136.49218,35.38286],[136.49291,35.38417],[136.49372,35.3852],[136.49465,35.38608],[136.49595,35.38698],[136.49708,35.38761],[136.49863,35.38823],[136.51834,35.3928],[136.52075,35.39315],[136.52344,35.3931],[136.5255,35.39279],[136.52758,35.39225],[136.5314,35.39078],[136.53298,35.39001],[136.53403,35.38928],[136.5358,35.38717],[136.53638,35.38668],[136.5379,35.38589],[136.53934,35.38552],[136.54079,35.3855],[136.54194,35.38576],[136.54302,35.38611],[136.54527,35.38728],[136.54602,35.38755],[136.55588,35.39025],[136.55778,35.39055],[136.5592,35.39054],[136.56005,35.39046],[136.56148,35.39013],[136.56228,35.38983],[136.56318,35.38937],[136.56417,35.38875],[136.57166,35.38255],[136.57226,35.38187],[136.57318,35.3803],[136.57436,35.37606],[136.57495,35.37482],[136.5756,35.37401],[136.5766,35.37312],[136.57777,35.37241],[136.57868,35.37201]],[[136.46858,35.36349],[136.46937,35.36365],[136.47246,35.36402]],[[136.57868,35.37201],[136.58005,35.37184],[136.58131,35.37188],[136.58299,35.3721],[136.586,35.37264]],[[136.58306,35.3737],[136.58278,35.37415],[136.58255,35.37477],[136.58241,35.37557],[136.58221,35.38586]],[[136.43511,35.34956],[136.43785,35.34945],[136.44108,35.35016],[136.44222,35.35064],[136.44291,35.35108],[136.44353,35.35186],[136.44389,35.35264],[136.44414,35.35412]],[[136.44414,35.35412],[136.44388,35.35341],[136.44309,35.35213],[136.44244,35.35144],[136.44165,35.35083],[136.44042,35.35031],[136.43849,35.34981],[136.43645,35.34972],[136.43511,35.34956]],[[136.47455,35.36425],[136.47856,35.36536],[136.47945,35.36541]],[[136.57868,35.37201],[136.58527,35.37257]],[[136.61592,35.36718],[136.61271,35.36735],[136.61179,35.36748],[136.61013,35.36791],[136.60852,35.36871],[136.60472,35.37181],[136.60418,35.37212],[136.60258,35.37281],[136.59995,35.37342],[136.59847,35.3736],[136.59678,35.3736],[136.586,35.37264]],[[136.58368,35.37322],[136.58306,35.3737]],[[136.58368,35.37322],[136.58449,35.3728],[136.58527,35.37257]],[[136.44414,35.35412],[136.44463,35.3565],[136.44526,35.35765],[136.44611,35.35838],[136.44712,35.35886],[136.44798,35.35906],[136.44896,35.35914],[136.45137,35.35884],[136.45265,35.3589],[136.4541,35.35928],[136.45488,35.3597],[136.45589,35.36038],[136.45697,35.36087],[136.45738,35.36097],[136.4583,35.36108],[136.46242,35.36099],[136.46354,35.36118],[136.46445,35.36156],[136.46693,35.36292],[136.46858,35.36349]],[[136.58221,35.38586],[136.58218,35.38735]],[[136.47674,35.3645],[136.48199,35.36511],[136.48446,35.36551]],[[136.53225,35.36984],[136.52966,35.36933]],[[136.52966,35.36933],[136.52699,35.36931],[136.52586,35.36943],[136.51679,35.37093],[136.51385,35.37137],[136.5113,35.37165],[136.50929,35.37178],[136.50504,35.37166],[136.50136,35.37123],[136.50005,35.37099],[136.49839,35.37055],[136.49551,35.3695],[136.49328,35.36836],[136.49013,35.36701],[136.48657,35.36596],[136.48446,35.36551]],[[136.58527,35.37257],[136.586,35.37264]],[[136.6449,35.3741],[136.64744,35.37524],[136.65252,35.37724],[136.65753,35.37949],[136.65922,35.38029],[136.66197,35.3818],[136.66346,35.38251],[136.68825,35.39402],[136.69282,35.39593]],[[136.47246,35.36402],[136.47455,35.36425]],[[136.53225,35.36984],[136.53708,35.37105],[136.53827,35.37127],[136.5404,35.37145],[136.54533,35.37135],[136.56255,35.37062],[136.56484,35.3706],[136.56594,35.37065],[136.57868,35.37201]],[[136.29061,35.31579],[136.29143,35.3176],[136.29153,35.31815]],[[136.28984,35.31389],[136.29061,35.31579]],[[136.37257,35.35739],[136.37083,35.35531],[136.36774,35.35107],[136.36497,35.3471],[136.36427,35.34589],[136.36229,35.34135],[136.36199,35.34085],[136.36137,35.34008],[136.3606,35.33924],[136.35775,35.33653],[136.35237,35.33164],[136.35138,35.33087],[136.35084,35.33056],[136.34956,35.32985],[136.34633,35.32827]],[[136.28993,35.315],[136.29035,35.31629],[136.29095,35.31953],[136.29146,35.32151],[136.29193,35.32252],[136.2923,35.32306],[136.2935,35.32428],[136.29916,35.32809]],[[136.3754,35.36067],[136.37257,35.35739]],[[136.29153,35.31815],[136.29216,35.31935],[136.2949,35.32229],[136.29684,35.3253],[136.29916,35.32809]],[[136.40114,35.34433],[136.39953,35.34412],[136.39865,35.3441],[136.39814,35.34413],[136.39741,35.34432],[136.39689,35.34452],[136.39616,35.345],[136.39547,35.34563],[136.39509,35.34619],[136.39485,35.34683],[136.39474,35.34753],[136.39499,35.35022],[136.39499,35.35098],[136.39444,35.35859],[136.39423,35.3595],[136.39385,35.36007],[136.39358,35.36042],[136.39271,35.36113],[136.39188,35.3615],[136.39142,35.3616],[136.38068,35.3635],[136.3802,35.3635],[136.37908,35.3634],[136.37848,35.36325],[136.37762,35.36289],[136.37685,35.36229],[136.3754,35.36067]],[[136.28993,35.315],[136.28908,35.31274]],[[136.40351,35.34486],[136.40114,35.34433]],[[136.34405,35.32714],[136.33872,35.32455],[136.33631,35.32364],[136.33483,35.32324],[136.33321,35.32296],[136.33124,35.32276],[136.33016,35.32275],[136.32895,35.32282],[136.32728,35.32308],[136.31589,35.32573],[136.3104,35.32693],[136.30792,35.32762],[136.30444,35.32876],[136.30304,35.32909],[136.30201,35.32915],[136.30119,35.32903],[136.30012,35.32866],[136.29916,35.32809]],[[136.34633,35.32827],[136.34405,35.32714]],[[136.43511,35.34956],[136.42866,35.34842],[136.42749,35.34832],[136.42401,35.34925],[136.42326,35.34931],[136.42236,35.34923],[136.42152,35.34898],[136.42045,35.34845],[136.41937,35.34777],[136.41849,35.34735],[136.41799,35.3472],[136.41668,35.34703],[136.4127,35.34676],[136.41122,35.34656],[136.40351,35.34486]],[[137.48036,34.72393],[137.48121,34.72412],[137.48163,34.72412],[137.48236,34.72394],[137.4833,34.72347]],[[137.48036,34.72393],[137.4833,34.72347]],[[137.4833,34.72347],[137.48348,34.72344]],[[137.02756,34.98374],[137.01155,34.99008]],[[137.04228,34.97788],[137.02876,34.98327]],[[137.02876,34.98327],[137.02756,34.98374]],[[136.94842,35.05496],[136.94232,35.06529],[136.9408,35.06814]],[[136.94901,35.05395],[136.94842,35.05496]],[[137.15739,34.9239],[137.16019,34.88899]],[[137.16019,34.88899],[137.16035,34.8871]],[[137.16035,34.8871],[137.16196,34.86911],[137.16337,34.8634],[137.16411,34.8608]],[[137.88474,34.71808],[137.88355,34.71739],[137.88194,34.7168],[137.86867,34.71318],[137.86176,34.71105],[137.85987,34.71062],[137.85788,34.71036],[137.85369,34.71026]],[[137.88474,34.71808],[137.88653,34.71924]]]}}