{"type":"Feature","properties":{"id":"東武鉄道_日光線","name":"日光線","operator":"東武鉄道","railType":"普通鉄道","operatorType":"民営","category":"rail","attribution":"国土数値情報（鉄道データ）国土交通省"},"geometry":{"type":"MultiLineString","coordinates":[[[139.74217,36.39065],[139.74105,36.39471]],[[139.74253,36.38947],[139.74217,36.39065]],[[139.62036,36.74826],[139.62129,36.74825]],[[139.74488,36.55601],[139.74529,36.5532],[139.74525,36.55234],[139.74135,36.53687],[139.74156,36.53445]],[[139.69181,36.7259],[139.69373,36.7253]],[[139.73217,36.37186],[139.73354,36.37216],[139.73829,36.37236],[139.74134,36.37258],[139.74235,36.37277],[139.74381,36.3733],[139.74455,36.37377],[139.74524,36.37443],[139.74577,36.3752],[139.74617,36.37619],[139.74615,36.37743],[139.74253,36.38947]],[[139.74156,36.53445],[139.74193,36.53203]],[[139.61908,36.74822],[139.62036,36.74826]],[[139.70799,36.61888],[139.70757,36.61992]],[[139.70799,36.61888],[139.71125,36.61134],[139.71155,36.61077],[139.71379,36.60759],[139.71486,36.60654],[139.71881,36.6032],[139.7247,36.59616],[139.73016,36.58885],[139.7321,36.58646],[139.73418,36.58414],[139.73723,36.58125]],[[139.68143,36.72787],[139.68029,36.72815]],[[139.71215,36.6771],[139.70862,36.70718],[139.70811,36.71124],[139.70785,36.71236],[139.707,36.71396],[139.69994,36.72254],[139.69918,36.72318],[139.69815,36.72384],[139.69373,36.7253]],[[139.74193,36.53203],[139.7451,36.50811]],[[139.74752,36.43037],[139.75119,36.46054],[139.75113,36.46209],[139.75103,36.46256],[139.74985,36.4655]],[[139.7451,36.50811],[139.74538,36.50601]],[[139.62054,36.74806],[139.62129,36.74825]],[[139.74538,36.50601],[139.74678,36.49434],[139.74801,36.48665],[139.74782,36.48569],[139.74649,36.48255],[139.74492,36.478],[139.74481,36.47704],[139.74489,36.47659],[139.74674,36.47218],[139.74912,36.4671]],[[139.71403,36.65056],[139.71378,36.65219]],[[139.71403,36.65056],[139.71395,36.64996],[139.71364,36.64915],[139.7112,36.64496],[139.71109,36.64452],[139.71092,36.6422],[139.7106,36.64125],[139.70882,36.63885],[139.70855,36.63814],[139.70844,36.63713],[139.70838,36.63244],[139.70688,36.62208],[139.70703,36.62124],[139.70757,36.61992]],[[139.61974,36.74781],[139.62054,36.74806]],[[139.74738,36.42921],[139.74752,36.43037]],[[139.74127,36.40809],[139.74491,36.41513],[139.74556,36.41655],[139.74618,36.41981],[139.74738,36.42921]],[[139.71378,36.65219],[139.7135,36.65437],[139.71348,36.65504],[139.71408,36.66177],[139.7141,36.66284],[139.71292,36.6707],[139.71226,36.67601]],[[139.73723,36.58125],[139.7381,36.58031]],[[139.73081,36.37148],[139.73217,36.37186]],[[139.74105,36.39471],[139.73915,36.40062],[139.73898,36.40165],[139.73897,36.40265],[139.73915,36.40377],[139.7398,36.40525],[139.74077,36.40708]],[[139.71226,36.67601],[139.71215,36.6771]],[[139.74985,36.4655],[139.74912,36.4671]],[[139.7381,36.58031],[139.73851,36.57945],[139.73854,36.57838],[139.73838,36.57774],[139.73732,36.57561],[139.73689,36.57434],[139.73674,36.57079],[139.73678,36.56983],[139.73719,36.56899],[139.73757,36.56849],[139.73822,36.5679],[139.74058,36.56608],[139.74107,36.56557],[139.74402,36.5602],[139.74431,36.55941],[139.74464,36.55796]],[[139.74127,36.40809],[139.74077,36.40708]],[[139.68029,36.72815],[139.66652,36.73147],[139.66461,36.73202],[139.66261,36.73274],[139.66075,36.73354],[139.65404,36.7352],[139.6451,36.73672],[139.64338,36.73718],[139.63977,36.73855],[139.6352,36.74069],[139.62537,36.74582],[139.62482,36.74623],[139.6242,36.74685],[139.62344,36.7474],[139.622,36.7481],[139.62129,36.74825]],[[139.69115,36.72615],[139.69181,36.7259]],[[139.68143,36.72787],[139.68833,36.72693],[139.6897,36.72662],[139.69115,36.72615]],[[139.74464,36.55796],[139.74488,36.55601]],[[139.72601,36.02516],[139.72226,36.0272]],[[139.72777,36.02424],[139.72601,36.02516]],[[139.68657,36.19313],[139.684,36.19566],[139.68335,36.19622],[139.68237,36.19684],[139.68159,36.19719],[139.66679,36.20268],[139.66451,36.20384],[139.66045,36.20628]],[[139.68539,36.31696],[139.69589,36.32755],[139.6968,36.32912],[139.70152,36.33832]],[[139.715,36.07492],[139.71565,36.08185],[139.71595,36.08429],[139.72033,36.10043],[139.72082,36.10256],[139.72084,36.10352],[139.72059,36.10486],[139.7204,36.1054],[139.72004,36.10615],[139.71947,36.10699],[139.71862,36.10792],[139.71634,36.11008],[139.71357,36.11249]],[[139.72226,36.0272],[139.72134,36.02809],[139.72091,36.02888],[139.72074,36.02937],[139.71481,36.05041]],[[139.70152,36.33832],[139.70221,36.33962]],[[139.68746,36.19227],[139.68657,36.19313]],[[139.71482,36.07322],[139.715,36.07492]],[[139.69392,36.13729],[139.69351,36.13538],[139.6926,36.13327],[139.69249,36.13268],[139.69247,36.13168],[139.69255,36.13127],[139.69315,36.13028],[139.69387,36.12943],[139.69455,36.1288],[139.71209,36.11379]],[[139.73081,36.37148],[139.72923,36.37097],[139.72812,36.37042],[139.72732,36.36983],[139.72577,36.36831],[139.72509,36.36724],[139.72355,36.36284],[139.72307,36.36161],[139.72267,36.36095],[139.71741,36.35609],[139.70932,36.3488],[139.70355,36.3422],[139.70221,36.33962]],[[139.68746,36.19227],[139.68793,36.19171],[139.68833,36.19098],[139.68849,36.19052],[139.68853,36.18989],[139.68559,36.16873],[139.68537,36.16791],[139.68468,36.16655],[139.67949,36.15854],[139.67921,36.15783],[139.67913,36.15676],[139.67928,36.15622],[139.67958,36.15557],[139.68043,36.15457],[139.69068,36.14583],[139.69135,36.14514],[139.69299,36.14317],[139.6939,36.14183],[139.69429,36.14086],[139.69436,36.14024],[139.69413,36.13842]],[[139.71428,36.05229],[139.71341,36.05544],[139.71328,36.05608],[139.71326,36.05667],[139.71482,36.07322]],[[139.69392,36.13729],[139.69413,36.13842]],[[139.68447,36.3161],[139.68539,36.31696]],[[139.71481,36.05041],[139.71428,36.05229]],[[139.66045,36.20628],[139.65946,36.2069]],[[139.71357,36.11249],[139.71209,36.11379]],[[139.64573,36.2561],[139.64687,36.26146],[139.64697,36.26243],[139.64707,36.26777],[139.64717,36.26821],[139.64758,36.26903],[139.64796,36.26951],[139.65845,36.27964],[139.65958,36.28081],[139.66124,36.28371],[139.67162,36.30303],[139.67286,36.30447],[139.68447,36.3161]],[[139.64573,36.2561],[139.64547,36.25507]],[[139.64873,36.22166],[139.64852,36.22275]],[[139.64852,36.22275],[139.64415,36.24657],[139.64417,36.24843],[139.64547,36.25507]],[[139.65946,36.2069],[139.65394,36.21043],[139.65225,36.21192],[139.6506,36.21365],[139.65015,36.21441],[139.64987,36.21536],[139.64873,36.22166]]]}}