{"type":"Feature","properties":{"id":"東日本旅客鉄道_仙山線","name":"仙山線","operator":"東日本旅客鉄道","railType":"普通鉄道(JR)","operatorType":"JR在来線","category":"rail","attribution":"国土数値情報（鉄道データ）国土交通省"},"geometry":{"type":"MultiLineString","coordinates":[[[140.68108,38.29763],[140.68032,38.29822]],[[140.76067,38.27262],[140.75013,38.27239],[140.74776,38.27217],[140.73038,38.2701],[140.72943,38.27003],[140.72772,38.27009],[140.72624,38.27026],[140.72326,38.27101],[140.70272,38.27793]],[[140.81951,38.26894],[140.81771,38.26877]],[[140.83251,38.27466],[140.83066,38.27443],[140.8298,38.27414],[140.82902,38.27372],[140.82684,38.27227],[140.82225,38.26942],[140.8216,38.2692],[140.81951,38.26894]],[[140.79076,38.27341],[140.78934,38.27346]],[[140.6319,38.31763],[140.62838,38.31682],[140.62697,38.31664],[140.62483,38.31657],[140.62401,38.31641],[140.62347,38.3162],[140.62266,38.31565],[140.62232,38.31522],[140.62213,38.31481],[140.62196,38.31421],[140.62195,38.31372],[140.62215,38.3123],[140.62214,38.31169],[140.62195,38.31097],[140.62159,38.31039],[140.62074,38.30982],[140.62024,38.3096],[140.61953,38.30943],[140.61585,38.30908],[140.61496,38.30904],[140.61427,38.30911],[140.61349,38.30952],[140.61277,38.31015],[140.60866,38.3147],[140.60743,38.31683],[140.60543,38.32158],[140.60411,38.32341],[140.60242,38.32546],[140.60189,38.32586],[140.60121,38.32616],[140.60021,38.32635],[140.59907,38.32635],[140.59482,38.32601]],[[140.7622,38.27264],[140.76067,38.27262]],[[140.8344,38.27496],[140.83251,38.27466]],[[140.633,38.31792],[140.6319,38.31763]],[[140.88759,38.277],[140.88597,38.27748]],[[140.81771,38.26877],[140.8166,38.26874],[140.81538,38.26905],[140.81483,38.26931],[140.81291,38.27068],[140.81206,38.27098],[140.81124,38.27104],[140.81016,38.27094],[140.80844,38.27044],[140.807,38.27019],[140.80569,38.27013],[140.80465,38.27022],[140.80113,38.27085],[140.79992,38.27135],[140.79794,38.27267],[140.7965,38.27315],[140.79509,38.27329],[140.79076,38.27341]],[[140.70193,38.27819],[140.69708,38.27986],[140.69578,38.28044],[140.69475,38.28121],[140.68664,38.2886],[140.68604,38.2893],[140.68588,38.28963],[140.68577,38.29031],[140.68583,38.29289],[140.68571,38.29342],[140.68536,38.2941],[140.68494,38.29459],[140.68108,38.29763]],[[140.78934,38.27346],[140.77658,38.27381],[140.77476,38.27359],[140.77003,38.2728],[140.7622,38.27264]],[[140.88597,38.27748],[140.88281,38.2783],[140.88145,38.27898],[140.8806,38.27931],[140.87925,38.27954],[140.87508,38.27984],[140.87439,38.27995],[140.87318,38.28026],[140.87074,38.28127]],[[140.85289,38.2853],[140.8509,38.28499]],[[140.59482,38.32601],[140.59405,38.32595]],[[140.70272,38.27793],[140.70193,38.27819]],[[140.88267,38.26136],[140.88234,38.25813]],[[140.88267,38.26136],[140.88234,38.26285],[140.88248,38.26338],[140.88273,38.26386],[140.88311,38.26432],[140.88416,38.26519],[140.88514,38.26565],[140.89282,38.26842]],[[140.89282,38.26842],[140.89397,38.26835],[140.89474,38.26845],[140.89593,38.26887],[140.8966,38.26936],[140.89712,38.2702],[140.89727,38.27085],[140.89717,38.27164],[140.89688,38.27225],[140.8961,38.27307],[140.89529,38.27359],[140.88851,38.27665],[140.88759,38.277]],[[140.87074,38.28127],[140.86917,38.28196]],[[140.86917,38.28196],[140.86177,38.28515],[140.85981,38.28587],[140.85873,38.28601],[140.85783,38.28601],[140.85289,38.2853]],[[140.68032,38.29822],[140.67857,38.29952],[140.67699,38.30028],[140.66743,38.30303],[140.66612,38.3036],[140.66476,38.30454],[140.66354,38.30579],[140.66278,38.30638],[140.66233,38.30661],[140.66052,38.30726],[140.66007,38.30752],[140.65854,38.30935],[140.65788,38.3099],[140.65729,38.31027],[140.65331,38.3118],[140.65107,38.31275],[140.64955,38.31352],[140.64712,38.31491],[140.64585,38.31534],[140.64481,38.31559],[140.64261,38.31589],[140.6417,38.31609],[140.6404,38.31676],[140.63949,38.31767],[140.63899,38.31804],[140.63828,38.31844],[140.63741,38.31873],[140.63639,38.31873],[140.63563,38.31863],[140.633,38.31792]],[[140.34195,38.28828],[140.34233,38.28647]],[[140.34176,38.28921],[140.34195,38.28828]],[[140.49783,38.33294],[140.49672,38.33297]],[[140.37013,38.30148],[140.34392,38.29197],[140.34322,38.29163],[140.34242,38.29095],[140.34184,38.28983],[140.34176,38.28921]],[[140.37118,38.30186],[140.37013,38.30148]],[[140.49672,38.33297],[140.49621,38.33293],[140.49561,38.33275],[140.49414,38.33176],[140.49347,38.33152],[140.49235,38.33145],[140.49123,38.33171],[140.49042,38.33175],[140.48964,38.33157],[140.48746,38.33075],[140.48559,38.33052],[140.48476,38.33019],[140.48412,38.32982],[140.48269,38.32836],[140.48208,38.32796],[140.48172,38.32782],[140.48051,38.32766],[140.47805,38.32787],[140.47726,38.32787],[140.4761,38.32765],[140.47429,38.32708],[140.47218,38.32705],[140.47113,38.32687],[140.4705,38.32659],[140.4666,38.32408],[140.46525,38.32372],[140.46448,38.32341],[140.46373,38.32285],[140.46251,38.32172],[140.46169,38.32129],[140.46113,38.32111],[140.45995,38.32093],[140.45847,38.32084],[140.45552,38.32088],[140.4547,38.32071],[140.45319,38.31999],[140.4508,38.31825],[140.44859,38.31745],[140.447,38.31635],[140.44489,38.31567],[140.44379,38.31496],[140.4423,38.3136],[140.44189,38.31333],[140.44085,38.31284],[140.43901,38.3123],[140.43851,38.31204],[140.43791,38.31167],[140.43624,38.31027],[140.43525,38.30966]],[[140.59405,38.32595],[140.59196,38.32597],[140.59149,38.32604],[140.58998,38.32639],[140.58868,38.32685],[140.58716,38.32717],[140.58567,38.32734],[140.58247,38.32707],[140.58174,38.32722],[140.57956,38.32789],[140.57789,38.32798],[140.57741,38.32811],[140.57449,38.32917],[140.57193,38.3303],[140.57085,38.33055],[140.56882,38.33046],[140.56645,38.33067],[140.5659,38.33055],[140.56431,38.32989],[140.56326,38.32966],[140.56154,38.32949],[140.55959,38.32973],[140.55162,38.33008],[140.49783,38.33294]],[[140.43525,38.30966],[140.43429,38.30949]],[[140.39578,38.30125],[140.39466,38.30041],[140.39368,38.29993],[140.39243,38.29959],[140.39117,38.29954],[140.38905,38.29976],[140.38284,38.30098],[140.37773,38.30271],[140.37624,38.30303],[140.37503,38.30306],[140.37427,38.30296],[140.37118,38.30186]],[[140.39633,38.30177],[140.39578,38.30125]],[[140.43429,38.30949],[140.4218,38.30822],[140.41952,38.30846],[140.41883,38.3084],[140.41775,38.30817],[140.41611,38.30827],[140.41428,38.30827],[140.41254,38.30813],[140.41122,38.30837],[140.40995,38.30833],[140.40777,38.30865],[140.40702,38.30861],[140.40621,38.30834],[140.40586,38.30813],[140.4046,38.30692],[140.39926,38.30433],[140.39833,38.30365],[140.39633,38.30177]],[[140.84219,38.28038],[140.84108,38.28021],[140.84026,38.2799],[140.83988,38.27967],[140.83892,38.27874],[140.83772,38.27663],[140.83734,38.27621],[140.83692,38.27588],[140.83627,38.27553],[140.83521,38.27514],[140.8344,38.27496]],[[140.8509,38.28499],[140.84795,38.28453],[140.84694,38.28416],[140.84647,38.28382],[140.84594,38.28314],[140.84517,38.2816],[140.84472,38.28118],[140.84427,38.28089],[140.84345,38.28055]],[[140.84345,38.28055],[140.84311,38.28045],[140.84219,38.28038]]]}}