{"type":"Feature","properties":{"id":"東日本旅客鉄道_両毛線","name":"両毛線","operator":"東日本旅客鉄道","railType":"普通鉄道(JR)","operatorType":"JR在来線","category":"rail","attribution":"国土数値情報（鉄道データ）国土交通省"},"geometry":{"type":"MultiLineString","coordinates":[[[139.37495,36.37456],[139.3739,36.37542]],[[139.73046,36.37176],[139.73158,36.37211]],[[139.6588,36.32657],[139.66096,36.32658],[139.66212,36.327],[139.67967,36.33788],[139.68077,36.33845],[139.69645,36.34402]],[[139.69804,36.34465],[139.69954,36.34532],[139.70123,36.34643],[139.70363,36.34849],[139.70686,36.35151],[139.70714,36.35187],[139.71194,36.35979],[139.71257,36.36067],[139.71343,36.36149],[139.71484,36.36255],[139.7253,36.36962],[139.72746,36.37075],[139.73046,36.37176]],[[139.69804,36.34465],[139.69645,36.34402]],[[139.8103,36.31972],[139.81081,36.32199],[139.81094,36.32347],[139.81094,36.32491],[139.81081,36.32613],[139.81042,36.32705],[139.81013,36.32761],[139.80386,36.33649],[139.80298,36.33785],[139.80104,36.34047],[139.80004,36.34142],[139.79925,36.34185],[139.78187,36.35068]],[[139.8084,36.3165],[139.8103,36.31972]],[[139.80689,36.31309],[139.80782,36.31478],[139.8084,36.3165]],[[139.80593,36.31138],[139.80689,36.31309]],[[139.78187,36.35068],[139.78038,36.35142]],[[139.73158,36.37211],[139.73688,36.37385],[139.73793,36.3741],[139.73968,36.37413],[139.74098,36.37378],[139.74238,36.373],[139.74674,36.37028],[139.76073,36.3614],[139.78038,36.35142]],[[139.65704,36.32656],[139.6588,36.32657]],[[139.45715,36.33164],[139.45555,36.3321]],[[139.5297,36.31617],[139.52788,36.31619]],[[139.41069,36.34779],[139.39027,36.36223],[139.37495,36.37456]],[[139.45555,36.3321],[139.44628,36.33483],[139.4443,36.33537],[139.44352,36.33551],[139.44119,36.3357],[139.44018,36.33571],[139.43431,36.33512],[139.43368,36.33514],[139.43281,36.33534],[139.43218,36.33561],[139.431,36.33642],[139.42652,36.34008],[139.42582,36.34062],[139.42476,36.34128],[139.42408,36.34159],[139.41562,36.34444],[139.41471,36.34496],[139.41185,36.34699]],[[139.57739,36.31653],[139.55583,36.31593],[139.5297,36.31617]],[[139.58041,36.31659],[139.57739,36.31653]],[[139.41185,36.34699],[139.41069,36.34779]],[[139.45715,36.33164],[139.46289,36.33007],[139.47543,36.32646],[139.47828,36.32543],[139.47937,36.32492],[139.48713,36.31997],[139.4898,36.31835],[139.49629,36.31548],[139.50125,36.31338],[139.50197,36.31315],[139.50328,36.31313],[139.50518,36.31335],[139.5183,36.31515]],[[139.58041,36.31659],[139.58926,36.31686],[139.59248,36.31711],[139.63347,36.32645],[139.63477,36.32667],[139.63777,36.3268],[139.65704,36.32656]],[[139.29614,36.39528],[139.25381,36.36808],[139.24345,36.35978]],[[139.24146,36.35823],[139.24345,36.35978]],[[139.14043,36.35373],[139.13866,36.35449]],[[139.19469,36.32665],[139.19193,36.32711]],[[139.10827,36.37133],[139.10976,36.37047]],[[139.10827,36.37133],[139.10429,36.37358],[139.09407,36.3798],[139.09294,36.38039],[139.09171,36.38087],[139.08146,36.38407],[139.0805,36.38421],[139.07928,36.38423],[139.07472,36.38365]],[[139.07202,36.38329],[139.06289,36.38214],[139.06121,36.38227],[139.05658,36.38316],[139.05475,36.38324],[139.05334,36.38299],[139.05253,36.38273],[139.05106,36.38205]],[[139.05106,36.38205],[139.04829,36.37997]],[[139.13866,36.35449],[139.13633,36.35562],[139.10976,36.37047]],[[139.3739,36.37542],[139.36809,36.38003],[139.3669,36.38046],[139.36431,36.38108],[139.36361,36.3814],[139.34547,36.39602],[139.34479,36.39679],[139.34408,36.39827],[139.3435,36.39992],[139.34206,36.40484],[139.34161,36.40603],[139.34126,36.40663],[139.34042,36.40759],[139.33928,36.40841],[139.33858,36.40878],[139.33387,36.41082]],[[139.19193,36.32711],[139.18983,36.32746],[139.18908,36.32775],[139.17008,36.33856],[139.16193,36.34467],[139.16092,36.34522],[139.14043,36.35373]],[[139.07472,36.38365],[139.07202,36.38329]],[[139.19469,36.32665],[139.19773,36.32614],[139.199,36.32611],[139.19993,36.32626],[139.20143,36.32673],[139.2061,36.32869],[139.20798,36.3296],[139.20975,36.33061],[139.21377,36.33347],[139.23346,36.35185],[139.23582,36.35381],[139.24146,36.35823]],[[139.04829,36.37997],[139.04571,36.37804]],[[139.33257,36.41141],[139.32868,36.41318],[139.3273,36.41348],[139.32523,36.41339],[139.32383,36.41305],[139.32272,36.41256],[139.32148,36.41184],[139.31844,36.40977]],[[139.31844,36.40977],[139.31086,36.40475],[139.29809,36.3965]],[[139.29809,36.3965],[139.29614,36.39528]],[[139.33387,36.41082],[139.33257,36.41141]],[[139.5183,36.31515],[139.51861,36.31519]],[[139.51861,36.31519],[139.52576,36.31617],[139.52788,36.31619]]]}}