{"type":"Feature","properties":{"id":"東武鉄道_佐野線","name":"佐野線","operator":"東武鉄道","railType":"普通鉄道","operatorType":"民営","category":"rail","attribution":"国土数値情報（鉄道データ）国土交通省"},"geometry":{"type":"MultiLineString","coordinates":[[[139.58212,36.36741],[139.5817,36.36673]],[[139.59332,36.37865],[139.5926,36.3775]],[[139.60984,36.39801],[139.60873,36.39776]],[[139.58212,36.36741],[139.583,36.36879],[139.58327,36.36905],[139.58965,36.37364],[139.59086,36.37496],[139.5926,36.3775]],[[139.60873,36.39776],[139.60567,36.39723],[139.6051,36.39706],[139.60435,36.39663],[139.60382,36.39608],[139.60361,36.39574],[139.60346,36.39523],[139.60345,36.39316],[139.60304,36.3909],[139.60278,36.39001],[139.60213,36.38872],[139.60162,36.38794],[139.59498,36.38119],[139.59332,36.37865]],[[139.5276,36.24746],[139.52723,36.24817],[139.5257,36.24996]],[[139.52802,36.24573],[139.5276,36.24746]],[[139.5792,36.3453],[139.57675,36.33903],[139.57623,36.33815],[139.57518,36.33698],[139.57481,36.33612],[139.57465,36.33535],[139.5748,36.33445],[139.57515,36.33377],[139.57549,36.33341],[139.57636,36.3328],[139.57853,36.33176],[139.57924,36.33112],[139.57993,36.33016],[139.58024,36.32886]],[[139.53802,36.26203],[139.53694,36.26165]],[[139.52341,36.2526],[139.52311,36.25338],[139.52294,36.25413],[139.52305,36.25522],[139.52327,36.25582],[139.52348,36.25615],[139.52395,36.25671],[139.52449,36.25714],[139.52566,36.25774],[139.53694,36.26165]],[[139.5257,36.24996],[139.52341,36.2526]],[[139.58024,36.32886],[139.58042,36.32802]],[[139.57656,36.30663],[139.57524,36.30585]],[[139.58042,36.32802],[139.58047,36.32707],[139.5802,36.3262],[139.57862,36.32345],[139.57658,36.32076],[139.57625,36.32027],[139.57604,36.31974],[139.57597,36.31879],[139.57631,36.31798],[139.57673,36.31747],[139.57715,36.31713],[139.57762,36.31694],[139.57825,36.31683]],[[139.56512,36.2906],[139.56469,36.28985]],[[139.57524,36.30585],[139.5741,36.30514],[139.57353,36.30448],[139.5732,36.30378],[139.5726,36.30129],[139.57181,36.29952],[139.57105,36.29816],[139.56625,36.29226],[139.56512,36.2906]],[[139.56469,36.28985],[139.56246,36.2858],[139.55732,36.27716],[139.55719,36.27652],[139.55739,36.27465],[139.55732,36.27415],[139.55709,36.27363],[139.55677,36.27315],[139.55274,36.26857],[139.55171,36.26759],[139.55105,36.26709],[139.54994,36.2664],[139.54864,36.26579],[139.54367,36.26396],[139.53802,36.26203]],[[139.57825,36.31683],[139.58002,36.31686]],[[139.5795,36.34595],[139.5792,36.3453]],[[139.58002,36.31686],[139.58158,36.31696],[139.58294,36.3175],[139.58369,36.31769],[139.58495,36.31773],[139.58571,36.31752],[139.58627,36.31722],[139.58687,36.31675],[139.58739,36.31603],[139.58758,36.31545],[139.58763,36.31477],[139.58745,36.3139],[139.58637,36.31158],[139.58592,36.311],[139.58533,36.3105],[139.5843,36.30998],[139.57971,36.30845],[139.57656,36.30663]],[[139.5817,36.36673],[139.58109,36.36582],[139.58089,36.36428],[139.58057,36.34908],[139.58044,36.34846],[139.5795,36.34595]]]}}