{"type":"Feature","properties":{"id":"東日本旅客鉄道_磐越西線","name":"磐越西線","operator":"東日本旅客鉄道","railType":"普通鉄道(JR)","operatorType":"JR在来線","category":"rail","attribution":"国土数値情報（鉄道データ）国土交通省"},"geometry":{"type":"MultiLineString","coordinates":[[[139.35406,37.71526],[139.35288,37.71656]],[[139.44604,37.68864],[139.44789,37.68773]],[[139.47952,37.69582],[139.48094,37.6961]],[[139.16983,37.7464],[139.17243,37.73874],[139.17276,37.73789],[139.17326,37.73714],[139.17414,37.73632],[139.17527,37.73571],[139.17874,37.73468]],[[139.18085,37.73406],[139.1853,37.73273],[139.18709,37.73232],[139.22151,37.72964]],[[139.44789,37.68773],[139.44928,37.68704],[139.4503,37.68663],[139.45134,37.68654],[139.45236,37.6866],[139.45582,37.68816],[139.45668,37.68837],[139.45799,37.68823],[139.46489,37.68714],[139.46612,37.68716],[139.46687,37.68743],[139.4676,37.68786],[139.46807,37.68838],[139.4688,37.68942],[139.46926,37.68984],[139.47365,37.69312],[139.4755,37.69438],[139.47742,37.69532],[139.47952,37.69582]],[[139.35406,37.71526],[139.35434,37.71455],[139.35438,37.71085],[139.35469,37.7099],[139.35511,37.70938],[139.35568,37.70894],[139.35626,37.70865],[139.35724,37.70837],[139.36108,37.70801],[139.3631,37.70798],[139.36467,37.70818],[139.36593,37.70866],[139.3662,37.70887],[139.3669,37.70979],[139.36815,37.71284],[139.36877,37.71369],[139.36943,37.71427],[139.37082,37.71528],[139.3723,37.71586],[139.37315,37.71599],[139.37386,37.71596],[139.37464,37.71581],[139.37562,37.71547],[139.38123,37.712],[139.3817,37.71144],[139.38196,37.71072],[139.38157,37.70874]],[[139.32216,37.73645],[139.32159,37.73721]],[[139.16208,37.76913],[139.1627,37.76734]],[[139.16953,37.74723],[139.16983,37.7464]],[[139.53493,37.70558],[139.53307,37.70586]],[[139.38142,37.70806],[139.38059,37.70414],[139.38058,37.70363],[139.38078,37.70274],[139.38135,37.70159],[139.38193,37.70076],[139.38274,37.70011],[139.38409,37.69959],[139.38536,37.69936],[139.38602,37.69934],[139.38655,37.69937],[139.38772,37.69964],[139.38838,37.69991],[139.3905,37.70138],[139.39186,37.70219],[139.3967,37.70356],[139.39843,37.70376],[139.40022,37.70355],[139.40115,37.70327],[139.40273,37.70259],[139.40652,37.70049],[139.40736,37.70011],[139.40992,37.69966],[139.4106,37.69941],[139.41318,37.69804],[139.41438,37.69777],[139.41549,37.69765],[139.41639,37.69737],[139.41704,37.69685],[139.41785,37.69603],[139.41847,37.69556],[139.4217,37.69391],[139.42313,37.69272],[139.42373,37.6924],[139.42516,37.69207],[139.42788,37.69224],[139.42876,37.6921],[139.42922,37.69194],[139.43251,37.69017],[139.43343,37.68988],[139.43493,37.68983],[139.43599,37.68994],[139.43875,37.68949],[139.44345,37.68946],[139.44432,37.68931],[139.44604,37.68864]],[[139.35288,37.71656],[139.35237,37.71695],[139.35033,37.71814],[139.34906,37.71911],[139.34866,37.71965],[139.34808,37.72236],[139.34755,37.7236],[139.34696,37.72426],[139.34521,37.72583],[139.34423,37.72725],[139.34339,37.72796],[139.34264,37.7283],[139.33911,37.72928],[139.33689,37.72951],[139.33481,37.72932],[139.33367,37.7293],[139.33174,37.72958],[139.33074,37.7299],[139.32911,37.7307],[139.32442,37.73388],[139.32371,37.73446],[139.32216,37.73645]],[[139.38157,37.70874],[139.38142,37.70806]],[[139.32159,37.73721],[139.32103,37.73797],[139.31998,37.739],[139.31931,37.73934],[139.31884,37.73947],[139.3176,37.73959],[139.31636,37.73935],[139.31556,37.73901],[139.31521,37.73875],[139.31323,37.73657],[139.31267,37.7363],[139.31124,37.73589],[139.30751,37.73525],[139.30621,37.73503],[139.30362,37.73482],[139.30189,37.73447],[139.30124,37.73441],[139.3007,37.73442],[139.29943,37.73468],[139.29705,37.73561],[139.29578,37.73586],[139.29436,37.73576],[139.29154,37.73514]],[[139.12122,37.79892],[139.1212,37.80168]],[[139.1627,37.76734],[139.16953,37.74723]],[[139.22325,37.72961],[139.226,37.72996],[139.24519,37.73427],[139.25997,37.73749]],[[139.53307,37.70586],[139.53045,37.70626],[139.52668,37.70543],[139.52621,37.70539],[139.52524,37.70549],[139.52428,37.70579],[139.52358,37.70625],[139.52177,37.70802],[139.52119,37.70844],[139.51988,37.70883],[139.5192,37.70887],[139.51811,37.70876],[139.49938,37.70348],[139.49672,37.70281],[139.49415,37.70187],[139.4878,37.69816],[139.48628,37.69737],[139.48429,37.69674],[139.48094,37.6961]],[[139.26116,37.73774],[139.25997,37.73749]],[[139.57584,37.6801],[139.57674,37.68087]],[[139.17874,37.73468],[139.18085,37.73406]],[[139.57674,37.68087],[139.57774,37.68189],[139.57884,37.68363],[139.57935,37.68623],[139.57964,37.68695],[139.58177,37.68978],[139.58302,37.69178],[139.58387,37.69362],[139.58393,37.69416],[139.58383,37.69476],[139.58344,37.69555],[139.58304,37.69594],[139.58183,37.69678],[139.5808,37.69732],[139.57977,37.69759],[139.57668,37.69803],[139.57467,37.69864],[139.57348,37.69911],[139.57239,37.69968],[139.57069,37.70093],[139.57033,37.70144],[139.57022,37.70185],[139.5703,37.70479],[139.56977,37.70675],[139.56956,37.70713],[139.56782,37.70871],[139.56438,37.70993],[139.56287,37.71025],[139.56175,37.71031],[139.55538,37.70855],[139.55198,37.70719],[139.54973,37.70644],[139.54268,37.7057],[139.53926,37.70512],[139.53812,37.70513],[139.53493,37.70558]],[[139.144,37.7875],[139.14592,37.7865],[139.14736,37.78539],[139.14845,37.78397],[139.15245,37.7783],[139.15326,37.77745],[139.15499,37.77631],[139.1597,37.77354],[139.16062,37.77275],[139.16112,37.77197],[139.16208,37.76913]],[[139.12122,37.79892],[139.12125,37.79643]],[[139.12125,37.79643],[139.12175,37.79443],[139.1224,37.79371],[139.1228,37.7934],[139.12373,37.79289],[139.12431,37.79269],[139.12525,37.79254],[139.12615,37.7925],[139.12785,37.79269],[139.13285,37.7936],[139.13404,37.79363],[139.13511,37.79346],[139.13589,37.79315],[139.13637,37.79284],[139.13826,37.79088],[139.13927,37.79008],[139.14317,37.78795]],[[139.14317,37.78795],[139.144,37.7875]],[[139.29058,37.73493],[139.28484,37.73371],[139.28368,37.73356],[139.28275,37.73358],[139.28206,37.73375],[139.28142,37.73403],[139.27957,37.73529],[139.27855,37.73579],[139.27616,37.73626],[139.2708,37.73794],[139.26861,37.7384],[139.26708,37.73863],[139.26541,37.73861],[139.26429,37.73844],[139.26116,37.73774]],[[139.22151,37.72964],[139.22325,37.72961]],[[139.29154,37.73514],[139.29058,37.73493]],[[140.39003,37.40251],[140.38913,37.39936]],[[140.38913,37.39936],[140.3886,37.39693]],[[140.39003,37.40251],[140.39009,37.40279]],[[140.16394,37.48769],[140.17262,37.48366],[140.18476,37.48051],[140.18597,37.48046],[140.18719,37.48065],[140.19,37.48209],[140.19064,37.48221],[140.19156,37.48223],[140.19268,37.48219],[140.19412,37.48197],[140.19531,37.48154],[140.19634,37.48099],[140.19717,37.48072],[140.19787,37.48062],[140.19914,37.4807],[140.19958,37.48081],[140.20014,37.48117],[140.20125,37.48229],[140.20162,37.48286],[140.20181,37.48352],[140.20172,37.48419],[140.20148,37.48489],[140.20057,37.48673],[140.20052,37.48706],[140.20063,37.48796],[140.20083,37.4884],[140.20124,37.48893],[140.20208,37.48966],[140.20263,37.49028],[140.20355,37.49179],[140.20389,37.49217],[140.20547,37.49303],[140.20697,37.49428],[140.21182,37.49637],[140.21272,37.49654],[140.21352,37.49657],[140.21779,37.4955],[140.21907,37.49561]],[[140.3419,37.45229],[140.3421,37.45089]],[[140.31139,37.47159],[140.31347,37.47081],[140.31491,37.47039],[140.31913,37.46995],[140.31968,37.46981],[140.32286,37.4686],[140.32426,37.46788],[140.33361,37.46137],[140.34046,37.45649],[140.34098,37.45592],[140.34138,37.45508],[140.3419,37.45229]],[[140.21992,37.49577],[140.22179,37.49611],[140.22253,37.49608],[140.22305,37.49597],[140.22377,37.49564],[140.22525,37.49458],[140.22577,37.49431],[140.22691,37.4941],[140.23459,37.4942],[140.23707,37.49416],[140.23837,37.49425],[140.2397,37.49448],[140.24061,37.49446],[140.24183,37.49431],[140.24243,37.49433],[140.24558,37.49474],[140.2483,37.49555],[140.2497,37.49581],[140.25048,37.49574],[140.25393,37.495],[140.25476,37.49462],[140.25831,37.49246],[140.26423,37.48688],[140.26572,37.48456],[140.26645,37.48386],[140.26843,37.48222],[140.2699,37.48121]],[[140.2699,37.48121],[140.27135,37.48032]],[[140.30974,37.4722],[140.31139,37.47159]],[[140.1632,37.48803],[140.16394,37.48769]],[[140.27135,37.48032],[140.27202,37.48001],[140.27462,37.47944],[140.28952,37.47651],[140.29055,37.47642],[140.2976,37.47627],[140.29857,37.47612],[140.30974,37.4722]],[[140.21907,37.49561],[140.21992,37.49577]],[[140.3421,37.45089],[140.34353,37.44112],[140.34386,37.43973],[140.34438,37.43874],[140.35136,37.4295],[140.35231,37.42867],[140.35314,37.42824],[140.36123,37.42556],[140.36386,37.42448],[140.36522,37.42356],[140.36864,37.421]],[[139.93184,37.518],[139.93203,37.53493],[139.93193,37.53609],[139.9306,37.54457],[139.93063,37.54517],[139.93076,37.54568],[139.93115,37.54664],[139.93144,37.5471],[139.93274,37.54857]],[[139.93391,37.54983],[139.93718,37.55343],[139.93831,37.5555],[139.93866,37.55674],[139.93884,37.55809],[139.9388,37.56396],[139.93895,37.56454],[139.93922,37.56498],[139.93979,37.56547],[139.94049,37.56586],[139.94247,37.5664],[139.94391,37.56659],[139.94724,37.56647]],[[139.93035,37.50984],[139.9317,37.5158],[139.93179,37.51638],[139.93184,37.518]],[[139.88722,37.59505],[139.88723,37.59696],[139.88716,37.59735],[139.8866,37.5988],[139.88111,37.61564]],[[139.87689,37.63316],[139.87678,37.63382]],[[139.86932,37.6437],[139.8669,37.64401]],[[140.14365,37.51532],[140.14747,37.50108]],[[140.14354,37.51595],[140.14365,37.51532]],[[139.72313,37.61722],[139.72137,37.61789]],[[139.69134,37.60835],[139.69095,37.60669],[139.69074,37.60615],[139.6905,37.60583],[139.69006,37.60548],[139.68878,37.60502],[139.68722,37.60482],[139.68441,37.60431],[139.68366,37.60431],[139.68313,37.60444],[139.68061,37.6055],[139.67954,37.60572],[139.67433,37.60566],[139.67326,37.6056],[139.67268,37.60545],[139.67174,37.605],[139.67114,37.60458],[139.66596,37.5998],[139.6648,37.59882],[139.65504,37.59168],[139.65336,37.59049],[139.65269,37.59011],[139.65208,37.58988],[139.6512,37.58973],[139.65006,37.58974],[139.64581,37.59067]],[[139.8809,37.61625],[139.87894,37.62229],[139.87846,37.62402],[139.87689,37.63316]],[[140.14747,37.50108],[140.1477,37.50019]],[[140.13717,37.53532],[140.13667,37.53587]],[[139.76727,37.63974],[139.76585,37.63867]],[[140.13667,37.53587],[140.13269,37.54014],[140.13202,37.54069],[140.13113,37.54108],[140.13035,37.54119],[140.12713,37.54133],[140.12594,37.54146],[140.11843,37.54394],[140.11621,37.54453],[140.10367,37.54622]],[[139.91196,37.55447],[139.91258,37.55328],[139.91848,37.53988],[139.92012,37.53634],[139.93146,37.5196],[139.93162,37.51925],[139.93184,37.518]],[[140.10258,37.54639],[140.05452,37.55274]],[[139.88717,37.59322],[139.88722,37.59505]],[[139.89508,37.57952],[139.8937,37.58158],[139.88926,37.58664],[139.88759,37.58878],[139.88738,37.58927],[139.88726,37.58981],[139.88717,37.59322]],[[139.88111,37.61564],[139.8809,37.61625]],[[139.93274,37.54857],[139.93391,37.54983]],[[139.6434,37.59124],[139.64234,37.59152],[139.64157,37.59193],[139.63816,37.59495],[139.63764,37.59523],[139.63654,37.59549],[139.63564,37.59555],[139.6321,37.59512],[139.63121,37.59509],[139.62988,37.59542],[139.62847,37.59605],[139.6277,37.5966],[139.62733,37.59699],[139.6255,37.60005],[139.62537,37.60078],[139.62541,37.60123],[139.62654,37.60305],[139.62698,37.60736],[139.62711,37.60795],[139.62895,37.61132],[139.63373,37.61964],[139.63405,37.62034],[139.63421,37.62104],[139.63424,37.6218],[139.63396,37.62435]],[[140.05348,37.55288],[140.04073,37.55455],[140.03919,37.55464],[140.03843,37.55459],[140.03748,37.55437],[140.0361,37.55364],[140.03294,37.55085],[140.03199,37.54973],[140.02817,37.54462],[140.02736,37.54394],[140.02621,37.54339],[140.02287,37.54245],[140.02216,37.54235],[140.02082,37.54237],[140.01997,37.54252],[140.01905,37.54288],[140.01824,37.5434],[140.01744,37.54405],[140.01643,37.54509],[140.01609,37.54583],[140.016,37.54637],[140.01605,37.54755],[140.01719,37.55285],[140.01744,37.5537],[140.01764,37.55415],[140.01826,37.55507],[140.02003,37.55688],[140.02024,37.55739],[140.02048,37.55838],[140.02087,37.56215],[140.02085,37.56298],[140.02064,37.56362],[140.02042,37.564],[140.01996,37.56447],[140.01938,37.56485],[140.01874,37.56513],[140.01765,37.56534],[140.01663,37.56521],[140.01537,37.5647],[140.01365,37.56348],[140.01314,37.56301],[140.01251,37.56221],[140.01176,37.56035],[140.01122,37.55957],[140.01086,37.55924],[140.00859,37.55766],[140.00718,37.55599],[140.00616,37.55428],[140.00575,37.55379],[140.00484,37.55312],[140.00372,37.55271],[139.99984,37.55196],[139.9975,37.55139],[139.99659,37.55133],[139.99544,37.55156],[139.99485,37.55183],[139.99427,37.55223],[139.99376,37.55278],[139.9935,37.5532],[139.99341,37.55374],[139.99342,37.55668]],[[139.76585,37.63867],[139.76284,37.63645],[139.76166,37.63607],[139.76072,37.63596],[139.75925,37.63622],[139.74875,37.63888],[139.74797,37.63918],[139.7466,37.63995],[139.74469,37.64056],[139.74366,37.64064],[139.743,37.6405],[139.74231,37.64023],[139.74166,37.63972],[139.74025,37.63824],[139.7387,37.63617],[139.73835,37.63586],[139.73595,37.63498],[139.73546,37.63459],[139.73426,37.63387],[139.73251,37.63333],[139.73168,37.63296],[139.72891,37.63052],[139.72694,37.62639],[139.72675,37.62556],[139.7269,37.62491],[139.72905,37.61973],[139.7291,37.61916],[139.72892,37.61863],[139.72853,37.61805],[139.72778,37.61738],[139.72661,37.61668],[139.72628,37.61661],[139.72468,37.61677],[139.72376,37.61697],[139.72313,37.61722]],[[139.87678,37.63382],[139.8757,37.64005],[139.8754,37.64107],[139.87504,37.64171],[139.8744,37.6424],[139.8738,37.64288],[139.87322,37.64317],[139.87223,37.64343],[139.86932,37.6437]],[[139.72137,37.61789],[139.71833,37.61902],[139.71643,37.62057],[139.71304,37.6219],[139.71161,37.62229],[139.71089,37.62228],[139.70926,37.62204],[139.70877,37.62186],[139.70829,37.62156],[139.70643,37.61956],[139.70612,37.6189],[139.70583,37.61739],[139.70567,37.61694],[139.70454,37.61502],[139.70187,37.61248],[139.70128,37.61205],[139.70027,37.61156],[139.69976,37.61139],[139.69905,37.61128],[139.6982,37.61134],[139.69601,37.61204],[139.69498,37.61212],[139.69402,37.612],[139.69306,37.61167],[139.69225,37.61109],[139.69186,37.61047],[139.69164,37.60964]],[[139.92999,37.50806],[139.93035,37.50984]],[[139.69164,37.60964],[139.69134,37.60835]],[[139.91153,37.55506],[139.8956,37.57876]],[[140.1477,37.50019],[140.14907,37.49508],[140.14951,37.49448],[140.15012,37.49389],[140.15061,37.49356],[140.15164,37.49305],[140.15295,37.49264],[140.15475,37.49195],[140.1632,37.48803]],[[139.91196,37.55447],[139.91153,37.55506]],[[139.60368,37.66718],[139.60205,37.66658]],[[139.94901,37.56658],[139.95327,37.567],[139.95417,37.5672],[139.95511,37.56773],[139.95656,37.56902],[139.95708,37.56931],[139.95784,37.56957],[139.95852,37.56968],[139.95934,37.56968],[139.95991,37.56958],[139.96056,37.56933],[139.96135,37.56888],[139.96176,37.56848],[139.96197,37.56812],[139.96224,37.56731],[139.96223,37.56659],[139.96153,37.56469],[139.96138,37.5639],[139.96146,37.56299],[139.96184,37.5621],[139.9625,37.56118],[139.96349,37.56034],[139.96546,37.55924],[139.96604,37.55903],[139.9667,37.55891],[139.96768,37.55888],[139.96864,37.55906],[139.96924,37.55935],[139.97081,37.56045],[139.97138,37.56075],[139.97246,37.5611],[139.97334,37.56122],[139.97497,37.56102],[139.97599,37.56067],[139.97668,37.56031],[139.97786,37.55941],[139.97862,37.55897],[139.97914,37.55885],[139.98156,37.55863],[139.9833,37.55858],[139.9844,37.55894],[139.98492,37.55925],[139.98515,37.55948],[139.98599,37.56058],[139.98707,37.56253],[139.98774,37.5632],[139.9883,37.56357],[139.98904,37.56384],[139.98987,37.56398],[139.99071,37.56392],[139.99155,37.5637],[139.99222,37.5634],[139.99276,37.56301],[139.99329,37.56239],[139.99345,37.56155],[139.99344,37.55811]],[[139.99344,37.55811],[139.99342,37.55668]],[[140.05452,37.55274],[140.05348,37.55288]],[[140.13717,37.53532],[140.1404,37.5318],[140.14109,37.53064],[140.14146,37.52965],[140.1417,37.5283],[140.14165,37.52306],[140.14354,37.51595]],[[139.63384,37.62571],[139.63362,37.62794],[139.63337,37.62851],[139.63306,37.62893],[139.63201,37.62969],[139.62701,37.63237],[139.62625,37.63303],[139.62565,37.63378],[139.62521,37.6347],[139.62507,37.63534],[139.62503,37.63612],[139.6251,37.63661],[139.62527,37.63718],[139.62565,37.63784],[139.63105,37.64354],[139.63156,37.64428],[139.6318,37.64525],[139.63178,37.64614],[139.63121,37.64766],[139.63085,37.6484],[139.63032,37.64894],[139.62545,37.6511],[139.62048,37.65395],[139.61945,37.65469],[139.61819,37.65604],[139.61682,37.65767],[139.61474,37.66035],[139.61276,37.6638],[139.61227,37.66448],[139.61204,37.66474],[139.61026,37.66605],[139.60872,37.66672],[139.60732,37.66712],[139.60549,37.66733],[139.60368,37.66718]],[[140.10367,37.54622],[140.10258,37.54639]],[[139.8669,37.64401],[139.86161,37.64468],[139.84869,37.6468],[139.84718,37.64697],[139.84581,37.64688],[139.8451,37.64671],[139.84366,37.6459],[139.8342,37.63855],[139.83257,37.63796],[139.83162,37.63788],[139.83051,37.63803],[139.82607,37.63938],[139.8242,37.64105],[139.82335,37.64171],[139.81878,37.64478],[139.81716,37.64569],[139.81675,37.64586],[139.81603,37.64599],[139.81392,37.64588],[139.81326,37.64593],[139.81259,37.64617],[139.81048,37.64724],[139.80964,37.64749],[139.80878,37.64751],[139.80559,37.64696],[139.80464,37.64699],[139.80308,37.64721],[139.80257,37.6472],[139.796,37.64592],[139.7916,37.64487],[139.78997,37.64424],[139.78314,37.64109],[139.78189,37.64067],[139.78028,37.64061],[139.77266,37.64124],[139.77128,37.64124],[139.77045,37.64112],[139.76946,37.64084],[139.76826,37.64035],[139.76727,37.63974]],[[139.64581,37.59067],[139.6434,37.59124]],[[139.60205,37.66658],[139.6009,37.66601],[139.60021,37.66577],[139.59965,37.66564],[139.59899,37.66563],[139.59799,37.66578],[139.59487,37.6666],[139.59375,37.66706],[139.59285,37.6678],[139.59252,37.66837],[139.59206,37.66991],[139.59184,37.6703],[139.59127,37.671],[139.59054,37.67143],[139.58949,37.67177],[139.58731,37.67174],[139.58634,37.67184],[139.58352,37.67299],[139.58036,37.67355],[139.57813,37.67441],[139.57685,37.67519],[139.57616,37.67573],[139.57509,37.67714],[139.5749,37.67809],[139.57498,37.67875],[139.5752,37.67934],[139.57584,37.6801]],[[139.63396,37.62435],[139.63384,37.62571]],[[139.94724,37.56647],[139.94901,37.56658]],[[139.8956,37.57876],[139.89508,37.57952]],[[140.36864,37.421],[140.36974,37.42017]],[[140.36974,37.42017],[140.37165,37.4188],[140.37397,37.41572],[140.3757,37.41438],[140.38712,37.40769],[140.3886,37.40678],[140.38938,37.40618],[140.38988,37.40556],[140.39029,37.40451],[140.39009,37.40279]]]}}