{"type":"Feature","properties":{"id":"東日本旅客鉄道_花輪線","name":"花輪線","operator":"東日本旅客鉄道","railType":"普通鉄道(JR)","operatorType":"JR在来線","category":"rail","attribution":"国土数値情報（鉄道データ）国土交通省"},"geometry":{"type":"MultiLineString","coordinates":[[[140.5533,40.28753],[140.55201,40.28751],[140.54682,40.28807],[140.54606,40.28796],[140.54494,40.28748],[140.54444,40.28709],[140.54397,40.28656],[140.54375,40.28603],[140.54328,40.28172],[140.5432,40.2803],[140.54337,40.27969],[140.54359,40.27933],[140.54417,40.27874],[140.5448,40.27821],[140.54834,40.27567],[140.54901,40.27505],[140.55078,40.27245],[140.55436,40.26663]],[[140.55453,40.28782],[140.5533,40.28753]],[[140.57302,40.22885],[140.57198,40.22974]],[[140.77066,40.25524],[140.77058,40.25362]],[[140.55499,40.26569],[140.55436,40.26663]],[[140.77076,40.25846],[140.77068,40.2567]],[[140.77068,40.2567],[140.77066,40.25524]],[[140.69286,40.23022],[140.69368,40.23046]],[[140.57198,40.22974],[140.56922,40.23211],[140.56887,40.23261],[140.56867,40.23321],[140.56872,40.23373],[140.56896,40.23438],[140.57122,40.23688],[140.5716,40.23743],[140.57194,40.23854],[140.57197,40.23918],[140.57187,40.23973],[140.5659,40.25111],[140.56395,40.25461],[140.5589,40.26008],[140.55833,40.2608],[140.55499,40.26569]],[[140.78812,40.23045],[140.78799,40.23109]],[[140.78799,40.23109],[140.78717,40.23428],[140.779,40.24366],[140.77698,40.24513],[140.77151,40.24887],[140.77082,40.24956],[140.77065,40.24982],[140.77051,40.25035],[140.77047,40.25116],[140.77058,40.25362]],[[140.55704,40.28834],[140.55453,40.28782]],[[140.73705,40.22952],[140.73759,40.23027]],[[140.73759,40.23027],[140.7404,40.23424],[140.74123,40.23555],[140.74139,40.23605],[140.74224,40.2417],[140.7426,40.24226],[140.74308,40.24269],[140.74363,40.24302],[140.74455,40.24341],[140.74495,40.24348],[140.74684,40.24345],[140.74844,40.24387],[140.7498,40.24409],[140.76488,40.24957],[140.76808,40.25087],[140.76947,40.25161],[140.76988,40.25212],[140.77058,40.25362]],[[141.14177,39.90273],[141.12714,39.90646],[141.12636,39.90655],[141.10805,39.90708],[141.10742,39.90715],[141.10613,39.90745],[141.10541,39.90772],[141.10461,39.90817],[141.1033,39.90918],[141.10288,39.90967],[141.10245,39.9104],[141.10101,39.91368]],[[141.14269,39.90248],[141.14177,39.90273]],[[141.10101,39.91368],[141.10069,39.91453]],[[141.08474,39.95103],[141.08107,39.95231],[141.07925,39.95304],[141.07251,39.95629]],[[141.10069,39.91453],[141.09691,39.9233],[141.0966,39.92425],[141.09613,39.93017],[141.09608,39.94433],[141.09602,39.9458],[141.09589,39.94633],[141.09554,39.94691],[141.09504,39.94735],[141.09444,39.94767],[141.08567,39.95071]],[[141.1744,39.87513],[141.17637,39.87777]],[[141.17637,39.87777],[141.17656,39.87823],[141.17664,39.87917],[141.1765,39.87972],[141.17616,39.88035],[141.17569,39.88083],[141.16578,39.88656],[141.16517,39.88698],[141.1647,39.88751],[141.16448,39.88797],[141.16433,39.88855],[141.16416,39.89174],[141.16395,39.89284],[141.16367,39.8935],[141.16141,39.89721],[141.16069,39.89796],[141.16022,39.8983],[141.15887,39.8988],[141.15265,39.89995],[141.14269,39.90248]],[[141.17295,39.87319],[141.1744,39.87513]],[[141.08567,39.95071],[141.08474,39.95103]],[[141.04447,39.96909],[141.0434,39.96939]],[[141.02053,40.0761],[141.01933,40.07338],[141.01863,40.07225],[141.01781,40.07129],[141.01636,40.07005],[141.01549,40.06911],[141.01481,40.06812],[141.0146,40.06755],[141.01447,40.06659],[141.01452,40.0659],[141.0154,40.06121],[141.01525,40.05981],[141.01486,40.0589],[141.01067,40.05327],[141.00998,40.0527],[141.00429,40.04876]],[[140.83987,40.12265],[140.84076,40.1221]],[[140.78489,40.18767],[140.78545,40.1894]],[[140.79329,40.1589],[140.79361,40.15819]],[[140.78489,40.18767],[140.78433,40.18594],[140.78403,40.18438],[140.78397,40.1835],[140.78402,40.18264],[140.78424,40.18126],[140.78622,40.17518],[140.78943,40.16762],[140.79329,40.1589]],[[141.02083,40.07679],[141.02176,40.07911],[141.02218,40.07991],[141.02283,40.08059],[141.02324,40.0809],[141.02417,40.08133],[141.02466,40.08145],[141.02605,40.08155],[141.02845,40.08152],[141.03413,40.08076],[141.03567,40.08077],[141.03626,40.08087],[141.03963,40.08201],[141.04008,40.08222],[141.04153,40.08317],[141.04295,40.0844],[141.04338,40.08498],[141.04786,40.09221],[141.04852,40.09455],[141.04918,40.09737]],[[140.63892,40.2096],[140.64032,40.20996]],[[140.78545,40.1894],[140.7895,40.2029],[140.79018,40.20433],[140.79247,40.20734],[140.7928,40.20823],[140.79286,40.20864],[140.79133,40.21603],[140.78812,40.23045]],[[140.99697,40.01284],[140.99429,40.01433],[140.99011,40.01689],[140.98924,40.01753],[140.98883,40.01796],[140.9886,40.01833],[140.98818,40.0199],[140.98795,40.02022],[140.98651,40.02163],[140.98605,40.02235],[140.98593,40.0228],[140.98591,40.02426],[140.98502,40.0263],[140.98504,40.02746],[140.98525,40.02833],[140.98617,40.03098],[140.98653,40.03146],[140.98737,40.03213],[140.98932,40.03317],[140.99071,40.03446],[140.99783,40.04184],[141.00101,40.04632],[141.00194,40.04711],[141.0036,40.04826]],[[140.66886,40.21439],[140.67214,40.21467],[140.67334,40.21511],[140.67511,40.21618],[140.67583,40.21708],[140.67627,40.21836],[140.67686,40.2191],[140.68249,40.22352],[140.68356,40.22493],[140.68595,40.22857],[140.68668,40.22928],[140.68778,40.22977],[140.6884,40.22994],[140.69159,40.23001],[140.69286,40.23022]],[[140.94326,40.14006],[140.9449,40.1394]],[[141.04918,40.09737],[141.04932,40.09806]],[[140.88363,40.11559],[140.887,40.1138],[140.88836,40.11349],[140.88941,40.11356],[140.89129,40.11407],[140.89344,40.11447],[140.89629,40.11527],[140.89655,40.11547],[140.89766,40.11683],[140.89872,40.11773],[140.89937,40.11817],[140.90033,40.11866],[140.90231,40.11905],[140.90322,40.11954],[140.9039,40.12025],[140.90576,40.12297],[140.90855,40.1255],[140.91127,40.12771],[140.91185,40.12795],[140.91238,40.12806],[140.91514,40.12829],[140.91589,40.12843],[140.91714,40.12893],[140.91804,40.12944],[140.91942,40.13114],[140.92016,40.13181],[140.92093,40.13219],[140.92163,40.13229],[140.92474,40.13211],[140.92548,40.13227],[140.92688,40.13303],[140.92744,40.13362],[140.92975,40.13773],[140.93013,40.13826],[140.93055,40.13857],[140.93693,40.14138],[140.93796,40.14164],[140.93873,40.14167],[140.93951,40.14154],[140.94326,40.14006]],[[140.71373,40.22251],[140.7195,40.22261],[140.72151,40.22278],[140.72275,40.22303],[140.7243,40.22348],[140.73289,40.22614],[140.73455,40.22674],[140.73535,40.2272],[140.73568,40.22753],[140.73705,40.22952]],[[140.64032,40.20996],[140.64264,40.21064],[140.64858,40.21095],[140.64916,40.2111],[140.65191,40.21221],[140.65785,40.21351],[140.6675,40.21429]],[[140.69368,40.23046],[140.69529,40.23112],[140.69617,40.23137],[140.69743,40.23138],[140.69878,40.231],[140.70026,40.23022],[140.70219,40.22903],[140.70426,40.22627],[140.70534,40.22504],[140.7105,40.22272],[140.71155,40.22246],[140.71237,40.22247]],[[140.8048,40.14247],[140.80566,40.14125],[140.80602,40.14086],[140.8065,40.14042],[140.80768,40.13972],[140.80857,40.13937],[140.81272,40.13844],[140.81342,40.13812],[140.81968,40.13316],[140.82199,40.13122],[140.82229,40.13078],[140.82241,40.13034],[140.82241,40.12952],[140.82207,40.12802],[140.82213,40.12736],[140.82239,40.12666],[140.8228,40.12619],[140.8233,40.12583],[140.82477,40.12527],[140.8283,40.12511],[140.83139,40.12363],[140.83247,40.12338],[140.83329,40.12342],[140.83573,40.12404],[140.83635,40.12407],[140.83719,40.12397],[140.83829,40.1236],[140.83987,40.12265]],[[141.02083,40.07679],[141.02053,40.0761]],[[140.57302,40.22885],[140.57682,40.22561],[140.5791,40.22418],[140.57991,40.22381],[140.58064,40.22362],[140.58144,40.22351],[140.5982,40.22262],[140.59874,40.22251],[140.59922,40.22232],[140.60219,40.22054],[140.60442,40.21873],[140.61723,40.21205],[140.61938,40.21102],[140.62071,40.21067],[140.63189,40.20867],[140.63255,40.20868],[140.63654,40.20913],[140.63892,40.2096]],[[141.02759,40.10749],[141.02675,40.10752]],[[140.99767,40.01243],[140.99697,40.01284]],[[140.79361,40.15819],[140.79569,40.15347],[140.79643,40.15263],[140.79853,40.15108],[140.79943,40.15027],[140.8041,40.1435]],[[140.88224,40.1163],[140.88363,40.11559]],[[141.07171,39.95667],[141.05799,39.96326],[141.05203,39.96588],[141.0465,39.96844],[141.04447,39.96909]],[[140.71237,40.22247],[140.71373,40.22251]],[[141.0434,39.96939],[141.03473,39.97185],[141.03412,39.97208],[141.03085,39.97483],[141.03022,39.97512],[141.0292,39.97532],[141.02732,39.97535],[141.0266,39.97549],[141.02574,39.97584],[141.02503,39.97642],[141.02455,39.97703],[141.02384,39.97886],[141.02358,39.97917],[141.02317,39.97944],[141.02095,39.98046],[141.0205,39.9808],[141.01999,39.9815],[141.01983,39.98188],[141.01966,39.98357],[141.01959,39.98393],[141.01945,39.98416],[141.01921,39.98452],[141.01882,39.98488],[141.0175,39.98589],[141.01676,39.98691],[141.01642,39.98721],[141.01497,39.98799],[141.0134,39.9891],[141.01123,39.98949],[141.01012,39.98987],[141.00957,39.99028],[141.00903,39.99084],[141.00849,39.99184],[141.00819,39.99222],[141.00773,39.99263],[141.00706,39.99303],[141.00605,39.99331],[141.00447,39.99335],[141.00275,39.99361],[141.00132,39.9942],[141.00084,39.99456],[141.00026,39.99521],[140.99936,39.99721],[140.99913,39.99754],[140.99872,39.99788],[140.99688,39.99898],[140.99632,39.99959],[140.99607,40.00006],[140.99594,40.00105],[140.99603,40.00202],[140.99642,40.00381],[140.99685,40.00514],[140.99697,40.00596],[140.99727,40.00636],[140.99837,40.00711],[140.99906,40.00778],[140.99946,40.0083],[140.99981,40.00919],[140.99971,40.0101],[140.99931,40.01093],[140.9984,40.01192],[140.99767,40.01243]],[[141.00429,40.04876],[141.0036,40.04826]],[[140.6675,40.21429],[140.66886,40.21439]],[[141.04932,40.09806],[141.04968,40.10005],[141.04972,40.10064],[141.04955,40.10169],[141.04933,40.10229],[141.04901,40.10285],[141.04627,40.10576],[141.04503,40.10647],[141.04406,40.1068],[141.04317,40.10692],[141.02759,40.10749]],[[140.9449,40.1394],[140.94595,40.13901],[140.95696,40.13638],[140.96724,40.13547],[140.9681,40.13529],[140.96887,40.13492],[140.96923,40.13468],[140.96959,40.13429],[140.97286,40.1291],[140.97559,40.12644],[140.97737,40.12407],[140.97761,40.12364],[140.97863,40.12096],[140.97917,40.12012],[140.97982,40.11951],[140.98039,40.11911],[140.98103,40.11879],[140.98414,40.11776],[140.98504,40.11724],[140.98534,40.11698],[140.98584,40.1163],[140.98636,40.11418],[140.98661,40.11372],[140.9869,40.11336],[140.98727,40.11308],[140.98817,40.11264],[140.98906,40.11243],[140.98988,40.11242],[140.99631,40.11379],[140.9974,40.11388],[141.00157,40.11365],[141.00867,40.11178],[141.00991,40.11101],[141.01133,40.10966],[141.01577,40.10733],[141.01736,40.10679],[141.01777,40.10674],[141.01843,40.1068],[141.0231,40.10758],[141.02675,40.10752]],[[140.84076,40.1221],[140.84334,40.12046],[140.84413,40.12023],[140.84531,40.1201],[140.846,40.12018],[140.84677,40.12039],[140.84883,40.12117],[140.85016,40.12128],[140.85061,40.12122],[140.85152,40.12092],[140.85417,40.11957],[140.85495,40.11934],[140.85562,40.11924],[140.85661,40.11925],[140.86124,40.12037],[140.86225,40.12041],[140.86295,40.1203],[140.86368,40.12009],[140.86413,40.11983],[140.8665,40.1174],[140.86706,40.11694],[140.86758,40.11661],[140.86854,40.11635],[140.86956,40.11635],[140.87483,40.11733],[140.87663,40.11743],[140.87795,40.11733],[140.87983,40.11706],[140.88111,40.11672],[140.88224,40.1163]],[[140.8041,40.1435],[140.8048,40.14247]],[[141.07251,39.95629],[141.07171,39.95667]]]}}