{"type":"Feature","properties":{"id":"東日本旅客鉄道_越後線","name":"越後線","operator":"東日本旅客鉄道","railType":"普通鉄道(JR)","operatorType":"JR在来線","category":"rail","attribution":"国土数値情報（鉄道データ）国土交通省"},"geometry":{"type":"MultiLineString","coordinates":[[[139.05944,37.91178],[139.06251,37.91254]],[[138.87463,37.6847],[138.87745,37.68645]],[[138.95524,37.8696],[138.95391,37.86877]],[[138.87968,37.6878],[138.87745,37.68645]],[[138.93758,37.85896],[138.93567,37.85767]],[[138.93567,37.85767],[138.93086,37.85428],[138.93007,37.85345],[138.92974,37.85298],[138.92694,37.84661]],[[139.03111,37.9121],[139.03209,37.91216],[139.03298,37.9121],[139.03374,37.9119],[139.03451,37.91155],[139.03544,37.91093],[139.03918,37.90727],[139.03969,37.90691],[139.04034,37.90657],[139.04105,37.90635],[139.0423,37.90622],[139.04356,37.90632],[139.05573,37.91064],[139.05944,37.91178]],[[139.03111,37.9121],[139.03008,37.91189],[139.0289,37.91146]],[[138.91118,37.79308],[138.91144,37.79174],[138.91154,37.79035],[138.91123,37.78916],[138.91075,37.78842],[138.90541,37.78184],[138.89646,37.7741],[138.8961,37.77376],[138.89568,37.77318],[138.88998,37.75803]],[[138.99998,37.89824],[138.99917,37.8978],[138.99826,37.89704],[138.99162,37.89004]],[[138.97263,37.87844],[138.96705,37.875],[138.96588,37.87437],[138.95639,37.87027],[138.95524,37.8696]],[[138.88024,37.72223],[138.87975,37.72062]],[[138.95391,37.86877],[138.94954,37.86608],[138.94717,37.86525],[138.94593,37.86471],[138.93758,37.85896]],[[138.99063,37.88896],[138.98893,37.88718],[138.98854,37.88684],[138.9878,37.88639],[138.97464,37.87959]],[[138.90761,37.81522],[138.90733,37.81391],[138.90734,37.81307],[138.91101,37.79391]],[[138.90874,37.81678],[138.90761,37.81522]],[[138.88231,37.70146],[138.88379,37.69261],[138.88379,37.6917],[138.88349,37.69091],[138.88285,37.68993],[138.8818,37.68916],[138.87968,37.6878]],[[138.88998,37.75803],[138.88921,37.75594]],[[138.88921,37.75594],[138.88806,37.75283],[138.88767,37.75094],[138.88633,37.74142],[138.88024,37.72223]],[[139.00172,37.89881],[139.00076,37.89857],[138.99998,37.89824]],[[138.91101,37.79391],[138.91118,37.79308]],[[138.88213,37.70255],[138.88231,37.70146]],[[139.01608,37.90674],[139.01423,37.90553]],[[138.87975,37.72062],[138.87946,37.71946],[138.87947,37.71868],[138.88213,37.70255]],[[138.97464,37.87959],[138.97263,37.87844]],[[138.92694,37.84661],[138.92651,37.84567]],[[139.0289,37.91146],[139.02381,37.9088],[139.0231,37.90855],[139.02218,37.90838],[139.02001,37.9084],[139.01875,37.90817],[139.01777,37.90777],[139.01608,37.90674]],[[138.99162,37.89004],[138.99063,37.88896]],[[138.92651,37.84567],[138.92305,37.83801],[138.92034,37.83231],[138.90874,37.81678]],[[139.01423,37.90553],[139.00982,37.90222],[139.00706,37.90068],[139.00476,37.89951],[139.00172,37.89881]],[[138.74179,37.56607],[138.74243,37.56682]],[[138.871,37.67113],[138.87096,37.66965],[138.87118,37.66851],[138.8745,37.66017],[138.87468,37.65943],[138.87465,37.65878],[138.8737,37.6548]],[[138.77198,37.57463],[138.77071,37.57449]],[[138.84016,37.62956],[138.83863,37.62877]],[[138.83863,37.62877],[138.82582,37.62241],[138.82495,37.62209],[138.82331,37.62168],[138.81525,37.62043]],[[138.81368,37.62011],[138.81277,37.61978],[138.81197,37.61933],[138.81025,37.618],[138.79501,37.60427],[138.79292,37.60229]],[[138.79209,37.60115],[138.78017,37.57679],[138.77966,37.57624],[138.77911,37.57583],[138.77851,37.57554],[138.77776,37.5753],[138.77198,37.57463]],[[138.87463,37.6847],[138.87323,37.68349],[138.87271,37.68274],[138.87238,37.68194],[138.87167,37.67921],[138.87109,37.67282]],[[138.8737,37.6548],[138.8733,37.65314]],[[138.81525,37.62043],[138.81368,37.62011]],[[138.74243,37.56682],[138.74608,37.57106],[138.7468,37.5715],[138.74802,37.57191],[138.74872,37.57204],[138.77071,37.57449]],[[138.87109,37.67282],[138.871,37.67113]],[[138.79292,37.60229],[138.79209,37.60115]],[[138.8733,37.65314],[138.87208,37.64895],[138.87178,37.64819],[138.87146,37.64773],[138.86552,37.64177],[138.86183,37.63834],[138.86075,37.63769],[138.85949,37.63722],[138.84716,37.63299],[138.8455,37.63213],[138.84293,37.63098],[138.84016,37.62956]],[[138.66256,37.45849],[138.64374,37.44919]],[[138.60182,37.40405],[138.60077,37.39896],[138.60022,37.39769],[138.59735,37.39483],[138.59621,37.39381],[138.59526,37.39328],[138.59372,37.3928]],[[138.59372,37.3928],[138.59193,37.39229]],[[138.7039,37.51528],[138.70439,37.51582]],[[138.70439,37.51582],[138.712,37.52422],[138.71233,37.52475],[138.7143,37.52874],[138.71607,37.53153]],[[138.61939,37.42973],[138.61991,37.43026]],[[138.56541,37.3729],[138.56361,37.36594],[138.56331,37.36539],[138.56301,37.36506],[138.56166,37.36426]],[[138.68806,37.48329],[138.68772,37.48261],[138.68738,37.48217],[138.68653,37.48147],[138.68608,37.48118],[138.68136,37.4788],[138.68025,37.47797],[138.67937,37.47688],[138.6747,37.4682],[138.67405,37.46725],[138.67369,37.46687],[138.67272,37.46613],[138.66986,37.46458],[138.66839,37.46352],[138.66761,37.46275],[138.6658,37.46046],[138.66456,37.45951]],[[138.6427,37.44867],[138.64374,37.44919]],[[138.56635,37.37478],[138.56594,37.37423],[138.56541,37.3729]],[[138.64095,37.44786],[138.63434,37.44462],[138.63379,37.44433],[138.63291,37.4437],[138.61991,37.43026]],[[138.59193,37.39229],[138.58717,37.39093],[138.58588,37.39039],[138.57328,37.38087],[138.57218,37.37997],[138.56635,37.37478]],[[138.6427,37.44867],[138.64095,37.44786]],[[138.66456,37.45951],[138.66256,37.45849]],[[138.68846,37.48496],[138.68878,37.4856],[138.68907,37.48591],[138.69349,37.48889],[138.69434,37.4898],[138.69467,37.49031],[138.69493,37.4912],[138.69494,37.49187],[138.69424,37.49503],[138.69429,37.49579],[138.69471,37.49694],[138.696,37.49882],[138.69613,37.49952],[138.6961,37.50095],[138.69641,37.50244],[138.69675,37.50316],[138.69782,37.50431],[138.69854,37.50473],[138.70031,37.50552],[138.70103,37.50592],[138.70165,37.50641],[138.70195,37.50679],[138.70225,37.50741],[138.70239,37.50801],[138.7019,37.51188],[138.70196,37.51244],[138.70236,37.51346],[138.7039,37.51528]],[[138.60208,37.40541],[138.60182,37.40405]],[[138.68846,37.48496],[138.68806,37.48329]],[[138.71643,37.53212],[138.7174,37.53361],[138.71927,37.53746],[138.71963,37.53799],[138.72037,37.53869],[138.72317,37.54094],[138.72355,37.5413],[138.72388,37.54179],[138.72407,37.54244],[138.72414,37.54314],[138.72395,37.54661],[138.72401,37.54773],[138.72436,37.5488],[138.72501,37.54978],[138.72843,37.55359],[138.73855,37.5623],[138.74179,37.56607]],[[138.64239,37.44877],[138.64374,37.44919]],[[138.71607,37.53153],[138.71643,37.53212]],[[138.60208,37.40541],[138.60282,37.40899],[138.6031,37.40974],[138.61113,37.42107],[138.61213,37.42234],[138.61939,37.42973]],[[138.55804,37.36378],[138.56166,37.36426]],[[138.5548,37.36333],[138.55804,37.36378]]]}}