{"type":"Feature","properties":{"id":"東武鉄道_野田線","name":"野田線","operator":"東武鉄道","railType":"普通鉄道","operatorType":"民営","category":"rail","attribution":"国土数値情報（鉄道データ）国土交通省"},"geometry":{"type":"MultiLineString","coordinates":[[[139.85996,35.95936],[139.85326,35.97034]],[[139.85326,35.97034],[139.85264,35.97136]],[[139.74977,35.9814],[139.74883,35.98159],[139.74808,35.98165],[139.74708,35.98161],[139.74676,35.98151],[139.7463,35.9813],[139.74517,35.98057],[139.74273,35.97887]],[[139.75038,35.9811],[139.74977,35.9814]],[[139.75184,35.98022],[139.75038,35.9811]],[[139.89154,35.93113],[139.89065,35.93203]],[[139.6926,35.94984],[139.6877,35.94603],[139.68638,35.94518],[139.68188,35.9434],[139.67003,35.93898],[139.66832,35.93808],[139.66657,35.93688]],[[139.90615,35.91379],[139.90592,35.91495]],[[139.66657,35.93688],[139.66545,35.9361]],[[139.75475,35.97926],[139.75292,35.97977]],[[139.75758,35.97813],[139.75475,35.97926]],[[139.77758,35.9803],[139.77665,35.98022],[139.77538,35.97999],[139.77185,35.97888],[139.77037,35.97823],[139.76588,35.97545],[139.76487,35.97507],[139.76386,35.97491],[139.76301,35.97485],[139.76193,35.97491],[139.76148,35.97498],[139.76081,35.97522],[139.75998,35.97578],[139.75879,35.97713],[139.75758,35.97813]],[[139.83548,35.97921],[139.83361,35.97917]],[[139.87005,35.94434],[139.86927,35.94505],[139.86819,35.94621],[139.86498,35.95019]],[[139.80921,35.98068],[139.80758,35.98052]],[[139.77856,35.98037],[139.77758,35.9803]],[[139.72566,35.9678],[139.72017,35.96519],[139.71849,35.96455],[139.71291,35.96351]],[[139.89065,35.93203],[139.88747,35.9352],[139.88689,35.93569],[139.88585,35.93637],[139.87255,35.94262],[139.87152,35.94319]],[[139.69366,35.95066],[139.6926,35.94984]],[[139.74187,35.97828],[139.72912,35.96954],[139.72815,35.96896],[139.72671,35.96827]],[[139.75292,35.97977],[139.75184,35.98022]],[[139.85264,35.97136],[139.85018,35.97547],[139.84931,35.97662],[139.84859,35.97735],[139.8477,35.97805],[139.84628,35.97883],[139.84499,35.97927],[139.84362,35.97944],[139.83548,35.97921]],[[139.71291,35.96351],[139.71163,35.96307]],[[139.90592,35.91495],[139.90558,35.9166],[139.9052,35.91732],[139.90304,35.91959],[139.89154,35.93113]],[[139.83361,35.97917],[139.82966,35.97926],[139.82665,35.97953],[139.81636,35.9811],[139.8139,35.98108],[139.80921,35.98068]],[[139.71163,35.96307],[139.71032,35.96243],[139.70949,35.96179],[139.70893,35.96125],[139.70627,35.95824],[139.70564,35.9577],[139.70482,35.95728],[139.70133,35.95638],[139.70059,35.956],[139.69807,35.95413],[139.69366,35.95066]],[[139.86498,35.95019],[139.86427,35.95104]],[[139.87152,35.94319],[139.87005,35.94434]],[[139.74273,35.97887],[139.74187,35.97828]],[[139.80758,35.98052],[139.80131,35.97965],[139.80017,35.97956],[139.79681,35.97981],[139.78756,35.98069],[139.78443,35.98065],[139.77856,35.98037]],[[139.86427,35.95104],[139.86345,35.95199],[139.86314,35.95246],[139.86277,35.95335],[139.86274,35.95445],[139.86261,35.95494],[139.86065,35.95823]],[[139.86065,35.95823],[139.85996,35.95936]],[[139.72671,35.96827],[139.72566,35.9678]],[[139.62447,35.9074],[139.62403,35.9081]],[[139.65165,35.92947],[139.65038,35.92923]],[[139.65038,35.92923],[139.64359,35.92791],[139.64241,35.92759],[139.64138,35.92721],[139.63583,35.92463],[139.63376,35.92404]],[[139.62403,35.9081],[139.62301,35.91055],[139.62262,35.91232],[139.6226,35.91331],[139.62276,35.91404],[139.62301,35.91465],[139.62385,35.91633],[139.6245,35.91739]],[[139.62511,35.91849],[139.62578,35.91987],[139.62623,35.92047],[139.62724,35.92163],[139.62798,35.92221],[139.62934,35.9229],[139.63035,35.92323],[139.6324,35.92372]],[[139.6245,35.91739],[139.62511,35.91849]],[[139.66545,35.9361],[139.65877,35.93146],[139.65789,35.93096],[139.65619,35.93041],[139.65165,35.92947]],[[139.63376,35.92404],[139.6324,35.92372]],[[139.99218,35.74132],[139.99208,35.7397],[139.99146,35.73371],[139.99125,35.7326],[139.9911,35.73228],[139.99041,35.73116],[139.9833,35.72257]],[[139.97605,35.83008],[139.96763,35.83758]],[[139.97087,35.8625],[139.97006,35.86147]],[[139.99218,35.74132],[139.99223,35.74199]],[[139.97006,35.86147],[139.96884,35.8598],[139.96799,35.85909]],[[139.99898,35.80797],[139.99924,35.79421]],[[139.9766,35.82956],[139.97605,35.83008]],[[139.99738,35.76412],[139.99724,35.76345]],[[139.98412,35.82291],[139.99674,35.81167],[139.99805,35.81058],[139.99872,35.80971],[139.99898,35.80864]],[[139.98412,35.82291],[139.98331,35.82365]],[[139.9716,35.86346],[139.97087,35.8625]],[[139.99924,35.79421],[139.99925,35.7932]],[[139.99724,35.76345],[139.99266,35.74492],[139.99223,35.74199]],[[139.98401,35.70214],[139.98201,35.70233],[139.98143,35.70253],[139.98062,35.7032],[139.97992,35.7041],[139.97951,35.70477],[139.97924,35.70571],[139.97918,35.70671],[139.97973,35.71098]],[[139.99898,35.80864],[139.99898,35.80797]],[[139.96645,35.83862],[139.96549,35.83949],[139.96479,35.84039],[139.96452,35.84096],[139.9644,35.84149],[139.96437,35.8427],[139.96649,35.85363],[139.96654,35.85469],[139.96632,35.8567],[139.96641,35.85741],[139.96667,35.858],[139.96691,35.85832],[139.96799,35.85909]],[[139.98251,35.72168],[139.9833,35.72257]],[[139.97973,35.71098],[139.97991,35.71215]],[[139.96763,35.83758],[139.96645,35.83862]],[[139.98251,35.72168],[139.98153,35.72034],[139.98116,35.71966],[139.98103,35.71919],[139.98063,35.71709],[139.97991,35.71215]],[[139.98472,35.70206],[139.98401,35.70214]],[[139.98331,35.82365],[139.9766,35.82956]],[[139.93988,35.86629],[139.93868,35.86678]],[[139.91077,35.8968],[139.91029,35.89766]],[[139.92607,35.87196],[139.92545,35.87221]],[[139.92545,35.87221],[139.92493,35.87246],[139.92415,35.87299],[139.92359,35.87352],[139.91824,35.88329]],[[139.91824,35.88329],[139.91758,35.88439]],[[139.93868,35.86678],[139.92607,35.87196]],[[139.91758,35.88439],[139.91077,35.8968]],[[139.93988,35.86629],[139.94431,35.86444],[139.94709,35.86337],[139.96523,35.85887],[139.9663,35.85877],[139.96722,35.85889],[139.96799,35.85909]],[[139.91029,35.89766],[139.90911,35.8998],[139.90852,35.90114],[139.90826,35.90196],[139.90615,35.91379]],[[139.99948,35.78019],[139.99955,35.77306],[139.99738,35.76412]],[[139.99925,35.7932],[139.99947,35.78137]],[[139.99947,35.78137],[139.99948,35.78019]]]}}