{"type":"Feature","properties":{"id":"東日本旅客鉄道_外房線","name":"外房線","operator":"東日本旅客鉄道","railType":"普通鉄道(JR)","operatorType":"JR在来線","category":"rail","attribution":"国土数値情報（鉄道データ）国土交通省"},"geometry":{"type":"MultiLineString","coordinates":[[[140.12794,35.5876],[140.13012,35.58341]],[[140.13124,35.58113],[140.13023,35.58318]],[[140.13246,35.57866],[140.13124,35.58113]],[[140.13023,35.58318],[140.13012,35.58341]],[[140.29945,35.44845],[140.29998,35.45041]],[[140.34642,35.40337],[140.34429,35.40454]],[[140.35082,35.18675],[140.34721,35.18217]],[[140.39156,35.28258],[140.39133,35.28326]],[[140.19102,35.12885],[140.19365,35.12927],[140.19439,35.12927],[140.19492,35.12918],[140.19575,35.1288],[140.19644,35.12818],[140.19726,35.12695],[140.19767,35.12619],[140.19838,35.12547],[140.20156,35.12266],[140.2044,35.11994],[140.20513,35.11954],[140.20559,35.11942],[140.2182,35.11761],[140.22531,35.11821]],[[140.12093,35.60167],[140.12193,35.59958]],[[140.30741,35.48115],[140.30773,35.48317]],[[140.11221,35.61371],[140.11035,35.61508]],[[140.37615,35.34764],[140.37496,35.34974],[140.37406,35.35083],[140.37361,35.35152],[140.36893,35.35937],[140.36609,35.36397],[140.36496,35.36637],[140.36467,35.36715],[140.36449,35.36803],[140.36448,35.36909],[140.36526,35.37331]],[[140.37715,35.3459],[140.37963,35.34138],[140.38019,35.34016],[140.38021,35.33963],[140.37996,35.33818],[140.37995,35.33742],[140.38094,35.33431],[140.38118,35.33296],[140.38091,35.33055],[140.38046,35.32763],[140.38041,35.32658],[140.38119,35.32066]],[[140.31111,35.15215],[140.31001,35.15158],[140.30936,35.15136],[140.30868,35.15121],[140.30755,35.15118],[140.30407,35.15179],[140.30014,35.15277],[140.29949,35.15281],[140.29864,35.15265],[140.29493,35.1511],[140.2939,35.15053],[140.28956,35.14692],[140.2881,35.1458],[140.28668,35.14501],[140.281,35.14235],[140.27946,35.14152]],[[140.27946,35.14152],[140.27847,35.14098]],[[140.11396,35.61259],[140.11221,35.61371]],[[140.17825,35.56307],[140.17925,35.56224]],[[140.12193,35.59958],[140.12794,35.5876]],[[140.36526,35.37331],[140.36579,35.37606]],[[140.31546,35.15466],[140.3179,35.1556],[140.32006,35.15628],[140.32076,35.15663],[140.3213,35.15707],[140.32535,35.16222],[140.32581,35.16307],[140.32605,35.16411],[140.32634,35.16482],[140.32674,35.16534],[140.32733,35.16582]],[[140.29998,35.45041],[140.30604,35.4737],[140.30741,35.48115]],[[140.35082,35.18675],[140.35207,35.18833]],[[140.12093,35.60167],[140.11679,35.61007],[140.11632,35.61067],[140.11526,35.61169],[140.11396,35.61259]],[[140.30259,35.42766],[140.29753,35.43046],[140.29681,35.43095],[140.296,35.43194],[140.29567,35.43282],[140.29564,35.43364],[140.29585,35.43475],[140.29945,35.44845]],[[140.13246,35.57866],[140.13342,35.57777],[140.14067,35.57231],[140.14372,35.57028],[140.15628,35.56489],[140.15703,35.56466],[140.15812,35.56453],[140.16966,35.56449],[140.17252,35.56494],[140.17373,35.56498],[140.17527,35.56473],[140.17626,35.56441],[140.17713,35.56399],[140.17825,35.56307]],[[140.31239,35.52143],[140.31193,35.52191],[140.31117,35.52249],[140.30963,35.52317]],[[140.32733,35.16582],[140.32844,35.16627],[140.3315,35.16724],[140.33233,35.1677],[140.33312,35.16843],[140.3348,35.17082]],[[140.25117,35.13749],[140.24977,35.13694]],[[140.34429,35.40454],[140.30555,35.426]],[[140.15384,35.12546],[140.15564,35.12612]],[[140.27125,35.53043],[140.26829,35.53141]],[[140.31283,35.15309],[140.31111,35.15215]],[[140.26829,35.53141],[140.26229,35.53342],[140.2612,35.53371],[140.25979,35.53391],[140.25658,35.53372],[140.25487,35.53389],[140.2537,35.53428],[140.24874,35.53645],[140.24221,35.53917],[140.24016,35.53967],[140.23597,35.54044],[140.21469,35.54673]],[[140.39099,35.25185],[140.39106,35.25017]],[[140.21288,35.54727],[140.21469,35.54673]],[[140.39106,35.25017],[140.39126,35.24614],[140.39121,35.24547],[140.39093,35.24453],[140.38418,35.23255],[140.38119,35.22531],[140.37959,35.22321]],[[140.39099,35.25185],[140.39093,35.25402]],[[140.39093,35.25402],[140.39064,35.26187],[140.38978,35.26829],[140.38969,35.26948],[140.39029,35.27533],[140.39164,35.2814],[140.39166,35.28216],[140.39156,35.28258]],[[140.37868,35.22206],[140.37959,35.22321]],[[140.30773,35.48317],[140.3111,35.50223]],[[140.38119,35.32066],[140.38139,35.31953]],[[140.31144,35.50425],[140.3116,35.50518],[140.31192,35.50624],[140.31271,35.50813],[140.31296,35.50895],[140.31304,35.50947],[140.31304,35.51064],[140.31286,35.51225],[140.3129,35.5131],[140.31374,35.5177],[140.31366,35.51892],[140.31341,35.51985],[140.31304,35.52059],[140.31239,35.52143]],[[140.24977,35.13694],[140.24674,35.13576],[140.24552,35.13501],[140.24465,35.13437],[140.24392,35.13354],[140.24347,35.13152],[140.24328,35.13112],[140.24283,35.13052],[140.23987,35.12852],[140.23808,35.12679],[140.23088,35.12249],[140.23031,35.12198],[140.23012,35.12171],[140.22971,35.12098],[140.22916,35.11973],[140.22849,35.11902],[140.22749,35.11849],[140.22611,35.1183]],[[140.19102,35.12885],[140.18852,35.12842]],[[140.27125,35.53043],[140.27391,35.52968],[140.27522,35.5296],[140.27782,35.5296],[140.27896,35.52946],[140.28076,35.52894],[140.28249,35.52827],[140.28384,35.5281],[140.28608,35.5283],[140.28722,35.52852],[140.29271,35.53015],[140.29375,35.53028],[140.29572,35.53016],[140.29687,35.52984],[140.29751,35.52957],[140.30062,35.52771],[140.30144,35.52708],[140.3032,35.5254],[140.30447,35.52458],[140.30575,35.52413],[140.30833,35.5236]],[[140.30833,35.5236],[140.30963,35.52317]],[[140.3348,35.17082],[140.3352,35.17145],[140.33628,35.17258],[140.3423,35.17707],[140.34461,35.17935],[140.34721,35.18217]],[[140.27847,35.14098],[140.27708,35.14011],[140.27621,35.13941],[140.27473,35.139],[140.27406,35.13904],[140.27317,35.13925],[140.27034,35.14054],[140.26965,35.1407],[140.26882,35.14069],[140.26642,35.1404],[140.2635,35.14048],[140.2625,35.14021],[140.26073,35.13919],[140.25929,35.13869],[140.25827,35.13864],[140.25549,35.13889],[140.25476,35.13879],[140.25117,35.13749]],[[140.31144,35.50425],[140.3111,35.50223]],[[140.37715,35.3459],[140.37615,35.34764]],[[140.36579,35.37606],[140.36675,35.38088],[140.36688,35.38212],[140.36683,35.38281],[140.36666,35.38355],[140.36637,35.38427],[140.36592,35.38501],[140.36523,35.38588],[140.36379,35.3873],[140.3624,35.38825],[140.36084,35.38901],[140.35997,35.38961],[140.35931,35.39019],[140.35854,35.39107],[140.35716,35.39341],[140.356,35.39478],[140.34864,35.40187],[140.34777,35.40255],[140.34642,35.40337]],[[140.31546,35.15466],[140.31706,35.15554],[140.31994,35.15644],[140.32051,35.15677],[140.32097,35.15716],[140.32165,35.15807],[140.32453,35.16291],[140.32547,35.16435],[140.32619,35.16507],[140.32733,35.16582]],[[140.38443,35.29694],[140.3838,35.29817],[140.38344,35.29912],[140.38043,35.31032],[140.38041,35.31118],[140.38053,35.31202],[140.38167,35.31651],[140.38169,35.31733],[140.38139,35.31953]],[[140.38519,35.29558],[140.38443,35.29694]],[[140.35207,35.18833],[140.3542,35.19106],[140.35496,35.19177],[140.35565,35.19225],[140.36382,35.19602],[140.36668,35.19742],[140.36852,35.19852],[140.36923,35.19905],[140.3698,35.19954],[140.37048,35.20033],[140.37293,35.20362],[140.37309,35.20397],[140.37321,35.20444],[140.37334,35.20982],[140.3735,35.21072],[140.37392,35.21165],[140.37551,35.21429],[140.37623,35.2184],[140.37645,35.21905],[140.37703,35.22004],[140.37868,35.22206]],[[140.15564,35.12612],[140.15719,35.12657],[140.15792,35.12657],[140.15869,35.12637],[140.16019,35.1257],[140.16233,35.12494],[140.16328,35.12481],[140.16476,35.1249],[140.16603,35.12526],[140.17352,35.129],[140.1744,35.1293],[140.17547,35.12945],[140.17669,35.12936],[140.18424,35.12795],[140.18601,35.12801],[140.18852,35.12842]],[[140.39133,35.28326],[140.39011,35.28639],[140.38938,35.28805],[140.38631,35.29373],[140.38519,35.29558]],[[140.30555,35.426],[140.30259,35.42766]],[[140.31283,35.15309],[140.31546,35.15466]],[[140.22531,35.11821],[140.22611,35.1183]],[[140.17925,35.56224],[140.18056,35.56111],[140.18161,35.56041],[140.18937,35.55658],[140.21018,35.54808],[140.21288,35.54727]],[[140.3348,35.17082],[140.33554,35.17151],[140.34213,35.17635],[140.34412,35.17826],[140.34721,35.18217]],[[140.10431,35.10822],[140.11113,35.1152],[140.11381,35.11759],[140.11495,35.11843],[140.11619,35.11916],[140.12404,35.12372],[140.12485,35.12406],[140.12577,35.12436],[140.12711,35.12455],[140.12913,35.12452],[140.13018,35.12441],[140.13079,35.12429],[140.1394,35.12161],[140.14077,35.12132],[140.14143,35.1213],[140.14267,35.12149],[140.15384,35.12546]],[[140.10311,35.10702],[140.10431,35.10822]]]}}