{"type":"Feature","properties":{"id":"東日本旅客鉄道_陸羽西線","name":"陸羽西線","operator":"東日本旅客鉄道","railType":"普通鉄道(JR)","operatorType":"JR在来線","category":"rail","attribution":"国土数値情報（鉄道データ）国土交通省"},"geometry":{"type":"MultiLineString","coordinates":[[[140.02036,38.79034],[140.01909,38.79063],[140.01287,38.79092],[140.0111,38.7912],[140.00818,38.79109],[140.0063,38.79087],[140.00162,38.79003],[139.99663,38.79028],[139.98224,38.79139],[139.98028,38.79189],[139.9774,38.79334]],[[140.3059,38.76386],[140.30631,38.76117]],[[140.07141,38.7523],[140.07689,38.74965],[140.07924,38.7491],[140.08054,38.74897],[140.08138,38.74897],[140.08257,38.74929],[140.08309,38.74958],[140.08416,38.75038],[140.08573,38.75137],[140.08955,38.75453],[140.09111,38.75554],[140.09239,38.75606],[140.09328,38.75631],[140.09471,38.75631],[140.09641,38.75605],[140.09763,38.75569],[140.09927,38.75462],[140.09961,38.75432],[140.1006,38.75278],[140.10087,38.75253],[140.10443,38.7502],[140.1066,38.74837],[140.10737,38.74787],[140.10849,38.74731],[140.10919,38.74704],[140.11013,38.74683],[140.12113,38.74478],[140.12269,38.74435],[140.12674,38.74282],[140.12749,38.74244],[140.12793,38.74214],[140.12876,38.74127],[140.13111,38.7377],[140.1317,38.73721],[140.13228,38.73689],[140.13313,38.73662],[140.13432,38.73642],[140.13474,38.73642],[140.13814,38.73701],[140.13926,38.73713],[140.14524,38.73722]],[[139.94534,38.81764],[139.94409,38.81873]],[[139.97612,38.79403],[139.96497,38.7998],[139.96137,38.80183],[139.96056,38.80245],[139.94534,38.81764]],[[140.30494,38.77067],[140.30446,38.77175],[140.30379,38.77271],[140.30328,38.77321],[140.30211,38.7739],[140.29829,38.77513],[140.29678,38.77545],[140.29605,38.77548],[140.29431,38.77523],[140.2934,38.77493],[140.29265,38.77455],[140.29179,38.77393],[140.26979,38.75582],[140.26832,38.75474],[140.26766,38.75439],[140.26619,38.75378],[140.26436,38.7534],[140.245,38.75165]],[[140.3059,38.76386],[140.30494,38.77067]],[[140.14673,38.7371],[140.15023,38.73677],[140.15103,38.73662],[140.15247,38.73625],[140.15828,38.73414],[140.1592,38.73391],[140.16817,38.73249],[140.16866,38.7323],[140.17083,38.73105],[140.1721,38.73047],[140.1735,38.73029],[140.17457,38.73037],[140.17518,38.73053],[140.1797,38.73204],[140.18108,38.73255],[140.1818,38.7329],[140.18252,38.73349],[140.18304,38.73413],[140.18401,38.73583],[140.18438,38.73627],[140.18502,38.73678],[140.18599,38.73737]],[[140.24352,38.75151],[140.245,38.75165]],[[139.9774,38.79334],[139.97612,38.79403]],[[140.07062,38.75271],[140.07141,38.7523]],[[140.18671,38.73783],[140.18829,38.73876],[140.18969,38.73945],[140.19597,38.74365],[140.19869,38.74536],[140.19982,38.74598],[140.20056,38.7463],[140.20207,38.74675],[140.20899,38.74764]],[[140.18599,38.73737],[140.18671,38.73783]],[[140.02106,38.79],[140.02036,38.79034]],[[140.02106,38.79],[140.02215,38.78931],[140.02301,38.78846],[140.02374,38.78731],[140.02406,38.78618],[140.02439,38.78301],[140.02502,38.78162],[140.02594,38.78024],[140.0279,38.77797],[140.02892,38.77693],[140.03068,38.77527],[140.03394,38.77241],[140.03523,38.77152],[140.03724,38.77047],[140.04155,38.76848],[140.04348,38.76775],[140.04553,38.76714],[140.0505,38.76626],[140.05253,38.76581],[140.05305,38.76566],[140.05505,38.76482],[140.05959,38.76166],[140.06469,38.75794],[140.06636,38.75651],[140.06795,38.75485],[140.06918,38.7537],[140.07062,38.75271]],[[140.20899,38.74764],[140.21001,38.74777]],[[140.14524,38.73722],[140.14673,38.7371]],[[140.21001,38.74777],[140.21968,38.74909],[140.22047,38.74909],[140.22148,38.74905],[140.22193,38.74891],[140.22499,38.7476],[140.22568,38.74739],[140.22712,38.74726],[140.22856,38.74754],[140.23786,38.75093],[140.23862,38.75106],[140.24352,38.75151]],[[139.94409,38.81873],[139.94221,38.82023],[139.93014,38.8289],[139.9143,38.84001],[139.91315,38.84114]],[[139.91193,38.84329],[139.91315,38.84114]],[[139.9107,38.84544],[139.91193,38.84329]]]}}