{"type":"Feature","properties":{"id":"東海旅客鉄道_太多線","name":"太多線","operator":"東海旅客鉄道","railType":"普通鉄道(JR)","operatorType":"JR在来線","category":"rail","attribution":"国土数値情報（鉄道データ）国土交通省"},"geometry":{"type":"MultiLineString","coordinates":[[[137.09002,35.36174],[137.08914,35.36402],[137.08869,35.36456],[137.08808,35.36497],[137.08725,35.36538],[137.08456,35.36589],[137.0811,35.3672],[137.08053,35.3677],[137.08012,35.36826],[137.0794,35.36963],[137.07906,35.3701],[137.07863,35.3705],[137.07746,35.37116],[137.07687,35.37169],[137.07644,35.37243],[137.07603,35.37344],[137.07479,35.37684],[137.07311,35.37957],[137.07225,35.38165]],[[137.10035,35.34946],[137.09684,35.35469],[137.09605,35.35556],[137.09066,35.3607],[137.09027,35.3612]],[[137.10077,35.34885],[137.10035,35.34946]],[[137.04512,35.44439],[137.04556,35.44392]],[[137.11475,35.33189],[137.11404,35.3317],[137.11355,35.33166],[137.11262,35.33172],[137.11164,35.332],[137.11102,35.33236],[137.1106,35.33271],[137.10673,35.34014],[137.10611,35.34166],[137.10499,35.34512],[137.10473,35.34558],[137.10407,35.34626],[137.10295,35.34685],[137.10162,35.34776],[137.10077,35.34885]],[[137.11887,35.33408],[137.11475,35.33189]],[[137.09027,35.3612],[137.09002,35.36174]],[[137.05533,35.42194],[137.05528,35.4198],[137.05548,35.41918],[137.05582,35.41865],[137.05898,35.41522],[137.05946,35.41434],[137.05951,35.4141],[137.05945,35.41342],[137.05897,35.41162],[137.05902,35.41091],[137.06094,35.40232],[137.06224,35.39892],[137.06359,35.39408]],[[137.07198,35.38235],[137.0715,35.38362],[137.07105,35.38454],[137.06991,35.38624],[137.06913,35.38727],[137.06878,35.38761],[137.067,35.38875],[137.06622,35.38951],[137.06469,35.39142],[137.06384,35.39339]],[[137.05537,35.42392],[137.05533,35.42194]],[[137.04556,35.44392],[137.05319,35.43433],[137.05411,35.43284],[137.05472,35.43155],[137.05533,35.42937],[137.05549,35.42782],[137.05537,35.42392]],[[137.06384,35.39339],[137.06359,35.39408]],[[137.07225,35.38165],[137.07198,35.38235]],[[137.02635,35.44496],[137.03469,35.44492],[137.0421,35.44541],[137.04309,35.44527],[137.04419,35.44495],[137.04488,35.4446],[137.04512,35.44439]],[[137.0212,35.44543],[137.01794,35.44579]],[[137.02635,35.44496],[137.0212,35.44543]],[[137.12136,35.33541],[137.11887,35.33408]]]}}