{"type":"Feature","properties":{"id":"東日本旅客鉄道_白新線","name":"白新線","operator":"東日本旅客鉄道","railType":"普通鉄道(JR)","operatorType":"JR在来線","category":"rail","attribution":"国土数値情報（鉄道データ）国土交通省"},"geometry":{"type":"MultiLineString","coordinates":[[[139.08592,37.90449],[139.08648,37.90421],[139.08701,37.90405],[139.08944,37.90359],[139.09078,37.9035],[139.09148,37.90353],[139.09243,37.9037],[139.09361,37.90415],[139.09463,37.90476],[139.09535,37.90508],[139.099,37.90619],[139.1014,37.90703],[139.10213,37.90735],[139.10297,37.90795],[139.10356,37.90824],[139.10919,37.91026],[139.1097,37.91034],[139.11038,37.91057],[139.11355,37.91174],[139.11532,37.91214],[139.11939,37.91344],[139.12175,37.91402],[139.1271,37.91497]],[[139.271,37.94952],[139.2692,37.94995]],[[139.13011,37.91561],[139.12856,37.91525]],[[139.2692,37.94995],[139.26625,37.95062],[139.2646,37.95082],[139.26334,37.95061],[139.26253,37.95026],[139.24673,37.94065],[139.24207,37.9377]],[[139.08166,37.908],[139.0835,37.90632],[139.08592,37.90449]],[[139.15719,37.92214],[139.15307,37.92116],[139.14969,37.92024],[139.13011,37.91561]],[[139.12856,37.91525],[139.1271,37.91497]],[[139.10943,37.90908],[139.10788,37.90849]],[[139.06251,37.91254],[139.06475,37.91297],[139.07295,37.91489],[139.07431,37.91502],[139.07571,37.91481],[139.07712,37.91423],[139.07804,37.91337],[139.08166,37.908]],[[139.17761,37.92123],[139.16505,37.92359],[139.16372,37.92362],[139.16321,37.92354],[139.15955,37.92271]],[[139.21643,37.92028],[139.21475,37.91873]],[[139.30718,37.94127],[139.32542,37.9371],[139.32695,37.93713],[139.32768,37.93724],[139.32853,37.93752],[139.32952,37.93809]],[[139.32952,37.93809],[139.33427,37.9431]],[[139.24207,37.9377],[139.24071,37.93687]],[[139.24071,37.93687],[139.23601,37.93397],[139.22038,37.92359],[139.21865,37.92233],[139.21643,37.92028]],[[139.10943,37.90908],[139.11379,37.91087],[139.12132,37.91371],[139.1271,37.91497]],[[139.10788,37.90849],[139.10238,37.90644],[139.09959,37.90529],[139.09429,37.90372],[139.0923,37.90328]],[[139.17874,37.921],[139.17761,37.92123]],[[139.15955,37.92271],[139.15719,37.92214]],[[139.33427,37.9431],[139.33598,37.94492]],[[139.05944,37.91178],[139.06251,37.91254]],[[139.21475,37.91873],[139.21312,37.91722],[139.21173,37.91632],[139.21024,37.91576],[139.20957,37.91561],[139.2086,37.91554],[139.20757,37.91559],[139.17874,37.921]],[[139.08592,37.90449],[139.08673,37.90403],[139.0879,37.90367],[139.09047,37.90326],[139.09167,37.90321],[139.0923,37.90328]],[[139.08166,37.908],[139.08217,37.9073]],[[139.08217,37.9073],[139.08239,37.90694],[139.08306,37.90621],[139.08462,37.90494],[139.08589,37.90412],[139.08723,37.90353],[139.08767,37.90336],[139.08871,37.90316],[139.09001,37.90301],[139.09141,37.90306],[139.0923,37.90328]],[[139.30632,37.94146],[139.271,37.94952]],[[139.30718,37.94127],[139.30632,37.94146]]]}}