{"type":"Feature","properties":{"id":"東日本旅客鉄道_仙石線","name":"仙石線","operator":"東日本旅客鉄道","railType":"普通鉄道(JR)","operatorType":"JR在来線","category":"rail","attribution":"国土数値情報（鉄道データ）国土交通省"},"geometry":{"type":"MultiLineString","coordinates":[[[141.30269,38.43537],[141.30447,38.43534]],[[141.28845,38.43763],[141.28922,38.43782]],[[141.27808,38.43806],[141.28098,38.43689],[141.28253,38.43652],[141.28344,38.43651],[141.28398,38.43659],[141.28845,38.43763]],[[141.23953,38.43251],[141.23846,38.43232]],[[141.27808,38.43806],[141.27726,38.43839]],[[141.28922,38.43782],[141.29273,38.43861],[141.29371,38.43874],[141.29513,38.43862],[141.29616,38.43821]],[[141.29616,38.43821],[141.30006,38.43572],[141.30126,38.43546],[141.30269,38.43537]],[[141.27726,38.43839],[141.27652,38.43865],[141.27592,38.43874],[141.27469,38.43869],[141.25973,38.43612]],[[141.22286,38.42822],[141.2217,38.42777]],[[141.23846,38.43232],[141.22916,38.43068],[141.22781,38.43025],[141.22286,38.42822]],[[141.2217,38.42777],[141.21594,38.42552],[141.21413,38.4247],[141.21315,38.42406],[141.20956,38.42089]],[[141.20956,38.42089],[141.20872,38.42008]],[[140.96711,38.27332],[140.96813,38.27368]],[[141.01505,38.30537],[141.01538,38.30258],[141.01538,38.30145],[141.01524,38.30107],[141.01332,38.29818],[141.01094,38.29475],[141.01044,38.29427],[141.00979,38.29382],[141.00679,38.29208],[141.00585,38.29178]],[[140.9112,38.26618],[140.91753,38.26787],[140.9181,38.26809],[140.91856,38.26837]],[[141.17522,38.39615],[141.17433,38.3959]],[[140.89425,38.25869],[140.89942,38.2581],[140.90044,38.25813],[140.90158,38.2584],[140.90251,38.25883],[140.90374,38.25974],[140.90444,38.26036]],[[141.07331,38.38256],[141.07126,38.38025],[141.07056,38.37967],[141.06202,38.37676]],[[140.88373,38.26032],[140.88456,38.26004]],[[140.91856,38.26837],[140.91941,38.26917]],[[141.20872,38.42008],[141.20643,38.41814],[141.19746,38.40985],[141.19046,38.40361]],[[141.03126,38.32536],[141.02996,38.32398],[141.02918,38.32342],[141.02761,38.32264],[141.02603,38.32222],[141.02523,38.32179],[141.02484,38.32113],[141.02395,38.31897],[141.02332,38.31834],[141.02285,38.31801]],[[140.88456,38.26004],[140.88581,38.25971],[140.89335,38.25881]],[[141.03208,38.3259],[141.03126,38.32536]],[[140.93428,38.27335],[140.93563,38.27344]],[[141.07379,38.38309],[141.07331,38.38256]],[[141.19046,38.40361],[141.18974,38.40295]],[[141.1296,38.37886],[141.12877,38.37917]],[[141.12877,38.37917],[141.12618,38.38007],[141.12104,38.38051],[141.11588,38.38173],[141.11501,38.38209],[141.11222,38.38382],[141.1087,38.38535],[141.10756,38.38608]],[[140.93563,38.27344],[140.95775,38.27499]],[[141.01854,38.31232],[141.0182,38.31159]],[[140.91941,38.26917],[140.92017,38.27055],[140.92059,38.27114],[140.92092,38.27146],[140.92196,38.27192],[140.92577,38.27271],[140.93428,38.27335]],[[141.10756,38.38608],[141.10697,38.38652]],[[141.09318,38.38723],[141.09229,38.38697]],[[140.90444,38.26036],[140.905,38.26092]],[[140.98595,38.28119],[140.99505,38.28595],[140.99656,38.28682],[140.99751,38.28761],[140.99925,38.28995],[140.99992,38.29054],[141.00102,38.29097],[141.00491,38.29158]],[[141.04134,38.3504],[141.03917,38.34789],[141.03758,38.3455],[141.03745,38.34517],[141.0373,38.34411],[141.03686,38.34218],[141.03599,38.33973],[141.03584,38.3387],[141.03585,38.33793],[141.03595,38.33727],[141.03624,38.3363],[141.03643,38.33524],[141.03647,38.33449],[141.03605,38.33078],[141.03577,38.32961],[141.03546,38.32898],[141.03422,38.32738],[141.03337,38.32663],[141.03208,38.3259]],[[140.96813,38.27368],[140.97605,38.27656],[140.98465,38.2805]],[[141.09229,38.38697],[141.08565,38.38546],[141.08447,38.38528],[141.07901,38.38487],[141.07583,38.38453],[141.07498,38.38419],[141.07464,38.38395],[141.07379,38.38309]],[[140.905,38.26092],[140.90591,38.26204],[140.90739,38.26419],[140.90789,38.26477],[140.90898,38.26549],[140.91034,38.26597]],[[140.89335,38.25881],[140.89425,38.25869]],[[140.91034,38.26597],[140.9112,38.26618]],[[141.10697,38.38652],[141.10568,38.38736],[141.10456,38.38761],[141.09476,38.38741],[141.09318,38.38723]],[[141.02285,38.31801],[141.02209,38.31742]],[[141.01494,38.3063],[141.01505,38.30537]],[[141.0182,38.31159],[141.0169,38.30896],[141.01532,38.30781],[141.01516,38.30761],[141.01499,38.30731],[141.01493,38.307],[141.01494,38.3063]],[[141.05902,38.36806],[141.05959,38.36599],[141.05964,38.36539],[141.05925,38.36449],[141.05817,38.36262],[141.05776,38.36208],[141.05653,38.3611],[141.05226,38.35837],[141.05099,38.35807],[141.04761,38.35765],[141.04703,38.35751],[141.04449,38.35656],[141.04367,38.35618],[141.04285,38.35543],[141.04248,38.35476],[141.04226,38.35359],[141.04199,38.35131]],[[140.87895,38.26071],[140.88011,38.26083],[140.8819,38.26074],[140.88284,38.2606],[140.88373,38.26032]],[[140.98465,38.2805],[140.98595,38.28119]],[[141.18974,38.40295],[141.18684,38.40029],[141.18564,38.39954],[141.1823,38.39832],[141.17522,38.39615]],[[141.02209,38.31742],[141.02001,38.31548],[141.01941,38.31445],[141.01854,38.31232]],[[140.87809,38.26057],[140.87895,38.26071]],[[141.04199,38.35131],[141.04175,38.35087],[141.04134,38.3504]],[[140.95775,38.27499],[140.95882,38.27495]],[[141.05866,38.36868],[141.05902,38.36806]],[[140.95882,38.27495],[140.95976,38.27481],[140.96394,38.27342],[140.96506,38.27312],[140.96606,38.2731],[140.96711,38.27332]],[[141.00585,38.29178],[141.00491,38.29158]],[[141.17433,38.3959],[141.17097,38.39475],[141.1698,38.39402],[141.16207,38.38703],[141.16166,38.38646],[141.16132,38.38564],[141.16104,38.38244],[141.16072,38.38169],[141.1602,38.38099],[141.15895,38.38005],[141.15696,38.37912]],[[141.15696,38.37912],[141.15619,38.37868]],[[141.15619,38.37868],[141.15469,38.37782],[141.15081,38.37589],[141.14878,38.37539],[141.14785,38.37529],[141.14427,38.37528]],[[141.14427,38.37528],[141.1436,38.37529]],[[141.1436,38.37529],[141.14141,38.37548],[141.13951,38.37589],[141.13363,38.37753],[141.1296,38.37886]],[[141.25867,38.43594],[141.23953,38.43251]],[[141.25973,38.43612],[141.25867,38.43594]],[[141.06202,38.37676],[141.06064,38.37626],[141.06017,38.37599],[141.0595,38.37541],[141.05751,38.37248],[141.05736,38.37142],[141.05749,38.37057],[141.05866,38.36868]]]}}