{"type":"Feature","properties":{"id":"東日本旅客鉄道_男鹿線","name":"男鹿線","operator":"東日本旅客鉄道","railType":"普通鉄道(JR)","operatorType":"JR在来線","category":"rail","attribution":"国土数値情報（鉄道データ）国土交通省"},"geometry":{"type":"MultiLineString","coordinates":[[[140.00466,39.86845],[140.00351,39.8695]],[[140.02425,39.84494],[140.01542,39.85807],[140.01437,39.85951],[140.00619,39.86696],[140.00466,39.86845]],[[139.96449,39.89851],[139.96562,39.89795],[139.96626,39.8975],[139.97462,39.88973],[139.98624,39.88213]],[[139.86263,39.90507],[139.86433,39.90663],[139.86455,39.90688],[139.86494,39.90763],[139.86502,39.90833],[139.8643,39.91165],[139.8643,39.91255],[139.86456,39.91316],[139.86506,39.91374],[139.86561,39.91417],[139.86631,39.91448],[139.86766,39.91471],[139.86845,39.91467],[139.87449,39.91345],[139.87514,39.91317],[139.8774,39.9113],[139.87784,39.91103],[139.87884,39.91072],[139.87998,39.91064],[139.88087,39.91077],[139.88186,39.91124],[139.88876,39.91631],[139.88983,39.91692],[139.89062,39.91711],[139.89195,39.91713],[139.90128,39.91552]],[[139.94781,39.90491],[139.9519,39.90543],[139.95295,39.90528],[139.95353,39.90507],[139.95391,39.90484],[139.95624,39.90291],[139.95929,39.90092],[139.96116,39.89989],[139.96313,39.89903]],[[139.96313,39.89903],[139.96449,39.89851]],[[140.00351,39.8695],[139.99839,39.87413],[139.99658,39.87543],[139.98841,39.88072]],[[139.90128,39.91552],[139.90398,39.91504]],[[140.05735,39.81129],[140.05239,39.8255]],[[140.05239,39.8255],[140.05172,39.82622],[140.05124,39.82659],[140.05036,39.82708],[140.04745,39.82781],[140.04431,39.82849],[140.04321,39.82881],[140.03941,39.83041],[140.03412,39.83279],[140.03326,39.83347],[140.03059,39.8361],[140.02873,39.83815],[140.02492,39.84391]],[[139.98624,39.88213],[139.98841,39.88072]],[[139.86141,39.904],[139.86263,39.90507]],[[139.94556,39.9046],[139.94781,39.90491]],[[139.90398,39.91504],[139.91631,39.91295],[139.91854,39.91242],[139.92269,39.91132],[139.92406,39.91083],[139.92468,39.91048],[139.92699,39.90849],[139.92748,39.90822],[139.92804,39.90804],[139.94223,39.90448],[139.9433,39.90436],[139.94556,39.9046]],[[140.05828,39.80863],[140.05735,39.81129]],[[139.84838,39.88415],[139.8489,39.88515]],[[140.02492,39.84391],[140.02425,39.84494]],[[139.86141,39.904],[139.85859,39.90137],[139.85597,39.89761],[139.85444,39.89599],[139.85415,39.8953],[139.85406,39.89356],[139.85389,39.89284],[139.85332,39.89196],[139.85182,39.89037],[139.85099,39.88927],[139.8489,39.88515]]]}}