{"type":"Feature","properties":{"id":"東海旅客鉄道_東海道新幹線","name":"東海道新幹線","operator":"東海旅客鉄道","railType":"普通鉄道(JR)","operatorType":"JR新幹線","category":"shinkansen","attribution":"国土数値情報（鉄道データ）国土交通省"},"geometry":{"type":"MultiLineString","coordinates":[[[139.76807,35.68296],[139.76811,35.68099],[139.76746,35.67936]],[[139.7406,35.63128],[139.74032,35.63058],[139.73966,35.628]],[[139.61943,35.50876],[139.62632,35.51438],[139.62816,35.5161],[139.62982,35.51803],[139.63377,35.52324],[139.63579,35.52617],[139.64715,35.54178],[139.65789,35.55822],[139.65953,35.5603],[139.66184,35.56282],[139.66271,35.56407],[139.66346,35.56535],[139.66394,35.56637],[139.66432,35.56748],[139.66452,35.56861],[139.66457,35.5692],[139.66443,35.57035],[139.66318,35.57421],[139.66307,35.57508],[139.66327,35.57639],[139.6635,35.57697],[139.66395,35.57776],[139.66446,35.57836],[139.66539,35.57911],[139.66653,35.57967],[139.67807,35.58366],[139.68839,35.58661],[139.69606,35.5889],[139.71508,35.59422],[139.71614,35.59455],[139.71738,35.59516],[139.71875,35.59624],[139.71958,35.59718],[139.72359,35.60622],[139.7245,35.6077],[139.72639,35.61006],[139.72932,35.61484],[139.73007,35.61556],[139.73121,35.61615],[139.73192,35.61636],[139.73394,35.61663],[139.73533,35.61708],[139.73619,35.6177],[139.73697,35.61863],[139.73758,35.61957],[139.73795,35.6205],[139.73966,35.628]],[[139.15582,35.25741],[139.1732,35.27431],[139.17527,35.27604],[139.17675,35.2771],[139.17916,35.27864],[139.18203,35.28019],[139.22395,35.29956],[139.22752,35.30102],[139.23048,35.30206],[139.2431,35.30562],[139.25545,35.30934],[139.26602,35.31231],[139.26761,35.31282],[139.27007,35.31376],[139.27272,35.31504],[139.28731,35.32354],[139.2889,35.32462],[139.28993,35.32552],[139.29925,35.33401],[139.30247,35.33685],[139.31296,35.34815],[139.3189,35.35436],[139.31996,35.35532],[139.36037,35.3845],[139.36151,35.3853],[139.36462,35.38718],[139.3718,35.39053],[139.40382,35.40455],[139.42307,35.41308],[139.4533,35.42685],[139.46211,35.43075],[139.46626,35.4324],[139.49523,35.44299],[139.4968,35.4435],[139.50492,35.44653],[139.51626,35.44999],[139.51872,35.45104],[139.52268,35.45313],[139.5586,35.47449],[139.5629,35.477],[139.56582,35.47853],[139.56941,35.47996],[139.57202,35.48078],[139.58294,35.48344],[139.58577,35.48423],[139.588,35.485],[139.59111,35.48638]],[[139.59111,35.48638],[139.59274,35.48724],[139.59446,35.48835],[139.59627,35.48966],[139.5994,35.4921],[139.61025,35.50148],[139.61585,35.50592]],[[139.61585,35.50592],[139.61943,35.50876]],[[139.0763,35.10305],[139.07377,35.10154],[139.07197,35.10062],[139.07048,35.10003],[139.06896,35.09964],[139.06656,35.09923],[139.06555,35.09915],[139.0633,35.09918],[139.00108,35.10601],[138.99362,35.10689],[138.97719,35.10862],[138.97395,35.10912],[138.9717,35.10968],[138.96252,35.11275],[138.95058,35.117],[138.94808,35.11824],[138.93498,35.12533],[138.93342,35.12599],[138.93018,35.12701],[138.92805,35.12751],[138.92618,35.12784],[138.92377,35.12812],[138.92203,35.12822],[138.92018,35.1282],[138.91832,35.12804],[138.91622,35.12778],[138.91156,35.12702]],[[138.90782,35.1264],[138.91156,35.12702]],[[139.15371,35.25501],[139.14682,35.24582],[139.14584,35.24437],[139.14438,35.24175],[139.1432,35.23901],[139.14003,35.23007],[139.13945,35.22814],[139.13897,35.22617],[139.13729,35.21411],[139.13638,35.20618],[139.13543,35.2005],[139.13517,35.19652],[139.13467,35.19272],[139.13381,35.1892],[139.13326,35.18763],[139.13195,35.18484],[139.12976,35.18162],[139.12545,35.17565],[139.12184,35.17132],[139.10864,35.15703],[139.10746,35.15566],[139.09476,35.14199],[139.09324,35.14012],[139.08449,35.1139],[139.08341,35.11086],[139.08254,35.10926],[139.08148,35.10775],[139.07952,35.10548]],[[139.07952,35.10548],[139.07786,35.10413],[139.0763,35.10305]],[[139.15371,35.25501],[139.15582,35.25741]],[[138.01727,34.76941],[138.01969,34.76987],[138.03161,34.77349],[138.03396,34.7739],[138.03635,34.77411],[138.04034,34.77422],[138.04147,34.77412],[138.04466,34.77364],[138.05001,34.77235],[138.05415,34.77149],[138.05635,34.77132],[138.06127,34.77126],[138.07457,34.77156],[138.0783,34.77176],[138.09779,34.77371],[138.10333,34.77442],[138.10795,34.77542],[138.20077,34.80203],[138.20378,34.80302],[138.20712,34.80448],[138.20982,34.80598],[138.24693,34.83166],[138.26779,34.84548],[138.30535,34.87061],[138.30975,34.87388],[138.3218,34.88317],[138.32432,34.88545],[138.33386,34.89496],[138.34965,34.91082],[138.3532,34.91453],[138.35779,34.92048],[138.36058,34.92453],[138.36208,34.92799],[138.36282,34.93126]],[[138.36282,34.93126],[138.36299,34.93347],[138.36299,34.94143],[138.36334,34.94385],[138.36382,34.94583],[138.36447,34.94751],[138.36544,34.94954],[138.36649,34.95126],[138.36791,34.95306],[138.36884,34.95403],[138.38138,34.96663],[138.38346,34.96829],[138.38532,34.96939],[138.38765,34.97062]],[[138.39156,34.97277],[138.38765,34.97062]],[[138.39156,34.97277],[138.39585,34.97512],[138.40121,34.97744],[138.40365,34.97858],[138.4058,34.97974],[138.41213,34.98383],[138.42207,34.99041],[138.45583,35.01218],[138.45815,35.01392],[138.47405,35.02742],[138.4799,35.03225],[138.48152,35.03343],[138.4906,35.03906],[138.49389,35.04121],[138.4969,35.04345],[138.49806,35.04456],[138.51842,35.06826],[138.53009,35.0817],[138.53385,35.08625],[138.53467,35.08705],[138.53756,35.0903],[138.54506,35.09811],[138.54789,35.10119],[138.55438,35.1078],[138.55688,35.10975],[138.55945,35.11141],[138.56207,35.11293],[138.56379,35.11382],[138.60469,35.13234],[138.60798,35.13389],[138.61072,35.13509],[138.61207,35.13557],[138.61506,35.13637],[138.61764,35.13683],[138.62407,35.13749],[138.64574,35.13949],[138.64974,35.14],[138.66128,35.14181]],[[138.66128,35.14181],[138.66555,35.14244]],[[138.66555,35.14244],[138.67463,35.14391],[138.67801,35.14453],[138.68194,35.1456],[138.69037,35.14855],[138.6933,35.14937],[138.69646,35.15004],[138.70166,35.15065],[138.71615,35.15181],[138.73435,35.15399],[138.74687,35.15564],[138.7522,35.15608],[138.75585,35.15606],[138.75927,35.15576],[138.76326,35.1552],[138.76422,35.15499],[138.80632,35.14302],[138.81075,35.14149],[138.81158,35.14118],[138.81338,35.14029],[138.81556,35.13889],[138.81839,35.13676],[138.82468,35.13159],[138.82553,35.13097],[138.82713,35.12998],[138.82963,35.12877],[138.83211,35.12779],[138.83415,35.12714],[138.83575,35.1268],[138.84031,35.12627],[138.86987,35.12378],[138.88038,35.12296],[138.88309,35.12287],[138.8862,35.12295],[138.88966,35.12332],[138.90782,35.1264]],[[136.84975,35.17912],[136.85502,35.18307],[136.86073,35.18663],[136.86227,35.18694],[136.86738,35.18698],[136.86838,35.18677],[136.86954,35.18628]],[[136.88027,35.17229],[136.87981,35.17378],[136.87934,35.17497],[136.87809,35.1775],[136.87706,35.17906],[136.87628,35.17995],[136.87275,35.18346],[136.86954,35.18628]],[[136.88194,35.16874],[136.88129,35.16989],[136.88027,35.17229]],[[136.68425,35.31701],[136.68726,35.31447]],[[136.68726,35.31447],[136.69226,35.3101],[136.69532,35.30792],[136.69753,35.30657],[136.701,35.30491],[136.70777,35.30239],[136.71057,35.30127],[136.73559,35.29052],[136.73885,35.28886],[136.74149,35.28715],[136.7424,35.28643],[136.74409,35.28493],[136.74529,35.28365],[136.74706,35.28138],[136.76089,35.2613],[136.76628,35.25366],[136.76774,35.2514],[136.77074,35.24733],[136.77254,35.24524],[136.77423,35.24363],[136.77638,35.24196],[136.77828,35.24067],[136.78122,35.23908],[136.79396,35.23297],[136.80221,35.22907],[136.80452,35.22818],[136.80802,35.22707],[136.81037,35.22659],[136.81297,35.22618],[136.82395,35.22497],[136.82652,35.22458],[136.82778,35.2243],[136.8302,35.22363],[136.83209,35.22298],[136.83502,35.22161],[136.83779,35.22004],[136.83937,35.21884],[136.84094,35.21739],[136.84308,35.21504],[136.84884,35.20835],[136.85103,35.20619],[136.85365,35.20422],[136.85738,35.20204],[136.85942,35.20072],[136.86041,35.19996],[136.86154,35.19887],[136.86253,35.19767],[136.86412,35.19517],[136.86457,35.1943],[136.86661,35.18964],[136.86756,35.18831],[136.86954,35.18628]],[[137.73368,34.70293],[137.73485,34.70355],[137.7375,34.70472]],[[138.01727,34.76941],[138.01301,34.76889]],[[138.01301,34.76889],[138.00782,34.76832],[138.00534,34.76794],[137.99733,34.76562],[137.99231,34.76404],[137.98795,34.76253],[137.96557,34.7538],[137.96453,34.75331],[137.9599,34.75149],[137.95784,34.75081],[137.94253,34.74625],[137.94051,34.74532],[137.93437,34.74201],[137.93122,34.74017],[137.92623,34.73775],[137.92496,34.73719],[137.92098,34.73567],[137.90682,34.73039],[137.90306,34.72886],[137.90021,34.7275],[137.89489,34.72461],[137.89289,34.72339],[137.89046,34.72175],[137.8881,34.72006],[137.88648,34.71879],[137.88018,34.71357],[137.87816,34.71221],[137.876,34.71099],[137.87415,34.71015],[137.87197,34.7094],[137.86972,34.70882],[137.86622,34.70814],[137.836,34.70347],[137.83104,34.70306],[137.82137,34.70273],[137.81621,34.70272],[137.81306,34.70299],[137.81119,34.70329],[137.80768,34.704],[137.79438,34.70714],[137.79003,34.70803],[137.78785,34.70836],[137.7855,34.70857],[137.78191,34.70868],[137.7651,34.70874],[137.76013,34.70864],[137.75819,34.70847],[137.74769,34.70723],[137.74578,34.7069],[137.74031,34.7056],[137.7375,34.70472]],[[137.38196,34.76133],[137.38367,34.75789],[137.38468,34.75605],[137.38662,34.75305],[137.39077,34.74833],[137.39256,34.74667],[137.39588,34.74437],[137.41446,34.7329],[137.41631,34.73185],[137.41975,34.73034],[137.42416,34.72909],[137.42719,34.72832],[137.44457,34.72413],[137.497,34.71183],[137.53481,34.70329],[137.56242,34.69582],[137.56643,34.69501],[137.57017,34.69452],[137.57397,34.69446],[137.58603,34.69476],[137.58917,34.69465],[137.59191,34.69427],[137.59443,34.6937],[137.59645,34.69304],[137.6085,34.68822],[137.61056,34.68765],[137.61319,34.68717],[137.61559,34.68683],[137.61797,34.68671],[137.6229,34.6869],[137.6447,34.68745],[137.64774,34.68782],[137.65051,34.68829],[137.65398,34.68918],[137.6575,34.69027],[137.66231,34.69161],[137.6665,34.69265],[137.66979,34.69323],[137.67191,34.69351],[137.67852,34.69408],[137.6837,34.6943],[137.68702,34.69426],[137.69023,34.69407],[137.70489,34.69272],[137.70924,34.69256],[137.71242,34.69269],[137.71473,34.6931],[137.71875,34.69409],[137.72064,34.69475],[137.72253,34.69558],[137.72391,34.69628],[137.72621,34.6976],[137.73174,34.70165],[137.73368,34.70293]],[[137.38196,34.76133],[137.38034,34.76445]],[[137.38034,34.76445],[137.37849,34.76781],[137.37679,34.77062],[137.3759,34.77184],[137.37437,34.77359],[137.373,34.77497],[137.36566,34.78128],[137.36319,34.7832],[137.3622,34.78388],[137.35908,34.7855],[137.35707,34.78637],[137.32216,34.80076],[137.32103,34.80131],[137.30416,34.81072],[137.30117,34.81219],[137.29953,34.81287],[137.29714,34.81367],[137.29409,34.81425],[137.29054,34.81468],[137.26871,34.81527],[137.26544,34.81558],[137.26395,34.81581],[137.26043,34.81668],[137.25625,34.81795],[137.25212,34.8196],[137.25029,34.8205],[137.24702,34.82227],[137.2339,34.83098],[137.2323,34.83191],[137.23068,34.83272],[137.20803,34.8419],[137.16877,34.85601],[137.1647,34.85791],[137.16275,34.85899],[137.16063,34.86053],[137.15962,34.86145],[137.15871,34.86244]],[[137.15871,34.86244],[137.1477,34.8742],[137.13812,34.88479],[137.10671,34.91863],[137.08885,34.93813],[137.07792,34.94986],[137.06199,34.9672]],[[137.0586,34.97087],[137.0511,34.97907],[137.04819,34.98213],[137.04531,34.98467],[137.04018,34.9888],[137.02847,34.99658],[136.96589,35.03722],[136.96297,35.03919],[136.96018,35.04136],[136.95786,35.04343],[136.95611,35.04528],[136.95457,35.04706],[136.95231,35.05017],[136.94287,35.06496],[136.94038,35.0694],[136.93244,35.08409],[136.92624,35.09612],[136.92479,35.09859],[136.92393,35.09974],[136.92261,35.10122],[136.92094,35.10281],[136.91858,35.1046],[136.91656,35.1059],[136.91262,35.10788],[136.89986,35.11373],[136.89758,35.11488],[136.89581,35.11594],[136.89349,35.11763],[136.89118,35.11978],[136.88966,35.12157],[136.88821,35.12369],[136.88722,35.12549],[136.88668,35.12674],[136.88637,35.12771],[136.88595,35.12916],[136.88581,35.12994],[136.88552,35.13296],[136.88556,35.13383],[136.88581,35.13564],[136.88816,35.14912],[136.88804,35.15127],[136.88766,35.15362],[136.88514,35.16365],[136.88443,35.16528],[136.88194,35.16874]],[[137.06199,34.9672],[137.0586,34.97087]],[[136.29005,35.31672],[136.29281,35.32876],[136.29338,35.33072],[136.29385,35.33202],[136.29526,35.33491],[136.297,35.33751],[136.29821,35.33899],[136.30154,35.34272],[136.30727,35.34878],[136.30964,35.35069],[136.31123,35.35176],[136.31328,35.35292],[136.3152,35.35385],[136.31784,35.35482],[136.31983,35.35539],[136.33759,35.35954],[136.35471,35.36525],[136.35709,35.36592],[136.35952,35.36648],[136.36239,35.36692],[136.36411,35.36707],[136.36928,35.36715],[136.37424,35.36704],[136.3756,35.36694],[136.37807,35.36665],[136.37995,35.36632],[136.3968,35.36244],[136.39954,35.36199],[136.40164,35.36179],[136.43855,35.35929],[136.4436,35.35868],[136.45078,35.3573],[136.45487,35.3566],[136.45803,35.35634],[136.45942,35.35634],[136.46224,35.35652],[136.46516,35.35691],[136.47113,35.35804],[136.47205,35.35828],[136.47373,35.35875],[136.47631,35.35965],[136.49361,35.36661],[136.49708,35.36788],[136.50044,35.36872],[136.50212,35.36904],[136.50441,35.36929],[136.50674,35.3694],[136.50933,35.36934],[136.51351,35.36887],[136.52224,35.36751],[136.52362,35.36721],[136.52486,35.36678],[136.52865,35.3653],[136.53045,35.3645],[136.53194,35.36367],[136.5428,35.35679],[136.54798,35.35367],[136.55167,35.35201],[136.55448,35.35111],[136.55774,35.35034],[136.5612,35.34978],[136.56374,35.34957],[136.59627,35.34849],[136.63509,35.34536],[136.63756,35.34499],[136.6415,35.34397],[136.64469,35.34284],[136.65904,35.33695],[136.66119,35.3359],[136.6631,35.33481],[136.66489,35.33356],[136.68425,35.31701]],[[136.29005,35.31672],[136.28963,35.31519],[136.28889,35.31326]],[[136.28889,35.31326],[136.28624,35.30672],[136.2836,35.29988],[136.28306,35.29823],[136.2828,35.29714],[136.27914,35.26795],[136.27864,35.26438],[136.27808,35.2618],[136.27715,35.25922],[136.27594,35.25672],[136.26384,35.23381],[136.26298,35.23233],[136.26213,35.23105],[136.26098,35.22958],[136.2577,35.22598],[136.2301,35.1966],[136.22511,35.19119],[136.21538,35.17829],[136.19805,35.15504],[136.19626,35.15282],[136.19454,35.15091],[136.19264,35.14921],[136.1915,35.14832],[136.18798,35.14601],[136.1726,35.13749],[136.16362,35.13275],[136.15932,35.13092],[136.13245,35.1199],[136.11141,35.10999],[136.07553,35.09554],[136.06959,35.09289],[136.06625,35.09127],[136.06083,35.08822],[136.05811,35.08655],[136.03918,35.07442],[136.02936,35.06799],[136.02679,35.06598],[136.02453,35.06401],[136.01835,35.05779]],[[136.01835,35.05779],[136.00621,35.04585],[135.98371,35.02339],[135.97969,35.019],[135.96601,35.00303],[135.9638,35.0006],[135.96249,34.99932],[135.93331,34.97539],[135.93137,34.97398],[135.9288,34.97252],[135.92621,34.97141],[135.92255,34.97026],[135.92115,34.96992],[135.91895,34.96953],[135.91603,34.96932],[135.91451,34.96934],[135.90273,34.97017],[135.89992,34.97054],[135.89098,34.97228],[135.87215,34.97492],[135.83011,34.97961],[135.81964,34.98085],[135.81552,34.98111],[135.79974,34.98132],[135.79814,34.98144],[135.79145,34.98235],[135.78597,34.98323],[135.77092,34.98542],[135.7656,34.98514],[135.76127,34.98466]],[[135.75684,34.98459],[135.76127,34.98466]],[[135.49791,34.73268],[135.50238,34.73412]],[[135.50238,34.73412],[135.50412,34.73509]],[[135.50412,34.73509],[135.5084,34.73713],[135.51421,34.74255],[135.51555,34.74353],[135.51677,34.74413],[135.51751,34.74443],[135.51941,34.74489],[135.52962,34.7463],[135.53318,34.74696],[135.53608,34.74786],[135.53838,34.74883],[135.54089,34.75018],[135.54251,34.75119],[135.54427,34.75259],[135.55204,34.75984],[135.55396,34.76153],[135.583,34.78499],[135.59053,34.79144],[135.60137,34.80007],[135.60409,34.80258],[135.60597,34.80454],[135.60778,34.80673],[135.6216,34.82386],[135.63174,34.83657],[135.64934,34.85954],[135.65088,34.86144],[135.6521,34.86279],[135.6605,34.87058],[135.67817,34.88746],[135.68204,34.89161],[135.68533,34.89467],[135.68966,34.8993],[135.69055,34.90016],[135.69204,34.90139],[135.69371,34.90256],[135.69575,34.90376],[135.70138,34.90661],[135.7032,34.90766],[135.70481,34.90876],[135.70636,34.90995],[135.70777,34.9112],[135.70954,34.91315],[135.7106,34.9146],[135.71213,34.91727],[135.71316,34.91956],[135.71364,34.9212],[135.7141,34.92406],[135.71425,34.93418],[135.71495,34.95815],[135.71508,34.95966],[135.71559,34.96309],[135.71643,34.96697],[135.71687,34.96838],[135.71827,34.97099],[135.71913,34.97226],[135.72005,34.97342],[135.7209,34.97437],[135.72179,34.97516],[135.7239,34.97653],[135.73221,34.981],[135.73313,34.98144],[135.73626,34.98266],[135.74268,34.9844],[135.74426,34.98472],[135.74516,34.9848],[135.7474,34.98481],[135.74952,34.98454],[135.75684,34.98459]],[[135.49782,34.73293],[135.50225,34.73443]],[[135.50225,34.73443],[135.50412,34.73509]],[[139.7406,35.63128],[139.74211,35.63496],[139.74287,35.63727],[139.74353,35.64091],[139.74406,35.64264],[139.74483,35.64391],[139.74524,35.64422],[139.748,35.6455],[139.75083,35.64696],[139.75249,35.64768]],[[139.75249,35.64768],[139.75321,35.64806],[139.75399,35.6486],[139.75466,35.64913],[139.75552,35.65003]],[[139.75552,35.65003],[139.75637,35.6515],[139.7574,35.65456],[139.75786,35.65621],[139.75835,35.65948],[139.75881,35.66183],[139.75882,35.66252],[139.75861,35.66481],[139.75863,35.66618],[139.75833,35.66787],[139.75851,35.66874],[139.76066,35.67256],[139.76123,35.67317],[139.76467,35.67591],[139.76746,35.67936]]]}}