{"type":"Feature","properties":{"id":"東日本旅客鉄道_釜石線","name":"釜石線","operator":"東日本旅客鉄道","railType":"普通鉄道(JR)","operatorType":"JR在来線","category":"rail","attribution":"国土数値情報（鉄道データ）国土交通省"},"geometry":{"type":"MultiLineString","coordinates":[[[141.87324,39.27304],[141.87225,39.27356]],[[141.87225,39.27356],[141.87143,39.27399],[141.86963,39.27514],[141.86832,39.27577],[141.86717,39.2761],[141.86633,39.27603],[141.86581,39.27584]],[[141.64545,39.25471],[141.64431,39.25463],[141.64315,39.25468],[141.64131,39.255],[141.63902,39.25583],[141.6363,39.25724],[141.63426,39.25812],[141.63341,39.2582],[141.63142,39.25805],[141.63067,39.25822],[141.62693,39.25969],[141.62571,39.25985],[141.62239,39.25994],[141.62172,39.2601],[141.61786,39.26143],[141.61417,39.26239],[141.60997,39.26319],[141.60946,39.26324],[141.60781,39.26316],[141.60553,39.26349],[141.60293,39.26406],[141.59609,39.26463]],[[141.31943,39.3553],[141.31816,39.35517]],[[141.14192,39.40693],[141.13997,39.40678]],[[141.53002,39.33273],[141.52751,39.3334],[141.52657,39.33339],[141.52573,39.33313],[141.52183,39.33087],[141.52125,39.33067],[141.52038,39.33054],[141.51916,39.33065],[141.51207,39.33214],[141.511,39.33225],[141.5044,39.33164],[141.50374,39.33152],[141.50119,39.33047],[141.50079,39.33038],[141.49784,39.33027],[141.47725,39.32845]],[[141.10983,39.39594],[141.11004,39.39742],[141.11051,39.39801],[141.11415,39.40165],[141.11481,39.40211],[141.11588,39.4026],[141.11788,39.40309],[141.12162,39.4038],[141.13667,39.40643],[141.13997,39.40678]],[[141.10998,39.3952],[141.10983,39.39594]],[[141.6463,39.25484],[141.64545,39.25471]],[[141.11067,39.39229],[141.10998,39.3952]],[[141.59609,39.26463],[141.59524,39.26472]],[[141.58538,39.28499],[141.58275,39.28748],[141.5787,39.29048],[141.57821,39.29093],[141.5779,39.29134],[141.57774,39.2917],[141.57768,39.29264],[141.5784,39.29517],[141.57849,39.29575],[141.57846,39.29622],[141.57808,39.29732],[141.57761,39.2981],[141.57369,39.30575],[141.5732,39.30656],[141.57258,39.3074],[141.56917,39.3112]],[[141.80107,39.25645],[141.79859,39.25646],[141.79678,39.25636],[141.79223,39.25559],[141.78241,39.25525],[141.7795,39.25499],[141.7729,39.25359],[141.76946,39.25326],[141.76829,39.25308],[141.76397,39.25065],[141.76286,39.25042],[141.76062,39.25044]],[[141.19453,39.4083],[141.19345,39.40885]],[[141.86581,39.27584],[141.85927,39.27286],[141.85724,39.27184],[141.85622,39.27114],[141.85465,39.26971],[141.85319,39.26819],[141.85208,39.26748],[141.85164,39.26733],[141.84961,39.26698],[141.8392,39.26543],[141.83804,39.26517],[141.83687,39.26476]],[[141.56869,39.31176],[141.56256,39.31864],[141.56139,39.31978],[141.5555,39.32454],[141.55367,39.32561],[141.55009,39.32744],[141.54963,39.32792],[141.5482,39.33008],[141.54766,39.33048],[141.54588,39.33124],[141.54392,39.33195],[141.54105,39.33241],[141.53963,39.33242],[141.53891,39.33228],[141.53661,39.33148],[141.53604,39.33136],[141.5354,39.33134],[141.53453,39.33147],[141.53132,39.33237]],[[141.68114,39.24181],[141.67945,39.24109],[141.67518,39.23986],[141.67324,39.23904],[141.67238,39.23891],[141.67179,39.23903],[141.6713,39.2393],[141.67107,39.23953],[141.67059,39.24014],[141.6705,39.24036],[141.67047,39.24117],[141.6707,39.24204],[141.67074,39.24249],[141.67039,39.24351],[141.67005,39.24402],[141.65317,39.25639],[141.65245,39.25666],[141.65196,39.25671],[141.65095,39.25659],[141.64958,39.25585],[141.64823,39.25528],[141.64698,39.25494],[141.6463,39.25484]],[[141.53132,39.33237],[141.53002,39.33273]],[[141.37984,39.30572],[141.37987,39.30641]],[[141.76062,39.25044],[141.75976,39.25046]],[[141.42887,39.30994],[141.42801,39.30988]],[[141.75976,39.25046],[141.75673,39.2506],[141.75568,39.25086],[141.754,39.25146],[141.75357,39.25178],[141.752,39.25352],[141.75072,39.25423],[141.74983,39.25446],[141.74908,39.25454],[141.74804,39.25453],[141.7475,39.25442],[141.74481,39.25362],[141.74415,39.25332],[141.74287,39.25213],[141.74228,39.25178],[141.74162,39.25156],[141.74065,39.25146],[141.73977,39.25158],[141.73918,39.25181],[141.73866,39.25214],[141.73817,39.25275],[141.73788,39.25356],[141.73755,39.25417],[141.7371,39.25471],[141.73646,39.2552],[141.73484,39.25592],[141.73426,39.25626],[141.73341,39.25691],[141.73097,39.25911],[141.72847,39.26243],[141.72712,39.26333],[141.72649,39.26364],[141.72597,39.26402],[141.72575,39.26428],[141.72558,39.26458],[141.7253,39.26561],[141.725,39.26791],[141.72501,39.26887],[141.72529,39.27015],[141.72481,39.27387],[141.72448,39.27441],[141.72375,39.27506],[141.72098,39.27663],[141.71871,39.28013]],[[141.23195,39.3837],[141.22286,39.3894],[141.21547,39.39265],[141.21447,39.39312],[141.21376,39.39358],[141.21304,39.39416],[141.21253,39.39469],[141.21133,39.39661],[141.21063,39.39749],[141.20954,39.39838],[141.2056,39.40109],[141.20231,39.40456],[141.20143,39.40539],[141.20034,39.40616],[141.19967,39.40647],[141.1969,39.40713],[141.19453,39.4083]],[[141.42801,39.30988],[141.42452,39.30985],[141.42342,39.30969],[141.42273,39.30949],[141.42204,39.30923],[141.41668,39.30665],[141.4125,39.30483],[141.40629,39.30169],[141.40306,39.3006],[141.39986,39.30023]],[[141.47639,39.32836],[141.4741,39.32816],[141.47318,39.328],[141.4565,39.32361]],[[141.80194,39.25647],[141.80107,39.25645]],[[141.17387,39.40592],[141.17216,39.4057]],[[141.23312,39.3829],[141.23195,39.3837]],[[141.83687,39.26476],[141.83607,39.26438]],[[141.4565,39.32361],[141.45556,39.32337]],[[141.56917,39.3112],[141.56869,39.31176]],[[141.68192,39.24217],[141.68114,39.24181]],[[141.47725,39.32845],[141.47639,39.32836]],[[141.37987,39.30641],[141.38008,39.30782],[141.38001,39.30842],[141.37934,39.31002],[141.37891,39.31065],[141.37851,39.31096],[141.37709,39.31177],[141.37474,39.31264],[141.37294,39.31356],[141.3707,39.31508],[141.37023,39.31553],[141.36949,39.31647],[141.36569,39.32264],[141.36544,39.32353],[141.36541,39.32392],[141.36565,39.32471],[141.36573,39.32554],[141.36553,39.326],[141.36454,39.32696],[141.36413,39.32755],[141.3639,39.32839],[141.36391,39.32882],[141.36376,39.32951],[141.3631,39.33089],[141.36269,39.33143],[141.3619,39.33209],[141.35832,39.3342],[141.35645,39.33567],[141.35357,39.33696],[141.35276,39.33758],[141.35247,39.33799],[141.35226,39.3387],[141.35233,39.33906],[141.3537,39.34103],[141.35383,39.34163],[141.35379,39.34187],[141.35342,39.34309],[141.3529,39.34386],[141.35189,39.34441],[141.35065,39.34471],[141.35011,39.34492],[141.34973,39.34521],[141.34941,39.34578],[141.34931,39.34627],[141.34944,39.34692],[141.35021,39.34809],[141.35037,39.34934],[141.35036,39.35035]],[[141.19345,39.40885],[141.1917,39.40952],[141.19097,39.40967],[141.19029,39.40968],[141.18824,39.40913],[141.18406,39.40764],[141.1825,39.40717],[141.17387,39.40592]],[[141.45556,39.32337],[141.45173,39.32226],[141.44791,39.31997],[141.44562,39.31945],[141.44405,39.31895],[141.43817,39.31526],[141.4366,39.31359],[141.43577,39.31255],[141.43507,39.31197],[141.43413,39.31158],[141.43021,39.31027],[141.42887,39.30994]],[[141.31816,39.35517],[141.31396,39.35544],[141.31319,39.35545],[141.31135,39.35512],[141.31065,39.35515],[141.31014,39.35529],[141.3094,39.35575],[141.30908,39.35628],[141.30862,39.35763],[141.30845,39.3579],[141.30712,39.35937],[141.30673,39.35969],[141.3061,39.36001],[141.30411,39.36077],[141.30268,39.36157],[141.30129,39.36222],[141.29953,39.36267],[141.29767,39.36292],[141.29696,39.36292],[141.29634,39.36269],[141.29499,39.3618],[141.29418,39.36146],[141.29323,39.36127],[141.2916,39.36113],[141.28924,39.36123],[141.28827,39.36142],[141.2868,39.36189],[141.28617,39.36201],[141.28421,39.36212],[141.27531,39.36182],[141.27116,39.36225],[141.26556,39.36267],[141.26359,39.36255],[141.26303,39.36266],[141.26176,39.36334],[141.25831,39.36616]],[[141.25733,39.36711],[141.25677,39.36779],[141.25633,39.36861],[141.25543,39.3717],[141.25514,39.37246],[141.25468,39.37306],[141.2522,39.37527],[141.24897,39.37726],[141.24856,39.37739],[141.24707,39.37766],[141.24508,39.37783],[141.24265,39.37764],[141.24136,39.37781],[141.24071,39.37812],[141.2392,39.37905],[141.23312,39.3829]],[[141.25831,39.36616],[141.25733,39.36711]],[[141.68192,39.24217],[141.68431,39.2433],[141.68562,39.24381],[141.71819,39.25277],[141.71889,39.25307],[141.71986,39.25372],[141.72015,39.25406],[141.72033,39.25449],[141.72035,39.25536],[141.72012,39.25624],[141.71908,39.2585],[141.71881,39.25951],[141.71867,39.26046],[141.71887,39.26192],[141.7192,39.26282],[141.72273,39.26941],[141.72302,39.27019],[141.72292,39.27086],[141.719,39.27695],[141.71854,39.27749],[141.7173,39.27847],[141.71683,39.27872],[141.71643,39.27883],[141.71483,39.27895],[141.71406,39.27909],[141.71316,39.27941],[141.71251,39.27978],[141.71202,39.2802],[141.71168,39.28063],[141.71156,39.28118],[141.71161,39.28195],[141.712,39.28288],[141.71261,39.28354],[141.71291,39.28372],[141.71448,39.28407],[141.7153,39.28406],[141.71564,39.28397],[141.71608,39.28372],[141.71675,39.28308],[141.71832,39.28074]],[[141.17216,39.4057],[141.16253,39.40438],[141.16044,39.40428],[141.15726,39.40434],[141.15579,39.4045],[141.15535,39.40462],[141.152,39.40657],[141.15103,39.40706],[141.15036,39.40729],[141.14878,39.40739],[141.14192,39.40693]],[[141.5863,39.28412],[141.58538,39.28499]],[[141.35022,39.3518],[141.35007,39.35213],[141.34956,39.35267],[141.34876,39.35326],[141.34716,39.35424],[141.34542,39.35492],[141.34315,39.35546],[141.34249,39.35536],[141.34168,39.35505],[141.34109,39.35468],[141.34016,39.35385],[141.33974,39.35362],[141.33894,39.35334],[141.33515,39.35228],[141.33372,39.35232],[141.3327,39.35262],[141.33093,39.35364],[141.32957,39.35482],[141.32685,39.35689],[141.32584,39.35734],[141.32492,39.35754],[141.32386,39.35759],[141.32279,39.35734],[141.32206,39.35687],[141.32087,39.35588],[141.31992,39.35543],[141.31943,39.3553]],[[141.71832,39.28074],[141.71871,39.28013]],[[141.39863,39.30008],[141.39688,39.29995],[141.39631,39.30002],[141.39581,39.30018],[141.39515,39.30064],[141.39307,39.30306],[141.39251,39.30345],[141.39185,39.30377],[141.3909,39.304],[141.39023,39.304],[141.38933,39.30373],[141.38876,39.30336],[141.38753,39.30222],[141.38678,39.30196],[141.38597,39.30183],[141.38399,39.30174],[141.38315,39.30183],[141.38201,39.30235],[141.38098,39.30302],[141.38033,39.30357],[141.38005,39.30398],[141.37988,39.30447],[141.37984,39.30572]],[[141.59524,39.26472],[141.59208,39.26497],[141.5908,39.26524],[141.58965,39.26586],[141.58911,39.26646],[141.58892,39.26685],[141.58877,39.26725],[141.58874,39.26793],[141.59098,39.27751],[141.59099,39.27864],[141.59065,39.27968],[141.59025,39.28033],[141.5863,39.28412]],[[141.83607,39.26438],[141.83512,39.26382],[141.83153,39.2611],[141.83025,39.26042],[141.82959,39.26014],[141.82298,39.25792],[141.82092,39.25729],[141.81896,39.25695],[141.80194,39.25647]],[[141.35036,39.35035],[141.35022,39.3518]],[[141.39986,39.30023],[141.39863,39.30008]]]}}