{"type":"Feature","properties":{"id":"東急電鉄_池上線","name":"池上線","operator":"東急電鉄","railType":"普通鉄道","operatorType":"民営","category":"rail","attribution":"国土数値情報（鉄道データ）国土交通省"},"geometry":{"type":"MultiLineString","coordinates":[[[139.71215,35.61001],[139.71243,35.61038],[139.71329,35.61239],[139.71485,35.61569]],[[139.71501,35.56179],[139.71417,35.56175]],[[139.72265,35.62259],[139.7235,35.62362],[139.72376,35.62416],[139.72385,35.62457]],[[139.69763,35.60205],[139.69831,35.60241]],[[139.71515,35.61633],[139.71581,35.61697],[139.71653,35.61735],[139.71753,35.61773],[139.72036,35.61936],[139.72079,35.61981],[139.72128,35.6211],[139.72206,35.62202]],[[139.70326,35.57191],[139.70238,35.57198]],[[139.69831,35.60241],[139.70299,35.60495]],[[139.71485,35.61569],[139.71515,35.61633]],[[139.70364,35.60532],[139.71082,35.60911],[139.71191,35.60979]],[[139.70876,35.56366],[139.70844,35.56426]],[[139.72385,35.62457],[139.72422,35.62543]],[[139.71191,35.60979],[139.71215,35.61001]],[[139.72206,35.62202],[139.72265,35.62259]],[[139.71417,35.56175],[139.71105,35.56179],[139.71037,35.56192],[139.7098,35.5622],[139.70939,35.56258],[139.70876,35.56366]],[[139.70299,35.60495],[139.70364,35.60532]],[[139.70844,35.56426],[139.70684,35.56797],[139.70574,35.57026],[139.70526,35.57086],[139.70466,35.57134],[139.70408,35.57167],[139.70326,35.57191]],[[139.69051,35.59955],[139.69134,35.5998]],[[139.68543,35.59708],[139.6877,35.59853],[139.68859,35.599],[139.69051,35.59955]],[[139.6917,35.57275],[139.69114,35.57325]],[[139.69114,35.57325],[139.68589,35.57915]],[[139.68255,35.58491],[139.68222,35.58554]],[[139.68222,35.58554],[139.68042,35.58941],[139.68039,35.59041],[139.68054,35.59098],[139.6809,35.59162]],[[139.68475,35.59664],[139.68543,35.59708]],[[139.68589,35.57915],[139.68545,35.57976]],[[139.69134,35.5998],[139.69556,35.60095],[139.69662,35.60145],[139.69763,35.60205]],[[139.68545,35.57976],[139.68426,35.58158],[139.68255,35.58491]],[[139.6809,35.59162],[139.68135,35.59231]],[[139.68135,35.59231],[139.68357,35.59567],[139.6841,35.59618],[139.68475,35.59664]],[[139.70238,35.57198],[139.69675,35.57168],[139.69588,35.57173],[139.69337,35.57204],[139.6922,35.57245],[139.6917,35.57275]]]}}