{"type":"Feature","properties":{"id":"東日本旅客鉄道_田沢湖線","name":"田沢湖線","operator":"東日本旅客鉄道","railType":"普通鉄道(JR)","operatorType":"JR在来線","category":"rail","attribution":"国土数値情報（鉄道データ）国土交通省"},"geometry":{"type":"MultiLineString","coordinates":[[[141.13499,39.70295],[141.13071,39.70667]],[[141.13807,39.70015],[141.13499,39.70295]],[[141.0715,39.71128],[141.0725,39.71184]],[[141.12293,39.70881],[141.12781,39.70779],[141.12976,39.7072],[141.13071,39.70667]],[[141.0725,39.71184],[141.07638,39.71397],[141.07746,39.71434],[141.08339,39.71528],[141.08511,39.71548],[141.08593,39.7155],[141.08909,39.71506],[141.10999,39.71152],[141.12293,39.70881]],[[140.57803,39.59979],[140.57564,39.59837],[140.57486,39.59776],[140.57446,39.59728],[140.57145,39.59225]],[[140.57091,39.59134],[140.55984,39.57279],[140.55949,39.57215],[140.55812,39.56897]],[[140.57145,39.59225],[140.57091,39.59134]],[[140.54158,39.54668],[140.54027,39.54544]],[[140.52733,39.51886],[140.51232,39.50198]],[[141.02391,39.70979],[141.02548,39.70974]],[[140.60172,39.61232],[140.60092,39.612]],[[140.49776,39.48927],[140.49837,39.48972]],[[140.90799,39.6852],[140.91047,39.68564],[140.91873,39.68835],[140.92155,39.68904],[140.92218,39.68929],[140.9241,39.69063],[140.92523,39.69111],[140.93307,39.69306],[140.93496,39.69338],[140.94298,39.69339]],[[140.60092,39.612],[140.59808,39.6107],[140.58817,39.60567],[140.57803,39.59979]],[[140.49837,39.48972],[140.50751,39.49664],[140.50806,39.49714],[140.51168,39.50124]],[[141.02548,39.70974],[141.03404,39.70939],[141.03523,39.70932],[141.03626,39.70916],[141.03734,39.70877],[141.0378,39.70843],[141.0391,39.7072],[141.04133,39.70612],[141.04214,39.70557],[141.04297,39.70477],[141.04328,39.70456],[141.04416,39.7042],[141.04523,39.70393],[141.04892,39.70342],[141.05108,39.70317],[141.05207,39.70314],[141.05321,39.70318],[141.05401,39.70334],[141.06022,39.7052],[141.0715,39.71128]],[[140.72318,39.70085],[140.72848,39.70212],[140.72951,39.70222],[140.73083,39.70216],[140.73145,39.70206],[140.73271,39.70158],[140.73516,39.70011],[140.73623,39.69961],[140.73689,39.69941],[140.73831,39.69933],[140.73996,39.69964],[140.74229,39.7007],[140.74344,39.70105],[140.74453,39.70128],[140.74575,39.70127],[140.74848,39.70095],[140.74909,39.70101],[140.75094,39.70156],[140.75183,39.70163],[140.75775,39.7011],[140.75958,39.70043],[140.76397,39.69857],[140.76701,39.69741],[140.76853,39.6972],[140.77059,39.69746],[140.77168,39.69743],[140.7726,39.69709],[140.77482,39.69584],[140.77544,39.69543],[140.77602,39.69482],[140.77642,39.69351],[140.77699,39.69273],[140.77773,39.69217],[140.77921,39.69133],[140.77969,39.69091],[140.7811,39.68918],[140.78135,39.68875],[140.78174,39.68764],[140.78209,39.68717],[140.78274,39.6866],[140.78362,39.68621],[140.78424,39.68604],[140.79576,39.68418],[140.8014,39.68318],[140.83855,39.67603],[140.84005,39.67567],[140.84095,39.67533],[140.84338,39.67407],[140.84417,39.67376],[140.8458,39.67334],[140.84751,39.67308],[140.84854,39.67282],[140.84934,39.67242],[140.85109,39.67116],[140.85316,39.6703],[140.85493,39.66991],[140.858,39.66986],[140.85906,39.66976],[140.85959,39.66963],[140.86071,39.66909],[140.86445,39.66648],[140.8652,39.66618],[140.86611,39.66603],[140.8681,39.66626],[140.86992,39.66693],[140.87151,39.66777],[140.87284,39.66874],[140.87345,39.66899],[140.87479,39.66937],[140.87565,39.66974],[140.88086,39.67223],[140.88299,39.6727],[140.88555,39.67283],[140.88597,39.67291],[140.88713,39.67334],[140.88895,39.67445],[140.89198,39.67524],[140.89379,39.67593],[140.89515,39.67671],[140.89651,39.67782],[140.89718,39.67866],[140.89901,39.68153],[140.89957,39.68221],[140.89997,39.68253],[140.90182,39.68372],[140.90283,39.68424],[140.90453,39.68473],[140.90648,39.68498]],[[140.94298,39.69339],[140.9449,39.69341]],[[140.62709,39.62252],[140.61965,39.6196],[140.60172,39.61232]],[[140.9449,39.69341],[140.95489,39.69336],[140.96123,39.69231],[140.97405,39.68941]],[[140.97557,39.68905],[140.98018,39.68799],[140.98193,39.68773],[140.98346,39.68783],[140.98411,39.68804],[140.98482,39.68844],[140.98555,39.68907],[140.99631,39.70283],[140.99777,39.70411],[140.99876,39.70465],[141.00881,39.70884],[141.01144,39.70986],[141.01282,39.7101],[141.01407,39.71012],[141.02391,39.70979]],[[140.90648,39.68498],[140.90799,39.6852]],[[140.54027,39.54544],[140.53812,39.54332],[140.53759,39.54264],[140.5374,39.54222],[140.53457,39.52897],[140.53377,39.52653],[140.53326,39.52557],[140.53276,39.52493],[140.52806,39.51967]],[[140.47996,39.46546],[140.47912,39.46626]],[[140.97405,39.68941],[140.97557,39.68905]],[[140.69169,39.66829],[140.6904,39.66698],[140.6894,39.66623],[140.68688,39.66509],[140.68499,39.66391],[140.68421,39.6636],[140.68366,39.6635],[140.67731,39.66262],[140.67587,39.66235],[140.67458,39.66178],[140.67386,39.66119],[140.67339,39.6605],[140.67314,39.65968],[140.67361,39.65524],[140.6734,39.65418],[140.67298,39.65352],[140.67252,39.65304],[140.67145,39.6524],[140.66933,39.65158],[140.66852,39.65118],[140.66771,39.65064],[140.66658,39.64955],[140.66524,39.64766],[140.6648,39.64671],[140.66437,39.64548],[140.66412,39.64509],[140.66358,39.6445],[140.66162,39.64318],[140.66102,39.64244],[140.66085,39.64205],[140.66078,39.64163],[140.66083,39.64067],[140.661,39.63956],[140.66072,39.63885],[140.65998,39.63755],[140.65913,39.63653],[140.65513,39.6332],[140.65435,39.63286],[140.65265,39.63264],[140.65142,39.63264],[140.65075,39.63252],[140.64978,39.63219],[140.64883,39.63174],[140.64692,39.63054],[140.62788,39.62283]],[[140.51168,39.50124],[140.51232,39.50198]],[[140.69221,39.66885],[140.69537,39.672],[140.69896,39.67506],[140.69932,39.67546],[140.69989,39.67623],[140.70043,39.67755],[140.70092,39.67818],[140.70247,39.67941],[140.70326,39.68021],[140.70525,39.68394],[140.70666,39.68591],[140.70912,39.68887],[140.71028,39.69005],[140.71927,39.69831],[140.72054,39.69943],[140.72122,39.69987]],[[140.52806,39.51967],[140.52733,39.51886]],[[140.62788,39.62283],[140.62709,39.62252]],[[140.55812,39.56897],[140.55777,39.56816]],[[140.55777,39.56816],[140.55406,39.55961],[140.55346,39.55856],[140.54158,39.54668]],[[140.69221,39.66885],[140.69169,39.66829]],[[140.47912,39.46626],[140.47668,39.46858]],[[140.47668,39.46858],[140.47599,39.46962],[140.4756,39.47063],[140.47575,39.47178],[140.47594,39.47227],[140.47656,39.47312],[140.48334,39.47838],[140.49776,39.48927]],[[140.72122,39.69987],[140.72265,39.70067],[140.72318,39.70085]]]}}