{"type":"Feature","properties":{"id":"東日本旅客鉄道_川越線","name":"川越線","operator":"東日本旅客鉄道","railType":"普通鉄道(JR)","operatorType":"JR在来線","category":"rail","attribution":"国土数値情報（鉄道データ）国土交通省"},"geometry":{"type":"MultiLineString","coordinates":[[[139.46062,35.91898],[139.46733,35.91786],[139.46909,35.91749],[139.46972,35.91726],[139.47843,35.91177],[139.47965,35.91092],[139.48179,35.90842],[139.48268,35.90724]],[[139.40566,35.90739],[139.40686,35.90777]],[[139.45925,35.91921],[139.46062,35.91898]],[[139.43603,35.91776],[139.44211,35.92009],[139.44349,35.92055],[139.44482,35.92089],[139.44619,35.92109],[139.44831,35.92107],[139.45433,35.92014],[139.45925,35.91921]],[[139.43479,35.91732],[139.43603,35.91776]],[[139.40686,35.90777],[139.41801,35.9111],[139.43479,35.91732]],[[139.57935,35.92212],[139.60532,35.93128]],[[139.56559,35.91719],[139.56435,35.91674]],[[139.60532,35.93128],[139.6068,35.93178]],[[139.62381,35.90445],[139.62235,35.90806]],[[139.56435,35.91674],[139.56077,35.91523],[139.55915,35.91433],[139.54798,35.9054],[139.54664,35.9045],[139.54573,35.90405],[139.54493,35.90381],[139.54427,35.90372],[139.52319,35.90348],[139.52007,35.90327]],[[139.52007,35.90327],[139.51824,35.90309]],[[139.48268,35.90724],[139.48373,35.90613]],[[139.37028,35.90158],[139.37196,35.90179]],[[139.37196,35.90179],[139.37443,35.90241],[139.38303,35.90522],[139.38428,35.90551],[139.40205,35.90679],[139.40385,35.90701],[139.40566,35.90739]],[[139.51824,35.90309],[139.49678,35.90111],[139.49076,35.90067],[139.48933,35.90073],[139.48833,35.90098],[139.48749,35.90152],[139.48716,35.90185],[139.48614,35.90341],[139.48504,35.90484],[139.48373,35.90613]],[[139.33694,35.89836],[139.33784,35.89688]],[[139.37028,35.90158],[139.33962,35.90159],[139.33906,35.90149],[139.33832,35.90118],[139.33749,35.90053],[139.337,35.89962],[139.33691,35.89905],[139.33694,35.89836]],[[139.33842,35.89586],[139.33784,35.89688]],[[139.56559,35.91719],[139.57845,35.9218]],[[139.57845,35.9218],[139.57935,35.92212]],[[139.62235,35.90806],[139.62235,35.90861],[139.62015,35.91542],[139.61875,35.92072],[139.6167,35.92612],[139.61594,35.9285],[139.61516,35.92984],[139.61475,35.93045],[139.61383,35.9314],[139.61246,35.93204],[139.6116,35.93228],[139.6104,35.93243],[139.60936,35.93242],[139.60814,35.93221],[139.6068,35.93178]]]}}