{"type":"Feature","properties":{"id":"東日本旅客鉄道_水郡線","name":"水郡線","operator":"東日本旅客鉄道","railType":"普通鉄道(JR)","operatorType":"JR在来線","category":"rail","attribution":"国土数値情報（鉄道データ）国土交通省"},"geometry":{"type":"MultiLineString","coordinates":[[[140.36846,37.35561],[140.36718,37.35213],[140.36704,37.35158],[140.367,37.35046],[140.36715,37.34976],[140.36986,37.34371]],[[140.36846,37.35561],[140.36918,37.35757]],[[140.42095,37.17486],[140.42105,37.17556]],[[140.41438,37.07953],[140.41444,37.08014]],[[140.4067,37.33036],[140.41003,37.32257],[140.41054,37.32191],[140.41132,37.32127],[140.41468,37.31966],[140.42647,37.31426],[140.42814,37.31372],[140.42915,37.31355],[140.42987,37.31351],[140.43082,37.3136]],[[140.41702,37.10481],[140.41749,37.10519],[140.41852,37.10571],[140.42168,37.10669],[140.4224,37.10704],[140.423,37.1077],[140.42367,37.10896],[140.42534,37.11061],[140.42592,37.11101],[140.42708,37.11137],[140.42957,37.11164],[140.43113,37.11194],[140.43342,37.11255],[140.43396,37.11283],[140.43441,37.11323],[140.43687,37.11797],[140.43736,37.11929],[140.43771,37.12324],[140.43749,37.12375],[140.43629,37.12538],[140.43622,37.12595],[140.43633,37.12648],[140.43789,37.1307],[140.44185,37.13492],[140.44244,37.13574],[140.443,37.13694],[140.44391,37.14035]],[[140.42976,37.29527],[140.42652,37.29289],[140.42591,37.29229],[140.42568,37.29182],[140.42373,37.2851],[140.4235,37.28462],[140.42294,37.28385],[140.42236,37.28331],[140.42125,37.28275],[140.4204,37.28253],[140.41715,37.28203],[140.41619,37.28174],[140.41568,37.28143],[140.41504,37.28076],[140.41209,37.27599],[140.41162,37.27538],[140.40646,37.27041]],[[140.39377,37.00014],[140.39376,37.00088]],[[140.40646,37.27041],[140.40584,37.2698]],[[140.40566,37.21393],[140.40549,37.21505]],[[140.43056,37.29584],[140.42976,37.29527]],[[140.43082,37.3136],[140.43167,37.31367]],[[140.40584,37.2698],[140.40365,37.26763],[140.40322,37.26672],[140.40316,37.26603],[140.40342,37.26516],[140.40835,37.25784],[140.40889,37.25664],[140.40903,37.2558],[140.40898,37.25394],[140.40846,37.25224],[140.40802,37.2502],[140.40807,37.24889],[140.40819,37.24812],[140.40879,37.24609],[140.40887,37.24526],[140.40882,37.24497],[140.40856,37.24427],[140.40831,37.24395],[140.40618,37.24196],[140.40557,37.24171],[140.4049,37.24159],[140.40376,37.2416],[140.40244,37.24148],[140.40175,37.24128],[140.40136,37.24109],[140.40082,37.2406],[140.40021,37.23958],[140.40013,37.2392],[140.40023,37.23841],[140.40203,37.23379],[140.40211,37.23339],[140.40194,37.23275],[140.40073,37.23061],[140.40063,37.23008],[140.4007,37.22949],[140.40421,37.21868],[140.40549,37.21505]],[[140.41444,37.08014],[140.41502,37.08602],[140.41483,37.08747],[140.41461,37.08794],[140.41413,37.08863],[140.41022,37.0934],[140.40982,37.09435],[140.40981,37.09501],[140.41,37.09578],[140.4103,37.09649],[140.41637,37.10416]],[[140.44409,37.14109],[140.44444,37.14261],[140.44428,37.14348],[140.44389,37.1441],[140.44283,37.14506],[140.44229,37.14572],[140.44173,37.14676],[140.44084,37.14904],[140.44076,37.14991],[140.44106,37.1522],[140.44104,37.15274],[140.44082,37.1535],[140.44027,37.15448],[140.43948,37.15521],[140.43267,37.16071],[140.42887,37.16308],[140.42786,37.16351],[140.42434,37.16424],[140.42393,37.16442],[140.42325,37.16488],[140.42142,37.16748],[140.42109,37.1684],[140.42085,37.17344],[140.42095,37.17486]],[[140.39376,37.00088],[140.3933,37.02216]],[[140.40559,37.193],[140.40409,37.19558],[140.40384,37.19589],[140.40098,37.19851],[140.40049,37.19937],[140.40037,37.19993],[140.40086,37.20274],[140.4012,37.20382],[140.40458,37.20983],[140.40543,37.21152],[140.40569,37.21257],[140.40566,37.21393]],[[140.384,37.03541],[140.3834,37.03604],[140.38315,37.03658],[140.38306,37.03699],[140.38312,37.03792],[140.38357,37.03876],[140.38429,37.03941],[140.38601,37.04038],[140.38654,37.04076],[140.38705,37.04145],[140.38753,37.04253],[140.38837,37.04344],[140.38891,37.04381],[140.3895,37.04409],[140.39151,37.04471],[140.3921,37.045],[140.39256,37.04544],[140.39302,37.04621],[140.39309,37.04676],[140.39294,37.04731],[140.39186,37.04879],[140.3916,37.04932],[140.3913,37.05029],[140.38906,37.05264],[140.38875,37.05345],[140.38871,37.05431],[140.38879,37.05484],[140.38899,37.05539],[140.39389,37.06388],[140.39466,37.06482],[140.39569,37.06559],[140.4129,37.07589],[140.41359,37.07651],[140.41405,37.07728],[140.4142,37.07775],[140.41438,37.07953]],[[140.39328,37.02281],[140.39318,37.02767],[140.3931,37.02816],[140.3929,37.02854],[140.39066,37.03069],[140.3892,37.03195],[140.38487,37.03481]],[[140.36986,37.34371],[140.37039,37.34305],[140.3711,37.34244],[140.37165,37.34214],[140.3726,37.34178],[140.37338,37.34161],[140.37422,37.34158],[140.38355,37.34241],[140.38982,37.34113],[140.39668,37.34008],[140.3974,37.33988],[140.39858,37.33942],[140.39913,37.33909],[140.40278,37.33589],[140.40523,37.33335],[140.40579,37.33241],[140.40636,37.33108]],[[140.41637,37.10416],[140.41702,37.10481]],[[140.3933,37.02216],[140.39328,37.02281]],[[140.40592,37.19243],[140.40559,37.193]],[[140.38487,37.03481],[140.384,37.03541]],[[140.42105,37.17556],[140.42125,37.17808],[140.42112,37.17861],[140.42087,37.17912],[140.42037,37.1798],[140.41563,37.18323],[140.41439,37.18364],[140.41184,37.18403],[140.41109,37.1843],[140.41049,37.18469],[140.40986,37.18563],[140.40592,37.19243]],[[140.43167,37.31367],[140.43539,37.31404],[140.43623,37.31389],[140.43689,37.3136],[140.43783,37.31283],[140.44039,37.31027],[140.44098,37.30943],[140.44114,37.3088],[140.44084,37.30609],[140.44058,37.30545],[140.44033,37.30512],[140.43629,37.30187],[140.43585,37.30141],[140.43327,37.29788],[140.43056,37.29584]],[[140.44391,37.14035],[140.44409,37.14109]],[[140.40636,37.33108],[140.4067,37.33036]],[[140.37467,36.81572],[140.37638,36.81583]],[[140.41699,36.89435],[140.41898,36.8821],[140.41924,36.88136],[140.41945,36.88102],[140.422,36.87736],[140.42258,36.87638],[140.42301,36.87459],[140.42327,36.87094]],[[140.48442,36.38422],[140.4845,36.38294]],[[140.38718,36.66943],[140.3871,36.6686]],[[140.42327,36.87094],[140.42337,36.86952]],[[140.49422,36.4349],[140.49413,36.43555]],[[140.49802,36.47677],[140.49606,36.47464],[140.4956,36.4739],[140.49542,36.47339],[140.49396,36.46404],[140.49313,36.45926]],[[140.49037,36.42433],[140.49289,36.42798],[140.4934,36.42903],[140.49376,36.43052],[140.49414,36.43345],[140.49422,36.4349]],[[140.41231,36.95829],[140.41187,36.95896]],[[140.35123,36.77015],[140.35045,36.77126]],[[140.37466,36.57979],[140.3751,36.5816],[140.37519,36.58266],[140.37411,36.59327],[140.37411,36.59367],[140.37422,36.59412],[140.37452,36.5947],[140.37506,36.59533],[140.37608,36.596],[140.37809,36.59684],[140.37886,36.59731],[140.38025,36.59797],[140.38152,36.59833],[140.38213,36.59857],[140.38252,36.59883],[140.38292,36.59926],[140.38417,36.60135],[140.3853,36.60297],[140.38655,36.60454],[140.38705,36.60501],[140.38759,36.60534],[140.38836,36.60564],[140.38931,36.60578]],[[140.37955,36.75545],[140.37933,36.75721],[140.37893,36.75826],[140.37813,36.75943],[140.37742,36.76019],[140.37679,36.76055],[140.37606,36.76078],[140.37487,36.76088],[140.37281,36.76045],[140.37132,36.76025],[140.36773,36.76005],[140.36694,36.75987],[140.36547,36.75934],[140.36495,36.75922],[140.3641,36.75918],[140.3625,36.75935],[140.36157,36.75961],[140.36096,36.75982],[140.35935,36.76059],[140.35747,36.76118],[140.35656,36.76155],[140.35612,36.76189],[140.35581,36.76225],[140.35482,36.76419],[140.35407,36.76539],[140.35376,36.76644],[140.35356,36.76686],[140.35123,36.77015]],[[140.52793,36.53087],[140.52817,36.5302],[140.52819,36.52954],[140.5281,36.52907],[140.52553,36.52068],[140.52526,36.52006]],[[140.41231,36.95829],[140.4141,36.95561],[140.41457,36.95507],[140.4151,36.95462],[140.41626,36.95393],[140.41693,36.95335],[140.41721,36.95294],[140.41734,36.95231],[140.41726,36.95169],[140.41707,36.95129],[140.41661,36.95072],[140.4159,36.9501],[140.41517,36.94931],[140.41495,36.94884],[140.41482,36.94833],[140.41389,36.9402],[140.41402,36.93937],[140.41431,36.93879],[140.41592,36.93681],[140.41623,36.93632],[140.41637,36.93573],[140.41622,36.93491],[140.41559,36.93351],[140.41541,36.93281],[140.41545,36.93136],[140.41588,36.92961],[140.41579,36.9285],[140.41525,36.92492],[140.41531,36.92441],[140.41556,36.92381],[140.41617,36.92279],[140.41748,36.92117],[140.4179,36.9205],[140.41842,36.91909],[140.41861,36.91814],[140.41852,36.91757],[140.41824,36.91696],[140.41665,36.91516],[140.41558,36.91348],[140.41487,36.91171],[140.41471,36.91079],[140.41467,36.90914],[140.41525,36.90518]],[[140.51734,36.50856],[140.51703,36.5079]],[[140.39209,36.64521],[140.39114,36.64169],[140.39003,36.64001],[140.38972,36.63923],[140.38966,36.63892],[140.38969,36.63805],[140.39002,36.63687],[140.39061,36.63579],[140.39147,36.63483],[140.39952,36.62777],[140.40002,36.62718],[140.40035,36.62665],[140.40091,36.62513]],[[140.49242,36.45531],[140.49264,36.45642]],[[140.37967,36.71889],[140.37771,36.71965]],[[140.45004,36.49785],[140.44902,36.49854]],[[140.39239,36.64586],[140.39273,36.64711],[140.3932,36.65116],[140.39315,36.65206],[140.39266,36.65457],[140.39225,36.6554],[140.39141,36.65632],[140.39051,36.65696],[140.38889,36.65786],[140.38823,36.65845],[140.38758,36.65938],[140.38701,36.66062],[140.3868,36.66121],[140.38673,36.66177],[140.38678,36.6623],[140.3871,36.6636],[140.38691,36.66602],[140.3871,36.6686]],[[140.37438,36.57871],[140.37466,36.57979]],[[140.48996,36.42375],[140.49037,36.42433]],[[140.41223,36.54779],[140.41092,36.54996],[140.41057,36.55034],[140.40974,36.55094],[140.40838,36.55148],[140.39669,36.55531],[140.39559,36.5557],[140.39482,36.55612],[140.39452,36.55638],[140.39424,36.55677],[140.39403,36.55725],[140.39389,36.55812],[140.3939,36.55922],[140.39375,36.55983],[140.3934,36.56057],[140.39268,36.56129],[140.37897,36.56894],[140.37455,36.57144],[140.37385,36.57191],[140.37355,36.57234],[140.37338,36.57275],[140.37327,36.5732],[140.37325,36.5741],[140.37438,36.57871]],[[140.38594,36.69611],[140.38454,36.69774],[140.383,36.70028],[140.38219,36.70262],[140.38176,36.7034],[140.38153,36.70462],[140.38161,36.70501],[140.38186,36.70552],[140.38301,36.70732],[140.38391,36.70927],[140.38419,36.70966],[140.38612,36.71158],[140.38646,36.71208],[140.38663,36.71271],[140.38665,36.71338],[140.38655,36.71405],[140.38635,36.71462],[140.38606,36.7151],[140.38561,36.71563],[140.38511,36.71605],[140.38219,36.71789],[140.37967,36.71889]],[[140.47517,36.37092],[140.47778,36.37111]],[[140.48294,36.40449],[140.48292,36.40382]],[[140.41687,36.89507],[140.41699,36.89435]],[[140.43777,36.50646],[140.43172,36.51116],[140.43096,36.51195],[140.43034,36.51282],[140.42776,36.51727],[140.42123,36.52625],[140.42084,36.52714],[140.42075,36.52756],[140.42055,36.53001],[140.42022,36.53111],[140.41826,36.53308],[140.41799,36.53348],[140.41769,36.53422],[140.41765,36.53495],[140.41799,36.53761],[140.41787,36.53827],[140.41767,36.5388],[140.41311,36.54637]],[[140.52741,36.53171],[140.52793,36.53087]],[[140.51703,36.5079],[140.51631,36.50613],[140.51617,36.50553],[140.51638,36.50065],[140.51633,36.50018],[140.51605,36.49953],[140.51555,36.49899],[140.51508,36.49863],[140.51415,36.49817],[140.51374,36.49805],[140.51171,36.49788],[140.51079,36.49756],[140.51035,36.49732],[140.50946,36.49654],[140.50905,36.49586],[140.50876,36.49514],[140.50839,36.49451],[140.5081,36.49419],[140.50688,36.49335],[140.50515,36.49244],[140.50451,36.4919],[140.50386,36.49088],[140.50346,36.48981],[140.50323,36.48794],[140.5033,36.4861]],[[140.49413,36.43555],[140.49328,36.43935],[140.49271,36.4454]],[[140.50339,36.48538],[140.50353,36.48438],[140.5035,36.48335],[140.503,36.48221],[140.49855,36.47733]],[[140.5033,36.4861],[140.50339,36.48538]],[[140.41187,36.95896],[140.40933,36.96274],[140.40866,36.96386],[140.40038,36.97993],[140.40006,36.98106],[140.39915,36.99055],[140.39894,36.99173],[140.3983,36.99265],[140.39467,36.99631],[140.39414,36.99693],[140.39394,36.9973],[140.39382,36.99775],[140.39377,37.00014]],[[140.49271,36.4454],[140.49265,36.44606]],[[140.40091,36.62513],[140.40124,36.62381]],[[140.52487,36.51944],[140.51945,36.51178],[140.51782,36.50941],[140.51734,36.50856]],[[140.39061,36.60579],[140.39407,36.60586],[140.39502,36.60613],[140.39569,36.60652],[140.39638,36.60728],[140.3967,36.60822],[140.39706,36.6114],[140.39744,36.61266],[140.3975,36.61312],[140.39738,36.6144],[140.39748,36.61552],[140.39794,36.61651],[140.39854,36.61731],[140.40014,36.61873],[140.40084,36.61953],[140.40129,36.62031],[140.40156,36.62121],[140.40165,36.62208],[140.40124,36.62381]],[[140.41525,36.90518],[140.41541,36.90412]],[[140.49264,36.45642],[140.49313,36.45926]],[[140.41541,36.90412],[140.41687,36.89507]],[[140.43864,36.50576],[140.43777,36.50646]],[[140.46784,36.47196],[140.46843,36.47075],[140.46895,36.46995],[140.46976,36.4692],[140.47067,36.46869],[140.47253,36.4681],[140.48913,36.46357],[140.49056,36.46297],[140.49139,36.46248],[140.49225,36.46162],[140.4928,36.4606],[140.49313,36.45926]],[[140.41311,36.54637],[140.41223,36.54779]],[[140.52526,36.52006],[140.52487,36.51944]],[[140.38718,36.66943],[140.38728,36.67199],[140.38605,36.67481],[140.38593,36.67676],[140.38607,36.67763],[140.38634,36.67807],[140.38792,36.67983],[140.38823,36.68028],[140.38832,36.68086],[140.38838,36.68276],[140.38861,36.68348],[140.38896,36.68387],[140.38971,36.68441],[140.39133,36.68508],[140.3918,36.68546],[140.39209,36.68582],[140.39245,36.68655],[140.3927,36.68774],[140.39264,36.68876],[140.3925,36.68918],[140.39196,36.69011],[140.39041,36.69237],[140.3894,36.69322],[140.38805,36.69396],[140.3871,36.69487]],[[140.37467,36.81572],[140.37261,36.8156],[140.37156,36.81535],[140.37107,36.81511],[140.37064,36.81478],[140.37028,36.81443],[140.37,36.81399],[140.36987,36.81326],[140.36989,36.81242],[140.37068,36.80956],[140.37099,36.80274],[140.3708,36.80198],[140.3706,36.80154],[140.37013,36.80104],[140.35252,36.78502],[140.35073,36.783],[140.34985,36.78236],[140.34663,36.78061],[140.34621,36.78029],[140.34573,36.77972],[140.3456,36.77941],[140.34552,36.77861],[140.34553,36.77831],[140.34568,36.77792],[140.35045,36.77126]],[[140.3871,36.69487],[140.38594,36.69611]],[[140.4845,36.38294],[140.48474,36.37729],[140.48463,36.37684],[140.48281,36.3738],[140.48164,36.37271],[140.4798,36.37147],[140.47856,36.37115],[140.47778,36.37111]],[[140.39486,36.84951],[140.39329,36.84845],[140.39265,36.84817],[140.3917,36.84792],[140.39,36.84769],[140.3884,36.84719],[140.3877,36.84674],[140.38714,36.84605],[140.38692,36.84551],[140.38661,36.84406],[140.38506,36.83564],[140.38477,36.8351],[140.38453,36.83483],[140.38239,36.83351],[140.38171,36.83284],[140.38138,36.83233],[140.38104,36.83158],[140.37979,36.82678],[140.37966,36.82586],[140.37974,36.82495],[140.38119,36.81889],[140.38121,36.81817],[140.38102,36.81753],[140.38081,36.81716],[140.3803,36.81668],[140.37933,36.81612],[140.37848,36.81594],[140.37638,36.81583]],[[140.48292,36.40382],[140.48442,36.38422]],[[140.39061,36.60579],[140.38931,36.60578]],[[140.48294,36.40449],[140.48415,36.40724],[140.48414,36.40778],[140.4834,36.40979],[140.48326,36.4107],[140.48331,36.41175],[140.48372,36.41383],[140.48397,36.41452],[140.48462,36.4158],[140.48996,36.42375]],[[140.46784,36.47196],[140.46756,36.47256]],[[140.42337,36.86952],[140.4236,36.86651],[140.42361,36.86496],[140.42345,36.86438],[140.42284,36.86347],[140.42216,36.8628],[140.42091,36.86203],[140.4177,36.86093],[140.41719,36.86055],[140.4159,36.85928],[140.41354,36.85751],[140.41289,36.85672],[140.4125,36.85593],[140.41195,36.85387],[140.41175,36.85341],[140.40951,36.85105],[140.4086,36.85033],[140.40787,36.84996],[140.40709,36.8498],[140.40618,36.84972],[140.40552,36.84984],[140.4049,36.85008],[140.40406,36.85057],[140.40286,36.85158],[140.40218,36.85205],[140.40162,36.85227],[140.40076,36.85235],[140.39961,36.85224],[140.39801,36.85178],[140.39716,36.85134],[140.39593,36.85036]],[[140.49855,36.47733],[140.49802,36.47677]],[[140.39239,36.64586],[140.39209,36.64521]],[[140.44902,36.49854],[140.43864,36.50576]],[[140.37968,36.75406],[140.37955,36.75545]],[[140.37771,36.71965],[140.37637,36.72011],[140.37523,36.72074],[140.37456,36.72141],[140.3742,36.7223],[140.37418,36.72324],[140.37438,36.72373],[140.37722,36.72728],[140.37772,36.72815],[140.37797,36.7292],[140.37793,36.73],[140.37759,36.73085],[140.37481,36.7355],[140.37442,36.73677],[140.37472,36.73765],[140.37514,36.73826],[140.37592,36.73903],[140.37855,36.74096],[140.3792,36.74152],[140.37963,36.74207],[140.38005,36.74311],[140.38016,36.74405],[140.38019,36.74568],[140.37965,36.74775],[140.37958,36.74831],[140.37982,36.75195],[140.37968,36.75406]],[[140.49265,36.44606],[140.49213,36.45196],[140.49215,36.45376],[140.49242,36.45531]],[[140.46756,36.47256],[140.4657,36.4765],[140.45574,36.49321],[140.45532,36.49377],[140.45448,36.49466],[140.45356,36.49546],[140.45235,36.49635],[140.45004,36.49785]],[[140.39593,36.85036],[140.39486,36.84951]]]}}