{"type":"Feature","properties":{"id":"東武鉄道_宇都宮線","name":"宇都宮線","operator":"東武鉄道","railType":"普通鉄道","operatorType":"民営","category":"rail","attribution":"国土数値情報（鉄道データ）国土交通省"},"geometry":{"type":"MultiLineString","coordinates":[[[139.85004,36.51384],[139.83931,36.49696],[139.83894,36.49615],[139.83586,36.4864]],[[139.82337,36.4507],[139.82433,36.45221]],[[139.80533,36.4229],[139.81933,36.44458],[139.82337,36.4507]],[[139.75337,36.40143],[139.75419,36.40169]],[[139.86107,36.53137],[139.86056,36.53054]],[[139.87253,36.54402],[139.88021,36.54799],[139.88096,36.54853],[139.88176,36.54953],[139.88212,36.5505],[139.88208,36.55126],[139.88062,36.55849]],[[139.77303,36.40897],[139.78441,36.41394],[139.80243,36.41994],[139.80321,36.42034],[139.80373,36.42074],[139.80469,36.42197]],[[139.82936,36.46621],[139.82971,36.46728]],[[139.8716,36.54354],[139.87253,36.54402]],[[139.86056,36.53054],[139.85057,36.51466]],[[139.82971,36.46728],[139.83538,36.48489]],[[139.88062,36.55849],[139.88058,36.55883]],[[139.8716,36.54354],[139.86831,36.54191],[139.86715,36.54092],[139.86673,36.54037],[139.86107,36.53137]],[[139.83586,36.4864],[139.83538,36.48489]],[[139.74105,36.39471],[139.74123,36.39561],[139.74166,36.39664],[139.74216,36.39731],[139.74249,36.39762],[139.74319,36.39807],[139.75337,36.40143]],[[139.74217,36.39065],[139.74105,36.39471]],[[139.77216,36.40858],[139.77303,36.40897]],[[139.82936,36.46621],[139.8259,36.45511],[139.82556,36.45425],[139.82433,36.45221]],[[139.80469,36.42197],[139.80533,36.4229]],[[139.75419,36.40169],[139.76352,36.4048],[139.77216,36.40858]],[[139.85057,36.51466],[139.85004,36.51384]],[[139.74253,36.38947],[139.74217,36.39065]]]}}