{"type":"Feature","properties":{"id":"東日本旅客鉄道_常磐線","name":"常磐線","operator":"東日本旅客鉄道","railType":"普通鉄道(JR)","operatorType":"JR在来線","category":"rail","attribution":"国土数値情報（鉄道データ）国土交通省"},"geometry":{"type":"MultiLineString","coordinates":[[[140.90081,37.92459],[140.89872,37.929],[140.8984,37.93007],[140.89819,37.93137],[140.89819,37.93281],[140.89833,37.93375],[140.89942,37.9379],[140.89973,37.93998],[140.89977,37.94093],[140.89969,37.94252],[140.8995,37.94375],[140.89918,37.94507],[140.89872,37.94642],[140.89768,37.94857],[140.89691,37.94977],[140.89352,37.95434],[140.89261,37.95579],[140.89194,37.95712],[140.8914,37.95852],[140.88914,37.96583]],[[140.86095,38.04034],[140.86163,38.03942]],[[140.88883,37.96681],[140.8866,37.97371],[140.88639,37.97478],[140.88634,37.97569],[140.88642,37.97669],[140.88675,37.978],[140.892,37.99013],[140.89247,37.99169],[140.89257,37.99309],[140.89242,37.99446],[140.89019,38.00188]],[[140.96953,37.70349],[140.97063,37.70218]],[[140.92549,37.80321],[140.92346,37.80943],[140.92308,37.81231],[140.92331,37.81404],[140.92504,37.81937],[140.92555,37.8216],[140.92559,37.8226],[140.92524,37.83332],[140.92528,37.83761],[140.92514,37.84137]],[[140.92593,37.80179],[140.9266,37.79977],[140.92689,37.79858],[140.92699,37.79777],[140.92682,37.79503],[140.92636,37.79288],[140.92569,37.79124],[140.91831,37.77849],[140.9181,37.77803],[140.91787,37.77712],[140.91784,37.77671],[140.91795,37.77573],[140.91822,37.77486],[140.91894,37.77376],[140.92602,37.76574],[140.93426,37.7566]],[[140.92546,37.87972],[140.92166,37.89018],[140.91362,37.90754],[140.9126,37.90955],[140.91162,37.91103],[140.91071,37.91219],[140.90304,37.92052],[140.90232,37.92154],[140.9013,37.92357]],[[140.85197,38.09796],[140.8514,38.09658],[140.85121,38.09527],[140.85222,38.08558],[140.8535,38.07607],[140.85429,38.07212],[140.85471,38.06843]],[[140.86294,38.11094],[140.86062,38.10782],[140.85197,38.09796]],[[140.92505,37.8429],[140.92497,37.84663],[140.92504,37.84724],[140.92532,37.84822],[140.92549,37.8486],[140.92606,37.84944],[140.92944,37.85349],[140.92981,37.85431],[140.93005,37.85556],[140.93003,37.8561],[140.92753,37.87381],[140.92582,37.87871]],[[140.85479,38.06682],[140.85771,38.04553],[140.85791,38.04489],[140.85843,38.04388],[140.86095,38.04034]],[[140.88914,37.96583],[140.88883,37.96681]],[[140.86437,38.11279],[140.86294,38.11094]],[[140.85471,38.06843],[140.85479,38.06682]],[[140.86163,38.03942],[140.86762,38.03109],[140.86832,38.0304],[140.86885,38.02995],[140.86987,38.02927],[140.87848,38.02396],[140.87932,38.02328],[140.88024,38.02227],[140.88649,38.01234],[140.88708,38.01123],[140.88847,38.00755],[140.88998,38.00257]],[[140.93426,37.7566],[140.93506,37.75566]],[[140.92582,37.87871],[140.92546,37.87972]],[[140.92549,37.80321],[140.92593,37.80179]],[[140.93506,37.75566],[140.93638,37.7541],[140.93715,37.75303],[140.93888,37.75023],[140.94042,37.74804],[140.9473,37.73913],[140.94902,37.73686],[140.94959,37.73597],[140.95007,37.73477],[140.95118,37.72834],[140.95148,37.72742],[140.9536,37.7228],[140.95406,37.72199],[140.95575,37.71987],[140.96953,37.70349]],[[140.89019,38.00188],[140.88998,38.00257]],[[140.9013,37.92357],[140.90081,37.92459]],[[140.92514,37.84137],[140.92505,37.8429]],[[140.89063,37.05819],[140.88922,37.05817],[140.88795,37.05798],[140.88552,37.05732],[140.87926,37.0554]],[[140.89408,37.05825],[140.89063,37.05819]],[[141.00776,37.2427],[141.00738,37.24077],[141.00748,37.24274]],[[141.00292,37.25758],[141.00214,37.2584]],[[140.9482,37.07448],[140.95771,37.08101],[140.96375,37.08643],[140.9799,37.1013]],[[140.9885,37.49289],[140.98624,37.49409],[140.9845,37.49513],[140.98397,37.49554],[140.98302,37.49661],[140.97495,37.50927],[140.97447,37.51033],[140.97414,37.51143],[140.97401,37.51267],[140.974,37.51365],[140.97429,37.51558],[140.97652,37.5221],[140.97696,37.52307],[140.97758,37.52388],[140.97857,37.52477],[140.98269,37.52693],[140.98327,37.5274],[140.98415,37.52833]],[[140.99599,37.14153],[140.99556,37.14341]],[[140.9799,37.1013],[140.98069,37.10206],[140.98182,37.10335]],[[140.98441,37.41001],[140.98495,37.41092],[140.98542,37.41145],[140.98661,37.4123],[140.99659,37.4179],[141.00022,37.42005],[141.00096,37.42058],[141.00146,37.42105],[141.00209,37.42179],[141.00253,37.42253],[141.00283,37.42329],[141.00294,37.42387],[141.003,37.42439],[141.00295,37.42541],[141.00269,37.42661],[141.00124,37.43008],[141.00095,37.43332],[141.00084,37.43587],[141.0046,37.45103],[141.00484,37.45189],[141.0053,37.45293]],[[140.99105,37.49155],[140.9885,37.49289]],[[140.9482,37.07448],[140.9463,37.07322]],[[140.99277,37.60407],[140.99025,37.60607]],[[141.02241,37.33545],[141.02217,37.33619],[141.02132,37.33818],[141.0208,37.3399],[141.02014,37.34125],[141.01931,37.34235],[141.01882,37.34281],[141.01828,37.34326],[141.01716,37.34391],[141.01575,37.34445],[141.01365,37.34469],[141.00698,37.34415],[141.00602,37.34416],[141.00531,37.34427],[141.00439,37.34454],[140.99862,37.34715],[140.99762,37.34777],[140.9962,37.34882],[140.99571,37.34927],[140.99479,37.35028],[140.99371,37.352],[140.99328,37.35296],[140.99295,37.3542],[140.9928,37.35496],[140.99209,37.36484]],[[140.97063,37.70218],[140.97186,37.70068],[140.97239,37.69981],[140.97278,37.6989],[140.97382,37.69168],[140.97383,37.69011],[140.97373,37.68928],[140.97215,37.67989],[140.9718,37.67717],[140.97179,37.67603],[140.97218,37.6697],[140.97199,37.66863],[140.96906,37.66298],[140.96757,37.65962],[140.96604,37.65297],[140.96592,37.65237],[140.96582,37.651],[140.96585,37.64995],[140.96661,37.6444],[140.96699,37.64313],[140.96722,37.64251],[140.9678,37.64145],[140.96853,37.64042],[140.96969,37.63921]],[[140.99194,37.36673],[140.99161,37.37134],[140.99076,37.37496],[140.99084,37.37564],[140.99148,37.37752],[140.99167,37.3784],[140.98903,37.3885],[140.98402,37.40696],[140.98393,37.40788],[140.98398,37.40863]],[[141.00292,37.25758],[141.00695,37.25319],[141.00757,37.25235],[141.00787,37.25181],[141.00801,37.25137]],[[140.8494,37.00778],[140.85028,37.00611]],[[140.99209,37.36484],[140.99194,37.36673]],[[140.99841,37.211],[140.99921,37.2121]],[[140.9955,37.17247],[140.9958,37.17182]],[[141.00214,37.2584],[140.99704,37.26367],[140.99601,37.26581],[140.99535,37.26755],[140.99526,37.26869],[140.99556,37.26989],[140.99617,37.2711],[140.99704,37.27243],[141.002,37.2794],[141.00241,37.28023],[141.00275,37.2813]],[[140.87926,37.0554],[140.87304,37.05349],[140.87162,37.05286],[140.87038,37.05199],[140.86896,37.05076],[140.86826,37.05004],[140.8556,37.03669]],[[140.99643,37.56353],[140.99703,37.56774],[140.99738,37.57119],[140.99775,37.57344],[140.99829,37.57525],[140.9996,37.57735],[140.99996,37.57816],[141.00007,37.57918],[140.99983,37.58115],[140.99999,37.58244],[141.00042,37.58342],[141.00117,37.58434],[141.00144,37.58479],[141.00184,37.58575],[141.00197,37.58675],[141.00178,37.58773],[141.00136,37.5887],[140.99469,37.602],[140.99411,37.60289],[140.99277,37.60407]],[[140.98459,37.529],[140.98532,37.53066],[140.9869,37.53659],[140.98742,37.53803],[140.98818,37.53943],[140.99244,37.54566],[140.99285,37.5464],[140.99355,37.54805],[140.99549,37.55617],[140.99587,37.55842],[140.9963,37.56242]],[[141.00641,37.45454],[141.00915,37.45872],[141.00936,37.45924],[141.00942,37.46012],[141.00871,37.46472],[141.00746,37.47195],[141.00723,37.47479],[141.00673,37.47638],[141.00621,37.47727],[140.99775,37.48753],[140.99659,37.48857],[140.99105,37.49155]],[[140.98415,37.52833],[140.98459,37.529]],[[140.98182,37.10335],[140.98315,37.10523],[140.98383,37.10681],[140.98434,37.10854],[140.98485,37.11139],[140.98522,37.11254],[140.98575,37.11343],[140.98638,37.11406],[140.99259,37.11912],[140.9939,37.12033],[140.99502,37.12153],[140.99537,37.12201],[140.99603,37.12311],[140.99621,37.12356],[140.99722,37.12716],[140.99735,37.12818],[140.99725,37.12919],[140.99682,37.1315],[140.99648,37.13863],[140.99599,37.14153]],[[141.00263,37.2836],[141.00218,37.28483],[141.00079,37.28704],[140.99633,37.29284],[140.99557,37.29387],[140.99539,37.29428],[140.99523,37.29529],[140.99528,37.29726],[140.99538,37.29786],[140.99596,37.29994],[140.99709,37.30273],[140.99791,37.30436],[141.00031,37.30819],[141.00102,37.30958],[141.00159,37.31133],[141.00202,37.31379],[141.00221,37.31436],[141.00255,37.31492],[141.00364,37.31588],[141.00529,37.31701],[141.02072,37.32628],[141.022,37.32753],[141.02276,37.32884],[141.02309,37.33024],[141.02307,37.33265]],[[140.99556,37.14341],[140.99459,37.14803],[140.99454,37.14941],[140.9947,37.15033],[140.99529,37.15167],[140.99766,37.15507],[140.99935,37.1581],[140.99995,37.15941],[141.00019,37.1604],[141.00027,37.16119],[141.00023,37.16194],[141.00003,37.16295],[140.9995,37.16436],[140.99755,37.16834],[140.99666,37.16994],[140.9958,37.17182]],[[141.02307,37.33265],[141.02241,37.33545]],[[141.00263,37.2836],[141.00283,37.28245],[141.00275,37.2813]],[[140.85427,37.03529],[140.84841,37.02895],[140.84762,37.02798],[140.84617,37.02591],[140.84479,37.02373],[140.84435,37.02285],[140.84429,37.02245],[140.84443,37.02118],[140.84747,37.01163],[140.84789,37.01067],[140.8494,37.00778]],[[140.9963,37.56242],[140.99643,37.56353]],[[140.9463,37.07322],[140.93907,37.06829],[140.93739,37.0675],[140.91377,37.05898],[140.91229,37.05861],[140.91142,37.0585],[140.89408,37.05825]],[[140.99025,37.60607],[140.98753,37.60826],[140.98695,37.60884],[140.98619,37.60986],[140.98593,37.61041],[140.9857,37.61118],[140.98565,37.61207],[140.98577,37.61309],[140.98784,37.6188],[140.9881,37.62047],[140.98802,37.62142],[140.98782,37.6223],[140.98724,37.62351],[140.98679,37.62415],[140.98605,37.62498],[140.97241,37.63683]],[[140.97241,37.63683],[140.96969,37.63921]],[[140.98398,37.40863],[140.98441,37.41001]],[[140.8556,37.03669],[140.85427,37.03529]],[[141.0053,37.45293],[141.00641,37.45454]],[[140.9955,37.17247],[140.99491,37.17393],[140.9948,37.17474],[140.99486,37.17641],[140.99505,37.17728],[140.99545,37.17834],[140.99607,37.17944],[140.9966,37.1802],[140.99816,37.18205],[140.99872,37.18299],[140.99902,37.18387],[140.9995,37.1869],[140.99996,37.18893],[141.00012,37.19009],[141.001,37.19208],[141.00146,37.19353],[141.00135,37.19505],[141.00109,37.19589],[141.00072,37.19653],[140.99984,37.19762],[140.9966,37.2005],[140.99597,37.20161],[140.9955,37.20304],[140.99535,37.20463],[140.99535,37.20549],[140.99551,37.2065],[140.9966,37.20853],[140.99841,37.211]],[[140.99921,37.2121],[141.00609,37.22152],[141.00671,37.22255],[141.00706,37.22356],[141.00713,37.22428],[141.00706,37.22512],[141.00689,37.22564],[141.00482,37.22932],[141.00448,37.23053],[141.0044,37.23155],[141.00444,37.23208],[141.00472,37.23333],[141.00518,37.23429],[141.00702,37.23909],[141.00738,37.24077]],[[140.85324,36.95541],[140.85493,36.95574]],[[140.52441,36.39505],[140.52506,36.39836],[140.52553,36.39973],[140.52907,36.40705],[140.53079,36.41033],[140.53766,36.42436],[140.54016,36.42961]],[[140.66247,36.59171],[140.66113,36.58894]],[[140.63374,36.55282],[140.63458,36.55346],[140.63568,36.55445],[140.63635,36.5552],[140.6415,36.56162],[140.64909,36.56927],[140.64972,36.57039],[140.65089,36.57348],[140.65166,36.57495],[140.65211,36.57554],[140.65729,36.58133],[140.6578,36.582],[140.65945,36.58531],[140.66113,36.58894]],[[140.7295,36.75443],[140.73035,36.75557],[140.7312,36.75649],[140.7359,36.76049],[140.73634,36.76101],[140.7367,36.76161],[140.73692,36.76234],[140.7392,36.77288],[140.73952,36.7753],[140.73974,36.77892],[140.7402,36.78402],[140.74063,36.78553],[140.74081,36.78603],[140.74153,36.78726],[140.74209,36.788],[140.74263,36.78854],[140.74388,36.78947],[140.74548,36.79035]],[[140.78599,36.88481],[140.78026,36.89477],[140.77993,36.89553],[140.77981,36.89631],[140.78014,36.89805],[140.78068,36.89905],[140.78149,36.90012],[140.79572,36.91778],[140.79625,36.91865],[140.79641,36.91922],[140.79649,36.92005]],[[140.47567,36.37075],[140.47124,36.37043],[140.47071,36.37048],[140.46886,36.37092],[140.46341,36.37244],[140.46213,36.37271],[140.45772,36.37295]],[[140.74548,36.79035],[140.74721,36.79105]],[[140.41333,36.3815],[140.36407,36.37473],[140.36321,36.37446],[140.35383,36.37056]],[[140.41699,36.38201],[140.41333,36.3815]],[[140.49304,36.36932],[140.49668,36.36993],[140.50022,36.37094],[140.5016,36.37148],[140.50714,36.37405],[140.51155,36.37638],[140.5157,36.37864],[140.5178,36.38002],[140.51873,36.38072],[140.51913,36.3811],[140.52147,36.38391],[140.5225,36.38546],[140.52295,36.38673],[140.52402,36.3931]],[[140.47875,36.37098],[140.47923,36.37097],[140.4809,36.3706],[140.48687,36.36868],[140.48725,36.36862],[140.48781,36.36857],[140.48868,36.36865],[140.49304,36.36932]],[[140.6317,36.55141],[140.63374,36.55282]],[[140.67565,36.63551],[140.67494,36.63777]],[[140.68664,36.67223],[140.69088,36.67787],[140.69209,36.67932],[140.69277,36.67994],[140.69907,36.68486],[140.70056,36.68591],[140.7029,36.68698],[140.70631,36.68827],[140.70773,36.689],[140.71297,36.69326],[140.71395,36.69432],[140.71471,36.69582],[140.71499,36.69686],[140.71683,36.71319]],[[140.85028,37.00611],[140.8516,37.00377],[140.85572,36.99737],[140.85926,36.99226],[140.86066,36.98992],[140.86213,36.98729],[140.86256,36.98636],[140.86269,36.9858],[140.86427,36.97375],[140.86432,36.97267],[140.8639,36.96291],[140.86362,36.96147],[140.86308,36.96024],[140.86245,36.95942],[140.86191,36.95894],[140.85833,36.95668],[140.85769,36.95639],[140.85673,36.95609],[140.85493,36.95574]],[[140.72861,36.75221],[140.7289,36.75313],[140.7295,36.75443]],[[140.35143,36.36953],[140.34735,36.3678]],[[140.79649,36.92005],[140.79648,36.92093]],[[140.6189,36.51185],[140.61997,36.514]],[[140.78727,36.88245],[140.78752,36.88106],[140.788,36.87043],[140.78806,36.86762],[140.78792,36.86664],[140.78749,36.8654],[140.78492,36.86138],[140.7839,36.86051],[140.78142,36.8593],[140.78069,36.85881],[140.78016,36.85828],[140.77965,36.85742],[140.77931,36.8562],[140.77913,36.85504],[140.77809,36.84681]],[[140.82357,36.94405],[140.82769,36.9447],[140.82949,36.94512],[140.83202,36.94585],[140.83307,36.94631],[140.83434,36.94709],[140.83542,36.9479]],[[140.47875,36.37098],[140.47567,36.37075]],[[140.45496,36.37311],[140.45319,36.37332],[140.45187,36.37373],[140.45129,36.374],[140.45057,36.37461],[140.44292,36.3819],[140.44153,36.38293],[140.44031,36.38363],[140.43822,36.38429],[140.4372,36.38447],[140.43635,36.38452],[140.43488,36.38441],[140.41699,36.38201]],[[140.68525,36.67053],[140.68664,36.67223]],[[140.45772,36.37295],[140.45496,36.37311]],[[140.83542,36.9479],[140.84242,36.95262],[140.84374,36.95337],[140.84561,36.95395],[140.85324,36.95541]],[[140.32619,36.35892],[140.34735,36.3678]],[[140.32619,36.35892],[140.33283,36.36057],[140.33348,36.3608],[140.34294,36.36479],[140.34412,36.36541],[140.34735,36.3678]],[[140.67494,36.63777],[140.67359,36.64205],[140.67349,36.64259],[140.67347,36.64334],[140.67356,36.64417],[140.67369,36.6446],[140.67406,36.64544],[140.67684,36.64926],[140.67768,36.65008],[140.67975,36.65163],[140.68087,36.65257],[140.68232,36.65482],[140.68271,36.65557],[140.68307,36.65658],[140.68315,36.65756],[140.68306,36.65828],[140.68256,36.66026],[140.68253,36.66113],[140.68334,36.66693],[140.68377,36.66817],[140.68469,36.66981],[140.68525,36.67053]],[[140.5669,36.46617],[140.57404,36.47173],[140.57719,36.47402],[140.59105,36.48263],[140.59261,36.48377],[140.59647,36.48628],[140.60369,36.49047],[140.60851,36.49353],[140.60898,36.49397],[140.60935,36.49448],[140.60976,36.49524],[140.60992,36.49571],[140.61007,36.49645],[140.61036,36.49976],[140.61065,36.50108],[140.61115,36.50239],[140.61169,36.50316],[140.61241,36.50388],[140.61531,36.50628],[140.61632,36.50735],[140.6172,36.50861],[140.6189,36.51185]],[[140.82357,36.94405],[140.82711,36.94487],[140.83358,36.94711],[140.83542,36.9479]],[[140.54086,36.43133],[140.54016,36.42961]],[[140.35383,36.37056],[140.35143,36.36953]],[[140.78599,36.88481],[140.78727,36.88245]],[[140.71708,36.71549],[140.71784,36.72265],[140.71946,36.73573],[140.71979,36.73822],[140.72024,36.74002],[140.72052,36.74072],[140.72098,36.74143],[140.72687,36.74823],[140.72763,36.74947],[140.72861,36.75221]],[[140.77809,36.84681],[140.77792,36.84532]],[[140.79648,36.92093],[140.7957,36.92662],[140.79571,36.92882],[140.79609,36.93001],[140.79673,36.93133],[140.79896,36.93548],[140.79978,36.93642],[140.80107,36.93727],[140.80188,36.93759],[140.80656,36.93894],[140.80921,36.93939],[140.81329,36.93955],[140.81506,36.93984],[140.81603,36.94018],[140.81728,36.94084],[140.82009,36.94298],[140.82136,36.9435],[140.82357,36.94405]],[[140.74721,36.79105],[140.74977,36.7922],[140.75082,36.79293],[140.75323,36.79535],[140.75479,36.79715],[140.75576,36.7986],[140.75662,36.80007],[140.76042,36.80673],[140.76451,36.81419],[140.76785,36.81987],[140.76876,36.82104],[140.77413,36.8267],[140.77493,36.82767],[140.77545,36.8285],[140.77564,36.82892],[140.77607,36.83061],[140.77792,36.84532]],[[140.61997,36.514],[140.62099,36.51607],[140.62123,36.51726],[140.621,36.52647],[140.62103,36.52803],[140.62117,36.5292],[140.62166,36.53123],[140.62345,36.53758],[140.62577,36.5463],[140.6264,36.54729],[140.62699,36.54794],[140.6317,36.55141]],[[140.52402,36.3931],[140.52441,36.39505]],[[140.71683,36.71319],[140.71708,36.71549]],[[140.5669,36.46617],[140.56517,36.46483]],[[140.56517,36.46483],[140.55485,36.45677],[140.55399,36.45599],[140.55258,36.45433],[140.54521,36.44246],[140.54086,36.43133]],[[140.66247,36.59171],[140.666,36.59876],[140.66673,36.60119],[140.66778,36.60746],[140.66804,36.60848],[140.66867,36.60984],[140.67202,36.61599],[140.67468,36.62357],[140.67679,36.62989],[140.67689,36.63048],[140.67685,36.63135],[140.67565,36.63551]],[[140.13828,35.93123],[140.13815,35.93009],[140.13755,35.92864]],[[140.27616,36.29447],[140.27598,36.29352],[140.27595,36.29196],[140.27623,36.28979],[140.28384,36.25989],[140.28651,36.24855]],[[140.20693,36.07994],[140.21262,36.09107],[140.21306,36.09181],[140.21364,36.09246],[140.21448,36.09311],[140.22111,36.09713],[140.22286,36.09835],[140.24762,36.11962]],[[140.12004,35.92097],[140.11626,35.92014]],[[140.29364,36.16218],[140.29532,36.16481]],[[140.13755,35.92864],[140.13648,35.92718],[140.13528,35.92614],[140.13384,35.92512],[140.13212,35.92412],[140.13126,35.92371],[140.12913,35.92295],[140.12004,35.92097]],[[140.30302,36.34919],[140.30175,36.3482],[140.30081,36.34724],[140.30016,36.3463],[140.29959,36.34505],[140.28937,36.31265],[140.28895,36.31155],[140.28834,36.31037],[140.28766,36.30937],[140.27795,36.2981],[140.27747,36.29743],[140.27687,36.29638]],[[140.3046,36.34986],[140.30302,36.34919]],[[140.30745,36.35106],[140.3046,36.34986]],[[140.1578,36.00617],[140.14254,35.98215],[140.14176,35.98049],[140.14145,35.9794],[140.14118,35.9767]],[[140.16517,36.02951],[140.16394,36.02778],[140.16353,36.027],[140.16289,36.02536],[140.15879,36.00882]],[[140.28055,36.19033],[140.28375,36.18505],[140.28432,36.18433],[140.29616,36.17377],[140.29697,36.17261],[140.29744,36.17157],[140.29762,36.17078],[140.29754,36.16878],[140.29708,36.16753],[140.29532,36.16481]],[[140.24762,36.11962],[140.2496,36.12124]],[[140.20555,36.07725],[140.20375,36.0738],[140.20291,36.07274],[140.20147,36.07169],[140.19563,36.06804],[140.19039,36.06493],[140.18929,36.06416],[140.18892,36.06378],[140.18843,36.0631],[140.18799,36.06216],[140.18723,36.05863],[140.18705,36.05812],[140.18657,36.05723],[140.18248,36.05286],[140.1668,36.03168]],[[140.27898,36.19266],[140.28055,36.19033]],[[140.14088,35.97366],[140.14118,35.9767]],[[140.1668,36.03168],[140.16517,36.02951]],[[140.20693,36.07994],[140.20555,36.07725]],[[140.30745,36.35106],[140.32619,36.35892]],[[140.27687,36.29638],[140.27616,36.29447]],[[140.2496,36.12124],[140.26649,36.13587],[140.26987,36.13869],[140.27097,36.13947],[140.27286,36.14055],[140.28158,36.14458],[140.28258,36.14512],[140.28323,36.14561],[140.28394,36.1464],[140.28431,36.14696],[140.28771,36.15262],[140.29364,36.16218]],[[140.28651,36.24855],[140.28704,36.24653]],[[140.14088,35.97366],[140.13822,35.94571],[140.13815,35.94404],[140.13828,35.93123]],[[140.1578,36.00617],[140.15818,36.00702],[140.15879,36.00882]],[[140.28704,36.24653],[140.28958,36.23621],[140.28964,36.23579],[140.28954,36.23439],[140.28918,36.23302],[140.28642,36.22477],[140.27757,36.19867],[140.27734,36.19741],[140.27744,36.19594],[140.27778,36.19475],[140.27898,36.19266]],[[140.06204,35.89454],[140.06393,35.8971]],[[140.00861,35.87269],[140.00584,35.87239]],[[140.04973,35.87543],[140.05028,35.87593],[140.05904,35.88914],[140.06241,35.89439]],[[139.97011,35.86104],[139.9718,35.86316]],[[139.97011,35.86104],[139.96234,35.85115],[139.96138,35.85011],[139.96064,35.84934],[139.9588,35.84768],[139.95623,35.84576],[139.95519,35.84517]],[[139.98868,35.87562],[139.9874,35.8757]],[[140.0136,35.87296],[140.01524,35.87317],[140.02267,35.87343],[140.02736,35.87387],[140.02851,35.8739],[140.03439,35.8736],[140.03725,35.87315],[140.03942,35.87256]],[[140.01224,35.87292],[140.0136,35.87296]],[[140.04973,35.87543],[140.05282,35.88009],[140.05335,35.88122],[140.05408,35.88251],[140.05571,35.88511],[140.06204,35.89454]],[[140.06303,35.89535],[140.06241,35.89439]],[[140.04213,35.87248],[140.04251,35.87246]],[[139.9874,35.8757],[139.98603,35.87559],[139.98494,35.87529],[139.98414,35.87497],[139.98174,35.87342],[139.97832,35.87103],[139.97771,35.87051],[139.97724,35.86996],[139.9718,35.86316]],[[140.04251,35.87246],[140.04491,35.87251],[140.04646,35.87291],[140.04734,35.87328],[140.04854,35.87403],[140.04935,35.87478],[140.04973,35.87543]],[[139.98868,35.87562],[139.99578,35.87393],[140.00234,35.8725],[140.0037,35.87232],[140.00481,35.8723],[140.00584,35.87239]],[[140.01224,35.87292],[140.01073,35.8729],[140.00861,35.87269]],[[140.03942,35.87256],[140.04213,35.87248]],[[140.00584,35.87239],[140.00918,35.87253],[140.0113,35.87272],[140.01674,35.87281],[140.02267,35.87317],[140.03942,35.87256]],[[140.06393,35.8971],[140.06481,35.89822],[140.06595,35.89936],[140.06657,35.89976],[140.06713,35.89995],[140.06795,35.9001],[140.07144,35.90027],[140.07282,35.90051],[140.0742,35.90107],[140.09213,35.91328],[140.09502,35.91516],[140.09574,35.91554],[140.09658,35.91588],[140.09816,35.91634],[140.10027,35.91685],[140.11626,35.92014]],[[139.95337,35.84422],[139.93751,35.83656],[139.93183,35.83368]],[[139.91755,35.8126],[139.91834,35.81579],[139.92081,35.82442]],[[139.87152,35.76961],[139.86926,35.76941]],[[139.90039,35.78349],[139.90096,35.78496],[139.90113,35.78574]],[[139.82367,35.76205],[139.81381,35.76091],[139.81296,35.76066],[139.81188,35.76008],[139.81104,35.75931],[139.8076,35.75537],[139.80675,35.75428],[139.80586,35.75253],[139.80479,35.74934]],[[139.86926,35.76941],[139.86543,35.76877],[139.85051,35.76737],[139.84905,35.76712],[139.8486,35.76697]],[[139.8486,35.76697],[139.84652,35.76609]],[[139.92159,35.8264],[139.92189,35.82699],[139.92308,35.82858],[139.92455,35.82996],[139.92547,35.83059],[139.92628,35.83102],[139.92967,35.83266]],[[139.90113,35.78574],[139.90219,35.7883],[139.90342,35.79066],[139.90538,35.79368],[139.911,35.7997]],[[139.77598,35.73354],[139.77817,35.73323]],[[139.93183,35.83368],[139.92967,35.83266]],[[139.8262,35.76228],[139.82367,35.76205]],[[139.84652,35.76609],[139.8439,35.76464],[139.84276,35.76423],[139.84127,35.76386],[139.83744,35.76337],[139.8262,35.76228]],[[139.77069,35.7284],[139.7697,35.72936],[139.76908,35.73026],[139.76907,35.73066],[139.76937,35.7315],[139.76956,35.73186],[139.76996,35.73233],[139.77094,35.73306],[139.77184,35.73347],[139.7726,35.73365],[139.77366,35.73382],[139.77598,35.73354]],[[139.80449,35.74835],[139.80479,35.74934]],[[139.92081,35.82442],[139.92159,35.8264]],[[139.79925,35.73366],[139.80032,35.73563]],[[139.91709,35.81077],[139.91755,35.8126]],[[139.77196,35.72734],[139.77069,35.7284]],[[139.77817,35.73323],[139.7953,35.73095],[139.7965,35.73112],[139.79748,35.73165],[139.79848,35.73256],[139.79925,35.73366]],[[139.87152,35.76961],[139.87365,35.76974],[139.87591,35.76954]],[[139.80032,35.73563],[139.80103,35.7376],[139.80362,35.74616],[139.80449,35.74835]],[[139.91225,35.80103],[139.9143,35.80384],[139.91527,35.80541],[139.91561,35.8061],[139.91709,35.81077]],[[139.95519,35.84517],[139.95337,35.84422]],[[139.911,35.7997],[139.91225,35.80103]],[[139.87591,35.76954],[139.87806,35.76908],[139.88362,35.76851],[139.88559,35.76863],[139.88824,35.76926],[139.88903,35.76956]],[[139.87591,35.76954],[139.88332,35.76882],[139.88461,35.76879],[139.88582,35.76897],[139.88774,35.76939],[139.88903,35.76956]],[[139.88903,35.76956],[139.89347,35.7709]],[[139.88903,35.76956],[139.89054,35.76978],[139.89127,35.76998],[139.89229,35.77034],[139.89347,35.7709]],[[139.89347,35.7709],[139.89415,35.77126],[139.89583,35.7727],[139.89659,35.77374],[139.89738,35.77519],[139.90039,35.78349]],[[141.00776,37.2427],[141.00871,37.24841],[141.00865,37.24972],[141.00849,37.2504],[141.00836,37.25082],[141.00801,37.25137]],[[141.00748,37.24274],[141.00757,37.24518],[141.00775,37.24638],[141.00827,37.24841],[141.00833,37.24909],[141.00831,37.24996],[141.00801,37.25137]]]}}