{"type":"Feature","properties":{"id":"東日本旅客鉄道_烏山線","name":"烏山線","operator":"東日本旅客鉄道","railType":"普通鉄道(JR)","operatorType":"JR在来線","category":"rail","attribution":"国土数値情報（鉄道データ）国土交通省"},"geometry":{"type":"MultiLineString","coordinates":[[[140.05209,36.66654],[140.05367,36.66667],[140.06154,36.66605],[140.06294,36.6663],[140.065,36.66722],[140.06567,36.66743],[140.06704,36.6675],[140.06853,36.66724],[140.07178,36.66582],[140.07245,36.66562],[140.07362,36.66545],[140.07603,36.66528],[140.08003,36.66416],[140.08079,36.66406],[140.08151,36.66407],[140.08374,36.66456],[140.0843,36.66456],[140.08495,36.66444],[140.08551,36.66427],[140.08821,36.663],[140.08919,36.66234],[140.09082,36.66145],[140.09147,36.66097],[140.09217,36.66022],[140.09345,36.65841],[140.09542,36.65653]],[[140.15541,36.651],[140.15479,36.64982]],[[140.09598,36.65603],[140.09924,36.653],[140.10312,36.64892],[140.10436,36.6479],[140.10565,36.64741],[140.10656,36.64723],[140.11229,36.6466],[140.11278,36.64646],[140.11354,36.64596],[140.11631,36.64338]],[[140.1386,36.64836],[140.13789,36.64878]],[[139.97935,36.63247],[139.97851,36.63663]],[[139.97851,36.63663],[139.97874,36.63754],[139.9789,36.63786],[139.97964,36.63864],[139.98034,36.63905],[139.99261,36.64287],[139.99443,36.6435],[139.99671,36.64445],[140.00831,36.64982]],[[140.00904,36.65015],[140.023,36.65653],[140.02442,36.65685],[140.02918,36.65724]],[[140.02918,36.65724],[140.03007,36.65731]],[[140.11631,36.64338],[140.11697,36.64283]],[[140.09542,36.65653],[140.09598,36.65603]],[[140.03007,36.65731],[140.03692,36.65784],[140.03851,36.65823],[140.03882,36.65838],[140.04034,36.65953],[140.04073,36.65996],[140.04138,36.66149],[140.04202,36.66229],[140.04285,36.66324],[140.04396,36.6643],[140.04443,36.66464],[140.04554,36.66507],[140.05128,36.66635]],[[140.00831,36.64982],[140.00904,36.65015]],[[139.97935,36.63247],[139.97969,36.63078]],[[140.13789,36.64878],[140.13701,36.6491],[140.1359,36.64928],[140.13499,36.64924],[140.13421,36.6491],[140.13303,36.64867],[140.13254,36.64841],[140.13083,36.647],[140.12981,36.64655],[140.12921,36.64643],[140.12617,36.64642],[140.12528,36.64618],[140.12488,36.64598],[140.12408,36.64536],[140.12136,36.64259],[140.12068,36.64223],[140.1194,36.64209],[140.11871,36.64214],[140.11751,36.64252],[140.11697,36.64283]],[[140.15479,36.64982],[140.15378,36.64798],[140.15342,36.64703],[140.1537,36.64304],[140.1536,36.64223],[140.15327,36.64165],[140.15262,36.64096],[140.15181,36.64052],[140.15074,36.64029],[140.14933,36.64042],[140.14864,36.64062],[140.14348,36.64265],[140.14128,36.64375],[140.14084,36.64433],[140.14055,36.64498],[140.1402,36.64659],[140.13998,36.64706],[140.13969,36.64742],[140.1386,36.64836]],[[140.05128,36.66635],[140.05209,36.66654]]]}}