{"type":"Feature","properties":{"id":"東日本旅客鉄道_横須賀線","name":"横須賀線","operator":"東日本旅客鉄道","railType":"普通鉄道(JR)","operatorType":"JR在来線","category":"rail","attribution":"国土数値情報（鉄道データ）国土交通省"},"geometry":{"type":"MultiLineString","coordinates":[[[139.65974,35.2575],[139.66224,35.25672]],[[139.70134,35.23215],[139.70046,35.23421]],[[139.65382,35.28448],[139.65599,35.28397]],[[139.65599,35.28397],[139.65706,35.28349],[139.65766,35.28303],[139.65786,35.28262],[139.65789,35.28193],[139.65754,35.27997],[139.65707,35.27656],[139.65664,35.27468],[139.65612,35.27152],[139.65575,35.26983],[139.65487,35.26457],[139.65471,35.26315],[139.65482,35.2621],[139.65507,35.26109],[139.65542,35.26028],[139.65622,35.25927],[139.6567,35.25886],[139.65774,35.25822],[139.65974,35.2575]],[[139.70046,35.23421],[139.69965,35.23541],[139.69558,35.23911],[139.69433,35.23992],[139.68776,35.24366],[139.68619,35.24481],[139.67815,35.25134],[139.67676,35.25221],[139.67579,35.25265],[139.67333,35.25343],[139.66506,35.25582],[139.66224,35.25672]],[[139.60243,35.29869],[139.60973,35.2979],[139.61145,35.29766],[139.6128,35.29734],[139.61415,35.29694],[139.61536,35.29646],[139.61874,35.2945],[139.62,35.29391],[139.6217,35.29327],[139.62421,35.29273],[139.62576,35.29265],[139.63174,35.29332],[139.63295,35.29338],[139.63689,35.29292]],[[139.60121,35.29884],[139.59187,35.29973],[139.5911,35.29968],[139.5873,35.29903],[139.57965,35.29759]],[[139.63816,35.29276],[139.63947,35.29259],[139.64071,35.29229],[139.64824,35.28873],[139.64942,35.28798],[139.65012,35.28742],[139.65206,35.28555],[139.65286,35.28497],[139.65382,35.28448]],[[139.63816,35.29276],[139.63689,35.29292]],[[139.60243,35.29869],[139.60121,35.29884]],[[139.57965,35.29759],[139.57813,35.29735],[139.57708,35.29729]],[[139.54536,35.33721],[139.54728,35.33546],[139.54809,35.33456],[139.54843,35.33389],[139.54852,35.33331]],[[139.55039,35.31826],[139.55058,35.31698],[139.55089,35.31599],[139.55135,35.31495],[139.55238,35.31344],[139.55332,35.31257],[139.55394,35.3121],[139.55526,35.31129],[139.55622,35.31087],[139.55799,35.31036],[139.56007,35.30998]],[[139.54536,35.33721],[139.54377,35.33867]],[[139.53102,35.3526],[139.53164,35.35542]],[[139.56007,35.30998],[139.56156,35.30939],[139.56622,35.30696],[139.56764,35.30636]],[[139.57708,35.29729],[139.57621,35.29733],[139.57455,35.2977],[139.5733,35.29834],[139.57195,35.29942],[139.57148,35.30005],[139.57095,35.30096],[139.56964,35.30425],[139.56929,35.30492],[139.56881,35.30549],[139.56764,35.30636]],[[139.54848,35.3284],[139.54832,35.32916],[139.54829,35.33056],[139.54832,35.33201],[139.54852,35.33331]],[[139.55051,35.32036],[139.55078,35.32288],[139.55079,35.32381],[139.55069,35.32429],[139.55022,35.32521],[139.54915,35.3265],[139.54881,35.3271],[139.54861,35.3275],[139.54848,35.3284]],[[139.54377,35.33867],[139.54087,35.34134],[139.54038,35.34167],[139.53927,35.34221],[139.5364,35.34314],[139.53579,35.34339],[139.53497,35.34388],[139.53182,35.34716],[139.53069,35.34853],[139.53038,35.34903],[139.53016,35.34979],[139.53043,35.35101],[139.53102,35.3526]],[[139.54848,35.3284],[139.54862,35.33198],[139.54852,35.33331]],[[139.56007,35.30998],[139.56236,35.30953],[139.56289,35.30934],[139.56764,35.30636]],[[139.55039,35.31826],[139.55051,35.32036]]]}}