{"type":"Feature","properties":{"id":"東武鉄道_亀戸線","name":"亀戸線","operator":"東武鉄道","railType":"普通鉄道","operatorType":"民営","category":"rail","attribution":"国土数値情報（鉄道データ）国土交通省"},"geometry":{"type":"MultiLineString","coordinates":[[[139.83353,35.70029],[139.83356,35.7015],[139.83177,35.70706]],[[139.82727,35.71044],[139.81854,35.71356],[139.81802,35.71388],[139.81723,35.71463],[139.81669,35.71554],[139.81659,35.71618],[139.81665,35.71725],[139.81658,35.71726]],[[139.83325,35.6996],[139.83353,35.70029]],[[139.82672,35.69773],[139.82768,35.69774]],[[139.82768,35.69774],[139.83103,35.69792],[139.83167,35.6981],[139.83208,35.69831],[139.83266,35.69881],[139.83325,35.6996]],[[139.82795,35.7102],[139.82727,35.71044]],[[139.83177,35.70706],[139.83142,35.70769]],[[139.83142,35.70769],[139.83075,35.70863],[139.82973,35.70942],[139.82795,35.7102]],[[139.81658,35.71726],[139.81667,35.71891],[139.81677,35.71936]]]}}