{"type":"Feature","properties":{"id":"東急電鉄_東横線","name":"東横線","operator":"東急電鉄","railType":"普通鉄道","operatorType":"民営","category":"rail","attribution":"国土数値情報（鉄道データ）国土交通省"},"geometry":{"type":"MultiLineString","coordinates":[[[139.70293,35.65826],[139.70252,35.65908],[139.7023,35.65995]],[[139.70064,35.64561],[139.70078,35.64574]],[[139.7013,35.6463],[139.70078,35.64574]],[[139.70078,35.64574],[139.70091,35.64612],[139.70108,35.6463],[139.70316,35.64805]],[[139.70382,35.64845],[139.7046,35.64926],[139.70565,35.65113],[139.70693,35.65292],[139.70708,35.65319],[139.70714,35.65366],[139.70692,35.65429],[139.70571,35.65548],[139.70501,35.65656],[139.70348,35.65772],[139.70293,35.65826]],[[139.69815,35.64352],[139.69952,35.64469]],[[139.70316,35.64805],[139.70382,35.64845]],[[139.67692,35.61836],[139.68318,35.62529],[139.68487,35.62816]],[[139.66888,35.58892],[139.6689,35.58848],[139.66871,35.58811],[139.66687,35.58658],[139.66447,35.58481],[139.66392,35.58425],[139.66339,35.58342],[139.6622,35.581]],[[139.66726,35.59795],[139.66731,35.59663]],[[139.64669,35.55282],[139.64535,35.54951],[139.64478,35.54846],[139.6351,35.53717]],[[139.67596,35.61734],[139.67692,35.61836]],[[139.66888,35.58892],[139.66848,35.59037]],[[139.69115,35.63766],[139.69277,35.63961],[139.69344,35.64026],[139.6962,35.64189],[139.69815,35.64352]],[[139.68561,35.62938],[139.68889,35.63485],[139.69035,35.63668]],[[139.68487,35.62816],[139.68561,35.62938]],[[139.6622,35.581],[139.66168,35.57992]],[[139.65909,35.57464],[139.655,35.5663]],[[139.66838,35.60665],[139.66902,35.60789]],[[139.64737,35.55516],[139.64669,35.55282]],[[139.66006,35.57663],[139.65909,35.57464]],[[139.66731,35.59663],[139.66747,35.59472]],[[139.66726,35.59795],[139.66727,35.5986]],[[139.66727,35.5986],[139.66794,35.60539],[139.66804,35.60584],[139.66838,35.60665]],[[139.655,35.5663],[139.65443,35.56511]],[[139.66848,35.59037],[139.66752,35.59417],[139.66747,35.59472]],[[139.65443,35.56511],[139.65303,35.5622],[139.65199,35.56045],[139.65125,35.55949],[139.6479,35.5563],[139.64756,35.55577],[139.64737,35.55516]],[[139.6351,35.53717],[139.63449,35.53646]],[[139.66902,35.60789],[139.67148,35.61227],[139.6719,35.61287],[139.67596,35.61734]],[[139.69035,35.63668],[139.69115,35.63766]],[[139.66168,35.57992],[139.66006,35.57663]],[[139.6254,35.47491],[139.62531,35.47428],[139.62539,35.47338]],[[139.62983,35.52193],[139.63118,35.51127]],[[139.63145,35.50972],[139.63159,35.50937],[139.63188,35.50901],[139.63394,35.50746],[139.63445,35.50672],[139.63463,35.50607],[139.63465,35.50293],[139.6345,35.50234],[139.63356,35.4999],[139.63334,35.49913]],[[139.62813,35.4899],[139.62882,35.49064],[139.63141,35.49272],[139.63165,35.49296],[139.63256,35.4943],[139.63313,35.49531],[139.6333,35.49589],[139.63327,35.49842]],[[139.6254,35.47491],[139.62567,35.47566],[139.6261,35.47621],[139.62894,35.4788],[139.62949,35.4794],[139.62965,35.47969],[139.62996,35.48046],[139.63005,35.4811],[139.62963,35.4831]],[[139.62275,35.46687],[139.62401,35.4684],[139.62497,35.46972],[139.62546,35.4706],[139.62569,35.47174],[139.62539,35.47338]],[[139.62983,35.52295],[139.62983,35.52193]],[[139.62275,35.46687],[139.62195,35.466]],[[139.63118,35.51127],[139.63145,35.50972]],[[139.62942,35.4837],[139.62793,35.48761],[139.62774,35.48856],[139.62779,35.48912]],[[139.63449,35.53646],[139.63411,35.53585],[139.63395,35.53526],[139.63387,35.53461],[139.63388,35.53274],[139.63374,35.53191],[139.63202,35.5289],[139.62999,35.52358],[139.62983,35.52295]],[[139.62963,35.4831],[139.62942,35.4837]],[[139.62779,35.48912],[139.62794,35.48963],[139.62813,35.4899]],[[139.63327,35.49842],[139.63334,35.49913]],[[139.66747,35.59472],[139.66761,35.59381],[139.6685,35.59037]],[[139.6685,35.59037],[139.66889,35.58892]],[[139.70064,35.64561],[139.69952,35.64469]]]}}