{"type":"Feature","properties":{"id":"東海旅客鉄道_飯田線","name":"飯田線","operator":"東海旅客鉄道","railType":"普通鉄道(JR)","operatorType":"JR在来線","category":"rail","attribution":"国土数値情報（鉄道データ）国土交通省"},"geometry":{"type":"MultiLineString","coordinates":[[[137.99066,35.97658],[137.9935,35.9821],[137.99494,35.98338]],[[137.98522,35.95272],[137.98509,35.95341]],[[137.98447,35.9692],[137.98534,35.96981],[137.98734,35.9709],[137.98789,35.97141],[137.9887,35.97278],[137.99034,35.97594]],[[137.99034,35.97594],[137.99066,35.97658]],[[137.98364,35.96837],[137.98447,35.9692]],[[137.98509,35.95341],[137.98494,35.95417],[137.9847,35.95471],[137.98255,35.95721],[137.98154,35.95857],[137.98095,35.96006],[137.98086,35.96069],[137.98103,35.96184],[137.98087,35.96308],[137.98101,35.96401],[137.98205,35.96636],[137.98249,35.96704],[137.98364,35.96837]],[[137.99601,35.98394],[137.99494,35.98338]],[[137.99601,35.98394],[137.99862,35.98523]],[[137.66356,35.00108],[137.66301,35.00042],[137.66172,34.99967],[137.66088,34.99943],[137.65861,34.99905],[137.65631,34.99786],[137.65304,34.99725],[137.65194,34.99691],[137.6514,34.99658],[137.6496,34.99515],[137.6486,34.99391],[137.64804,34.99305],[137.64725,34.99226],[137.64603,34.99144],[137.64439,34.99069]],[[137.93313,35.69598],[137.93287,35.69654],[137.93246,35.69689],[137.9301,35.69819],[137.92876,35.69911],[137.92841,35.69951],[137.92831,35.69986],[137.92839,35.70036],[137.92852,35.70059],[137.92964,35.70145],[137.92997,35.70162],[137.93031,35.7017],[137.93304,35.70157],[137.93382,35.70161],[137.935,35.70192],[137.93553,35.70231],[137.93573,35.70266],[137.93645,35.70489],[137.93643,35.70533],[137.93632,35.70556],[137.93472,35.70752],[137.93455,35.70785],[137.93446,35.70812],[137.93403,35.71178]],[[137.82936,35.52214],[137.82821,35.52203],[137.82606,35.52223],[137.82541,35.52213],[137.82459,35.52177],[137.82166,35.51996]],[[137.81683,35.42889],[137.81673,35.42953]],[[137.85404,35.27396],[137.85325,35.27328]],[[137.84192,35.49717],[137.84338,35.4989],[137.84376,35.49984],[137.84371,35.50029],[137.84325,35.50132],[137.84212,35.50336],[137.84135,35.50379],[137.8401,35.50411]],[[137.81583,35.45342],[137.81622,35.45452],[137.81674,35.45539],[137.81919,35.45784],[137.8212,35.45927],[137.82238,35.45992],[137.82337,35.46043],[137.82639,35.46156],[137.82701,35.46205],[137.82731,35.46243],[137.8275,35.46286],[137.82768,35.46367]],[[137.81746,35.44082],[137.81722,35.44138]],[[137.87604,35.54402],[137.86972,35.53772],[137.86929,35.53741],[137.86759,35.5364],[137.8618,35.534]],[[137.7134,35.0289],[137.71431,35.02904]],[[137.94375,35.77763],[137.94269,35.77609],[137.93915,35.76915],[137.93898,35.76852],[137.93889,35.76761]],[[137.96408,35.84487],[137.96462,35.8456]],[[137.97811,35.86103],[137.97838,35.86141],[137.97885,35.86249],[137.98149,35.87111],[137.9834,35.87486],[137.98364,35.87666],[137.9841,35.87911]],[[137.8618,35.534],[137.86105,35.53371]],[[137.95886,35.83822],[137.95965,35.83867]],[[137.89577,35.5723],[137.89542,35.57153],[137.895,35.57085],[137.89352,35.56916],[137.89259,35.56794],[137.8888,35.56079],[137.88733,35.55417],[137.88663,35.54974]],[[137.7446,35.0495],[137.74556,35.04975],[137.74642,35.04978],[137.74881,35.04941],[137.74957,35.04936],[137.75092,35.04958],[137.75206,35.05002]],[[137.81015,35.09193],[137.81069,35.09207],[137.8112,35.09231],[137.81177,35.09264],[137.81224,35.09303],[137.81258,35.09362],[137.81282,35.09492],[137.8133,35.09614],[137.8155,35.09801],[137.81733,35.09881],[137.8229,35.10087],[137.85232,35.11216],[137.85314,35.11266],[137.85374,35.11324],[137.85418,35.11403],[137.85431,35.11459]],[[137.83938,35.5043],[137.8401,35.50411]],[[137.98535,35.93599],[137.98557,35.93665]],[[137.78672,35.06955],[137.79068,35.07228],[137.79668,35.07466],[137.79921,35.07577],[137.80033,35.07629],[137.80146,35.07712],[137.80203,35.07782],[137.8026,35.08001],[137.80267,35.08099],[137.80256,35.08378],[137.80277,35.08498]],[[137.94405,35.80335],[137.94441,35.7983],[137.94512,35.79166],[137.94454,35.78981],[137.94441,35.78891],[137.94455,35.78816],[137.94614,35.78402],[137.94622,35.78162],[137.94617,35.78129],[137.94602,35.78101],[137.94416,35.77823]],[[137.83507,35.2539],[137.83611,35.25325],[137.83757,35.25163],[137.83799,35.25105],[137.83803,35.25089],[137.838,35.25049],[137.83613,35.2441],[137.83588,35.24266],[137.83592,35.24224],[137.83644,35.24067],[137.83732,35.23843],[137.83733,35.23778],[137.83708,35.23736],[137.83665,35.23695],[137.83533,35.23612]],[[137.94416,35.77823],[137.94375,35.77763]],[[137.81051,35.40256],[137.81244,35.4041],[137.81369,35.40474],[137.81493,35.40582],[137.81536,35.40647],[137.81705,35.40776],[137.81754,35.40824],[137.81791,35.4088],[137.81843,35.40991],[137.81859,35.41053],[137.81834,35.41326],[137.81783,35.41429],[137.81657,35.41614],[137.81632,35.41684],[137.81633,35.41734],[137.81649,35.41803],[137.81697,35.41886]],[[137.90418,35.61708],[137.90396,35.61792]],[[137.70439,35.02463],[137.705,35.0251],[137.70671,35.02673],[137.70742,35.02732],[137.70793,35.02761],[137.7094,35.02821],[137.71081,35.02865],[137.7134,35.0289]],[[137.76387,35.05654],[137.7656,35.0577],[137.76724,35.05847],[137.77385,35.05991],[137.7748,35.06036]],[[137.70367,35.02418],[137.70439,35.02463]],[[137.83964,35.47528],[137.83999,35.47585]],[[137.82794,35.50665],[137.82878,35.50676]],[[137.82087,35.51948],[137.81774,35.51756],[137.81734,35.51724],[137.81706,35.51674],[137.81662,35.51492],[137.81628,35.51452],[137.81608,35.5144],[137.81532,35.51422],[137.81428,35.5142],[137.8137,35.51425],[137.81234,35.51454],[137.81096,35.51458],[137.81059,35.51443],[137.80998,35.51388],[137.8092,35.51269]],[[137.81673,35.42953],[137.81674,35.43058],[137.81818,35.43273],[137.81831,35.43307],[137.81834,35.43347],[137.81807,35.43523],[137.81774,35.43994],[137.81746,35.44082]],[[137.90375,35.57788],[137.90635,35.5784],[137.90693,35.57837],[137.90799,35.57813],[137.90862,35.57819],[137.90917,35.57844],[137.90973,35.57884],[137.91031,35.57934],[137.91065,35.57977],[137.91089,35.5805],[137.91065,35.58241],[137.9107,35.5829],[137.91111,35.58358],[137.9121,35.58475],[137.91225,35.58594],[137.91229,35.58698],[137.91203,35.58767],[137.91149,35.5885],[137.91134,35.58899],[137.91132,35.59172],[137.91201,35.59375],[137.91295,35.5953]],[[137.82166,35.51996],[137.82087,35.51948]],[[137.91295,35.5953],[137.91348,35.5961]],[[137.93403,35.71178],[137.9339,35.71268]],[[137.98804,35.90115],[137.98866,35.90722],[137.98799,35.91167],[137.98807,35.91219],[137.98851,35.91344]],[[137.91008,35.62776],[137.90955,35.62878],[137.90933,35.62906],[137.90869,35.62952],[137.90792,35.62966],[137.90522,35.62981],[137.9046,35.63013],[137.90421,35.63056],[137.90358,35.63219],[137.90351,35.63297],[137.90431,35.63884],[137.90429,35.63937],[137.90413,35.63977],[137.90358,35.64023],[137.90172,35.64083],[137.90149,35.64094],[137.90113,35.64129],[137.90071,35.64203],[137.90055,35.64432]],[[137.91348,35.5961],[137.91403,35.59677],[137.91567,35.59835],[137.9181,35.60124],[137.91825,35.60175],[137.91817,35.60223],[137.91776,35.60281],[137.91678,35.60351],[137.91628,35.60369],[137.9124,35.60452],[137.91196,35.60472],[137.91106,35.60539],[137.91078,35.60569],[137.91062,35.60601],[137.91056,35.60629],[137.91069,35.60688],[137.91127,35.60812],[137.9117,35.60865],[137.91225,35.60908],[137.91453,35.61057],[137.91477,35.61088],[137.91491,35.61126],[137.91478,35.61196],[137.91457,35.6123],[137.91429,35.61253],[137.9133,35.61283],[137.91162,35.61302],[137.90953,35.61297],[137.90634,35.61377],[137.90545,35.61426],[137.90489,35.61487],[137.90418,35.61708]],[[137.81722,35.44138],[137.81654,35.44309],[137.81633,35.4439],[137.81529,35.44922],[137.81521,35.44982],[137.81522,35.45068],[137.81567,35.45282]],[[137.9291,35.67718],[137.92889,35.678]],[[137.75206,35.05002],[137.75277,35.05037]],[[137.84106,35.3359],[137.83915,35.33333],[137.83902,35.33271],[137.83886,35.33235],[137.83798,35.33107],[137.83761,35.33015],[137.83733,35.32978],[137.83652,35.32917],[137.83595,35.32858],[137.83565,35.32805],[137.83534,35.32713],[137.83526,35.32628],[137.83543,35.32576],[137.83567,35.32543],[137.83704,35.32417],[137.83748,35.32349],[137.83768,35.32297],[137.83778,35.3223],[137.83773,35.32158],[137.83705,35.31952],[137.83717,35.31854],[137.83781,35.31733],[137.83824,35.31676],[137.83985,35.31544],[137.84056,35.31497],[137.84109,35.31468],[137.84238,35.31417],[137.84565,35.31339],[137.84691,35.31298],[137.84757,35.31272],[137.84843,35.31207]],[[137.75277,35.05037],[137.755,35.05159],[137.75602,35.05257],[137.75653,35.05289],[137.75758,35.05333],[137.75912,35.05362],[137.75998,35.05391],[137.76049,35.05419],[137.76327,35.05614]],[[137.93889,35.76761],[137.93886,35.76693]],[[137.91162,35.65496],[137.91654,35.66038],[137.91719,35.66082],[137.91797,35.66108],[137.91899,35.66123],[137.91993,35.66115],[137.92299,35.66037],[137.92738,35.65883],[137.92823,35.65872],[137.92887,35.65891],[137.93091,35.66011],[137.93143,35.66067],[137.93194,35.66239],[137.9325,35.66373],[137.9325,35.66508]],[[137.93291,35.69518],[137.93313,35.69598]],[[137.86105,35.53371],[137.854,35.53133],[137.85058,35.52914],[137.84835,35.52816],[137.84815,35.52802],[137.8479,35.52763],[137.84773,35.52577],[137.8452,35.52199],[137.84432,35.52086],[137.84405,35.52067],[137.84328,35.52046],[137.84004,35.52004],[137.83941,35.52009]],[[137.6644,35.00233],[137.66531,35.00361],[137.66642,35.00432],[137.66721,35.00463],[137.66792,35.00465],[137.66931,35.00444],[137.67055,35.00435],[137.67316,35.00513],[137.67647,35.00569],[137.67749,35.00611],[137.67789,35.00636],[137.67869,35.00712],[137.67895,35.00743],[137.67922,35.00798],[137.67937,35.00873],[137.67935,35.0091],[137.67912,35.00995],[137.67866,35.01078],[137.67849,35.01138],[137.6785,35.01231],[137.67875,35.01287],[137.68013,35.01407],[137.68108,35.01451],[137.68193,35.01469],[137.68419,35.01446],[137.68484,35.01447],[137.68525,35.01457],[137.68653,35.0152],[137.68808,35.01693],[137.68882,35.01749],[137.68963,35.01794],[137.69155,35.01878],[137.6938,35.01958],[137.69853,35.02154],[137.70367,35.02418]],[[137.90375,35.57788],[137.90294,35.57767]],[[137.944,35.80409],[137.94405,35.80335]],[[137.89605,35.57287],[137.89577,35.5723]],[[137.98797,35.90051],[137.98804,35.90115]],[[137.85441,35.11523],[137.85504,35.11743],[137.85795,35.12522],[137.85935,35.12872],[137.85997,35.12965],[137.86178,35.13128]],[[137.86939,35.15373],[137.86952,35.1544]],[[137.93519,35.7271],[137.93605,35.73377],[137.93672,35.73592]],[[137.90055,35.64432],[137.90054,35.64494]],[[137.76327,35.05614],[137.76387,35.05654]],[[137.97756,35.86057],[137.97811,35.86103]],[[137.82768,35.46367],[137.82783,35.46441]],[[137.77538,35.06079],[137.77614,35.06137],[137.77725,35.06184],[137.77768,35.06213],[137.77835,35.0628],[137.7791,35.0638],[137.78035,35.06515],[137.78606,35.06911]],[[137.82878,35.50676],[137.82933,35.50683],[137.82999,35.50678],[137.83938,35.5043]],[[137.83233,35.26707],[137.83169,35.26598],[137.83141,35.26502],[137.83119,35.25968],[137.83153,35.25831],[137.83225,35.25674],[137.83342,35.255],[137.83443,35.25429]],[[137.84167,35.33664],[137.84245,35.33749],[137.84413,35.3389],[137.84513,35.33995],[137.84601,35.342],[137.84612,35.3426],[137.84606,35.34298],[137.84581,35.34361],[137.84453,35.3458],[137.84401,35.34647],[137.8435,35.34689],[137.84287,35.34729],[137.84194,35.34772],[137.83871,35.3486],[137.83819,35.34883]],[[137.90054,35.64494],[137.90069,35.64581],[137.90087,35.6463],[137.9013,35.64711],[137.90161,35.64751],[137.9026,35.64803],[137.90623,35.64949],[137.90661,35.64972],[137.90784,35.65077],[137.91113,35.6544]],[[137.93248,35.66571],[137.93237,35.66697],[137.93198,35.66755],[137.93131,35.66792],[137.93056,35.66802],[137.92852,35.66799],[137.92679,35.66822],[137.92501,35.6686],[137.92235,35.66942],[137.92177,35.66982],[137.92153,35.67023],[137.92144,35.67077],[137.92162,35.67142],[137.92263,35.67268],[137.92313,35.67304],[137.92388,35.67321],[137.92842,35.6732],[137.92892,35.67331],[137.92946,35.67365],[137.92975,35.674],[137.9298,35.67459],[137.9291,35.67718]],[[137.9841,35.87911],[137.98403,35.87991]],[[137.94021,35.81351],[137.94121,35.81838],[137.94141,35.81925],[137.94171,35.82005],[137.94226,35.82075],[137.94715,35.82516],[137.94746,35.82555],[137.94767,35.82597],[137.94781,35.8265],[137.94881,35.83102],[137.94896,35.83157],[137.94922,35.83209],[137.9495,35.83246],[137.95011,35.83293],[137.95604,35.83661],[137.95886,35.83822]],[[137.93672,35.73592],[137.93699,35.73664]],[[137.83999,35.47585],[137.84025,35.47629],[137.84035,35.47666],[137.84031,35.47729],[137.84008,35.47782],[137.83852,35.4805],[137.83834,35.48106],[137.83804,35.48333],[137.83805,35.48397],[137.83926,35.48713]],[[137.94008,35.81285],[137.93995,35.81156],[137.94293,35.80882],[137.94363,35.80802],[137.94376,35.80759],[137.944,35.80409]],[[137.7439,35.04919],[137.7446,35.0495]],[[137.80277,35.08498],[137.80294,35.08565]],[[137.80909,35.51211],[137.80912,35.51183],[137.80927,35.51155],[137.80972,35.51106],[137.81925,35.50692],[137.82333,35.50612],[137.824,35.50607],[137.82794,35.50665]],[[137.7748,35.06036],[137.77538,35.06079]],[[137.83941,35.52009],[137.83865,35.52026]],[[137.88663,35.54974],[137.88653,35.54896]],[[137.98403,35.87991],[137.98364,35.88405],[137.98351,35.88663],[137.98759,35.89799],[137.9878,35.8988],[137.98797,35.90051]],[[137.92889,35.678],[137.92711,35.68471],[137.92694,35.68568],[137.92727,35.68642],[137.92786,35.68683],[137.92844,35.68699],[137.93099,35.68722],[137.93158,35.68752],[137.93199,35.688],[137.93299,35.6905],[137.93293,35.69107],[137.93223,35.6925],[137.93204,35.69318],[137.93212,35.69359],[137.93291,35.69518]],[[137.86178,35.13128],[137.86227,35.13189]],[[137.84106,35.3359],[137.84167,35.33664]],[[137.9325,35.66508],[137.93248,35.66571]],[[137.64439,34.99069],[137.64368,34.99037]],[[137.83558,35.20975],[137.83398,35.20924],[137.83255,35.20864],[137.83229,35.20852],[137.832,35.20822],[137.83188,35.20776],[137.83255,35.2062],[137.83284,35.20524],[137.83271,35.20453],[137.8325,35.20423],[137.83173,35.20353],[137.8298,35.20228],[137.82796,35.20152],[137.82434,35.2002],[137.82352,35.1998],[137.82276,35.19929],[137.82216,35.19839],[137.82161,35.19645],[137.82135,35.19588],[137.8208,35.19518],[137.81924,35.1936],[137.81892,35.19313],[137.81863,35.19241],[137.81852,35.19081]],[[137.82783,35.46441],[137.82878,35.46841],[137.83068,35.47063],[137.8314,35.4711],[137.83216,35.47142],[137.83763,35.47288],[137.83827,35.4733],[137.83862,35.47367],[137.83964,35.47528]],[[137.83454,35.23572],[137.83368,35.23522],[137.83294,35.23447],[137.83163,35.23368],[137.82984,35.23221],[137.82766,35.23072],[137.82671,35.22961],[137.82641,35.22826],[137.82639,35.22782],[137.82654,35.22691],[137.82668,35.22662],[137.82883,35.2243],[137.82987,35.22304],[137.83056,35.22192],[137.83139,35.22015],[137.83178,35.21972],[137.83243,35.21938],[137.83405,35.2188],[137.83515,35.21857],[137.83685,35.21807],[137.83959,35.21696],[137.84022,35.21649],[137.84057,35.21609],[137.8407,35.21576],[137.84078,35.21516],[137.84072,35.21419],[137.84028,35.21206],[137.83998,35.21152],[137.83966,35.21121],[137.83641,35.21005]],[[137.64368,34.99037],[137.64004,34.98886],[137.63857,34.98888],[137.63718,34.98916],[137.63597,34.98911],[137.63452,34.98883],[137.63374,34.98888],[137.6322,34.9892],[137.63012,34.98991],[137.62756,34.9902],[137.62488,34.98972],[137.62423,34.9895],[137.62246,34.98858],[137.62213,34.9885],[137.62168,34.98852]],[[137.81371,35.37562],[137.81267,35.37656],[137.81185,35.37757],[137.81161,35.37831],[137.81153,35.37905],[137.81195,35.38288],[137.81208,35.38342],[137.81239,35.38404],[137.81321,35.38511],[137.8137,35.38592],[137.81406,35.38785],[137.81454,35.38928],[137.8143,35.3901],[137.8134,35.39092],[137.81283,35.39117],[137.81039,35.39173],[137.80992,35.39207],[137.80957,35.39259],[137.80945,35.39311],[137.80951,35.3938],[137.8104,35.39667],[137.81047,35.39749],[137.81003,35.39843],[137.80905,35.39951],[137.80886,35.39989],[137.80882,35.40038],[137.80889,35.40084],[137.80904,35.40121],[137.80991,35.40209]],[[137.83865,35.52026],[137.83425,35.52242],[137.83317,35.52247],[137.83016,35.52222]],[[137.81567,35.45282],[137.81583,35.45342]],[[137.98851,35.91344],[137.98882,35.91425]],[[137.71431,35.02904],[137.71499,35.02942],[137.71635,35.03039],[137.71948,35.03283],[137.72025,35.03322],[137.72085,35.03328],[137.72151,35.03316],[137.72319,35.03234],[137.72397,35.0322],[137.72481,35.03219],[137.72631,35.03238],[137.72732,35.0326],[137.72794,35.03286],[137.72902,35.03348],[137.73035,35.03444],[137.73215,35.03548],[137.73275,35.03579],[137.73428,35.03638],[137.73481,35.0368],[137.73512,35.0373],[137.73533,35.03804],[137.73528,35.03817],[137.73533,35.039],[137.73557,35.04041],[137.73583,35.04115],[137.73622,35.0418],[137.73661,35.04222],[137.73712,35.04257],[137.73951,35.04324],[137.74072,35.04393],[137.74171,35.04499],[137.74213,35.04572],[137.74237,35.04745],[137.74265,35.04822],[137.74309,35.04872],[137.7439,35.04919]],[[137.93699,35.73664],[137.93887,35.74149],[137.94154,35.74583],[137.94159,35.74627],[137.94147,35.7468],[137.94121,35.74715],[137.94034,35.74788]],[[137.85325,35.27328],[137.85211,35.27239],[137.85111,35.2719],[137.85042,35.2717],[137.84421,35.27113],[137.84206,35.27086],[137.83924,35.27029],[137.83674,35.26966],[137.83486,35.269],[137.83285,35.26763]],[[137.81738,35.41944],[137.81769,35.42015],[137.81768,35.42048],[137.81735,35.42168],[137.81735,35.42316],[137.81723,35.42351],[137.81621,35.42497],[137.81601,35.42542],[137.81599,35.42575],[137.81631,35.42656],[137.81668,35.42703],[137.81692,35.42755],[137.81697,35.42803],[137.81683,35.42889]],[[137.83285,35.26763],[137.83233,35.26707]],[[137.87044,35.16293],[137.87056,35.16374]],[[137.83641,35.21005],[137.83558,35.20975]],[[137.96462,35.8456],[137.97131,35.85454],[137.97346,35.85679],[137.97756,35.86057]],[[137.81852,35.19081],[137.81852,35.19011]],[[137.85431,35.11459],[137.85441,35.11523]],[[137.84117,35.49633],[137.84192,35.49717]],[[137.62013,34.98858],[137.62168,34.98852]],[[137.83951,35.48775],[137.84003,35.48935],[137.83972,35.49333],[137.83975,35.49432],[137.83998,35.49496],[137.84117,35.49633]],[[137.8093,35.09181],[137.81015,35.09193]],[[137.86952,35.1544],[137.86949,35.15653],[137.87038,35.1606],[137.87044,35.16293]],[[137.9104,35.62713],[137.91008,35.62776]],[[137.8092,35.51269],[137.80909,35.51211]],[[137.88653,35.54896],[137.88619,35.54804],[137.88563,35.54753],[137.88508,35.54723],[137.87672,35.54433]],[[137.83926,35.48713],[137.83951,35.48775]],[[137.84843,35.31207],[137.84871,35.31139]],[[137.94034,35.74788],[137.93993,35.74845]],[[137.81443,35.37509],[137.81371,35.37562]],[[137.83533,35.23612],[137.83454,35.23572]],[[137.81852,35.19011],[137.81866,35.18934],[137.81897,35.18887],[137.81935,35.18856],[137.82095,35.18758],[137.8218,35.18719],[137.83092,35.18458],[137.84848,35.17984],[137.86481,35.1753],[137.86993,35.17386],[137.87036,35.17367],[137.87096,35.17324],[137.8713,35.17288],[137.87151,35.17249],[137.87162,35.17164],[137.87154,35.17049],[137.87196,35.1694],[137.87209,35.16864],[137.87196,35.1677],[137.87153,35.16699],[137.87113,35.16609],[137.87056,35.16374]],[[137.80991,35.40209],[137.81051,35.40256]],[[137.6644,35.00233],[137.66356,35.00108]],[[137.87672,35.54433],[137.87604,35.54402]],[[137.91113,35.6544],[137.91162,35.65496]],[[137.93513,35.72645],[137.93519,35.7271]],[[137.83819,35.34883],[137.83764,35.34911]],[[137.84871,35.31139],[137.84889,35.30932],[137.84874,35.30816],[137.84797,35.30637],[137.84774,35.30472],[137.84714,35.30263],[137.84572,35.29842],[137.84552,35.2977],[137.84549,35.29703],[137.84582,35.29639],[137.84669,35.29576],[137.84837,35.29484],[137.85054,35.29414],[137.8512,35.29362],[137.85153,35.29309],[137.85162,35.2927],[137.85136,35.29097],[137.85139,35.29018],[137.85152,35.28964],[137.85175,35.28933],[137.85319,35.28851],[137.8537,35.28799],[137.8546,35.28476],[137.85456,35.2822],[137.85433,35.28088],[137.85448,35.28003],[137.85556,35.27839],[137.85584,35.27765],[137.8559,35.27711],[137.85582,35.27603],[137.85563,35.27549],[137.85536,35.27513],[137.85404,35.27396]],[[137.83016,35.52222],[137.82936,35.52214]],[[137.94021,35.81351],[137.94008,35.81285]],[[137.98557,35.93665],[137.98695,35.94097],[137.98718,35.94211],[137.98709,35.9432],[137.98522,35.95272]],[[137.83443,35.25429],[137.83507,35.2539]],[[137.9339,35.71268],[137.93371,35.71501],[137.93513,35.72645]],[[137.95965,35.83867],[137.96042,35.83919],[137.96153,35.84132],[137.96253,35.8428],[137.96408,35.84487]],[[137.86227,35.13189],[137.86258,35.13286],[137.86258,35.13404],[137.86242,35.13556],[137.86197,35.13718],[137.86198,35.13772],[137.86214,35.13836],[137.86291,35.13973],[137.86299,35.14006],[137.86299,35.14186],[137.86312,35.14343],[137.86288,35.14492],[137.86286,35.14576],[137.86295,35.1463],[137.86321,35.1469],[137.86376,35.14757],[137.86721,35.1503],[137.8686,35.15151],[137.86903,35.15205],[137.86939,35.15373]],[[137.93886,35.76693],[137.93814,35.75344],[137.93827,35.75282],[137.93993,35.74845]],[[137.80294,35.08565],[137.8034,35.08697],[137.80419,35.08822],[137.80694,35.09108],[137.80769,35.09147],[137.8093,35.09181]],[[137.90294,35.57767],[137.90033,35.57698],[137.8997,35.57676],[137.89875,35.57628],[137.89787,35.57561],[137.89716,35.5748],[137.89661,35.57405],[137.89605,35.57287]],[[137.81697,35.41886],[137.81738,35.41944]],[[137.98882,35.91425],[137.98907,35.91498],[137.98916,35.9157],[137.98915,35.9183],[137.98891,35.91888],[137.98685,35.92143],[137.98532,35.92356],[137.98516,35.92403],[137.98389,35.9304],[137.98386,35.93088],[137.98394,35.9315],[137.98535,35.93599]],[[137.78606,35.06911],[137.78672,35.06955]],[[137.83764,35.34911],[137.83561,35.35065],[137.83488,35.3515],[137.83376,35.3575],[137.83337,35.35828],[137.83282,35.35889],[137.83187,35.35962],[137.83127,35.36019],[137.83077,35.3611],[137.83027,35.3624],[137.8299,35.36279],[137.8289,35.36342],[137.82843,35.36384],[137.82738,35.3657],[137.82338,35.36861],[137.82306,35.36898],[137.82161,35.37118],[137.82105,35.37187],[137.8206,35.37227],[137.8181,35.37364],[137.81524,35.37463],[137.81443,35.37509]],[[137.90396,35.61792],[137.90382,35.61889],[137.90396,35.61931],[137.90419,35.6196],[137.90497,35.62012],[137.90674,35.62091],[137.90775,35.62165],[137.91013,35.62493],[137.91049,35.62546],[137.91068,35.62614],[137.91062,35.62668],[137.9104,35.62713]],[[137.52682,34.9122],[137.52373,34.9123],[137.52135,34.91224],[137.52026,34.91212],[137.51884,34.91177],[137.51494,34.91052]],[[137.55106,34.92112],[137.55196,34.92054]],[[137.60284,34.95152],[137.60316,34.95244]],[[137.52781,34.91228],[137.52842,34.91242],[137.52933,34.91277],[137.53009,34.91336],[137.53236,34.91684],[137.53371,34.91871],[137.53926,34.92438],[137.54159,34.92618],[137.54367,34.92843],[137.54418,34.9288],[137.54674,34.93001],[137.54771,34.93016],[137.54845,34.93018]],[[137.56582,34.92626],[137.56736,34.92694],[137.56807,34.92738],[137.56998,34.93008],[137.57049,34.93051],[137.5737,34.93217],[137.57592,34.9325]],[[137.55196,34.92054],[137.55328,34.91977],[137.5545,34.9194],[137.55537,34.91935],[137.55608,34.91942],[137.55742,34.91986],[137.55804,34.9203],[137.55897,34.92124],[137.56192,34.92453],[137.56292,34.92521],[137.56436,34.9257]],[[137.61288,34.97015],[137.61321,34.97093]],[[137.47855,34.88973],[137.47723,34.88886]],[[137.45604,34.87625],[137.45433,34.87601]],[[137.54957,34.93013],[137.55024,34.93001],[137.5508,34.92977],[137.55152,34.92914],[137.55182,34.92855],[137.55182,34.92787],[137.55006,34.92522],[137.54985,34.92468],[137.54974,34.92408],[137.54977,34.92333],[137.55,34.92248],[137.55064,34.92144],[137.55106,34.92112]],[[137.44101,34.86769],[137.4403,34.86755],[137.43797,34.86746],[137.43695,34.86721],[137.43591,34.86675],[137.43188,34.86469]],[[137.52781,34.91228],[137.52682,34.9122]],[[137.50346,34.9063],[137.50263,34.90599]],[[137.49379,34.90154],[137.49221,34.9006]],[[137.43188,34.86469],[137.43093,34.86415]],[[137.44205,34.86803],[137.44101,34.86769]],[[137.57592,34.9325],[137.57737,34.93277]],[[137.41485,34.84828],[137.41433,34.84758]],[[137.51494,34.91052],[137.51393,34.91019]],[[137.47723,34.88886],[137.47597,34.88801],[137.47538,34.88743],[137.47331,34.88444],[137.47054,34.88139],[137.46988,34.88085],[137.46832,34.88015],[137.46699,34.88003],[137.46465,34.87998],[137.46376,34.8798],[137.46299,34.87939],[137.46216,34.87859],[137.46123,34.87742],[137.46084,34.87718],[137.46027,34.87697],[137.45908,34.87671],[137.45604,34.87625]],[[137.54845,34.93018],[137.54957,34.93013]],[[137.57737,34.93277],[137.581,34.9339],[137.58242,34.93395],[137.5843,34.93365],[137.58585,34.93397],[137.58657,34.93437],[137.58727,34.9351],[137.58782,34.93587],[137.5892,34.93855],[137.58965,34.93915],[137.59272,34.94074],[137.59377,34.94152],[137.59525,34.94228],[137.59939,34.94545],[137.59992,34.94619],[137.60192,34.94961],[137.60284,34.95152]],[[137.45433,34.87601],[137.45397,34.87591],[137.44853,34.87349],[137.44652,34.87244],[137.44593,34.872],[137.44358,34.86888],[137.44307,34.86851],[137.44205,34.86803]],[[137.50263,34.90599],[137.50062,34.90526],[137.49908,34.9046],[137.49379,34.90154]],[[137.61321,34.97093],[137.61423,34.97304],[137.61447,34.97409],[137.61445,34.97506],[137.61419,34.97603],[137.61389,34.97701],[137.61251,34.98065],[137.61256,34.9815],[137.61325,34.98337],[137.61438,34.98613],[137.61506,34.98724],[137.61577,34.988],[137.61674,34.98847],[137.61731,34.98861],[137.61855,34.98865],[137.62013,34.98858]],[[137.56436,34.9257],[137.56582,34.92626]],[[137.43093,34.86415],[137.42778,34.86203],[137.42525,34.86006],[137.42355,34.85857],[137.4218,34.85673],[137.41897,34.85354],[137.41485,34.84828]],[[137.60316,34.95244],[137.60392,34.9544],[137.6045,34.95482],[137.60634,34.95555],[137.60708,34.95592],[137.60757,34.95632],[137.60806,34.95698],[137.60835,34.95756],[137.60845,34.95798],[137.60804,34.9601],[137.60808,34.96052],[137.60823,34.96093],[137.60849,34.96134],[137.60969,34.96252],[137.6114,34.96476],[137.61296,34.96634],[137.61322,34.96679],[137.61326,34.96747],[137.61272,34.96926],[137.61288,34.97015]],[[137.51393,34.91019],[137.50346,34.9063]],[[137.49221,34.9006],[137.48832,34.89825],[137.48719,34.89749],[137.48642,34.89687],[137.48102,34.89165],[137.47962,34.89047],[137.47855,34.88973]],[[137.36216,34.79662],[137.36183,34.7957],[137.36179,34.79506],[137.36199,34.79406],[137.36253,34.79286]],[[137.38141,34.76404],[137.38134,34.76448],[137.38123,34.76468],[137.37444,34.77515]],[[137.38175,34.7635],[137.38141,34.76404]],[[137.39779,34.82305],[137.39668,34.82208]],[[137.38226,34.80888],[137.38117,34.80826]],[[137.36673,34.78704],[137.36253,34.79286]],[[137.36261,34.79711],[137.36216,34.79662]],[[137.37369,34.77632],[137.37086,34.7806]],[[137.39668,34.82208],[137.3954,34.82076],[137.39438,34.81897],[137.39365,34.81806],[137.38955,34.8153],[137.38463,34.81048],[137.38226,34.80888]],[[137.36216,34.79662],[137.3615,34.79571],[137.36122,34.79487],[137.3611,34.79396]],[[137.3611,34.79396],[137.3612,34.79311],[137.36135,34.79264],[137.36181,34.79196],[137.364,34.78989],[137.36673,34.78704]],[[137.36673,34.78704],[137.37042,34.7813]],[[137.37444,34.77515],[137.37369,34.77632]],[[137.38117,34.80826],[137.37737,34.80614],[137.37034,34.80345],[137.36878,34.80276],[137.36769,34.80205],[137.3668,34.80131],[137.36364,34.79813]],[[137.41433,34.84758],[137.41262,34.84525],[137.40718,34.83605],[137.40477,34.83087],[137.40332,34.82818],[137.40243,34.82711],[137.39779,34.82305]],[[137.37086,34.7806],[137.37042,34.7813]],[[137.38333,34.76105],[137.38175,34.7635]],[[137.36261,34.79711],[137.36364,34.79813]]]}}