{"type":"Feature","properties":{"id":"東日本旅客鉄道_只見線","name":"只見線","operator":"東日本旅客鉄道","railType":"普通鉄道(JR)","operatorType":"JR在来線","category":"rail","attribution":"国土数値情報（鉄道データ）国土交通省"},"geometry":{"type":"MultiLineString","coordinates":[[[139.92999,37.50806],[139.93035,37.50984]],[[139.89301,37.46356],[139.89214,37.4633]],[[139.8283,37.5349],[139.8283,37.53568]],[[139.67908,37.49182],[139.67489,37.49077],[139.67409,37.49036],[139.67377,37.49011],[139.67335,37.48949],[139.67289,37.48707],[139.67244,37.48591],[139.67176,37.48509],[139.66889,37.48231],[139.66822,37.48176],[139.66757,37.48152],[139.66693,37.48141],[139.66352,37.48123],[139.66187,37.48101]],[[139.67983,37.492],[139.67908,37.49182]],[[139.8286,37.50226],[139.82849,37.51674]],[[139.53213,37.4734],[139.53032,37.4657],[139.53045,37.4646],[139.53156,37.46116],[139.53181,37.45994],[139.53179,37.45919],[139.53157,37.4582],[139.53116,37.45746],[139.53075,37.45704],[139.53038,37.45674],[139.52936,37.45625],[139.52762,37.45565],[139.52433,37.45514]],[[139.89214,37.4633],[139.88451,37.46106],[139.88354,37.46095],[139.88225,37.46104],[139.87038,37.46396],[139.84194,37.47066]],[[139.66187,37.48101],[139.66113,37.48088]],[[139.52433,37.45514],[139.52347,37.45503]],[[139.49846,37.44458],[139.49706,37.44382],[139.49639,37.44355],[139.49575,37.44303],[139.4953,37.44231],[139.49488,37.44083],[139.49456,37.44003],[139.49398,37.43925],[139.48707,37.43222],[139.48508,37.43007],[139.48407,37.42869],[139.48347,37.42727],[139.48352,37.42386],[139.48361,37.42339],[139.48467,37.42197],[139.48489,37.42147],[139.48493,37.41953],[139.48463,37.419],[139.48373,37.41819],[139.48248,37.41742],[139.48167,37.41675],[139.47954,37.41424],[139.47869,37.41355],[139.47819,37.41337],[139.47494,37.41281],[139.47428,37.41259],[139.47248,37.41111],[139.47221,37.41075],[139.47189,37.40996],[139.47182,37.4085],[139.47234,37.40587],[139.47279,37.40459],[139.47292,37.40395],[139.47266,37.4013],[139.47237,37.40049],[139.47161,37.39961],[139.47083,37.3991],[139.46982,37.3988]],[[139.64671,37.47098],[139.64322,37.46944],[139.63615,37.46686],[139.63384,37.46541],[139.63301,37.46434],[139.63238,37.46367],[139.62734,37.46003],[139.62603,37.45935],[139.62507,37.45897],[139.62287,37.4587],[139.62218,37.45881],[139.61902,37.46012],[139.61751,37.46034],[139.60417,37.45979],[139.60353,37.45989],[139.60262,37.46019],[139.59866,37.46176],[139.59824,37.46207],[139.59686,37.4643],[139.59384,37.4697]],[[139.92002,37.50219],[139.91916,37.50159]],[[139.43624,37.39255],[139.43555,37.3922]],[[139.8283,37.53568],[139.82819,37.54983],[139.82814,37.5526],[139.82805,37.55331],[139.82773,37.55402],[139.82722,37.55474],[139.82592,37.55562],[139.82544,37.55581],[139.82253,37.55651]],[[139.91402,37.48494],[139.91389,37.48399],[139.91372,37.48009],[139.91336,37.47881],[139.90813,37.47016],[139.90719,37.46877],[139.90655,37.468],[139.90591,37.46751],[139.90482,37.46705],[139.89301,37.46356]],[[139.8286,37.50166],[139.8286,37.50226]],[[139.72384,37.53821],[139.72365,37.5365],[139.72426,37.53507],[139.72469,37.53464],[139.72766,37.53264],[139.72804,37.53222],[139.72838,37.53167],[139.72853,37.531],[139.72853,37.53057],[139.72789,37.52795],[139.72757,37.52755],[139.72623,37.52634],[139.72363,37.52533],[139.72327,37.52505],[139.72273,37.52412],[139.7226,37.52269],[139.72244,37.52186],[139.72197,37.52121],[139.72145,37.52077],[139.71987,37.52003],[139.71869,37.51976],[139.71776,37.51968],[139.71455,37.51995],[139.71396,37.51989],[139.7131,37.51964],[139.71178,37.51844],[139.71017,37.51662]],[[139.84067,37.47096],[139.83802,37.4716],[139.83702,37.47202],[139.83605,37.47273],[139.83575,37.47309],[139.83533,37.47389],[139.8339,37.47833],[139.82878,37.49521],[139.82864,37.49645],[139.8286,37.50166]],[[139.82253,37.55651],[139.82066,37.55696]],[[139.59384,37.4697],[139.59342,37.47032]],[[139.56025,37.4829],[139.55916,37.48265],[139.55836,37.48256],[139.55633,37.48279],[139.55529,37.48278],[139.55269,37.48236],[139.55241,37.48239],[139.55048,37.48315],[139.54859,37.4834],[139.54738,37.48338],[139.54447,37.4831],[139.54322,37.48253],[139.54236,37.48198],[139.54114,37.481],[139.54075,37.48081],[139.53931,37.48064],[139.53814,37.48064],[139.53729,37.48054],[139.53541,37.47998],[139.53454,37.47953],[139.53381,37.47883],[139.53348,37.47827],[139.53289,37.47644],[139.53229,37.47407]],[[139.56105,37.48312],[139.56025,37.4829]],[[139.82849,37.51759],[139.8283,37.5349]],[[139.92002,37.50219],[139.92374,37.50387],[139.92737,37.50539],[139.92805,37.50588],[139.92943,37.50709],[139.92978,37.50752],[139.92999,37.50806]],[[139.78555,37.56976],[139.78489,37.56912]],[[139.91916,37.50159],[139.91856,37.50094],[139.91818,37.50034],[139.91436,37.49214],[139.91419,37.48694]],[[139.49915,37.44497],[139.49846,37.44458]],[[139.82066,37.55696],[139.81366,37.55877],[139.80297,37.56005],[139.80195,37.56024],[139.80125,37.56054],[139.80027,37.56135],[139.79992,37.56227],[139.79905,37.57055],[139.79881,37.57101],[139.79803,37.57183],[139.79705,37.57232],[139.79579,37.57243],[139.7921,37.57253],[139.79085,37.57244],[139.79009,37.57218],[139.78748,37.57098],[139.78629,37.5703],[139.78555,37.56976]],[[139.53229,37.47407],[139.53213,37.4734]],[[139.46904,37.39858],[139.46483,37.39737],[139.46387,37.39719],[139.46112,37.39674],[139.45417,37.39588],[139.4536,37.39574],[139.45282,37.3953],[139.45127,37.3941],[139.44992,37.39347],[139.44834,37.39308],[139.44688,37.39313],[139.44211,37.39419],[139.44076,37.39424],[139.43993,37.39413],[139.43923,37.39394],[139.43624,37.39255]],[[139.46982,37.3988],[139.46904,37.39858]],[[139.66113,37.48088],[139.65958,37.48033],[139.65858,37.47968],[139.65823,37.47937],[139.65694,37.47757],[139.65362,37.47495],[139.65014,37.47278],[139.64745,37.47136]],[[139.71017,37.51662],[139.70968,37.51606]],[[139.70968,37.51606],[139.70749,37.51349],[139.70726,37.51275],[139.70674,37.51025],[139.70616,37.50859],[139.70613,37.50824],[139.70626,37.5071],[139.70615,37.50656],[139.70578,37.50586],[139.70473,37.50467],[139.70453,37.50422],[139.70446,37.50365],[139.7049,37.50245],[139.70504,37.50144],[139.70498,37.5005],[139.70468,37.49969],[139.70432,37.49927],[139.70383,37.49894],[139.70164,37.4981],[139.70113,37.49783],[139.69819,37.49455]],[[139.84194,37.47066],[139.84067,37.47096]],[[139.59342,37.47032],[139.59298,37.47083],[139.59122,37.47226],[139.59088,37.47262],[139.58815,37.47648],[139.58752,37.47722],[139.58701,37.47758],[139.58391,37.47859],[139.58109,37.47909],[139.57789,37.47921],[139.57476,37.47914],[139.57383,37.47924],[139.57267,37.47959],[139.57204,37.47997],[139.5718,37.48041],[139.57092,37.48233],[139.57068,37.48352],[139.57047,37.48412],[139.56971,37.48479],[139.56889,37.48519],[139.56852,37.4853],[139.56758,37.48539],[139.56665,37.48525],[139.56417,37.48394],[139.56105,37.48312]],[[139.43555,37.3922],[139.43026,37.38957],[139.42892,37.38921],[139.42801,37.38908],[139.42599,37.38901],[139.42523,37.38912],[139.42409,37.38949],[139.42018,37.39148],[139.41836,37.39216],[139.41352,37.39274]],[[139.72391,37.53914],[139.72384,37.53821]],[[139.75624,37.55314],[139.75211,37.55106],[139.74538,37.54824],[139.74049,37.54745],[139.7362,37.54663],[139.73021,37.54582],[139.72776,37.54507],[139.72677,37.54452],[139.72575,37.54368],[139.72475,37.54233],[139.72413,37.54105],[139.72391,37.53914]],[[139.82849,37.51674],[139.82849,37.51759]],[[139.69773,37.4941],[139.69697,37.49352],[139.69632,37.49318],[139.69497,37.49274],[139.68442,37.49298],[139.68346,37.49287],[139.67983,37.492]],[[139.91419,37.48694],[139.91402,37.48494]],[[139.41352,37.39274],[139.41273,37.39285]],[[139.69819,37.49455],[139.69773,37.4941]],[[139.52347,37.45503],[139.52268,37.45497],[139.52128,37.45514],[139.51894,37.45592],[139.51782,37.45617],[139.51684,37.4561],[139.51576,37.45577],[139.51474,37.45521],[139.51393,37.45448],[139.51345,37.45381],[139.51305,37.45307],[139.51227,37.4523],[139.50973,37.44904],[139.50886,37.44826],[139.50816,37.44787],[139.50629,37.4471],[139.50402,37.44675],[139.50179,37.44609],[139.50049,37.44566],[139.49915,37.44497]],[[139.64745,37.47136],[139.64671,37.47098]],[[139.78489,37.56912],[139.78305,37.56708],[139.78008,37.56349],[139.77777,37.56135],[139.77748,37.56075],[139.77558,37.55539],[139.77524,37.55492],[139.77451,37.55433],[139.77342,37.55394],[139.77221,37.55386],[139.77109,37.55418],[139.76912,37.55504],[139.7685,37.5552],[139.7678,37.55523],[139.76685,37.55513],[139.76622,37.55494],[139.76438,37.55375],[139.76335,37.55341],[139.76193,37.55342],[139.76006,37.55378],[139.75942,37.55381],[139.75818,37.55371],[139.7572,37.55349]],[[139.7572,37.55349],[139.75624,37.55314]],[[138.95262,37.23467],[138.9546,37.23247]],[[139.06566,37.35899],[139.06481,37.36051],[139.06404,37.36161],[139.06343,37.36209],[139.06242,37.36261],[139.06164,37.3629],[139.06066,37.36313],[139.05801,37.36345],[139.05697,37.36331],[139.05595,37.36285],[139.05543,37.36234],[139.05457,37.36109],[139.05291,37.35831],[139.05276,37.35762],[139.05279,37.35605],[139.05263,37.35555],[139.05247,37.3553],[139.05091,37.35367],[139.05068,37.35321],[139.05076,37.35185],[139.05179,37.34999],[139.05194,37.34942],[139.05181,37.349],[139.05089,37.34709]],[[139.06599,37.3584],[139.06566,37.35899]],[[139.35483,37.39336],[139.35539,37.39387]],[[139.41273,37.39285],[139.41134,37.3932],[139.40725,37.39541],[139.40666,37.39564],[139.40527,37.39599],[139.40082,37.39664],[139.39871,37.39714],[139.39668,37.39731],[139.3947,37.3972],[139.39091,37.39673],[139.3897,37.39668],[139.37086,37.39916],[139.37013,37.39934],[139.36835,37.3995],[139.36492,37.39911],[139.36398,37.3989],[139.36189,37.3989],[139.36108,37.39874],[139.36062,37.39856],[139.36011,37.39824],[139.35539,37.39387]],[[139.05089,37.34709],[139.0506,37.34647]],[[139.33294,37.38175],[139.33372,37.38184]],[[138.97612,37.25711],[138.97564,37.25657]],[[139.33372,37.38184],[139.33445,37.38177],[139.33545,37.38141],[139.33594,37.38101],[139.33678,37.37987],[139.33728,37.37951],[139.33798,37.37922],[139.33918,37.37902],[139.34001,37.37908],[139.3406,37.37922],[139.3417,37.37975],[139.34262,37.3805],[139.34289,37.38106],[139.34311,37.38164],[139.34318,37.3834],[139.34396,37.38486],[139.34428,37.38564],[139.3445,37.38662],[139.3452,37.38888],[139.34538,37.38933],[139.34569,37.38968],[139.34679,37.39039],[139.34857,37.39134],[139.35286,37.39223],[139.35384,37.39266],[139.35483,37.39336]],[[138.98149,37.27488],[138.98134,37.27424]],[[138.97564,37.25657],[138.97536,37.25621],[138.97414,37.25303],[138.97277,37.24999],[138.97215,37.24915],[138.97163,37.24864],[138.96675,37.24407],[138.96553,37.24313],[138.96306,37.24182],[138.95365,37.23775],[138.95336,37.23756],[138.95268,37.23684],[138.95249,37.23626],[138.95246,37.23583],[138.95262,37.23467]],[[138.99249,37.29383],[138.98725,37.28238],[138.98691,37.28178],[138.98587,37.28019],[138.98238,37.27652],[138.98178,37.27562],[138.98149,37.27488]],[[138.98134,37.27424],[138.98119,37.27362],[138.98085,37.27045],[138.9802,37.26578],[138.98031,37.26512],[138.98124,37.26278],[138.98127,37.26245],[138.98118,37.26181],[138.98087,37.26124],[138.97686,37.25784],[138.97612,37.25711]],[[139.01809,37.32078],[139.0267,37.32573],[139.03451,37.33551],[139.0351,37.33597],[139.03581,37.33636],[139.03646,37.33661],[139.03789,37.33692],[139.03876,37.33695],[139.04106,37.33681],[139.04188,37.33693],[139.04304,37.33732],[139.04497,37.33818],[139.04624,37.33908],[139.04722,37.33993],[139.04784,37.34071],[139.0506,37.34647]],[[139.01745,37.32031],[139.01809,37.32078]],[[139.12133,37.34162],[139.12049,37.34164]],[[138.99277,37.29445],[138.99249,37.29383]],[[139.31462,37.34996],[139.315,37.35055]],[[139.315,37.35055],[139.31815,37.35486],[139.31845,37.35549],[139.31865,37.3561],[139.31891,37.35766],[139.31907,37.35997],[139.31966,37.36212],[139.32008,37.36318],[139.32044,37.36467],[139.32047,37.36615],[139.32037,37.36659],[139.3201,37.36721],[139.3196,37.3679],[139.31757,37.36953],[139.31703,37.37025],[139.31685,37.37067],[139.31676,37.37126],[139.31687,37.3718],[139.31703,37.3721],[139.31755,37.37271],[139.32035,37.37453],[139.32281,37.37556],[139.32481,37.37613],[139.32576,37.37669],[139.32652,37.37702],[139.32795,37.3774],[139.32856,37.37767],[139.32925,37.37822],[139.32972,37.37871],[139.33062,37.3801],[139.33117,37.38068],[139.33212,37.38136],[139.33294,37.38175]],[[138.99277,37.29445],[138.99535,37.29987],[138.99583,37.30053],[138.99665,37.30134],[138.9972,37.30161],[139.00907,37.30615],[139.00988,37.30656],[139.01046,37.30698],[139.01078,37.30738],[139.01166,37.3089],[139.01371,37.31054],[139.01417,37.31099],[139.01452,37.31152],[139.01483,37.31229],[139.01606,37.3182],[139.01653,37.3192],[139.01745,37.32031]],[[139.12133,37.34162],[139.12256,37.34161],[139.12356,37.34145],[139.12457,37.34105],[139.12515,37.34047],[139.12551,37.33978],[139.12572,37.3379],[139.12598,37.33622],[139.12613,37.3357],[139.1264,37.33526],[139.12683,37.33478],[139.12985,37.33241],[139.13059,37.33149],[139.13134,37.33003],[139.13172,37.32777],[139.13214,37.32711],[139.13274,37.32663],[139.13476,37.32537],[139.13842,37.32323],[139.1391,37.323],[139.13963,37.32293],[139.14032,37.32291],[139.14189,37.32306],[139.14302,37.32297],[139.14367,37.32277],[139.14408,37.32253],[139.14493,37.32166],[139.14758,37.31836],[139.14797,37.31724],[139.14842,37.31527],[139.14892,37.3146],[139.14958,37.31393],[139.15538,37.31029],[139.15617,37.30993],[139.15692,37.30977],[139.16019,37.3096],[139.16159,37.30923],[139.16371,37.30844],[139.16484,37.3082],[139.16581,37.30829],[139.16824,37.30884],[139.16974,37.30896],[139.17521,37.30873],[139.17607,37.30866],[139.17711,37.30846],[139.17967,37.3075],[139.18033,37.30732],[139.18194,37.30708],[139.1835,37.30702],[139.23436,37.3163],[139.24592,37.31844],[139.24934,37.31914],[139.25129,37.31923],[139.25277,37.31894],[139.25618,37.31737],[139.25689,37.31718],[139.25828,37.31697],[139.25944,37.31689],[139.26096,37.31712],[139.27109,37.3234],[139.29135,37.33614],[139.30234,37.34185],[139.30395,37.34241],[139.30775,37.34296],[139.30888,37.34354],[139.30999,37.34429],[139.31096,37.3452],[139.31462,37.34996]],[[139.12049,37.34164],[139.11866,37.34174],[139.11714,37.34266],[139.1164,37.34295],[139.11205,37.34377],[139.11124,37.34383],[139.11049,37.34375],[139.10617,37.3426],[139.10426,37.34197],[139.1032,37.34131],[139.10198,37.33976],[139.10128,37.33922],[139.09819,37.33819],[139.09709,37.33807],[139.09322,37.3384],[139.09224,37.33872],[139.09168,37.33905],[139.08908,37.34139],[139.08818,37.34211],[139.0872,37.3426],[139.08652,37.34281],[139.0858,37.34293],[139.0852,37.34293],[139.08264,37.34262],[139.07853,37.34267],[139.07792,37.3428],[139.07634,37.3436],[139.07577,37.34395],[139.07541,37.34429],[139.07505,37.34474],[139.07276,37.34849],[139.07242,37.34891],[139.07142,37.34983],[139.06809,37.35233],[139.0676,37.35281],[139.06725,37.3533],[139.06703,37.35398],[139.06693,37.35654],[139.06677,37.357],[139.06599,37.3584]]]}}