{"type":"Feature","properties":{"id":"東日本旅客鉄道_横浜線","name":"横浜線","operator":"東日本旅客鉄道","railType":"普通鉄道(JR)","operatorType":"JR在来線","category":"rail","attribution":"国土数値情報（鉄道データ）国土交通省"},"geometry":{"type":"MultiLineString","coordinates":[[[139.4475,35.54106],[139.45392,35.53773],[139.45554,35.53713],[139.4652,35.53719],[139.46754,35.53714],[139.46881,35.53698],[139.47002,35.53669],[139.4709,35.53642],[139.47217,35.53584]],[[139.47217,35.53584],[139.47364,35.53498]],[[139.37162,35.58097],[139.36966,35.58198]],[[139.44568,35.54203],[139.4475,35.54106]],[[139.37162,35.58097],[139.38577,35.5735]],[[139.39439,35.56897],[139.39681,35.56775]],[[139.3873,35.57269],[139.39439,35.56897]],[[139.39681,35.56775],[139.41905,35.55608]],[[139.38577,35.5735],[139.3873,35.57269]],[[139.41905,35.55608],[139.41943,35.55588]],[[139.41943,35.55588],[139.43898,35.54564],[139.44568,35.54203]],[[139.64643,35.4918],[139.64624,35.49279]],[[139.63127,35.50958],[139.63235,35.50938],[139.63315,35.50912],[139.63485,35.50841],[139.63959,35.5063],[139.64025,35.50592],[139.64103,35.50532],[139.64156,35.50458],[139.64461,35.49843],[139.64552,35.49597],[139.64624,35.49279]],[[139.61849,35.50687],[139.61636,35.50666]],[[139.63393,35.47869],[139.63657,35.48151],[139.63711,35.48198],[139.63812,35.48263],[139.63923,35.48308],[139.64482,35.48472],[139.64588,35.48527],[139.64649,35.48584],[139.64698,35.48668],[139.64716,35.48735],[139.64719,35.48787],[139.64643,35.4918]],[[139.6324,35.47706],[139.63393,35.47869]],[[139.61849,35.50687],[139.62136,35.5073],[139.62668,35.50937],[139.62807,35.50962],[139.62893,35.50968]],[[139.60046,35.50824],[139.59878,35.50903]],[[139.61636,35.50666],[139.60875,35.50579],[139.60659,35.50592],[139.60485,35.50629],[139.6039,35.50663],[139.60046,35.50824]],[[139.62893,35.50968],[139.63127,35.50958]],[[139.54001,35.51435],[139.53842,35.51519]],[[139.53842,35.51519],[139.52279,35.52333],[139.51797,35.52578],[139.51723,35.52604]],[[139.59878,35.50903],[139.59563,35.51037],[139.59459,35.51074],[139.58808,35.51164],[139.58101,35.51302],[139.57981,35.51296],[139.56781,35.51099]],[[139.56609,35.51071],[139.55942,35.50962],[139.55805,35.50954],[139.5563,35.50956],[139.55516,35.50973],[139.55124,35.51065],[139.5434,35.51266],[139.54273,35.51292],[139.54001,35.51435]],[[139.56781,35.51099],[139.56609,35.51071]],[[139.47364,35.53498],[139.47714,35.53223],[139.47878,35.53149],[139.47961,35.53127],[139.48092,35.53112],[139.48171,35.53112],[139.49429,35.53159]],[[139.49429,35.53159],[139.49628,35.53167]],[[139.51723,35.52604],[139.51576,35.52649]],[[139.49628,35.53167],[139.49954,35.53162],[139.50027,35.53149],[139.51576,35.52649]],[[139.33939,35.65519],[139.34111,35.6549]],[[139.34601,35.59436],[139.35105,35.59173]],[[139.34418,35.59532],[139.34601,35.59436]],[[139.33174,35.60635],[139.33193,35.60427],[139.33211,35.6032],[139.33246,35.60225],[139.33303,35.60149],[139.33407,35.60072],[139.34418,35.59532]],[[139.34041,35.63928],[139.33352,35.63554],[139.33301,35.63507],[139.33235,35.63424],[139.33131,35.63201]],[[139.35105,35.59173],[139.36966,35.58198]],[[139.33162,35.60751],[139.33174,35.60635]],[[139.33131,35.63201],[139.33065,35.63057]],[[139.33065,35.63057],[139.32902,35.6269],[139.32894,35.62645],[139.32901,35.62574],[139.32935,35.62485],[139.32977,35.62429],[139.33199,35.62229]],[[139.33145,35.60924],[139.33091,35.6113],[139.33083,35.61204],[139.33087,35.61242],[139.33289,35.61864],[139.33308,35.61961],[139.33305,35.62034],[139.33294,35.62083],[139.33199,35.62229]],[[139.33145,35.60924],[139.33162,35.60751]],[[139.34192,35.64007],[139.34041,35.63928]],[[139.33145,35.60924],[139.3313,35.61186],[139.33135,35.61229],[139.3334,35.61859],[139.33352,35.61937],[139.33347,35.62015],[139.33312,35.62112],[139.33277,35.62159],[139.33199,35.62229]],[[139.34111,35.6549],[139.34326,35.65449],[139.34404,35.65427],[139.34504,35.65373],[139.34638,35.65273],[139.34752,35.65141],[139.34792,35.65072],[139.34852,35.64911],[139.34868,35.64799],[139.34859,35.64685],[139.34808,35.64519],[139.34748,35.64388],[139.347,35.64323],[139.34647,35.64267],[139.34552,35.64202],[139.34192,35.64007]]]}}