{"type":"Feature","properties":{"id":"東日本旅客鉄道_津軽線","name":"津軽線","operator":"東日本旅客鉄道","railType":"普通鉄道(JR)","operatorType":"JR在来線","category":"rail","attribution":"国土数値情報（鉄道データ）国土交通省"},"geometry":{"type":"MultiLineString","coordinates":[[[140.64219,41.03864],[140.64288,41.03798]],[[140.49105,41.17928],[140.49009,41.18006]],[[140.67238,40.90255],[140.67212,40.90367]],[[140.64807,41.00813],[140.64846,41.00736]],[[140.666,40.91694],[140.66564,40.91801]],[[140.66564,40.91801],[140.66436,40.92337],[140.66369,40.92787],[140.66267,40.93094]],[[140.65605,40.9497],[140.65615,40.94881]],[[140.59738,41.05138],[140.60028,41.05044],[140.60682,41.04968],[140.60915,41.04921],[140.60962,41.04905],[140.61074,41.04838],[140.61579,41.0431],[140.61722,41.04201],[140.6182,41.04163],[140.61896,41.04148],[140.62133,41.04142],[140.6306,41.0424],[140.63245,41.04236],[140.6344,41.04204],[140.63926,41.04079],[140.64008,41.04042],[140.64091,41.03985],[140.64219,41.03864]],[[140.65615,40.94881],[140.65674,40.94355],[140.65738,40.94139],[140.65758,40.94085],[140.65815,40.93981],[140.6616,40.93417],[140.66239,40.93177]],[[140.51458,41.14551],[140.51392,41.1463]],[[140.56013,41.06586],[140.56841,41.0657],[140.56996,41.06552],[140.57243,41.06479],[140.58033,41.06106]],[[140.65451,40.96873],[140.65456,40.9671],[140.6545,40.9648],[140.65605,40.9497]],[[140.44487,41.18575],[140.44404,41.18507]],[[140.51458,41.14551],[140.51584,41.14398],[140.51676,41.1425],[140.51717,41.14132],[140.51786,41.13885],[140.51798,41.13824],[140.51804,41.13703],[140.51792,41.13634],[140.51744,41.13502],[140.51936,41.13062],[140.51951,41.13012],[140.51966,41.12898],[140.51965,41.12804],[140.51939,41.12603],[140.51967,41.12473],[140.52029,41.12376],[140.5215,41.12232],[140.52244,41.12137],[140.52288,41.12078],[140.52311,41.11995],[140.52302,41.11912],[140.52307,41.11837],[140.52316,41.11808],[140.52359,41.11743],[140.52392,41.1171],[140.5245,41.11674],[140.52691,41.11557],[140.52822,41.11443],[140.52954,41.11272],[140.52983,41.11161],[140.52973,41.10997],[140.52939,41.10825],[140.52803,41.10397],[140.5279,41.1033],[140.52835,41.0975],[140.52832,41.09674],[140.52823,41.09638],[140.52799,41.09586],[140.52758,41.09534],[140.52554,41.09391],[140.52503,41.09314],[140.52479,41.09239],[140.52503,41.09077],[140.5249,41.09005],[140.5247,41.08961],[140.52246,41.08597],[140.52223,41.08521],[140.52207,41.08418],[140.52215,41.0833],[140.52238,41.08263],[140.52281,41.08203],[140.52306,41.08183],[140.52484,41.08075],[140.52786,41.07929],[140.52974,41.07858],[140.5354,41.07752],[140.5407,41.07683],[140.54176,41.07647],[140.54262,41.07588],[140.54315,41.07523],[140.54393,41.07247],[140.54439,41.07159],[140.54487,41.07098],[140.54605,41.06992],[140.54802,41.06854],[140.55072,41.06687],[140.55185,41.06633],[140.55308,41.06601],[140.55446,41.06588],[140.55892,41.06589]],[[140.64846,41.00736],[140.64987,41.00416],[140.65159,40.99459],[140.65169,40.99039],[140.65187,40.98946],[140.65228,40.98817]],[[140.65251,40.98736],[140.65367,40.98297],[140.65433,40.97396],[140.65451,40.9696]],[[140.55892,41.06589],[140.56013,41.06586]],[[140.65228,40.98817],[140.65251,40.98736]],[[140.47254,41.18051],[140.47113,41.1806]],[[140.71576,40.82598],[140.71899,40.82571],[140.72026,40.82546],[140.72088,40.82531],[140.72667,40.82335],[140.72734,40.82323],[140.72871,40.82323],[140.72994,40.82354],[140.73056,40.82383],[140.73161,40.82455],[140.73235,40.82546]],[[140.69099,40.85614],[140.71118,40.82876],[140.71237,40.82725],[140.71283,40.82684],[140.7136,40.82648],[140.71576,40.82598]],[[140.49009,41.18006],[140.48784,41.18191],[140.48711,41.18225],[140.48599,41.18243],[140.48476,41.18233],[140.47967,41.18085],[140.47838,41.18056],[140.47704,41.18041],[140.47546,41.18035],[140.47254,41.18051]],[[140.66239,40.93177],[140.66267,40.93094]],[[140.51392,41.1463],[140.51186,41.14889],[140.51143,41.14965],[140.51094,41.15081],[140.50878,41.15796],[140.50828,41.15937],[140.50788,41.16115],[140.50767,41.1628]],[[140.50767,41.1628],[140.50761,41.16351]],[[140.69099,40.85614],[140.69024,40.85714]],[[140.44404,41.18507],[140.44269,41.184]],[[140.50761,41.16351],[140.50737,41.16525],[140.5071,41.16591],[140.50672,41.1664],[140.50324,41.1693],[140.50159,41.17055],[140.49841,41.17315],[140.49648,41.17483],[140.49105,41.17928]],[[140.67455,40.88653],[140.67429,40.88753]],[[140.67212,40.90367],[140.67103,40.90827],[140.67038,40.91032],[140.66978,40.91141],[140.667,40.9151],[140.66651,40.91586],[140.666,40.91694]],[[140.67429,40.88753],[140.67394,40.88981],[140.67273,40.90096],[140.67238,40.90255]],[[140.64288,41.03798],[140.64373,41.0373],[140.64417,41.03682],[140.64493,41.0359],[140.64522,41.03535],[140.64619,41.02889],[140.64655,41.02432],[140.64738,41.01944],[140.64734,41.01911],[140.64714,41.01872],[140.64541,41.01693],[140.64452,41.01579],[140.64435,41.01508],[140.64427,41.01426],[140.64483,41.01227],[140.64496,41.01205],[140.64555,41.01136],[140.64668,41.01037],[140.64749,41.00922],[140.64807,41.00813]],[[140.65451,40.9696],[140.65451,40.96873]],[[140.47113,41.1806],[140.4667,41.18086],[140.46522,41.18106],[140.46411,41.1813],[140.46226,41.18202],[140.46134,41.18256],[140.46044,41.1835],[140.46005,41.18421],[140.45978,41.18494],[140.45966,41.18605],[140.45954,41.18644],[140.45911,41.18714],[140.45858,41.18746],[140.45668,41.18789],[140.45481,41.1881],[140.44886,41.18831],[140.44813,41.18808],[140.44721,41.18758],[140.44487,41.18575]],[[140.69024,40.85714],[140.68587,40.86308],[140.68509,40.86441],[140.68223,40.86994],[140.68001,40.87291],[140.67864,40.87504],[140.67774,40.87712],[140.67509,40.88472],[140.67455,40.88653]],[[140.58033,41.06106],[140.58406,41.0592],[140.59531,41.05244],[140.59633,41.05191]],[[140.73235,40.82546],[140.73407,40.82905]],[[140.73407,40.82905],[140.73523,40.83159]]]}}