{"type":"Feature","properties":{"id":"東日本旅客鉄道_赤羽線","name":"赤羽線","operator":"東日本旅客鉄道","railType":"普通鉄道(JR)","operatorType":"JR在来線","category":"rail","attribution":"国土数値情報（鉄道データ）国土交通省"},"geometry":{"type":"MultiLineString","coordinates":[[[139.7197,35.7458],[139.72107,35.74778],[139.72135,35.74831],[139.72167,35.74923],[139.72221,35.75161],[139.72227,35.75323],[139.72225,35.75961]],[[139.72225,35.76117],[139.7222,35.76679],[139.72205,35.77234],[139.72179,35.77602],[139.7214,35.77687]],[[139.7214,35.77687],[139.72024,35.77855]],[[139.72225,35.75961],[139.72225,35.76117]],[[139.71865,35.74418],[139.7197,35.7458]],[[139.71071,35.72896],[139.71197,35.73144]],[[139.71197,35.73144],[139.71384,35.73484],[139.71774,35.7426],[139.71865,35.74418]],[[139.70915,35.72618],[139.70989,35.72728],[139.71071,35.72896]]]}}