{"type":"Feature","properties":{"id":"東海旅客鉄道_中央線","name":"中央線","operator":"東海旅客鉄道","railType":"普通鉄道(JR)","operatorType":"JR在来線","category":"rail","attribution":"国土数値情報（鉄道データ）国土交通省"},"geometry":{"type":"MultiLineString","coordinates":[[[137.91632,36.08653],[137.91731,36.08773]],[[137.86063,36.01334],[137.86126,36.01463]],[[137.89527,36.04952],[137.89577,36.0503],[137.89643,36.05183],[137.89712,36.05315],[137.89964,36.05627],[137.9003,36.05733],[137.90057,36.05806],[137.9007,36.05912],[137.90064,36.05982],[137.90027,36.0617],[137.90024,36.06259],[137.90042,36.0634],[137.90186,36.06804],[137.90231,36.06896],[137.90855,36.07869],[137.91378,36.0837],[137.91632,36.08653]],[[137.91731,36.08773],[137.91979,36.0903],[137.92077,36.09113],[137.93111,36.09927],[137.94567,36.11103],[137.94684,36.11217],[137.94755,36.11313],[137.94783,36.1139]],[[137.83097,35.97837],[137.82852,35.978],[137.82775,35.97781],[137.8271,35.97757],[137.82537,35.97667],[137.82477,35.97616],[137.82387,35.97483],[137.82336,35.9742],[137.82278,35.97365],[137.82203,35.97329],[137.81999,35.97291],[137.81924,35.97258],[137.81847,35.97196],[137.81672,35.97003]],[[137.83346,35.97999],[137.83304,35.97949],[137.83251,35.97906],[137.83187,35.9787],[137.83097,35.97837]],[[137.83346,35.97999],[137.83379,35.98055],[137.83455,35.98254],[137.83505,35.98316],[137.83564,35.98357],[137.83828,35.98506],[137.83935,35.98533],[137.84138,35.98529],[137.84209,35.98537],[137.84256,35.98553],[137.84425,35.98639],[137.84496,35.98698],[137.84603,35.98826],[137.84713,35.9892],[137.84796,35.98978],[137.85069,35.99127],[137.85133,35.99172],[137.85175,35.99213],[137.85211,35.99274],[137.8523,35.99353],[137.85219,35.99427],[137.85136,35.99611],[137.85132,35.99886],[137.85138,35.99958],[137.85154,36.00043],[137.8518,36.00116],[137.85251,36.00242],[137.85319,36.00316],[137.85573,36.00635],[137.85718,36.00924],[137.85754,36.00968],[137.85898,36.01074],[137.85943,36.01117],[137.85971,36.01153],[137.86063,36.01334]],[[137.89444,36.0486],[137.89527,36.04952]],[[137.81672,35.97003],[137.8157,35.96891]],[[137.86126,36.01463],[137.8617,36.01557],[137.86219,36.0163],[137.86267,36.01682],[137.8638,36.01765],[137.86416,36.018],[137.86596,36.02062],[137.86671,36.0214],[137.8724,36.02468],[137.87481,36.02636],[137.8758,36.02721],[137.87685,36.02886],[137.8776,36.03065],[137.87801,36.03121],[137.87866,36.03185],[137.88486,36.03711],[137.88577,36.03814],[137.88904,36.04222],[137.89147,36.04465],[137.89318,36.04726],[137.89444,36.0486]],[[137.94783,36.1139],[137.94792,36.11571]],[[137.54995,35.58829],[137.5481,35.58818]],[[137.63719,35.6738],[137.63963,35.67553],[137.64031,35.67621],[137.64123,35.67731],[137.64213,35.67801],[137.64317,35.67854],[137.64386,35.67879],[137.64723,35.67932],[137.64854,35.67972],[137.64955,35.68023],[137.65336,35.6827],[137.65434,35.6832],[137.65522,35.68338],[137.65698,35.68327],[137.65854,35.68336],[137.66095,35.68388],[137.66325,35.68416]],[[137.76761,35.89741],[137.76839,35.89827],[137.7687,35.89904],[137.76978,35.90487],[137.76981,35.9058],[137.76964,35.90657]],[[137.60898,35.60031],[137.60845,35.59787]],[[137.70236,35.85039],[137.7041,35.85108],[137.707,35.85174],[137.70802,35.85211],[137.70852,35.85249],[137.70932,35.85333],[137.71114,35.85466],[137.71226,35.85588],[137.7129,35.85632],[137.71559,35.85724],[137.71894,35.85814],[137.72008,35.85859]],[[137.66325,35.68416],[137.66406,35.68438],[137.66505,35.68479]],[[137.60898,35.60031],[137.60936,35.60228],[137.61018,35.60805],[137.61056,35.60909]],[[137.6941,35.8447],[137.6927,35.84275]],[[137.61775,35.64619],[137.61758,35.64519],[137.61734,35.64469]],[[137.61775,35.64619],[137.61801,35.6493],[137.61822,35.65003],[137.6188,35.65081],[137.62025,35.65195],[137.62083,35.65308],[137.62102,35.65365],[137.62111,35.65427],[137.62095,35.65691],[137.62103,35.65742],[137.62141,35.65831],[137.62197,35.65917],[137.62281,35.66009],[137.62337,35.66106],[137.62494,35.66291],[137.62608,35.66458],[137.6291,35.66789],[137.63066,35.66917],[137.63182,35.66986],[137.63512,35.67228]],[[137.50329,35.50123],[137.50233,35.49906]],[[137.53087,35.57302],[137.53135,35.57548]],[[137.6941,35.69681],[137.69578,35.69889]],[[137.45139,35.47911],[137.46352,35.47743],[137.4654,35.47743],[137.47082,35.4778]],[[137.54203,35.58745],[137.54344,35.58801],[137.54476,35.58834],[137.54514,35.58837],[137.5473,35.58818]],[[137.69578,35.69889],[137.69934,35.70329],[137.69996,35.70385],[137.70139,35.70482],[137.70207,35.70555],[137.70249,35.70649],[137.70249,35.70926],[137.70257,35.70969],[137.70278,35.71016],[137.70307,35.71048],[137.70719,35.71351],[137.70768,35.71429],[137.71011,35.71909],[137.71043,35.71959],[137.71074,35.7199],[137.71183,35.72045],[137.71353,35.72092],[137.71458,35.72134],[137.71508,35.72176],[137.71573,35.72267],[137.71588,35.72307],[137.71597,35.72376],[137.71586,35.72457],[137.71565,35.72503],[137.71526,35.72574],[137.71302,35.72849],[137.71238,35.72952],[137.71234,35.73033],[137.71257,35.73107],[137.71302,35.73174],[137.7138,35.73247]],[[137.8157,35.96891],[137.81282,35.96583],[137.80963,35.96313],[137.8085,35.96094],[137.80814,35.96049],[137.80764,35.96015],[137.80652,35.95968],[137.78692,35.95261],[137.78568,35.95202],[137.78472,35.95121],[137.78428,35.95053],[137.78262,35.94733],[137.78248,35.94679],[137.78245,35.9463],[137.78265,35.94514],[137.78345,35.94401],[137.78387,35.9431],[137.78507,35.9373],[137.78527,35.9356],[137.7853,35.93381],[137.78517,35.93269],[137.7848,35.93134]],[[137.53087,35.57302],[137.52997,35.56864],[137.52885,35.56542],[137.52876,35.56469],[137.52881,35.56387],[137.5289,35.56356],[137.5293,35.5627],[137.53053,35.56117],[137.53247,35.55959],[137.53494,35.55799],[137.53544,35.55747],[137.53577,35.55689]],[[137.53135,35.57548],[137.53184,35.578],[137.5325,35.57988],[137.53352,35.58149],[137.53537,35.58408],[137.53618,35.58486],[137.53703,35.58539],[137.54203,35.58745]],[[137.7848,35.93134],[137.78396,35.92897]],[[137.50329,35.50123],[137.50403,35.50321],[137.50485,35.5051]],[[137.5302,35.52566],[137.53086,35.52674]],[[137.52274,35.5164],[137.52511,35.51749]],[[137.54203,35.58745],[137.54382,35.58803],[137.54564,35.58817],[137.5473,35.58818]],[[137.52894,35.52179],[137.52949,35.5238],[137.52983,35.52476]],[[137.76761,35.89741],[137.76849,35.89819],[137.76878,35.89868],[137.77036,35.90409],[137.77043,35.90518],[137.7701,35.90591],[137.76964,35.90657]],[[137.77082,35.9202],[137.77146,35.92086],[137.77211,35.92134],[137.77241,35.92147],[137.7731,35.92171],[137.77583,35.92235],[137.7764,35.92259],[137.77707,35.92317],[137.77796,35.92424],[137.77861,35.92479]],[[137.69345,35.7853],[137.69384,35.78836],[137.69375,35.78905],[137.69345,35.78971],[137.69273,35.79036],[137.6896,35.79256],[137.68895,35.79336],[137.68865,35.79414],[137.68869,35.79486],[137.68896,35.7956],[137.69066,35.79854],[137.6908,35.79903],[137.69085,35.80001],[137.69049,35.80104],[137.68921,35.80341],[137.68899,35.80403],[137.68842,35.80614],[137.68835,35.80718],[137.68808,35.80858],[137.68779,35.8091],[137.68729,35.80971],[137.68663,35.81028],[137.68437,35.81183],[137.684,35.81229],[137.68381,35.81272],[137.68371,35.81347],[137.68367,35.81558],[137.68274,35.81821],[137.68269,35.81866],[137.68276,35.82067],[137.68202,35.82215],[137.68175,35.82304],[137.68178,35.82369],[137.68196,35.82417],[137.68236,35.82472],[137.68318,35.82552],[137.68375,35.82636]],[[137.60845,35.59787],[137.60768,35.59424],[137.60748,35.59373],[137.60683,35.59279],[137.60608,35.59219],[137.6054,35.59194],[137.60249,35.59135],[137.60074,35.59128],[137.59186,35.5917],[137.58784,35.59142],[137.57668,35.59028],[137.57445,35.58976],[137.5716,35.58841],[137.57036,35.58794],[137.56742,35.58707],[137.56394,35.58632],[137.56189,35.58632],[137.56004,35.58645],[137.55749,35.58709],[137.55483,35.5874],[137.55131,35.58835],[137.54995,35.58829]],[[137.6941,35.8447],[137.69549,35.84698],[137.69611,35.84758],[137.69721,35.84821],[137.70061,35.8495],[137.70236,35.85039]],[[137.50485,35.5051],[137.50568,35.50605],[137.50692,35.50692],[137.50828,35.50745],[137.51467,35.5096],[137.51585,35.51012],[137.51676,35.51085],[137.5206,35.51507],[137.52274,35.5164]],[[137.47082,35.4778],[137.47308,35.47805],[137.47583,35.47788],[137.47826,35.47793],[137.48024,35.47829],[137.48156,35.47874],[137.48298,35.47962],[137.48439,35.48071],[137.48491,35.48137],[137.48509,35.48172],[137.48644,35.48472]],[[137.7407,35.871],[137.73825,35.87032],[137.73508,35.86988],[137.73354,35.86932],[137.73177,35.86837],[137.73084,35.86778],[137.72609,35.86335],[137.72415,35.86199],[137.72008,35.85859]],[[137.61734,35.64469],[137.61712,35.64438]],[[137.66505,35.68479],[137.66624,35.6856],[137.66746,35.68705],[137.66904,35.68842],[137.6699,35.68957],[137.67128,35.69112],[137.672,35.69163],[137.67246,35.69185],[137.67399,35.69216],[137.67745,35.69252],[137.67819,35.69266],[137.68046,35.69358],[137.68208,35.69411],[137.68438,35.69457],[137.68515,35.69457],[137.6876,35.69415],[137.68815,35.69413],[137.69163,35.69467],[137.6926,35.69516],[137.69297,35.69549],[137.6941,35.69681]],[[137.5481,35.58818],[137.5473,35.58818]],[[137.52511,35.51749],[137.52607,35.51837],[137.5277,35.5201],[137.52861,35.52122],[137.52894,35.52179]],[[137.76349,35.88757],[137.76401,35.88856],[137.76422,35.88918]],[[137.53086,35.52674],[137.53157,35.52921],[137.53185,35.54026],[137.53255,35.54532],[137.53312,35.54798],[137.5336,35.54944],[137.53578,35.55335],[137.53596,35.55391],[137.53612,35.5549],[137.53613,35.55545],[137.53601,35.55621],[137.53577,35.55689]],[[137.68375,35.82636],[137.68384,35.82717],[137.68372,35.82788],[137.68271,35.83013],[137.68257,35.83066],[137.68253,35.83148],[137.68266,35.83204],[137.68293,35.83247],[137.68344,35.83304],[137.68443,35.83354],[137.68598,35.83411],[137.68625,35.83428],[137.68677,35.83481],[137.68752,35.83612],[137.6881,35.83679],[137.68965,35.838]],[[137.61056,35.60909],[137.61203,35.61181],[137.61277,35.6129],[137.61328,35.61332],[137.61417,35.61386],[137.61455,35.61444],[137.61514,35.61605],[137.6152,35.61674],[137.61461,35.61907],[137.61452,35.6202],[137.61466,35.62078],[137.61494,35.62123],[137.61662,35.62265],[137.61719,35.62326],[137.61746,35.624],[137.61777,35.62592],[137.61772,35.62809],[137.61739,35.63033],[137.61729,35.63073],[137.61585,35.63373],[137.61577,35.63409],[137.61598,35.63662],[137.61585,35.63737],[137.61532,35.63833],[137.61438,35.6396],[137.61422,35.63989],[137.61417,35.64023],[137.61431,35.64085],[137.61474,35.64184],[137.61651,35.64364],[137.61712,35.64438]],[[137.76422,35.88918],[137.7646,35.89182],[137.76574,35.89417],[137.76626,35.89594],[137.76658,35.89642],[137.76761,35.89741]],[[137.52983,35.52476],[137.5302,35.52566]],[[137.63512,35.67228],[137.63719,35.6738]],[[137.74236,35.87153],[137.7435,35.8719],[137.74421,35.87227],[137.74516,35.87292],[137.74812,35.87524],[137.75046,35.87613],[137.7517,35.87684],[137.75343,35.87907],[137.75503,35.88038],[137.75603,35.88176],[137.75815,35.88341],[137.7613,35.88544],[137.76269,35.88662],[137.76349,35.88757]],[[137.68375,35.82636],[137.68476,35.82815],[137.68965,35.838]],[[137.50485,35.5051],[137.50507,35.50578],[137.50525,35.50607],[137.50638,35.507],[137.50714,35.50749],[137.51977,35.51507],[137.52159,35.51597],[137.52274,35.5164]],[[137.70236,35.85039],[137.70458,35.85103],[137.70845,35.85183],[137.71085,35.85259],[137.7122,35.85319],[137.71451,35.85444],[137.71678,35.85594],[137.71894,35.85759],[137.72008,35.85859]],[[137.74236,35.87153],[137.7407,35.871]],[[137.69309,35.78285],[137.69345,35.7853]],[[137.61056,35.60909],[137.61199,35.61105],[137.61284,35.61197],[137.61423,35.61321],[137.61506,35.61421],[137.61709,35.62001],[137.61809,35.62328],[137.61835,35.62514],[137.61838,35.62837],[137.61779,35.63154],[137.6172,35.63365],[137.61579,35.63811],[137.61536,35.64002],[137.61545,35.64083],[137.61595,35.64212],[137.61712,35.64438]],[[137.76964,35.90657],[137.76798,35.90906],[137.76764,35.91016],[137.76764,35.91136],[137.76828,35.91425],[137.76874,35.91579],[137.77082,35.9202]],[[137.45139,35.47911],[137.44932,35.4794]],[[137.52511,35.51749],[137.52663,35.51843],[137.5272,35.51893],[137.52823,35.52011],[137.52849,35.52053],[137.52894,35.52179]],[[137.6927,35.84275],[137.69065,35.83997],[137.69016,35.83861],[137.68965,35.838]],[[137.7138,35.73247],[137.71485,35.73341]],[[137.71485,35.73341],[137.7156,35.73407],[137.7162,35.73475],[137.71645,35.7352],[137.71666,35.73592],[137.71661,35.7418],[137.71621,35.74288],[137.71505,35.74445],[137.71467,35.74515],[137.71449,35.74633],[137.71438,35.74779],[137.71419,35.74846],[137.71376,35.74905],[137.71162,35.75114],[137.71125,35.75161],[137.71079,35.75318],[137.70999,35.75732],[137.70964,35.7583],[137.70902,35.75936],[137.70664,35.76291],[137.70584,35.76374],[137.70307,35.76623],[137.70226,35.76734],[137.70183,35.76847],[137.70173,35.76896],[137.70156,35.77124],[137.70144,35.7717],[137.70122,35.77211],[137.70059,35.77275],[137.69975,35.77332],[137.69463,35.77494],[137.69377,35.77555],[137.69293,35.77631],[137.69267,35.77657],[137.69216,35.77733],[137.69188,35.77798],[137.69187,35.77887],[137.69207,35.77947],[137.69281,35.78105],[137.69309,35.78285]],[[137.50233,35.49906],[137.50206,35.49856],[137.50131,35.49762],[137.50053,35.49702],[137.49974,35.49661],[137.49698,35.49585],[137.49158,35.49452],[137.49055,35.49413],[137.48977,35.49356],[137.48933,35.493],[137.48884,35.49204],[137.48644,35.48472]],[[137.47082,35.4778],[137.47243,35.47789],[137.47351,35.47785],[137.48017,35.4773],[137.48143,35.47732],[137.4826,35.47762],[137.48377,35.47832],[137.48446,35.47904],[137.48483,35.47973],[137.48513,35.48055],[137.48644,35.48472]],[[137.53086,35.52674],[137.53217,35.52871],[137.53302,35.53015],[137.53345,35.53157],[137.53405,35.5343],[137.53404,35.53489],[137.5327,35.53729],[137.53202,35.53885],[137.53208,35.54002],[137.53216,35.54031],[137.53257,35.54091],[137.53415,35.54265],[137.53592,35.54486],[137.53647,35.5457],[137.53667,35.5465],[137.53658,35.54717],[137.53642,35.5475],[137.53502,35.54939],[137.53488,35.54966],[137.53474,35.5503],[137.5349,35.55103],[137.53603,35.55323],[137.5364,35.5547],[137.53642,35.55538],[137.53612,35.55625],[137.53577,35.55689]],[[137.15102,35.35196],[137.16866,35.35496],[137.17528,35.35584],[137.1762,35.35615]],[[137.11475,35.33189],[137.10917,35.32893],[137.1085,35.32846],[137.10777,35.3277],[137.10037,35.31579],[137.10006,35.31459],[137.10006,35.31346],[137.10022,35.31252],[137.10048,35.31187],[137.1019,35.30972],[137.10228,35.309],[137.10255,35.30828],[137.10272,35.30699],[137.10254,35.30548],[137.10236,35.30482]],[[137.35716,35.43901],[137.35918,35.43915],[137.36079,35.43947],[137.3631,35.4403],[137.36717,35.44197],[137.37763,35.44598],[137.39149,35.45152],[137.39246,35.45182],[137.39653,35.45254]],[[137.10236,35.30482],[137.10175,35.30373],[137.10114,35.30293]],[[137.4123,35.4608],[137.4121,35.46343],[137.41228,35.46427],[137.41265,35.46511],[137.41296,35.46544],[137.41475,35.46684],[137.41826,35.46908]],[[137.12136,35.33541],[137.11887,35.33408]],[[137.15102,35.35196],[137.15371,35.35179],[137.1558,35.35198],[137.16081,35.35196],[137.16158,35.35216],[137.16515,35.3534],[137.16571,35.3538],[137.16734,35.35444],[137.17457,35.35548],[137.17505,35.3556],[137.1762,35.35615]],[[137.1762,35.35615],[137.18072,35.35889]],[[137.25345,35.3688],[137.25507,35.3685],[137.25667,35.36864],[137.25817,35.36928],[137.25886,35.36989],[137.25924,35.37038],[137.26763,35.38526],[137.26789,35.38561],[137.26882,35.38664],[137.27418,35.39077],[137.27913,35.39578],[137.28188,35.39742],[137.28337,35.39798],[137.28564,35.39844],[137.29265,35.39945],[137.29399,35.39986],[137.29522,35.40042],[137.29663,35.40142],[137.29749,35.40229],[137.30131,35.40743],[137.30433,35.41044]],[[137.12772,35.34229],[137.12773,35.34343],[137.12831,35.34632],[137.12902,35.34826]],[[137.18362,35.36062],[137.18856,35.36362],[137.18973,35.36423],[137.19959,35.36745],[137.20088,35.36783],[137.2014,35.36791],[137.20292,35.3679],[137.21188,35.36625],[137.21327,35.36609],[137.21514,35.3662],[137.21941,35.36726],[137.22033,35.36738],[137.2211,35.36736],[137.22235,35.36703],[137.22742,35.3642],[137.22833,35.36396],[137.22953,35.3639],[137.23064,35.36412],[137.24534,35.36915],[137.24701,35.36953],[137.2493,35.36962],[137.25038,35.36943]],[[137.41051,35.45657],[137.41142,35.45726],[137.41216,35.45842],[137.41235,35.45899],[137.41238,35.45934],[137.4123,35.4608]],[[137.44932,35.4794],[137.44869,35.47945],[137.44754,35.47926],[137.44615,35.4787],[137.4379,35.47371],[137.43658,35.47318],[137.43555,35.473],[137.42977,35.4731],[137.42808,35.47303],[137.42709,35.47288],[137.42344,35.47206],[137.42283,35.47186],[137.41826,35.46908]],[[137.18072,35.35889],[137.18362,35.36062]],[[137.30433,35.41044],[137.30613,35.41203]],[[137.30613,35.41203],[137.3073,35.41301],[137.3084,35.41362],[137.30979,35.41404],[137.31221,35.41435],[137.31341,35.41471],[137.32044,35.41794],[137.32347,35.41988],[137.3349,35.42798],[137.33578,35.42853],[137.33694,35.42898],[137.34082,35.4297],[137.34176,35.43001],[137.35191,35.43581],[137.35238,35.43612],[137.35373,35.43761]],[[137.40665,35.45447],[137.40579,35.45406],[137.40458,35.45376],[137.39653,35.45254]],[[137.35373,35.43761],[137.3545,35.43825]],[[137.25038,35.36943],[137.25345,35.3688]],[[137.3545,35.43825],[137.35556,35.43872],[137.35622,35.4389],[137.35716,35.43901]],[[137.4123,35.4608],[137.41215,35.46122],[137.41197,35.46231],[137.41192,35.4638],[137.41218,35.46467],[137.41251,35.4653],[137.41305,35.46592],[137.41368,35.46642],[137.41736,35.46863],[137.41826,35.46908]],[[137.35716,35.43901],[137.36665,35.43884],[137.36766,35.43907],[137.36953,35.43997],[137.37673,35.44306],[137.37884,35.4438],[137.38299,35.4456],[137.38479,35.44651],[137.38833,35.44763],[137.38936,35.44822],[137.394,35.45165],[137.39482,35.45208],[137.39653,35.45254]],[[137.11887,35.33408],[137.11475,35.33189]],[[137.40894,35.45571],[137.40665,35.45447]],[[137.40894,35.45571],[137.41051,35.45657]],[[137.00939,35.25601],[136.99704,35.24949],[136.9865,35.24372]],[[137.04168,35.26436],[137.03969,35.26423],[137.02802,35.26382],[137.02428,35.26334],[137.02295,35.26302],[137.02111,35.26235],[137.01154,35.25718]],[[137.08116,35.27872],[137.08073,35.27722]],[[137.01154,35.25718],[137.00939,35.25601]],[[137.10114,35.30293],[137.08617,35.28494],[137.08196,35.28002],[137.08149,35.27937],[137.08116,35.27872]],[[136.98365,35.24234],[136.97244,35.23817],[136.96386,35.23488],[136.96287,35.23442],[136.96248,35.23416],[136.95759,35.23068]],[[136.9865,35.24372],[136.98365,35.24234]],[[137.04483,35.26444],[137.04168,35.26436]],[[137.08073,35.27722],[137.08012,35.27574],[137.07846,35.27297],[137.07727,35.27182],[137.07561,35.27075],[137.0713,35.2682],[137.06976,35.26746],[137.06843,35.26712],[137.06744,35.26704],[137.05991,35.26699],[137.05735,35.26674],[137.05584,35.26621],[137.0533,35.26483],[137.05181,35.26442],[137.04769,35.26449],[137.04483,35.26444]],[[136.93194,35.17182],[136.93025,35.17003]],[[136.8998,35.14362],[136.9019,35.14297]],[[136.91739,35.15614],[136.91896,35.15785]],[[136.94973,35.20522],[136.951,35.2073]],[[136.9019,35.14297],[136.90279,35.14288],[136.90458,35.1431],[136.90555,35.14355],[136.90597,35.14385],[136.91739,35.15614]],[[136.95759,35.23068],[136.95533,35.22912]],[[136.91896,35.15785],[136.93025,35.17003]],[[136.8824,35.16994],[136.88417,35.1666],[136.88524,35.16407],[136.88786,35.15361],[136.88834,35.15087],[136.88884,35.15004],[136.88985,35.14908],[136.89045,35.14821],[136.89095,35.14765],[136.89202,35.14672],[136.89293,35.14609],[136.89562,35.14499],[136.8998,35.14362]],[[136.8824,35.16994],[136.88108,35.17258]],[[136.95533,35.22912],[136.95338,35.22774],[136.95264,35.22706],[136.95209,35.22628],[136.95169,35.22494],[136.95159,35.22383],[136.95169,35.22281],[136.95325,35.21589],[136.95356,35.21407],[136.9536,35.2131],[136.95347,35.21224],[136.95308,35.21115],[136.95204,35.20911],[136.951,35.2073]],[[136.93718,35.18809],[136.93711,35.18043],[136.93702,35.17861],[136.93685,35.17791],[136.93628,35.17658],[136.93574,35.1758],[136.93194,35.17182]],[[136.94973,35.20522],[136.94874,35.20357],[136.9478,35.20224],[136.94686,35.20124],[136.94586,35.20041],[136.93969,35.19631],[136.93868,35.19537],[136.93799,35.19445],[136.9375,35.19343],[136.93726,35.19248],[136.93718,35.19085]],[[136.93718,35.19085],[136.93718,35.18809]],[[137.77082,35.9202],[137.77123,35.92086],[137.77197,35.9215],[137.77861,35.92479]],[[137.77861,35.92479],[137.78212,35.92623],[137.7826,35.92653],[137.78335,35.92743],[137.78396,35.92897]],[[137.12136,35.33541],[137.12437,35.33686],[137.12586,35.33772],[137.12638,35.33817],[137.12693,35.33897],[137.12772,35.34229]],[[137.12902,35.34826],[137.12981,35.34941],[137.13058,35.35007],[137.13105,35.35037],[137.1317,35.35065],[137.13281,35.35092],[137.13345,35.35099],[137.14081,35.351],[137.14418,35.35046],[137.14532,35.35046],[137.1466,35.35071],[137.15102,35.35196]],[[137.12772,35.34229],[137.12902,35.34826]]]}}