{"type":"Feature","properties":{"id":"東武鉄道_桐生線","name":"桐生線","operator":"東武鉄道","railType":"普通鉄道","operatorType":"民営","category":"rail","attribution":"国土数値情報（鉄道データ）国土交通省"},"geometry":{"type":"MultiLineString","coordinates":[[[139.38008,36.2941],[139.37779,36.29431]],[[139.37779,36.29431],[139.37226,36.2947]],[[139.27714,36.42574],[139.27642,36.4255]],[[139.31647,36.35819],[139.31507,36.35933]],[[139.30633,36.38465],[139.30676,36.38555]],[[139.37226,36.2947],[139.3676,36.29504],[139.36598,36.29532],[139.36493,36.29566],[139.36442,36.29591],[139.36366,36.29641],[139.36308,36.29693],[139.36233,36.29787],[139.3619,36.29864],[139.35519,36.31292]],[[139.30406,36.41021],[139.30377,36.41106]],[[139.34215,36.33249],[139.34058,36.33356]],[[139.32018,36.39446],[139.31999,36.39559]],[[139.35474,36.31388],[139.34798,36.3282],[139.34706,36.32915],[139.34215,36.33249]],[[139.31999,36.39559],[139.31933,36.39696],[139.31865,36.39779],[139.31563,36.39973],[139.31341,36.40172],[139.31306,36.40216],[139.31223,36.40384],[139.31119,36.40496],[139.30903,36.40657],[139.30558,36.40863],[139.30462,36.40946],[139.30406,36.41021]],[[139.31507,36.35933],[139.31233,36.36153],[139.31102,36.36269],[139.30971,36.36434],[139.30705,36.36795],[139.30662,36.36859],[139.30625,36.36944],[139.30586,36.37159],[139.30529,36.37579],[139.30546,36.37791],[139.30633,36.38465]],[[139.34058,36.33356],[139.33305,36.33879],[139.33157,36.33991],[139.33113,36.34033],[139.32728,36.34545],[139.32326,36.35106],[139.32061,36.35459],[139.31942,36.3558],[139.31647,36.35819]],[[139.35519,36.31292],[139.35474,36.31388]],[[139.30676,36.38555],[139.30732,36.3862],[139.30796,36.38665],[139.30917,36.38719],[139.31239,36.38822],[139.31409,36.38889],[139.31609,36.38993],[139.31888,36.39156],[139.3194,36.392],[139.31992,36.39278],[139.32016,36.39357],[139.32018,36.39446]],[[139.30377,36.41106],[139.30272,36.4142],[139.30227,36.41519],[139.30012,36.41744],[139.2989,36.41857]],[[139.29753,36.41939],[139.2913,36.4233],[139.28586,36.42657],[139.28472,36.42712],[139.28307,36.42748],[139.28212,36.42744],[139.28141,36.4273],[139.27714,36.42574]],[[139.2989,36.41857],[139.29815,36.41901]],[[139.29815,36.41901],[139.29753,36.41939]]]}}