{"type":"Feature","properties":{"id":"東日本旅客鉄道_信越線","name":"信越線","operator":"東日本旅客鉄道","railType":"普通鉄道(JR)","operatorType":"JR在来線","category":"rail","attribution":"国土数値情報（鉄道データ）国土交通省"},"geometry":{"type":"MultiLineString","coordinates":[[[139.08166,37.908],[139.08217,37.9073]],[[139.06251,37.91254],[139.06475,37.91297],[139.07295,37.91489],[139.07431,37.91502],[139.07571,37.91481],[139.07712,37.91423],[139.07804,37.91337],[139.08166,37.908]],[[139.08166,37.908],[139.0835,37.90632],[139.08592,37.90449]],[[139.05944,37.91178],[139.06251,37.91254]],[[139.09481,37.89692],[139.09353,37.89795]],[[139.12122,37.79892],[139.1212,37.80168]],[[139.12122,37.79892],[139.12125,37.79643]],[[139.10743,37.87868],[139.09996,37.89224],[139.09929,37.89311],[139.0986,37.89383],[139.09614,37.89581]],[[139.11776,37.81222],[139.11695,37.81398]],[[139.08217,37.9073],[139.08284,37.90659],[139.08657,37.90355]],[[139.09472,37.74787],[139.09626,37.74989]],[[139.07512,37.71988],[139.07764,37.72381],[139.08167,37.7316],[139.08991,37.74142],[139.09472,37.74787]],[[139.06037,37.69285],[139.06102,37.69444]],[[139.08592,37.90449],[139.08657,37.90355]],[[139.11412,37.7725],[139.11479,37.7735]],[[139.11145,37.83348],[139.11047,37.8383],[139.11042,37.83907],[139.11207,37.8571],[139.11287,37.86725],[139.11285,37.86783],[139.11272,37.86861],[139.11238,37.86963],[139.10905,37.87569]],[[139.11695,37.81398],[139.11414,37.82024],[139.11181,37.83168]],[[139.09614,37.89581],[139.09481,37.89692]],[[139.09353,37.89795],[139.08657,37.90355]],[[139.06102,37.69444],[139.06437,37.70259],[139.06527,37.70458],[139.07402,37.71817]],[[139.11479,37.7735],[139.12086,37.78259],[139.12123,37.7834],[139.12131,37.78442],[139.12125,37.79643]],[[139.09626,37.74989],[139.09893,37.75335],[139.10845,37.76659],[139.11269,37.7707],[139.11366,37.77176],[139.11412,37.7725]],[[139.1212,37.80168],[139.12119,37.80463]],[[139.12119,37.80463],[139.11776,37.81222]],[[139.11181,37.83168],[139.11145,37.83348]],[[139.10905,37.87569],[139.10743,37.87868]],[[139.07402,37.71817],[139.07512,37.71988]],[[138.85322,37.44585],[138.85147,37.4414]],[[138.9291,37.57379],[138.92802,37.57222]],[[138.88178,37.50587],[138.88065,37.50401]],[[138.90325,37.53792],[138.90423,37.53978],[138.90475,37.54059],[138.90552,37.54161],[138.90638,37.54247]],[[138.92802,37.57222],[138.9243,37.56725],[138.91563,37.55515],[138.90638,37.54247]],[[139.04976,37.65978],[139.04815,37.65791]],[[138.78529,37.39707],[138.80563,37.39515],[138.80773,37.39502],[138.81286,37.39488]],[[138.75678,37.38716],[138.75736,37.3882],[138.75789,37.3889],[138.75878,37.38977],[138.75997,37.39064],[138.77285,37.39754],[138.77412,37.39792],[138.7751,37.39802],[138.78202,37.3974]],[[139.01537,37.63959],[139.014,37.63902]],[[138.90554,37.54122],[138.90411,37.53908]],[[138.88178,37.50587],[138.88517,37.51154],[138.88684,37.51405],[138.88769,37.5155],[138.88844,37.51708],[138.88983,37.51946],[138.90325,37.53792]],[[138.73098,37.35563],[138.73313,37.35667],[138.73586,37.35831],[138.73712,37.3588],[138.73836,37.35904],[138.74143,37.35902],[138.74219,37.35908],[138.74294,37.35925],[138.74446,37.36008],[138.74751,37.3621],[138.74836,37.36272],[138.74897,37.36331],[138.7495,37.36416],[138.74979,37.36539],[138.74977,37.36575],[138.74904,37.36892],[138.74911,37.37006],[138.74925,37.37056],[138.74994,37.37166],[138.75114,37.37308],[138.75178,37.37408],[138.75208,37.37487],[138.75236,37.37623],[138.75288,37.37769],[138.75591,37.3852]],[[138.86199,37.4677],[138.86148,37.46689],[138.85473,37.44968]],[[139.04815,37.65791],[139.04727,37.65693],[139.04605,37.65614],[139.04187,37.65464],[139.04059,37.65405],[139.03979,37.65358],[139.03016,37.64585],[139.01537,37.63959]],[[138.96064,37.62036],[138.95917,37.61561],[138.94368,37.59404]],[[138.82054,37.39757],[138.82339,37.40115]],[[138.86285,37.46995],[138.86199,37.4677]],[[138.82441,37.40238],[138.83528,37.41594]],[[139.014,37.63902],[139.00705,37.63618],[138.97668,37.629]],[[138.94368,37.59404],[138.94222,37.59202]],[[138.88065,37.50401],[138.86986,37.48598],[138.86912,37.48463],[138.86677,37.4788],[138.86285,37.46995]],[[138.84468,37.42755],[138.85016,37.43975],[138.85096,37.44086],[138.85147,37.4414]],[[138.85473,37.44968],[138.85322,37.44585]],[[138.97668,37.629],[138.97283,37.62809]],[[138.97283,37.62809],[138.97066,37.62757]],[[138.97066,37.62757],[138.96442,37.62605],[138.96327,37.62557],[138.96252,37.62508],[138.96191,37.62449],[138.96159,37.62381],[138.96112,37.6221]],[[138.82339,37.40115],[138.82441,37.40238]],[[138.90554,37.54122],[138.90638,37.54247]],[[138.81286,37.39488],[138.81621,37.39479],[138.81678,37.39485],[138.81785,37.39516],[138.81869,37.39558],[138.81923,37.396],[138.81955,37.39629],[138.82054,37.39757]],[[138.75591,37.3852],[138.75678,37.38716]],[[138.84468,37.42755],[138.8459,37.42914],[138.84993,37.43578],[138.85114,37.43903],[138.85131,37.43988],[138.85147,37.4414]],[[138.78202,37.3974],[138.78529,37.39707]],[[138.90411,37.53908],[138.90325,37.53792]],[[138.84078,37.423],[138.84468,37.42755]],[[138.96112,37.6221],[138.96064,37.62036]],[[138.81286,37.39488],[138.8153,37.39498],[138.81635,37.39514],[138.8175,37.39548],[138.81859,37.39602],[138.82054,37.39757]],[[138.94222,37.59202],[138.9291,37.57379]],[[139.04976,37.65978],[139.05495,37.66579],[139.0555,37.66663],[139.05579,37.6673],[139.05586,37.66825],[139.05566,37.66892],[139.05516,37.66986],[139.0548,37.67088],[139.05471,37.67154],[139.05478,37.67222],[139.05504,37.67282],[139.05849,37.67829],[139.05867,37.67883],[139.05872,37.67976],[139.05806,37.68737],[139.06037,37.69285]],[[138.83946,37.42127],[138.83763,37.41889]],[[138.84078,37.423],[138.83946,37.42127]],[[138.83528,37.41594],[138.83763,37.41889]],[[138.73098,37.35563],[138.7289,37.35467]],[[138.48695,37.34651],[138.48832,37.34707],[138.48954,37.34738],[138.49212,37.3483],[138.49467,37.34929],[138.49822,37.35129],[138.49872,37.35145],[138.50315,37.3523],[138.50557,37.3529],[138.50604,37.35309],[138.50902,37.35475],[138.5097,37.35501],[138.51057,37.35522],[138.51159,37.35534],[138.51546,37.35555],[138.51632,37.35566]],[[138.58618,37.35726],[138.58731,37.35684]],[[138.33915,37.23357],[138.33142,37.22708],[138.32854,37.22505],[138.32514,37.22298]],[[138.24673,37.17282],[138.24758,37.17335],[138.24816,37.17357],[138.24943,37.17387],[138.2506,37.17396]],[[138.66227,37.3574],[138.66018,37.35732]],[[138.63757,37.33892],[138.63642,37.33767]],[[138.56166,37.36426],[138.56509,37.36466],[138.56614,37.36462],[138.56726,37.36441],[138.58618,37.35726]],[[138.55804,37.36378],[138.56166,37.36426]],[[138.48695,37.34651],[138.48552,37.34587]],[[138.48552,37.34587],[138.47921,37.3429],[138.47819,37.3423],[138.47677,37.34114],[138.47626,37.34081],[138.46897,37.33629],[138.46825,37.33603]],[[138.2506,37.17396],[138.26124,37.17701],[138.26214,37.17734],[138.26299,37.17776],[138.2639,37.1786],[138.26759,37.18335]],[[138.63642,37.33767],[138.6353,37.33635],[138.63398,37.33507],[138.63324,37.33456],[138.63279,37.33436],[138.63219,37.33422],[138.63144,37.3341],[138.63014,37.33409],[138.62182,37.33511],[138.62015,37.33542],[138.61923,37.33583],[138.61843,37.3363],[138.61819,37.33635],[138.61568,37.3382],[138.6126,37.34078]],[[138.24673,37.17282],[138.2506,37.17396]],[[138.51839,37.35604],[138.51969,37.35637],[138.52095,37.35691],[138.52192,37.35763],[138.52351,37.35907],[138.52428,37.35954],[138.52489,37.35979],[138.52577,37.36007],[138.52712,37.36032],[138.5298,37.36055],[138.53112,37.36076],[138.53173,37.361],[138.53346,37.36194],[138.53534,37.36247],[138.53666,37.36266],[138.53763,37.3626],[138.53846,37.36244],[138.54243,37.36136],[138.54719,37.36141],[138.54806,37.36153],[138.55086,37.36256],[138.55262,37.36296],[138.5548,37.36333]],[[138.46825,37.33603],[138.46707,37.33565],[138.46623,37.33557]],[[138.34065,37.23484],[138.33915,37.23357]],[[138.31063,37.21397],[138.3131,37.21587],[138.31394,37.21642],[138.31552,37.21717],[138.31681,37.21765]],[[138.43235,37.31754],[138.43057,37.31617]],[[138.3623,37.25288],[138.36106,37.25188]],[[138.58731,37.35684],[138.5979,37.35275],[138.59828,37.35251],[138.61173,37.34147]],[[138.38539,37.27707],[138.37579,37.2643],[138.36319,37.25353],[138.3623,37.25288]],[[138.6836,37.36686],[138.68277,37.36741],[138.68191,37.36781],[138.67871,37.36885],[138.67754,37.36889],[138.67623,37.36881],[138.67498,37.36855],[138.67421,37.36824],[138.67354,37.36788],[138.673,37.36743],[138.66897,37.36065],[138.6682,37.35962],[138.66789,37.35933],[138.66685,37.35861],[138.66556,37.358],[138.66338,37.35749],[138.66227,37.3574]],[[138.51632,37.35566],[138.51839,37.35604]],[[138.30925,37.21289],[138.31681,37.21765]],[[138.32514,37.22298],[138.32449,37.22258]],[[138.66018,37.35732],[138.6563,37.35708],[138.65501,37.35684],[138.6536,37.35629],[138.64474,37.3499],[138.64419,37.34944],[138.64349,37.34855],[138.64316,37.34774],[138.64235,37.34481],[138.64202,37.34409],[138.64138,37.3432],[138.63757,37.33892]],[[138.32449,37.22258],[138.31681,37.21765]],[[138.5548,37.36333],[138.55804,37.36378]],[[138.43057,37.31617],[138.42645,37.31293],[138.42427,37.31132],[138.41015,37.2985],[138.4091,37.29776],[138.40741,37.29682],[138.40657,37.29614],[138.40329,37.29324],[138.40095,37.2909],[138.38769,37.27991],[138.38645,37.27849]],[[138.26912,37.18514],[138.27269,37.1893],[138.27362,37.19011],[138.30433,37.2097]],[[138.46623,37.33557],[138.4636,37.33542],[138.46284,37.33522],[138.46212,37.3349],[138.4514,37.3256],[138.44936,37.32371],[138.44879,37.32337],[138.44769,37.32296],[138.44647,37.32273],[138.44022,37.32309],[138.43936,37.3231],[138.43898,37.32302],[138.4377,37.32236],[138.43668,37.32161],[138.43452,37.31934],[138.43235,37.31754]],[[138.26759,37.18335],[138.26912,37.18514]],[[138.36106,37.25188],[138.34065,37.23484]],[[138.38645,37.27849],[138.38539,37.27707]],[[138.68461,37.36598],[138.6836,37.36686]],[[138.7289,37.35467],[138.72458,37.35269],[138.72306,37.35224],[138.71931,37.35143],[138.71831,37.35137],[138.71504,37.35153],[138.71048,37.3522],[138.70762,37.35308],[138.70451,37.35432],[138.69801,37.35723],[138.69504,37.35869],[138.69179,37.3606],[138.68752,37.36353],[138.68461,37.36598]],[[138.61173,37.34147],[138.6126,37.34078]],[[138.2436,37.17106],[138.24619,37.17259],[138.24673,37.17282]],[[138.2436,37.17106],[138.24087,37.16945]],[[138.30559,37.2105],[138.30925,37.21289]],[[138.30925,37.21289],[138.31063,37.21397]],[[138.30433,37.2097],[138.30559,37.2105]],[[138.14521,36.59522],[138.14495,36.59454]],[[138.16138,36.63003],[138.15578,36.62694],[138.1547,36.62617],[138.15404,36.62548],[138.15342,36.62411],[138.15176,36.61848],[138.15089,36.61498]],[[138.16226,36.63051],[138.16138,36.63003]],[[138.14495,36.59454],[138.13861,36.5784]],[[138.15051,36.6132],[138.14852,36.60377],[138.14521,36.59522]],[[138.18778,36.64276],[138.18304,36.63975],[138.18239,36.63937],[138.1816,36.63904],[138.17998,36.63859],[138.17575,36.63778],[138.17325,36.63674],[138.16753,36.63338],[138.16226,36.63051]],[[138.15089,36.61498],[138.15051,36.6132]],[[139.01249,36.32059],[139.01219,36.32395]],[[138.85067,36.29839],[138.85601,36.29852],[138.85719,36.29869],[138.85941,36.29941],[138.86599,36.3018],[138.86862,36.30292],[138.87144,36.30469],[138.87958,36.31036],[138.88585,36.31452],[138.90037,36.32387],[138.90965,36.33089],[138.91017,36.33119],[138.91111,36.33152],[138.91184,36.33163],[138.91339,36.33163]],[[138.95872,36.33767],[138.97387,36.33802],[138.9753,36.33816],[138.97848,36.33885]],[[138.85067,36.29839],[138.84868,36.29835]],[[138.84868,36.29835],[138.84437,36.29827],[138.84355,36.29818],[138.83355,36.29649],[138.83166,36.29625],[138.83015,36.29639],[138.82128,36.29775],[138.81903,36.29844],[138.81537,36.30016],[138.81285,36.30141],[138.80801,36.30428],[138.80704,36.30472],[138.80171,36.30673],[138.80062,36.30726],[138.79805,36.3089]],[[138.97848,36.33885],[138.98389,36.34009],[138.986,36.34014]],[[139.01219,36.32395],[139.01214,36.32452]],[[139.01214,36.32452],[139.01258,36.32635],[139.01163,36.33408],[139.01139,36.33454],[139.01105,36.33504],[139.01048,36.33556],[139.00939,36.33621],[139.00879,36.33648],[139.0036,36.33811]],[[138.79726,36.30941],[138.78698,36.31585]],[[138.95626,36.33765],[138.94812,36.33759],[138.9399,36.33808],[138.9388,36.33813],[138.93777,36.33807],[138.93689,36.33782],[138.93551,36.33695],[138.93498,36.33647],[138.93236,36.33325],[138.9315,36.33266],[138.93074,36.33235],[138.92901,36.33205],[138.91558,36.33168]],[[138.78698,36.31585],[138.78628,36.31631]],[[139.00117,36.33889],[138.99852,36.33966],[138.99728,36.33985],[138.986,36.34014]],[[139.0036,36.33811],[139.00117,36.33889]],[[138.79805,36.3089],[138.79726,36.30941]],[[138.95872,36.33767],[138.95626,36.33765]],[[138.91339,36.33163],[138.91558,36.33168]],[[138.97848,36.33885],[138.98101,36.33914],[138.98412,36.33985],[138.986,36.34014]],[[138.13765,36.57581],[138.13861,36.5784]],[[138.73647,36.33604],[138.7365,36.33613]],[[138.78628,36.31631],[138.78057,36.31995],[138.78004,36.32022],[138.77452,36.3209],[138.77304,36.32118],[138.77079,36.32202],[138.77019,36.32239],[138.76814,36.32403],[138.76742,36.32445],[138.76252,36.32592],[138.75942,36.32616],[138.75867,36.32641],[138.75775,36.32691],[138.7533,36.32979],[138.75202,36.33073],[138.75112,36.33174],[138.75022,36.33251],[138.74903,36.33323],[138.74808,36.33369],[138.74724,36.33388],[138.74561,36.33405],[138.74446,36.33427],[138.7405,36.33553],[138.7393,36.33581]],[[138.7365,36.33613],[138.7393,36.33581]],[[138.18992,36.64416],[138.18778,36.64276]]]}}