{"type":"Feature","properties":{"id":"東日本旅客鉄道_米坂線","name":"米坂線","operator":"東日本旅客鉄道","railType":"普通鉄道(JR)","operatorType":"JR在来線","category":"rail","attribution":"国土数値情報（鉄道データ）国土交通省"},"geometry":{"type":"MultiLineString","coordinates":[[[140.12985,37.90464],[140.12887,37.90759]],[[140.12887,37.90759],[140.1277,37.91124]],[[140.04466,38.05629],[140.0438,38.05711]],[[140.04873,38.00516],[140.04986,38.00797],[140.05369,38.015],[140.05394,38.01566],[140.05408,38.01685],[140.05401,38.01744],[140.05224,38.02495]],[[140.04838,38.00426],[140.04786,38.00297],[140.04751,38.00109],[140.04751,37.99996],[140.04791,37.99858],[140.0483,37.99794],[140.05433,37.98957],[140.06329,37.9761],[140.06545,37.973],[140.06713,37.96951]],[[140.0429,38.058],[140.04348,38.05712],[140.04401,38.05649],[140.04456,38.05596],[140.0458,38.05515]],[[140.10752,37.89604],[140.10902,37.89606]],[[140.08514,37.91673],[140.09569,37.89953],[140.0965,37.89839],[140.09709,37.8978],[140.09833,37.89693],[140.09896,37.89661],[140.09965,37.89636],[140.10081,37.8961],[140.10229,37.89595],[140.10752,37.89604]],[[139.96147,38.01208],[139.96105,38.01144]],[[140.07572,37.94305],[140.07647,37.9416],[140.07842,37.93732],[140.08051,37.93159],[140.08056,37.93112],[140.08046,37.93064],[140.08018,37.93012],[140.07928,37.92885],[140.07896,37.92816],[140.07887,37.92751],[140.07894,37.92702],[140.0801,37.92493],[140.08314,37.91986],[140.08452,37.91778]],[[140.10902,37.89606],[140.11894,37.89625],[140.12165,37.89671],[140.12392,37.8972],[140.12466,37.89745],[140.1255,37.89785],[140.12614,37.89834],[140.12897,37.90062],[140.12941,37.901],[140.12971,37.90141],[140.13001,37.90197],[140.13013,37.90264],[140.12985,37.90464]],[[140.00464,38.06222],[140.00392,38.0616]],[[140.04466,38.05629],[140.0458,38.05515]],[[140.00464,38.06222],[140.00571,38.06295],[140.00669,38.06342],[140.02625,38.06958],[140.0277,38.06976],[140.02886,38.06967],[140.03019,38.06929],[140.03099,38.06888]],[[140.03099,38.06888],[140.03698,38.06377],[140.0429,38.058]],[[140.0438,38.05711],[140.0429,38.058]],[[140.08452,37.91778],[140.08514,37.91673]],[[140.052,38.02581],[140.05155,38.02823],[140.04956,38.04881],[140.04881,38.05112],[140.04822,38.0525],[140.04784,38.05303],[140.04617,38.05479]],[[140.04617,38.05479],[140.0458,38.05515]],[[139.99442,38.03897],[139.99414,38.03827]],[[140.06713,37.96951],[140.06743,37.96888]],[[140.00392,38.0616],[140.00292,38.06036],[140.0024,38.05953],[139.99442,38.03897]],[[139.99414,38.03827],[139.993,38.03528],[139.99268,38.03476],[139.99246,38.03456],[139.98186,38.02825],[139.98138,38.02777],[139.97743,38.02299],[139.97685,38.02244],[139.97597,38.02178],[139.97344,38.02049],[139.97211,38.02023],[139.97145,38.02019],[139.97077,38.02031],[139.96888,38.02113],[139.9677,38.02149],[139.96614,38.02128],[139.96571,38.02114],[139.96486,38.02067],[139.9643,38.02007],[139.96315,38.01824],[139.96259,38.01713],[139.96255,38.01662],[139.96266,38.01495],[139.96259,38.01439],[139.96147,38.01208]],[[140.04838,38.00426],[140.04873,38.00516]],[[140.06743,37.96888],[140.06821,37.96724],[140.06866,37.96607],[140.07177,37.95532],[140.07487,37.94501],[140.0754,37.94368]],[[140.0754,37.94368],[140.07572,37.94305]],[[140.05224,38.02495],[140.052,38.02581]],[[139.44475,38.11798],[139.44695,38.12061]],[[139.44884,38.12284],[139.44695,38.12061]],[[139.5609,38.08984],[139.5651,38.089],[139.57016,38.08858],[139.57094,38.08841],[139.57165,38.08807],[139.5723,38.08746],[139.57809,38.07954],[139.57892,38.07874],[139.57979,38.07812],[139.58508,38.07516],[139.5956,38.0682],[139.59629,38.06777],[139.59708,38.06748],[139.59756,38.06737],[139.59831,38.06733],[139.61525,38.06794],[139.6161,38.06803],[139.61692,38.06818],[139.61776,38.06846],[139.62004,38.06954],[139.62194,38.07056]],[[139.51902,38.09946],[139.51763,38.09983]],[[139.87275,38.02858],[139.87224,38.029]],[[139.78008,38.04524],[139.77791,38.04439],[139.77649,38.04393],[139.77502,38.04328],[139.77403,38.04309],[139.77361,38.04312],[139.77276,38.04336],[139.77123,38.04418],[139.77036,38.04454],[139.76974,38.04469],[139.76863,38.04473],[139.76701,38.04459],[139.76646,38.04461],[139.76536,38.04493],[139.76484,38.04525],[139.7611,38.04815],[139.75973,38.04946],[139.75772,38.05228],[139.75064,38.0609]],[[139.82227,38.0512],[139.81719,38.05319],[139.81653,38.05338],[139.81576,38.05348],[139.81196,38.05269],[139.80907,38.05242],[139.8074,38.05213],[139.80554,38.05153],[139.80322,38.05065],[139.80278,38.05055],[139.8022,38.05055],[139.79877,38.05142],[139.79735,38.05187],[139.79654,38.05234],[139.79523,38.05338],[139.79431,38.05381],[139.79361,38.05396],[139.78823,38.05458],[139.78735,38.05459],[139.78659,38.05435],[139.78621,38.05412],[139.7859,38.05385],[139.78557,38.05331],[139.78552,38.05283],[139.78587,38.04966],[139.78588,38.049],[139.78567,38.04822],[139.78513,38.04765],[139.78435,38.04707],[139.78301,38.04644],[139.78081,38.04555]],[[139.5594,38.09013],[139.53556,38.09507],[139.51902,38.09946]],[[139.82303,38.0509],[139.82227,38.0512]],[[139.75064,38.0609],[139.7497,38.062]],[[139.5609,38.08984],[139.5594,38.09013]],[[139.7497,38.062],[139.74747,38.06472],[139.74651,38.0656],[139.73336,38.07361],[139.73119,38.07458],[139.7244,38.07688],[139.72311,38.07718],[139.72161,38.07712],[139.71937,38.07664],[139.7147,38.07728],[139.71341,38.07729],[139.70526,38.07531],[139.70436,38.07501],[139.70357,38.07444],[139.7023,38.073],[139.69855,38.06733],[139.69782,38.06634],[139.69437,38.06357],[139.69341,38.06295],[139.69258,38.06294],[139.69075,38.06329],[139.68853,38.06376],[139.68681,38.06426],[139.68022,38.06433],[139.67877,38.06411],[139.67034,38.0615],[139.66928,38.0613],[139.66796,38.06131],[139.66696,38.0615],[139.66618,38.06179],[139.6655,38.06217],[139.66501,38.06259],[139.66459,38.06309],[139.66432,38.06357],[139.66362,38.06614]],[[139.51763,38.09983],[139.51615,38.10024],[139.51343,38.10077],[139.50652,38.10375],[139.50456,38.10435],[139.50278,38.10446],[139.49894,38.10386],[139.49786,38.10381],[139.49541,38.10421],[139.49126,38.10545],[139.48999,38.10589],[139.48912,38.10631],[139.48307,38.10964],[139.47287,38.11418],[139.45667,38.12201],[139.45309,38.12363],[139.45199,38.12388],[139.45088,38.12382],[139.45006,38.12361],[139.44884,38.12284]],[[139.96105,38.01144],[139.96061,38.01101],[139.95966,38.0103],[139.95843,38.00966],[139.95761,38.00937],[139.95612,38.00899],[139.95336,38.00806],[139.95209,38.00783],[139.94948,38.00789],[139.94862,38.00784],[139.94747,38.00757],[139.94572,38.00673],[139.94468,38.00663],[139.94375,38.00675],[139.94267,38.00713],[139.93864,38.01016],[139.93492,38.01121],[139.93419,38.01155],[139.93377,38.01196],[139.93292,38.01382],[139.93256,38.01426],[139.93195,38.01466],[139.92984,38.01549],[139.91092,38.01961],[139.91035,38.0197],[139.90982,38.01966],[139.90875,38.01945],[139.90819,38.01925],[139.90712,38.01855],[139.90656,38.01793],[139.90557,38.01717],[139.90489,38.01683],[139.90419,38.0166],[139.90329,38.01643],[139.90171,38.01643],[139.89931,38.01547],[139.89709,38.01491],[139.89646,38.01484],[139.89588,38.0149],[139.89495,38.01522],[139.89417,38.01586],[139.89383,38.0164],[139.89358,38.01733],[139.89332,38.01782],[139.89305,38.01816],[139.89251,38.01848],[139.88947,38.0197],[139.88833,38.01996],[139.88621,38.02021],[139.88449,38.02054],[139.88072,38.02205],[139.87942,38.02268],[139.8774,38.02414],[139.8745,38.02645],[139.87275,38.02858]],[[139.62289,38.07099],[139.62194,38.07056]],[[139.87224,38.029],[139.87167,38.02942],[139.86895,38.03049],[139.86825,38.03094],[139.86676,38.0322],[139.863,38.03389],[139.86204,38.03443],[139.86179,38.03465],[139.86154,38.03502],[139.86123,38.03604],[139.86018,38.03743],[139.85996,38.0381],[139.86004,38.03864],[139.86078,38.04007],[139.86079,38.04072],[139.86066,38.04114],[139.85909,38.04272],[139.85866,38.04377],[139.8573,38.04545],[139.85655,38.04659],[139.85604,38.047],[139.85503,38.0475],[139.85379,38.04795],[139.85176,38.04851],[139.84757,38.04942],[139.84634,38.04945],[139.84429,38.0489],[139.84333,38.04875],[139.84288,38.04876],[139.83896,38.04939],[139.83785,38.04947],[139.83721,38.04933],[139.8362,38.04889],[139.83317,38.04691],[139.8319,38.04628],[139.8303,38.04638],[139.82989,38.04658],[139.82964,38.04683],[139.82847,38.04838],[139.828,38.04882],[139.82725,38.04922],[139.82303,38.0509]],[[139.78081,38.04555],[139.78008,38.04524]],[[139.66362,38.06614],[139.66343,38.06688]],[[139.66343,38.06688],[139.66327,38.06796],[139.66346,38.06899],[139.66371,38.0697],[139.66441,38.07097],[139.66465,38.07173],[139.66464,38.07209],[139.66395,38.07518],[139.6636,38.07606],[139.66328,38.07646],[139.65892,38.07929],[139.6579,38.0798],[139.65669,38.08008],[139.65451,38.08006],[139.65102,38.0797],[139.64997,38.07948],[139.64911,38.07912],[139.64596,38.07702],[139.64528,38.07674],[139.64318,38.07634],[139.64207,38.07628],[139.63923,38.07631],[139.63808,38.07651],[139.63593,38.07756],[139.63508,38.07776],[139.63378,38.07789],[139.6322,38.07767],[139.63142,38.07735],[139.63065,38.07685],[139.62687,38.07313],[139.62604,38.07242],[139.62289,38.07099]]]}}