{"type":"Feature","properties":{"id":"東日本旅客鉄道_北陸新幹線","name":"北陸新幹線","operator":"東日本旅客鉄道","railType":"普通鉄道(JR)","operatorType":"JR新幹線","category":"shinkansen","attribution":"国土数値情報（鉄道データ）国土交通省"},"geometry":{"type":"MultiLineString","coordinates":[[[138.18749,36.64188],[138.19025,36.64375]],[[139.0132,36.32111],[139.01277,36.3248]],[[139.01277,36.3248],[139.01141,36.33568],[139.01111,36.3371],[139.01065,36.33869],[139.00971,36.34125],[139.00849,36.34354],[139.00741,36.34516],[138.99996,36.3548]],[[138.85084,36.36261],[138.8554,36.36318],[138.88885,36.36849],[138.92729,36.37673],[138.93855,36.37904],[138.94196,36.37951],[138.94605,36.3798],[138.95098,36.37973],[138.95502,36.37933],[138.9575,36.37894],[138.95918,36.3786],[138.96271,36.37768],[138.96704,36.3762],[138.97157,36.3742],[138.98748,36.36519],[138.99007,36.36364],[138.99149,36.36268],[138.99441,36.36047],[138.99681,36.35837],[138.99996,36.3548]],[[138.85084,36.36261],[138.84756,36.36247]],[[138.63677,36.34255],[138.63319,36.34264]],[[138.25133,36.39518],[138.24913,36.3971]],[[138.84756,36.36247],[138.84565,36.36251],[138.84226,36.36281],[138.83914,36.36326],[138.83721,36.36365],[138.8356,36.36407],[138.83267,36.36502],[138.83006,36.36612],[138.82786,36.36721],[138.82642,36.36803],[138.82467,36.36917],[138.82344,36.37007],[138.82184,36.37141],[138.81943,36.3737],[138.8125,36.38067],[138.80942,36.38334],[138.80779,36.38456],[138.8045,36.38668],[138.80093,36.38856],[138.79641,36.39042],[138.79289,36.39154],[138.79086,36.39206],[138.78769,36.3927],[138.78582,36.393],[138.78208,36.3934],[138.73036,36.39793],[138.72521,36.39825],[138.72132,36.39819],[138.7191,36.39804],[138.71582,36.39764],[138.71216,36.39695],[138.70847,36.39599],[138.70444,36.39457],[138.69368,36.38996],[138.68212,36.38516],[138.67966,36.38397],[138.67708,36.38243],[138.67513,36.38107],[138.67288,36.37919],[138.67146,36.37776],[138.66959,36.37557],[138.66694,36.37149],[138.6625,36.36439],[138.65283,36.3486],[138.65227,36.3478],[138.65113,36.34642],[138.64942,36.34495],[138.64802,36.34401],[138.64657,36.34336],[138.64474,36.3428],[138.64378,36.34259],[138.64244,36.34246],[138.63677,36.34255]],[[138.24913,36.3971],[138.24636,36.39973],[138.24458,36.40098],[138.24232,36.40221],[138.23853,36.40402],[138.23471,36.40599],[138.23117,36.40798],[138.22872,36.40953],[138.2262,36.4115],[138.2227,36.4146],[138.22096,36.41655],[138.21912,36.41913],[138.21881,36.41978],[138.21717,36.42257],[138.21623,36.42447],[138.21309,36.43177],[138.21257,36.4332],[138.21173,36.43631],[138.21038,36.44394],[138.20913,36.45167],[138.20881,36.45318],[138.20831,36.455],[138.20726,36.45787],[138.20647,36.45964],[138.20484,36.46257],[138.20297,36.46528],[138.20167,36.46688],[138.20037,36.46831],[138.19906,36.46968],[138.19795,36.47068],[138.19132,36.47656],[138.16366,36.50055],[138.15648,36.507],[138.14232,36.51935],[138.14073,36.52087],[138.13881,36.52291],[138.13727,36.52477],[138.1355,36.52729],[138.13448,36.52896],[138.13349,36.53086],[138.1328,36.53244],[138.13181,36.53529],[138.1311,36.53779],[138.13081,36.53946],[138.13063,36.54219],[138.13068,36.5499],[138.13098,36.55649],[138.13138,36.55867],[138.13179,36.56036],[138.13229,36.56187],[138.13357,36.56468],[138.13625,36.57142],[138.14027,36.58206],[138.14537,36.59468],[138.14882,36.6038],[138.15141,36.61571],[138.15195,36.6179],[138.15266,36.62049],[138.15388,36.62348],[138.15512,36.62525],[138.15655,36.6267],[138.15788,36.6278],[138.16834,36.63356],[138.17314,36.63639],[138.17422,36.63691],[138.17565,36.63747],[138.17713,36.63786],[138.17942,36.63824],[138.18146,36.63878],[138.18279,36.63933],[138.18431,36.6401],[138.18749,36.64188]],[[138.46582,36.27867],[138.46347,36.27763]],[[138.46347,36.27763],[138.45681,36.27476],[138.45308,36.27349],[138.45032,36.2728],[138.44697,36.27219],[138.44285,36.27174],[138.4406,36.27169],[138.43558,36.27188],[138.43301,36.2722],[138.42969,36.27285],[138.4267,36.27364],[138.4233,36.27478],[138.41996,36.27626],[138.41779,36.27738],[138.4131,36.28015],[138.37361,36.3043],[138.36921,36.30688],[138.3471,36.32029],[138.32755,36.33125],[138.28913,36.35253],[138.28172,36.35724],[138.28077,36.35793],[138.27947,36.35903],[138.27774,36.36074],[138.27553,36.36326],[138.27413,36.36516],[138.27066,36.37136],[138.26853,36.37605],[138.26738,36.37838],[138.26618,36.38053],[138.26494,36.38231],[138.26322,36.38422],[138.25672,36.39047],[138.25525,36.39183],[138.25133,36.39518]],[[138.46582,36.27867],[138.47634,36.28335],[138.47971,36.2852],[138.48268,36.28701],[138.4921,36.2934],[138.50262,36.30035],[138.50805,36.30373],[138.51146,36.30548],[138.51387,36.3066],[138.52689,36.3115],[138.52881,36.31232],[138.53279,36.3142],[138.536,36.31599],[138.54017,36.31863],[138.54317,36.32076],[138.54437,36.32171],[138.54848,36.32539],[138.55178,36.3282],[138.55283,36.32907],[138.55528,36.33088],[138.5568,36.33188],[138.55996,36.33371],[138.56235,36.33487],[138.56426,36.33568],[138.5689,36.33723],[138.57373,36.33841],[138.58485,36.34024],[138.60051,36.3426],[138.60487,36.34317],[138.60636,36.34326],[138.61077,36.34324],[138.62964,36.34288],[138.63319,36.34264]],[[138.19025,36.64375],[138.19073,36.64407],[138.19368,36.64651],[138.19622,36.64818],[138.19856,36.64999],[138.20473,36.65412],[138.23492,36.67332],[138.24525,36.67941],[138.24734,36.68079],[138.25011,36.68287],[138.26763,36.69864],[138.26871,36.69957],[138.27096,36.70127],[138.29456,36.71617],[138.30107,36.72015],[138.30391,36.72167],[138.30572,36.72251],[138.31822,36.72801],[138.321,36.72955],[138.32603,36.73307],[138.32902,36.73585],[138.33086,36.7377],[138.33313,36.74063],[138.33444,36.74267],[138.33615,36.74589],[138.33692,36.74764],[138.33773,36.75002],[138.33827,36.75201],[138.33859,36.75371],[138.33958,36.76195],[138.34002,36.76439],[138.34053,36.76658],[138.34114,36.76852],[138.34202,36.77078],[138.34341,36.77356],[138.34487,36.776],[138.34668,36.77835],[138.34821,36.78014],[138.34997,36.78198],[138.35199,36.78378],[138.3608,36.79056],[138.3621,36.79166],[138.36483,36.79424],[138.36634,36.79591],[138.36841,36.79867],[138.37003,36.80117],[138.37172,36.80469],[138.37274,36.80742],[138.37337,36.80978],[138.37378,36.81215],[138.37401,36.81432],[138.37407,36.81643],[138.37375,36.82043],[138.37338,36.82247],[138.37241,36.82588],[138.37165,36.82791],[138.37008,36.83106],[138.3682,36.834],[138.36569,36.83723],[138.35998,36.84398]],[[138.35998,36.84398],[138.35804,36.8463]],[[138.35804,36.8463],[138.31499,36.89756],[138.30562,36.90881],[138.30375,36.91146],[138.30173,36.915],[138.30067,36.91724],[138.29947,36.92028],[138.29874,36.92259],[138.29824,36.9247],[138.29769,36.92833],[138.29746,36.93179],[138.29615,36.961],[138.29613,36.96381],[138.29626,36.96616],[138.29656,36.96883],[138.30168,37.00101],[138.30348,37.01278],[138.30354,37.01495],[138.30348,37.0176],[138.30314,37.02032],[138.30241,37.02341],[138.30164,37.02573],[138.30036,37.0287],[138.29866,37.03169],[138.28606,37.0492],[138.28397,37.0518],[138.28166,37.05437],[138.27914,37.05676],[138.27553,37.05972],[138.27026,37.06328],[138.26331,37.06779],[138.26146,37.06918],[138.25897,37.07132],[138.2496,37.08026]],[[138.2496,37.08026],[138.24734,37.08247]]]}}