{"type":"Feature","properties":{"id":"東日本旅客鉄道_中央線","name":"中央線","operator":"東日本旅客鉄道","railType":"普通鉄道(JR)","operatorType":"JR在来線","category":"rail","attribution":"国土数値情報（鉄道データ）国土交通省"},"geometry":{"type":"MultiLineString","coordinates":[[[139.76372,35.69995],[139.76634,35.69926]],[[139.77159,35.69345],[139.77167,35.69448],[139.77161,35.69552],[139.7712,35.69624],[139.77052,35.69696],[139.76889,35.69815],[139.76755,35.69883]],[[139.76755,35.69883],[139.76634,35.69926]],[[139.77121,35.69258],[139.77159,35.69345]],[[139.77054,35.69096],[139.77121,35.69258]],[[139.66688,35.70579],[139.66433,35.70569]],[[139.66686,35.70598],[139.67323,35.70595]],[[139.66482,35.70551],[139.66189,35.70548],[139.66015,35.70558]],[[139.68626,35.70628],[139.6839,35.70622]],[[139.65078,35.70536],[139.66015,35.70558]],[[139.66735,35.7056],[139.66482,35.70551]],[[139.66735,35.7056],[139.66863,35.70555],[139.67323,35.70595]],[[139.6839,35.70622],[139.67323,35.70595]],[[139.61898,35.7044],[139.62151,35.70446]],[[139.66433,35.70569],[139.66015,35.70558]],[[139.66686,35.70598],[139.66431,35.70593]],[[139.63722,35.70491],[139.63449,35.70485]],[[139.65078,35.70536],[139.64862,35.70529]],[[139.62151,35.70446],[139.63449,35.70485]],[[139.66431,35.70593],[139.66015,35.70558]],[[139.64862,35.70529],[139.63722,35.70491]],[[139.73087,35.68661],[139.73021,35.68469]],[[139.73471,35.69079],[139.73255,35.68956],[139.73179,35.6889],[139.73135,35.68807],[139.73087,35.68661]],[[139.73593,35.69152],[139.73471,35.69079]],[[139.75255,35.70209],[139.75494,35.70191]],[[139.73021,35.68469],[139.72971,35.68396],[139.72738,35.68189],[139.72408,35.68044],[139.72309,35.68004],[139.72241,35.67987]],[[139.74574,35.70219],[139.74677,35.70246],[139.75255,35.70209]],[[139.72241,35.67987],[139.71979,35.68006]],[[139.75494,35.70191],[139.75762,35.70136],[139.76056,35.7014],[139.76104,35.70132],[139.76174,35.7011],[139.76327,35.70014],[139.76372,35.69995]],[[139.74574,35.70219],[139.74503,35.70177],[139.74421,35.70091]],[[139.71979,35.68006],[139.71279,35.68101]],[[139.74303,35.6994],[139.74131,35.69727],[139.7394,35.69465],[139.73814,35.69309],[139.73667,35.69194],[139.73593,35.69152]],[[139.70203,35.6845],[139.70239,35.68309]],[[139.70068,35.69107],[139.70049,35.69197],[139.70019,35.69273],[139.69986,35.69391],[139.69976,35.69546],[139.69933,35.69655],[139.69881,35.69838],[139.69801,35.69978]],[[139.70055,35.68931],[139.70068,35.69107]],[[139.71279,35.68101],[139.71027,35.68138]],[[139.70275,35.68262],[139.70239,35.68309]],[[139.71027,35.68138],[139.70951,35.68153],[139.70538,35.68138],[139.70486,35.68147],[139.70394,35.68179],[139.70342,35.68207],[139.70275,35.68262]],[[139.70275,35.68262],[139.70209,35.68514],[139.7011,35.68735],[139.70055,35.68931]],[[139.69688,35.70149],[139.6961,35.70247],[139.6944,35.70396],[139.69332,35.70466],[139.69272,35.70495],[139.69073,35.70563],[139.68944,35.70591],[139.68787,35.70617],[139.68626,35.70628]],[[139.69801,35.69978],[139.69688,35.70149]],[[139.48235,35.70018],[139.47936,35.70011]],[[139.4671,35.69978],[139.46475,35.69968]],[[139.41516,35.69803],[139.41708,35.69808]],[[139.54228,35.70204],[139.54483,35.70214]],[[139.52247,35.70152],[139.52505,35.7016]],[[139.57861,35.70311],[139.58101,35.70317]],[[139.50481,35.70097],[139.50705,35.7011]],[[139.54483,35.70214],[139.55959,35.70268]],[[139.59833,35.70373],[139.60057,35.70384]],[[139.44773,35.69923],[139.4451,35.69916]],[[139.41708,35.69808],[139.4259,35.69857],[139.4451,35.69916]],[[139.58101,35.70317],[139.58577,35.70338],[139.59833,35.70373]],[[139.56169,35.70271],[139.57861,35.70311]],[[139.47936,35.70011],[139.47603,35.7001],[139.4671,35.69978]],[[139.44773,35.69923],[139.46278,35.6997],[139.46475,35.69968]],[[139.60057,35.70384],[139.60853,35.70403],[139.61898,35.7044]],[[139.39383,35.67931],[139.40095,35.69273],[139.40205,35.69454],[139.40294,35.69555],[139.40372,35.6962],[139.40492,35.69693],[139.40592,35.6974],[139.40717,35.69781],[139.40793,35.69796],[139.40935,35.69805],[139.41053,35.698],[139.41237,35.69775]],[[139.50705,35.7011],[139.52247,35.70152]],[[139.48235,35.70018],[139.48377,35.70033],[139.50481,35.70097]],[[139.41516,35.69778],[139.41237,35.69775]],[[139.52505,35.7016],[139.54228,35.70204]],[[139.41516,35.69803],[139.41238,35.69802]],[[139.55959,35.70268],[139.56169,35.70271]],[[139.41516,35.69778],[139.41708,35.69808]],[[139.39303,35.67778],[139.39245,35.67641],[139.39013,35.66802],[139.38983,35.66715],[139.3892,35.66592],[139.38815,35.66443],[139.38642,35.6627],[139.38499,35.66169],[139.38242,35.66008]],[[139.38049,35.65882],[139.38242,35.66008]],[[139.39383,35.67931],[139.39303,35.67778]],[[139.33754,35.65574],[139.33328,35.65647],[139.32887,35.657],[139.3205,35.65906],[139.31918,35.65931],[139.31784,35.65921],[139.31694,35.65892],[139.31299,35.65681]],[[139.31299,35.65681],[139.31102,35.65574]],[[139.3401,35.65527],[139.33754,35.65574]],[[139.34577,35.65428],[139.3401,35.65527]],[[138.59802,35.65978],[138.58209,35.66143],[138.57994,35.66179],[138.57938,35.66207],[138.57587,35.66475],[138.57475,35.66549],[138.57337,35.666],[138.57021,35.66677]],[[138.23943,35.91175],[138.2363,35.91278]],[[138.21271,35.92955],[138.21186,35.93042],[138.21089,35.93125]],[[138.46313,35.69994],[138.46379,35.69977],[138.46588,35.699],[138.4695,35.69862],[138.4708,35.69819],[138.47216,35.69752],[138.47284,35.69707],[138.47673,35.69391]],[[138.57021,35.66677],[138.56731,35.66748]],[[138.74112,35.68096],[138.74068,35.68197],[138.7403,35.68323],[138.74015,35.68417],[138.74022,35.68485],[138.7404,35.68523],[138.74174,35.68722],[138.74301,35.69104],[138.74376,35.69254]],[[138.73627,35.70523],[138.73859,35.705],[138.73954,35.70483],[138.74002,35.70466]],[[138.41445,35.74927],[138.41498,35.74745],[138.41543,35.7466],[138.41596,35.74601],[138.41694,35.7453],[138.42005,35.74349],[138.42072,35.74323],[138.42227,35.74304],[138.42357,35.74321]],[[138.63331,35.65748],[138.60764,35.65617],[138.60671,35.65629],[138.60596,35.65657],[138.60059,35.65922]],[[138.31854,35.86334],[138.31431,35.86428]],[[138.19841,35.94167],[138.19652,35.94389]],[[138.6593,35.67372],[138.65866,35.67321]],[[138.41445,35.74927],[138.4155,35.74719],[138.41675,35.74617],[138.41887,35.74489],[138.42131,35.74363],[138.42276,35.74327],[138.42357,35.74321]],[[138.45244,35.70848],[138.45121,35.70989],[138.45036,35.71065]],[[138.73324,35.7055],[138.72669,35.70619],[138.72535,35.70621],[138.72427,35.70597],[138.72275,35.70527],[138.72036,35.70396],[138.70339,35.69452]],[[138.74112,35.68096],[138.74073,35.68267],[138.74058,35.68376],[138.74065,35.68467],[138.7408,35.68518],[138.74103,35.68562],[138.74191,35.68703],[138.74276,35.6893],[138.74352,35.69159],[138.74376,35.69254]],[[138.3951,35.78987],[138.39348,35.79153]],[[138.70339,35.69452],[138.70272,35.69416]],[[138.60059,35.65922],[138.59988,35.65951],[138.59934,35.65963],[138.59802,35.65978]],[[138.45244,35.70848],[138.45564,35.70451],[138.45732,35.70276],[138.4589,35.7019],[138.46313,35.69994]],[[138.11601,36.0478],[138.1146,36.05352],[138.11219,36.05836],[138.11105,36.06041],[138.1106,36.06106],[138.10918,36.06197],[138.10648,36.06328],[138.10578,36.06372],[138.10529,36.06416],[138.10351,36.06638],[138.10326,36.06662],[138.10259,36.06702],[138.10123,36.06757],[138.08784,36.07186],[138.08646,36.07193]],[[138.27643,35.88431],[138.2745,35.88561]],[[138.15088,35.99608],[138.13738,36.01316],[138.13371,36.02135],[138.13318,36.02234],[138.13193,36.02382],[138.12191,36.03489],[138.11917,36.03782],[138.11867,36.03846],[138.118,36.03987],[138.11652,36.04572]],[[138.74002,35.70466],[138.74114,35.704],[138.7425,35.70285],[138.74286,35.70242]],[[138.70272,35.69416],[138.6876,35.68582],[138.68598,35.68516],[138.68435,35.68489]],[[138.56731,35.66748],[138.55901,35.66952],[138.55764,35.66971],[138.55667,35.66974],[138.55094,35.66963],[138.52076,35.66872]],[[138.48855,35.68703],[138.4871,35.68842]],[[138.43256,35.73572],[138.43373,35.73802]],[[138.31854,35.86334],[138.32003,35.86286],[138.32104,35.86229],[138.32168,35.86156],[138.32262,35.85989],[138.32324,35.85912],[138.32378,35.85875],[138.32595,35.8579],[138.32666,35.85751],[138.32708,35.8571],[138.32752,35.85651],[138.32907,35.85426],[138.32978,35.85371],[138.33188,35.85254],[138.33295,35.85173],[138.33326,35.85137],[138.33368,35.85057],[138.33395,35.84975],[138.33427,35.84828],[138.33455,35.84769],[138.3351,35.84708],[138.33592,35.84639],[138.33784,35.84521],[138.33882,35.84487],[138.34024,35.84471],[138.34718,35.84452],[138.34825,35.84477],[138.35039,35.84563],[138.35151,35.84585],[138.35429,35.84585],[138.35995,35.84567],[138.36077,35.84553],[138.36167,35.84511],[138.36316,35.84419],[138.36608,35.84211],[138.36716,35.84119],[138.3675,35.84067],[138.36829,35.83793],[138.36898,35.83681]],[[138.73627,35.70523],[138.73324,35.7055]],[[138.41426,35.74985],[138.41445,35.74927]],[[138.36574,35.82599],[138.36685,35.8278],[138.36726,35.82829]],[[138.6816,35.68521],[138.67895,35.68583],[138.67731,35.68607],[138.67563,35.68598],[138.67516,35.68588],[138.67447,35.6856],[138.6726,35.68434],[138.6593,35.67372]],[[138.11652,36.04572],[138.11601,36.0478]],[[138.65866,35.67321],[138.64075,35.65892],[138.64025,35.65859],[138.63929,35.65813],[138.63846,35.65786],[138.63797,35.65774],[138.63566,35.65757]],[[138.2363,35.91278],[138.23133,35.91441],[138.22983,35.91501],[138.22919,35.91537],[138.22812,35.91635],[138.22618,35.91868],[138.22471,35.91984],[138.21653,35.92491],[138.21531,35.9258],[138.21463,35.92662],[138.2137,35.92835],[138.21271,35.92955]],[[138.31248,35.86497],[138.30621,35.86745],[138.30447,35.86834],[138.30284,35.86954],[138.2905,35.87937],[138.28837,35.88065],[138.28571,35.88179],[138.28263,35.88263],[138.27848,35.88351],[138.2771,35.88396],[138.27643,35.88431]],[[138.31431,35.86428],[138.31248,35.86497]],[[138.74286,35.70242],[138.74337,35.70096],[138.74419,35.69555],[138.74414,35.69408],[138.74376,35.69254]],[[138.36898,35.83681],[138.37016,35.83437],[138.37037,35.83387],[138.37048,35.83331],[138.37046,35.83262],[138.37035,35.8322],[138.36965,35.83082]],[[138.74322,35.67162],[138.74344,35.67086]],[[138.68435,35.68489],[138.68255,35.68504],[138.6816,35.68521]],[[138.2745,35.88561],[138.27298,35.88683],[138.26924,35.89062],[138.26724,35.8928],[138.26581,35.89449],[138.26444,35.89591],[138.26275,35.89703],[138.25515,35.90137],[138.25396,35.90227],[138.25328,35.90301],[138.25296,35.90349],[138.25209,35.90516],[138.25143,35.90623],[138.25103,35.90673],[138.25009,35.90757],[138.24862,35.90857],[138.2469,35.9094],[138.23943,35.91175]],[[138.36726,35.82829],[138.3685,35.8295],[138.36965,35.83082]],[[138.74322,35.67162],[138.74323,35.67288],[138.74334,35.67406]],[[138.21089,35.93125],[138.21006,35.93185],[138.20923,35.9323],[138.20656,35.93339],[138.20506,35.93423],[138.20423,35.93504],[138.20301,35.93675],[138.20239,35.93748],[138.20101,35.93871],[138.19841,35.94167]],[[138.74334,35.67406],[138.74333,35.67484],[138.74319,35.67562],[138.74112,35.68096]],[[138.43256,35.73572],[138.43234,35.73496],[138.43241,35.73357],[138.43271,35.73295],[138.43345,35.73203],[138.43392,35.7316],[138.437,35.72931],[138.43962,35.72766],[138.4406,35.7269],[138.44097,35.72647],[138.44158,35.72499],[138.44194,35.7237],[138.44231,35.72289],[138.44349,35.72102],[138.44517,35.71875],[138.44613,35.71659]],[[138.15264,35.99392],[138.15088,35.99608]],[[138.74002,35.70466],[138.74086,35.70437],[138.74174,35.70378],[138.74263,35.70286],[138.74286,35.70242]],[[138.19652,35.94389],[138.19381,35.94694],[138.19204,35.94847],[138.19008,35.94996],[138.18905,35.95132],[138.1881,35.95278],[138.18755,35.95344],[138.18276,35.95764],[138.17871,35.96155],[138.17666,35.9647],[138.17362,35.96894],[138.17305,35.97049],[138.17231,35.974],[138.17211,35.97444],[138.17144,35.97526],[138.16643,35.98069],[138.16563,35.98126],[138.16442,35.9819],[138.16374,35.98241],[138.15966,35.98658],[138.1589,35.98709],[138.1575,35.9878],[138.15664,35.98843],[138.15563,35.98967],[138.15264,35.99392]],[[138.39348,35.79153],[138.39155,35.79342],[138.39102,35.79378],[138.38123,35.7974],[138.38044,35.79781],[138.37413,35.80252],[138.37322,35.80334],[138.37281,35.80399],[138.3721,35.806],[138.37152,35.80692],[138.36856,35.80996],[138.36617,35.81686],[138.36568,35.81848],[138.36539,35.82001],[138.36506,35.82261],[138.36498,35.82391],[138.36503,35.82433],[138.36529,35.82514],[138.36574,35.82599]],[[138.08646,36.07193],[138.08353,36.072]],[[138.44613,35.71659],[138.44748,35.7148],[138.44837,35.71267],[138.44949,35.71135]],[[138.41352,35.75225],[138.41222,35.75673],[138.412,35.75781],[138.41185,35.75942],[138.41201,35.76111],[138.41224,35.76206],[138.41266,35.76301],[138.41464,35.76524],[138.41517,35.76605],[138.41565,35.76724],[138.41574,35.76804],[138.41565,35.76896],[138.41546,35.76949],[138.41244,35.77631],[138.41183,35.77737],[138.41057,35.77876],[138.40435,35.78379],[138.40327,35.78455],[138.40225,35.7851],[138.39971,35.78604],[138.39854,35.78657],[138.3981,35.78689],[138.3951,35.78987]],[[138.52076,35.66872],[138.51794,35.66863]],[[138.63566,35.65757],[138.63331,35.65748]],[[138.4871,35.68842],[138.48395,35.69067],[138.47673,35.69391]],[[138.46313,35.69994],[138.46629,35.69842],[138.46939,35.69825],[138.47021,35.69805],[138.47087,35.69779],[138.47209,35.69714],[138.47513,35.69477],[138.47673,35.69391]],[[138.41426,35.74985],[138.41352,35.75225]],[[138.44613,35.71659],[138.44622,35.71605],[138.44746,35.71405],[138.44824,35.71248],[138.44854,35.71212],[138.44949,35.71135]],[[138.43373,35.73802],[138.43381,35.73841],[138.43381,35.73917],[138.43367,35.73977],[138.43337,35.74034],[138.43231,35.74184],[138.43184,35.74237],[138.43128,35.74289],[138.43042,35.74343],[138.42957,35.74375],[138.42884,35.74382],[138.42357,35.74321]],[[138.45036,35.71065],[138.44949,35.71135]],[[138.36898,35.83681],[138.36966,35.83599],[138.37041,35.83488],[138.37074,35.83418],[138.37091,35.83355],[138.37092,35.83284],[138.37071,35.83203],[138.37014,35.83118],[138.36965,35.83082]],[[138.88516,35.5944],[138.88367,35.59429],[138.88231,35.59445]],[[139.03632,35.60711],[139.03569,35.60755],[139.03485,35.608]],[[139.07238,35.61407],[139.07139,35.61403]],[[139.11428,35.6179],[139.11285,35.61775],[139.10128,35.61844]],[[139.25207,35.64023],[139.25408,35.63983],[139.25551,35.63969],[139.25698,35.63974],[139.25807,35.63996]],[[138.96693,35.61237],[138.96416,35.6115],[138.96283,35.61144],[138.96191,35.61155],[138.9589,35.61275],[138.95782,35.61308],[138.95485,35.61301],[138.9538,35.61322],[138.95314,35.61355],[138.95099,35.61489],[138.95009,35.61519],[138.94868,35.61542],[138.948,35.61534],[138.94666,35.61495],[138.94406,35.61387]],[[139.12084,35.62018],[139.12309,35.61984],[139.12369,35.61984],[139.12458,35.61993],[139.12712,35.62051],[139.12823,35.62064],[139.13314,35.62057],[139.1353,35.6204],[139.1369,35.62012],[139.13776,35.6198],[139.13844,35.61946],[139.14037,35.61821],[139.14111,35.61784]],[[139.00476,35.6081],[139.00221,35.60798]],[[138.82386,35.60377],[138.82687,35.60421]],[[139.08517,35.61251],[139.08635,35.61296],[139.08755,35.61358],[139.08988,35.61486],[139.09216,35.61632],[139.09258,35.61667],[139.09405,35.61727],[139.09629,35.61802],[139.09739,35.6183],[139.09883,35.61843],[139.10128,35.61844]],[[139.00476,35.6081],[139.0074,35.60825],[139.00875,35.60824],[139.0125,35.60774],[139.01395,35.60735]],[[138.77831,35.64009],[138.78048,35.63966]],[[139.07494,35.6142],[139.07577,35.61418],[139.07666,35.61399],[139.08104,35.6126],[139.08197,35.61238],[139.08364,35.61227],[139.08517,35.61251]],[[139.14111,35.61784],[139.1422,35.61745],[139.14342,35.6172],[139.14698,35.61658],[139.15063,35.61607]],[[139.03846,35.60528],[139.03895,35.60464],[139.04028,35.6036],[139.0413,35.60312],[139.04229,35.60282],[139.04308,35.60274],[139.04453,35.60292],[139.04541,35.60324],[139.05039,35.60607],[139.05068,35.60617],[139.05171,35.60637],[139.05619,35.60693],[139.05688,35.60709],[139.05732,35.6073],[139.06119,35.61031],[139.06331,35.61213],[139.06444,35.61298],[139.06502,35.61321],[139.06706,35.61363],[139.07139,35.61403]],[[139.20444,35.63001],[139.20491,35.63069],[139.20543,35.63114],[139.20604,35.63152],[139.21123,35.63373],[139.21428,35.63493],[139.22267,35.63748],[139.2262,35.63844],[139.22871,35.63901],[139.23121,35.63945],[139.23365,35.63966],[139.23499,35.63959],[139.23959,35.63912],[139.24084,35.63927],[139.24141,35.63943],[139.24335,35.64022],[139.24475,35.64038],[139.24681,35.64027],[139.2492,35.64043],[139.25207,35.64023]],[[139.34577,35.65428],[139.3472,35.65397],[139.34867,35.65349],[139.35192,35.65184],[139.35498,35.65042],[139.35631,35.6501],[139.3574,35.65007],[139.35893,35.65044],[139.36153,35.65168],[139.36259,35.65205],[139.36418,35.65221],[139.36632,35.65198],[139.36762,35.65194],[139.36935,35.65222],[139.37009,35.65248],[139.37166,35.6533],[139.38049,35.65882]],[[139.11653,35.61899],[139.11428,35.6179]],[[138.94406,35.61387],[138.94107,35.61264]],[[139.11653,35.61899],[139.11807,35.61969],[139.11896,35.61998],[139.11954,35.6201],[139.12084,35.62018]],[[139.15063,35.61607],[139.15203,35.61592]],[[139.03846,35.60528],[139.04046,35.60371],[139.04153,35.60324],[139.04275,35.60295],[139.04317,35.60293],[139.0437,35.60296],[139.0447,35.60317],[139.04634,35.60397],[139.05547,35.61012],[139.05648,35.61062],[139.06033,35.61199],[139.06562,35.61371],[139.06771,35.61413],[139.06988,35.61413],[139.07139,35.61403]],[[139.18962,35.61702],[139.19059,35.61694],[139.19161,35.6171]],[[139.19863,35.62174],[139.20238,35.62531],[139.20312,35.6262],[139.20335,35.62657],[139.20372,35.6275],[139.20412,35.62933],[139.20444,35.63001]],[[138.78048,35.63966],[138.78138,35.63948],[138.78276,35.63903]],[[139.07494,35.6142],[139.07238,35.61407]],[[138.81989,35.60415],[138.82188,35.60385],[138.82386,35.60377]],[[139.31102,35.65574],[139.29315,35.64622],[139.29112,35.6454],[139.28394,35.64283]],[[139.25207,35.64023],[139.25581,35.63993],[139.25807,35.63996]],[[139.01395,35.60735],[139.01665,35.60647],[139.01716,35.60638],[139.01837,35.60643],[139.01923,35.60658],[139.02379,35.60799],[139.0298,35.60908],[139.03111,35.60921],[139.03186,35.60913],[139.03296,35.60885],[139.03485,35.608]],[[139.08517,35.61251],[139.08835,35.61429],[139.09247,35.6168],[139.09586,35.61813],[139.09787,35.61856],[139.09989,35.61863],[139.10128,35.61844]],[[138.88231,35.59445],[138.88086,35.59493],[138.87997,35.59509],[138.87446,35.5951],[138.87318,35.59531],[138.87232,35.59574],[138.87161,35.59622],[138.8704,35.59741],[138.86954,35.59811],[138.8674,35.59914],[138.86533,35.60054],[138.86467,35.60079],[138.86194,35.6013],[138.86122,35.60154],[138.86021,35.60212],[138.85944,35.60291],[138.85873,35.60341],[138.85779,35.60399],[138.85733,35.60419],[138.8569,35.60427],[138.85554,35.60439],[138.85401,35.60413],[138.85327,35.60391],[138.85182,35.60329],[138.84978,35.60222],[138.84899,35.60195],[138.84769,35.60179],[138.84445,35.602],[138.84334,35.60235],[138.84292,35.6026],[138.84138,35.60404],[138.84021,35.60492],[138.83962,35.6052],[138.83885,35.60538],[138.83583,35.60569],[138.83251,35.6053],[138.83041,35.60543],[138.82919,35.60522],[138.82814,35.60486],[138.82687,35.60421]],[[138.94107,35.61264],[138.93913,35.61186],[138.93808,35.61128],[138.93749,35.61086],[138.93678,35.61007],[138.93532,35.60766],[138.93477,35.60705],[138.9339,35.60632],[138.93286,35.60577],[138.92638,35.60387],[138.92581,35.60363],[138.923,35.602],[138.92061,35.60094],[138.91772,35.59925],[138.9169,35.59894],[138.91584,35.59874],[138.91148,35.5986],[138.91058,35.59885],[138.90974,35.59933],[138.90919,35.59955],[138.90754,35.59995],[138.90215,35.601],[138.90122,35.6011],[138.90023,35.60101],[138.89918,35.60071],[138.89724,35.59973],[138.89261,35.59844],[138.89221,35.59824],[138.88828,35.59547],[138.88761,35.59507],[138.88696,35.59484],[138.88516,35.5944]],[[139.01395,35.60735],[139.01609,35.60546],[139.01688,35.60498],[139.01771,35.60464],[139.01905,35.60442],[139.02327,35.60438],[139.02527,35.60454],[139.02622,35.60477],[139.027,35.60506],[139.02887,35.60624],[139.03008,35.60734],[139.03072,35.60771],[139.0316,35.60806],[139.03231,35.60821],[139.03315,35.60825],[139.03485,35.608]],[[139.12084,35.62018],[139.12306,35.62025],[139.12541,35.62068],[139.1261,35.62091],[139.12669,35.62094],[139.1353,35.62063],[139.13644,35.62046],[139.13829,35.61978],[139.13943,35.61913],[139.14111,35.61784]],[[139.28133,35.64192],[139.27962,35.64139],[139.27814,35.64119],[139.27687,35.64112],[139.2672,35.642],[139.26637,35.64201],[139.26523,35.64185],[139.25807,35.63996]],[[138.96983,35.61341],[138.96693,35.61237]],[[138.81989,35.60415],[138.81915,35.60446],[138.81854,35.60484],[138.8176,35.60558],[138.81255,35.61059],[138.79957,35.62318],[138.79225,35.63048],[138.78437,35.63807],[138.78363,35.63859],[138.78276,35.63903]],[[138.78276,35.63903],[138.78412,35.63792],[138.79194,35.63034],[138.80079,35.62158],[138.81223,35.61052],[138.81725,35.60552],[138.8179,35.60498],[138.81848,35.60463],[138.81892,35.60441],[138.81989,35.60415]],[[139.15203,35.61592],[139.15813,35.61513]],[[139.19863,35.62174],[139.2042,35.62978],[139.20444,35.63001]],[[139.28394,35.64283],[139.28133,35.64192]],[[139.00221,35.60798],[138.99026,35.60855],[138.98611,35.60887],[138.9855,35.60907],[138.98409,35.60973],[138.97939,35.6125],[138.97803,35.6131],[138.97705,35.61333],[138.97399,35.61379],[138.97233,35.61392],[138.97104,35.61381],[138.96983,35.61341]],[[139.18743,35.61761],[139.18399,35.61856],[139.18102,35.61999],[139.17885,35.62078],[139.17482,35.62189],[139.17414,35.622],[139.1732,35.62202],[139.17169,35.6217],[139.17084,35.62127],[139.16353,35.61644]],[[139.18743,35.61761],[139.18962,35.61702]],[[139.03828,35.60542],[139.03632,35.60711]],[[139.03828,35.60542],[139.03846,35.60528]],[[139.15813,35.61513],[139.15916,35.61498],[139.15995,35.61496],[139.1613,35.61523],[139.16249,35.61574],[139.16353,35.61644]],[[139.15813,35.61513],[139.15969,35.61519],[139.16092,35.6154],[139.16218,35.61578],[139.16353,35.61644]],[[138.74344,35.67086],[138.74373,35.67012],[138.74962,35.66362],[138.75334,35.65926],[138.76473,35.64716],[138.76523,35.64659],[138.76597,35.6453],[138.76667,35.64466],[138.7674,35.64418],[138.76818,35.64395],[138.77171,35.64399],[138.77286,35.64381],[138.77638,35.64072],[138.77696,35.6404],[138.77831,35.64009]],[[138.74344,35.67086],[138.74397,35.67017],[138.7535,35.65971],[138.76564,35.64643],[138.7664,35.64573],[138.76724,35.64513],[138.76792,35.64489],[138.76853,35.64479],[138.7702,35.64472],[138.77161,35.6448],[138.77258,35.64452],[138.77336,35.644],[138.77674,35.64083],[138.77831,35.64009]],[[137.94783,36.1139],[137.94792,36.11571]],[[138.02215,36.03335],[138.02288,36.03486],[138.02357,36.03584],[138.02406,36.03626],[138.02661,36.03784],[138.02731,36.0387],[138.0276,36.03918],[138.02861,36.04147],[138.02889,36.0433],[138.02907,36.0459],[138.02927,36.04664],[138.02956,36.04713],[138.03032,36.04783],[138.03646,36.05216],[138.03771,36.05263],[138.03884,36.05327]],[[138.03444,36.05187],[138.03578,36.05188],[138.037,36.05219],[138.03791,36.0526],[138.03884,36.05327]],[[137.98289,36.09348],[137.98497,36.09161],[137.98773,36.08929],[138.00192,36.07766],[138.03158,36.05283],[138.03261,36.05224],[138.03344,36.05199],[138.03444,36.05187]],[[138.08353,36.072],[138.07485,36.07219],[138.07352,36.07199],[138.05126,36.05977],[138.04638,36.05735]],[[137.99601,35.98394],[137.99494,35.98338]],[[137.99494,35.98338],[137.99396,35.98302],[137.99288,35.98289],[137.99194,35.98304],[137.99118,35.98345],[137.98436,35.9897],[137.98376,35.99006],[137.98169,35.99083],[137.98113,35.99122],[137.98014,35.99237],[137.97722,35.99615],[137.97677,35.99685],[137.97661,35.99746],[137.97625,36.00196],[137.97626,36.0036],[137.97612,36.00452],[137.97533,36.0061],[137.97445,36.0074],[137.97387,36.00852],[137.97373,36.00964],[137.97372,36.01085],[137.97347,36.01148],[137.97251,36.01279]],[[137.97081,36.04799],[137.97096,36.05259],[137.97109,36.0534],[137.9714,36.05443],[137.97398,36.06256],[137.97505,36.0656],[137.97722,36.06946],[137.97783,36.07087],[137.97771,36.08555],[137.9776,36.08755],[137.97741,36.08849],[137.97693,36.08974],[137.97673,36.09007],[137.9762,36.0906],[137.97338,36.09279],[137.9728,36.09311],[137.97212,36.09329],[137.97034,36.09343],[137.96833,36.09374],[137.96719,36.09365],[137.96625,36.09337],[137.96513,36.09257],[137.96414,36.09198],[137.96314,36.09175],[137.96202,36.09176],[137.96138,36.09191],[137.96077,36.09221],[137.96025,36.09259],[137.95953,36.09354],[137.95936,36.09404],[137.95936,36.09476],[137.95957,36.09532],[137.95984,36.09582],[137.96029,36.09631],[137.96237,36.09784],[137.96304,36.09851],[137.96353,36.09958],[137.96351,36.10043],[137.96307,36.10214],[137.96279,36.10265],[137.96236,36.10309],[137.96183,36.10345],[137.95914,36.10423],[137.95854,36.10454],[137.95805,36.10494],[137.95764,36.10543],[137.95642,36.10749]],[[137.94783,36.1139],[137.94784,36.11306],[137.94792,36.11277],[137.94844,36.11202],[137.94896,36.1116],[137.94953,36.11125],[137.95426,36.10892],[137.95598,36.10791],[137.95642,36.10749]],[[137.99601,35.98394],[137.99862,35.98523]],[[137.97251,36.01279],[137.9713,36.0145]],[[137.9713,36.0145],[137.97114,36.015],[137.97113,36.01576],[137.97133,36.01639],[137.97242,36.01895],[137.97256,36.01996],[137.97238,36.02084],[137.97097,36.02419],[137.97071,36.02512],[137.97072,36.02559],[137.9715,36.03112],[137.97146,36.03228],[137.97133,36.03325],[137.97017,36.04052],[137.97072,36.04369],[137.97078,36.04576]],[[138.03444,36.05187],[138.03573,36.05211],[138.037,36.05249],[138.03884,36.05327]],[[137.97078,36.04576],[137.97081,36.04799]],[[137.98289,36.09348],[137.98105,36.09504]],[[138.03884,36.05327],[138.0408,36.05463],[138.04385,36.05617]],[[138.04638,36.05735],[138.04385,36.05617]],[[137.99862,35.98523],[138.00061,35.98628],[138.00101,35.98675],[138.00209,35.98853],[138.00498,35.99174],[138.00582,35.99284],[138.0067,35.99673],[138.0071,35.99774],[138.00765,35.99873],[138.00781,35.99914],[138.00798,35.99998],[138.00796,36.00105],[138.0073,36.00316],[138.00721,36.00425],[138.00738,36.00479],[138.0082,36.00614],[138.00837,36.00655],[138.00894,36.00952],[138.01029,36.01252],[138.01178,36.01488],[138.012,36.01556],[138.01223,36.01735],[138.0124,36.01776],[138.01276,36.01845],[138.01549,36.02248],[138.01659,36.02641],[138.01688,36.02707],[138.01747,36.02783],[138.0215,36.0321],[138.02183,36.03273]],[[137.98105,36.09504],[137.97804,36.09753],[137.97652,36.09867],[137.97425,36.09997],[137.96194,36.10463],[137.95975,36.10553],[137.95856,36.10613],[137.95642,36.10749]],[[138.02215,36.03335],[138.02183,36.03273]],[[138.48855,35.68703],[138.49085,35.68486],[138.49736,35.68095]],[[138.50649,35.66836],[138.50523,35.66857],[138.50366,35.66917],[138.50225,35.67007],[138.5016,35.67081],[138.50098,35.67181],[138.50058,35.67286],[138.49986,35.67697],[138.4994,35.67854],[138.4991,35.67917],[138.4987,35.67975],[138.49799,35.68046],[138.49736,35.68095]],[[138.51794,35.66863],[138.50783,35.66834],[138.50649,35.66836]],[[138.50649,35.66836],[138.50523,35.66867],[138.50373,35.66935],[138.5025,35.6702],[138.50181,35.67095],[138.50124,35.6719],[138.50087,35.67287],[138.50069,35.67383],[138.50037,35.67679],[138.50026,35.67736],[138.49992,35.67831],[138.49941,35.6792],[138.4989,35.67982],[138.49833,35.68034],[138.49736,35.68095]],[[139.19782,35.62093],[139.19863,35.62174]],[[139.19161,35.6171],[139.1923,35.61717],[139.19347,35.61755],[139.19538,35.61863],[139.19616,35.61927],[139.19782,35.62093]],[[139.19161,35.6171],[139.19314,35.61772],[139.19377,35.61812],[139.19578,35.61977],[139.19782,35.62093]],[[139.74421,35.70091],[139.74303,35.6994]]]}}