{"type":"Feature","properties":{"id":"東日本旅客鉄道_青梅線","name":"青梅線","operator":"東日本旅客鉄道","railType":"普通鉄道(JR)","operatorType":"JR在来線","category":"rail","attribution":"国土数値情報（鉄道データ）国土交通省"},"geometry":{"type":"MultiLineString","coordinates":[[[139.41516,35.69803],[139.41238,35.69802]],[[139.3944,35.70324],[139.39192,35.704]],[[139.41599,35.6983],[139.41232,35.69826]],[[139.3944,35.70324],[139.39503,35.70305]],[[139.37679,35.70867],[139.38409,35.70643]],[[139.36292,35.71284],[139.3718,35.7101],[139.37463,35.70933]],[[139.41232,35.69826],[139.41042,35.6983],[139.39503,35.70305]],[[139.37679,35.70867],[139.37463,35.70933]],[[139.3851,35.70612],[139.39192,35.704]],[[139.3851,35.70612],[139.38409,35.70643]],[[139.39503,35.70305],[139.39576,35.7027],[139.39658,35.70213],[139.39847,35.69985],[139.39938,35.69903],[139.40012,35.69858],[139.40104,35.69822],[139.40423,35.69751],[139.40538,35.69729],[139.40605,35.69725],[139.40698,35.69738],[139.40834,35.69778],[139.40975,35.69797],[139.41238,35.69802]],[[139.36035,35.7136],[139.36292,35.71284]],[[139.33429,35.73365],[139.33664,35.7305],[139.34112,35.72421]],[[139.25884,35.7905],[139.25741,35.79059]],[[139.28494,35.78439],[139.28317,35.78516]],[[139.34409,35.72037],[139.34464,35.71955],[139.34536,35.7187],[139.34646,35.71798],[139.34721,35.71766],[139.35085,35.71648],[139.36035,35.7136]],[[139.2249,35.79714],[139.22411,35.79786],[139.2224,35.7992],[139.21645,35.80369]],[[139.18198,35.80138],[139.17878,35.80124],[139.17794,35.80154],[139.17729,35.80206],[139.17711,35.80247],[139.17711,35.80306],[139.17771,35.80531],[139.17784,35.80655],[139.17756,35.80726],[139.17697,35.80786],[139.17613,35.80825],[139.17577,35.80832],[139.17503,35.80828],[139.17413,35.80801],[139.17228,35.80703],[139.1718,35.80698],[139.17097,35.80726],[139.17058,35.80755],[139.16988,35.80847],[139.16899,35.81039],[139.16854,35.811],[139.16795,35.81154],[139.16553,35.81336],[139.16468,35.81374]],[[139.18328,35.80145],[139.18198,35.80138]],[[139.22975,35.78833],[139.22932,35.78896]],[[139.30192,35.77634],[139.30089,35.7771],[139.29989,35.77762],[139.28494,35.78439]],[[139.31588,35.75854],[139.3039,35.77464],[139.30365,35.77495],[139.30263,35.77577]],[[139.33329,35.73502],[139.33429,35.73365]],[[139.32699,35.7435],[139.3285,35.74147]],[[139.21584,35.8042],[139.21335,35.80703],[139.21288,35.8074],[139.21185,35.80799],[139.21098,35.80829],[139.21038,35.8083],[139.20877,35.80801],[139.20798,35.80778]],[[139.12857,35.81493],[139.12568,35.81368],[139.12413,35.81285],[139.12362,35.81268],[139.12247,35.81266],[139.12008,35.81292],[139.11893,35.81292],[139.1166,35.81264],[139.11583,35.81238],[139.11508,35.81197]],[[139.21645,35.80369],[139.21584,35.8042]],[[139.15056,35.81629],[139.149,35.81613],[139.14819,35.81578],[139.14729,35.81519],[139.14691,35.81505],[139.14656,35.81502],[139.14614,35.81505],[139.14533,35.81527],[139.14406,35.81591],[139.14363,35.81603],[139.14282,35.8161],[139.13896,35.816],[139.13813,35.81578],[139.13682,35.8152],[139.136,35.81511],[139.13423,35.81533],[139.13155,35.81584],[139.1303,35.81566],[139.12931,35.81528]],[[139.23776,35.78782],[139.23687,35.78736]],[[139.22537,35.79652],[139.2249,35.79714]],[[139.31672,35.75734],[139.31588,35.75854]],[[139.19291,35.80607],[139.19086,35.80657],[139.19012,35.80668],[139.18892,35.80671],[139.18797,35.80646],[139.18636,35.80557],[139.1858,35.80513],[139.18545,35.80456],[139.18476,35.80252],[139.18455,35.80213],[139.184,35.8017],[139.18328,35.80145]],[[139.27344,35.78951],[139.27217,35.79012]],[[139.20732,35.80738],[139.20642,35.80661],[139.20579,35.80633],[139.20259,35.80554],[139.20133,35.80531],[139.1967,35.80515],[139.19389,35.80583]],[[139.16468,35.81374],[139.16377,35.81379]],[[139.19389,35.80583],[139.19291,35.80607]],[[139.23687,35.78736],[139.23471,35.78641],[139.23263,35.7864],[139.23215,35.7865],[139.23139,35.7869],[139.22975,35.78833]],[[139.09674,35.80968],[139.09714,35.80915]],[[139.22932,35.78896],[139.22884,35.79124],[139.22848,35.79233],[139.2275,35.79376],[139.22659,35.7946],[139.22537,35.79652]],[[139.09714,35.80915],[139.09799,35.8086],[139.09874,35.80845],[139.10754,35.8082],[139.1093,35.80831],[139.11026,35.80855],[139.11156,35.80911],[139.11222,35.80948],[139.11402,35.81082],[139.11458,35.81147]],[[139.11458,35.81147],[139.11508,35.81197]],[[139.20798,35.80778],[139.20732,35.80738]],[[139.25741,35.79059],[139.25203,35.79102],[139.24735,35.79173],[139.2463,35.79176],[139.24439,35.7913],[139.2434,35.79093],[139.23776,35.78782]],[[139.3285,35.74147],[139.33329,35.73502]],[[139.30263,35.77577],[139.30192,35.77634]],[[139.15172,35.81635],[139.15056,35.81629]],[[139.16377,35.81379],[139.16293,35.81351],[139.16228,35.81313],[139.16203,35.81286],[139.16156,35.81185],[139.16104,35.81127],[139.15962,35.81079],[139.1588,35.81069],[139.15829,35.81082],[139.15777,35.81107],[139.15645,35.81189],[139.15609,35.8122],[139.15592,35.81286],[139.15574,35.81418],[139.1555,35.81476],[139.15482,35.81574],[139.15419,35.81613],[139.15351,35.81633],[139.15274,35.81641],[139.15172,35.81635]],[[139.27217,35.79012],[139.27064,35.79083],[139.26954,35.79111],[139.26864,35.79105],[139.26442,35.79003],[139.26315,35.78983],[139.26209,35.78997],[139.26068,35.79034],[139.25884,35.7905]],[[139.31672,35.75734],[139.31986,35.75322],[139.32699,35.7435]],[[139.28317,35.78516],[139.27344,35.78951]],[[139.12931,35.81528],[139.12857,35.81493]],[[139.34112,35.72421],[139.34285,35.72202]],[[139.34285,35.72202],[139.34409,35.72037]]]}}