{"type":"Feature","properties":{"id":"東急電鉄_田園都市線","name":"田園都市線","operator":"東急電鉄","railType":"普通鉄道","operatorType":"民営","category":"rail","attribution":"国土数値情報（鉄道データ）国土交通省"},"geometry":{"type":"MultiLineString","coordinates":[[[139.7021,35.65945],[139.69997,35.65945]],[[139.69997,35.65945],[139.69954,35.65944],[139.69807,35.65909],[139.6976,35.65892],[139.69712,35.65858],[139.6965,35.65794],[139.69481,35.65558],[139.69341,35.65404],[139.69311,35.65383],[139.68714,35.65197],[139.68555,35.65116]],[[139.64658,35.63176],[139.64436,35.63162]],[[139.6704,35.64267],[139.66551,35.63626],[139.66488,35.63568],[139.66177,35.63351]],[[139.68397,35.65031],[139.6796,35.64799],[139.67304,35.64433],[139.67209,35.64391]],[[139.63352,35.62586],[139.63203,35.62382],[139.63186,35.62345],[139.63095,35.62118],[139.62829,35.61338],[139.62784,35.6126]],[[139.62784,35.6126],[139.6273,35.61229]],[[139.64436,35.63162],[139.64201,35.63106],[139.64047,35.63054],[139.6369,35.62826],[139.63507,35.62721]],[[139.68555,35.65116],[139.68397,35.65031]],[[139.66016,35.63256],[139.65803,35.63142],[139.65374,35.63029],[139.65212,35.63066],[139.64895,35.63173],[139.64658,35.63176]],[[139.63507,35.62721],[139.63415,35.62667],[139.63352,35.62586]],[[139.61681,35.60303],[139.61852,35.60389]],[[139.66177,35.63351],[139.66016,35.63256]],[[139.61852,35.60389],[139.62055,35.60502],[139.62099,35.6054],[139.62212,35.60671]],[[139.62212,35.60671],[139.62335,35.6079]],[[139.6255,35.61036],[139.62662,35.61172],[139.6273,35.61229]],[[139.6704,35.64267],[139.67089,35.64323],[139.67158,35.64368],[139.67209,35.64391]],[[139.62335,35.6079],[139.62401,35.60857],[139.6255,35.61036]],[[139.55955,35.57763],[139.5606,35.57777],[139.57025,35.57812],[139.57155,35.57856],[139.57255,35.57921]],[[139.61134,35.60023],[139.61681,35.60303]],[[139.51795,35.54289],[139.51665,35.54282]],[[139.55779,35.57711],[139.55662,35.57654],[139.5561,35.57615],[139.55509,35.57492],[139.55455,35.57386],[139.5544,35.57334],[139.55362,35.56914]],[[139.5417,35.55172],[139.54082,35.55081]],[[139.60619,35.59426],[139.60677,35.59511],[139.60726,35.59633],[139.60809,35.59753],[139.609,35.59859],[139.60978,35.59929]],[[139.58347,35.5851],[139.58616,35.58536],[139.58694,35.58553],[139.58815,35.58591],[139.58993,35.58668]],[[139.55955,35.57763],[139.55884,35.57751],[139.55779,35.57711]],[[139.55362,35.56914],[139.55347,35.56841]],[[139.60513,35.59322],[139.60619,35.59426]],[[139.58153,35.58484],[139.58068,35.58466],[139.57915,35.58419],[139.57721,35.58321],[139.576,35.58229],[139.57376,35.58024]],[[139.59193,35.58757],[139.59418,35.58858],[139.59678,35.58934],[139.5995,35.59026],[139.60396,35.59248],[139.60513,35.59322]],[[139.58993,35.58668],[139.59193,35.58757]],[[139.54082,35.55081],[139.53679,35.54666],[139.53536,35.54574],[139.52933,35.54379],[139.52805,35.54347]],[[139.50506,35.53633],[139.50404,35.53542]],[[139.55347,35.56841],[139.55296,35.56563],[139.55264,35.56119],[139.55163,35.55889]],[[139.52805,35.54347],[139.52711,35.54333]],[[139.57255,35.57921],[139.57376,35.58024]],[[139.55163,35.55889],[139.55119,35.55818]],[[139.58347,35.5851],[139.58153,35.58484]],[[139.51665,35.54282],[139.51534,35.54275],[139.51334,35.54241],[139.51247,35.54215],[139.51065,35.54124],[139.50506,35.53633]],[[139.52711,35.54333],[139.52263,35.54305],[139.52122,35.54306],[139.51795,35.54289]],[[139.55119,35.55818],[139.55019,35.55729],[139.54444,35.55443],[139.54292,35.55319],[139.5417,35.55172]],[[139.60978,35.59929],[139.61089,35.60002],[139.61134,35.60023]],[[139.50404,35.53542],[139.50091,35.53267],[139.49988,35.53213],[139.49913,35.53193],[139.49781,35.53185],[139.49536,35.53185]],[[139.46939,35.51144],[139.47149,35.51159]],[[139.48472,35.52621],[139.48516,35.52792]],[[139.47149,35.51159],[139.47354,35.51193],[139.47426,35.51214],[139.47594,35.51286],[139.47975,35.51513],[139.48042,35.51565],[139.4813,35.51649]],[[139.48516,35.52792],[139.48574,35.52981],[139.48595,35.53024],[139.48654,35.53087],[139.48703,35.53121],[139.48754,35.53143],[139.48854,35.53164],[139.49313,35.53181]],[[139.4813,35.51649],[139.48224,35.51784]],[[139.44594,35.50788],[139.44978,35.50831],[139.45788,35.51036]],[[139.49313,35.53181],[139.49536,35.53185]],[[139.44429,35.50774],[139.44594,35.50788]],[[139.45957,35.51075],[139.46087,35.51096],[139.46939,35.51144]],[[139.45788,35.51036],[139.45957,35.51075]],[[139.48224,35.51784],[139.48304,35.51988],[139.48472,35.52621]]]}}