{"type":"Feature","properties":{"id":"東日本旅客鉄道_気仙沼線","name":"気仙沼線","operator":"東日本旅客鉄道","railType":"普通鉄道(JR)","operatorType":"JR在来線","category":"rail","attribution":"国土数値情報（鉄道データ）国土交通省"},"geometry":{"type":"MultiLineString","coordinates":[[[141.22592,38.55204],[141.22572,38.55328]],[[141.30589,38.61153],[141.30221,38.60921],[141.30144,38.60898],[141.2997,38.60879],[141.28834,38.60836],[141.27175,38.60954],[141.27079,38.60958],[141.26924,38.60948],[141.26762,38.609],[141.26717,38.60881],[141.26639,38.6083],[141.26521,38.60697],[141.26485,38.60607]],[[141.2447,38.58266],[141.2512,38.58462],[141.25204,38.58497],[141.25302,38.58551],[141.25507,38.58725],[141.26031,38.59316],[141.26081,38.59402],[141.26463,38.60541]],[[141.24243,38.582],[141.2447,38.58266]],[[141.30682,38.61212],[141.30589,38.61153]],[[141.26485,38.60607],[141.26463,38.60541]],[[141.22572,38.55328],[141.22542,38.55531],[141.22529,38.55686],[141.22573,38.55893],[141.22621,38.55987],[141.22665,38.56045],[141.22916,38.56301],[141.2297,38.56367],[141.23072,38.56522],[141.23121,38.56638],[141.23134,38.56694],[141.23145,38.56811],[141.2318,38.57506],[141.23189,38.57581],[141.23217,38.57662],[141.23277,38.57752],[141.23327,38.57807],[141.23413,38.5787],[141.24111,38.58154],[141.24243,38.582]],[[141.22062,38.52643],[141.22068,38.52818],[141.22093,38.53045],[141.22652,38.54706],[141.2265,38.54799],[141.22592,38.55204]],[[141.1993,38.51054],[141.20066,38.51055],[141.20181,38.51067],[141.20316,38.51112],[141.20349,38.51132],[141.21941,38.52379],[141.21998,38.52453],[141.22031,38.52534]],[[141.22031,38.52534],[141.22062,38.52643]],[[141.1954,38.51175],[141.1993,38.51054]],[[141.1954,38.51175],[141.19337,38.51243]]]}}