{"type":"Feature","properties":{"id":"東日本旅客鉄道_五能線","name":"五能線","operator":"東日本旅客鉄道","railType":"普通鉄道(JR)","operatorType":"JR在来線","category":"rail","attribution":"国土数値情報（鉄道データ）国土交通省"},"geometry":{"type":"MultiLineString","coordinates":[[[139.95594,40.67498],[139.95632,40.67543],[139.95768,40.67665],[139.95821,40.67741],[139.95859,40.67824],[139.95893,40.67875],[139.96263,40.68109],[139.96441,40.68257],[139.96495,40.68285],[139.96583,40.68301],[139.96801,40.68295],[139.96904,40.68304],[139.96993,40.68334],[139.97025,40.68354],[139.97073,40.68402],[139.97093,40.68455],[139.97081,40.68546],[139.97046,40.68611]],[[140.03406,40.75977],[140.03347,40.75922]],[[139.95549,40.67426],[139.95594,40.67498]],[[140.2203,40.77501],[140.21446,40.76982],[140.21361,40.76937],[140.21263,40.76911],[140.21122,40.76914],[140.2103,40.76942],[140.20983,40.76975],[140.20863,40.77099],[140.20786,40.77227],[140.20716,40.77286],[140.20664,40.77319],[140.20475,40.77369],[140.20378,40.77409],[140.19948,40.77763],[140.19862,40.77816],[140.19765,40.77843],[140.19655,40.77847],[140.19082,40.7778],[140.19009,40.77763],[140.1894,40.77734],[140.18882,40.77695],[140.18834,40.77651],[140.18679,40.77449],[140.18557,40.77364],[140.18437,40.77318],[140.18131,40.7722],[140.17689,40.7714],[140.16953,40.76878],[140.16779,40.76757],[140.16281,40.76216]],[[140.22109,40.7757],[140.2203,40.77501]],[[140.48025,40.6755],[140.47672,40.6785],[140.47606,40.67916],[140.46233,40.69664]],[[140.43549,40.75789],[140.43569,40.75979],[140.43564,40.76129],[140.43419,40.77087],[140.43403,40.77248],[140.43409,40.77361],[140.43441,40.77512],[140.44128,40.79134],[140.44205,40.79234],[140.44396,40.79434],[140.44648,40.79622],[140.44676,40.79648],[140.44727,40.79727],[140.44744,40.79772],[140.44749,40.79833],[140.44697,40.80218],[140.44691,40.80504],[140.44693,40.80541],[140.44776,40.80812]],[[140.49954,40.65416],[140.50063,40.65309]],[[140.16281,40.76216],[140.16209,40.76149]],[[140.03347,40.75922],[140.03297,40.7586],[140.0319,40.75646],[140.03152,40.75591],[140.03103,40.75542],[140.02892,40.75385],[140.02818,40.75301],[140.02764,40.75205],[140.02716,40.75068],[140.02698,40.75041],[140.02663,40.75014],[140.0253,40.7497],[140.02422,40.74954],[140.02311,40.74961],[140.0212,40.75011],[140.02059,40.75017],[140.01981,40.75007],[140.0189,40.74962],[140.01616,40.74737],[140.01464,40.74656],[140.01315,40.74595],[140.00753,40.74415],[140.00728,40.74405],[140.00643,40.74334],[140.00595,40.74311],[140.00534,40.74293],[140.00451,40.74282],[140.00322,40.74239],[140.00257,40.74197],[140.00207,40.74136],[140.00188,40.74051],[140.00186,40.73923],[140.00174,40.73877],[140.00055,40.73699],[139.99995,40.73627],[139.99946,40.73579],[139.99845,40.73513],[139.99654,40.73478],[139.99559,40.73439],[139.99536,40.73418],[139.99494,40.73348],[139.99469,40.73251]],[[140.33984,40.78164],[140.3494,40.78077],[140.35085,40.78078],[140.35288,40.78107],[140.3542,40.78148],[140.35565,40.78215],[140.36417,40.78724]],[[140.29738,40.78735],[140.29849,40.78728]],[[140.44821,40.8095],[140.449,40.81224],[140.44905,40.81302],[140.44894,40.8136],[140.44876,40.81404],[140.4485,40.81449],[140.44811,40.81492],[140.44706,40.81571],[140.44589,40.81618],[140.44303,40.81675],[140.44228,40.81682],[140.44064,40.81674],[140.43891,40.81634],[140.42738,40.81306],[140.42605,40.81256],[140.41765,40.80895],[140.41568,40.80825],[140.41329,40.80783],[140.39904,40.80595],[140.39828,40.80576],[140.38848,40.80257]],[[140.22109,40.7757],[140.22595,40.78004],[140.22672,40.78065],[140.2303,40.78217],[140.2336,40.78388],[140.23782,40.78683],[140.23847,40.78711],[140.23942,40.78727],[140.24066,40.78722],[140.24652,40.78581],[140.25136,40.78443],[140.25253,40.78423],[140.26182,40.78321],[140.26695,40.78229]],[[140.26695,40.78229],[140.26807,40.78206]],[[139.99451,40.73185],[139.99469,40.73251]],[[140.12419,40.7409],[140.12002,40.7395],[140.11892,40.73928],[140.11758,40.73922],[140.11281,40.73932],[140.11117,40.73953],[140.10855,40.74007],[140.10271,40.74157],[140.10082,40.74259],[140.09557,40.74581]],[[140.09459,40.74642],[140.08969,40.7494],[140.08935,40.74967],[140.08862,40.75055],[140.08803,40.75164],[140.08777,40.75248],[140.08785,40.75308],[140.08841,40.75431],[140.08847,40.7551],[140.08803,40.75584],[140.08714,40.75648],[140.08371,40.75759],[140.08276,40.75778],[140.08112,40.75788],[140.07905,40.75818],[140.07772,40.75848],[140.07611,40.75901],[140.07424,40.75984],[140.07282,40.76064],[140.07041,40.76254],[140.06923,40.76386],[140.06869,40.76422],[140.06612,40.76532],[140.06392,40.76609],[140.06123,40.76735],[140.06017,40.76765],[140.05795,40.76805],[140.05694,40.76807],[140.05512,40.76779]],[[139.97046,40.68611],[139.96957,40.68695]],[[140.36532,40.78793],[140.37614,40.79443],[140.37841,40.79641],[140.38152,40.79938],[140.38233,40.80008],[140.38317,40.80067],[140.38394,40.80103],[140.38741,40.80223]],[[140.46141,40.69784],[140.44515,40.71827],[140.4433,40.72073],[140.44237,40.72292],[140.43777,40.73533]],[[140.46233,40.69664],[140.46141,40.69784]],[[139.92968,40.65072],[139.92916,40.64987]],[[140.43528,40.75656],[140.43549,40.75789]],[[140.36417,40.78724],[140.36532,40.78793]],[[139.98352,40.70778],[139.98671,40.71258],[139.98707,40.71319],[139.98753,40.71423],[139.9878,40.71541],[139.98784,40.71627],[139.98774,40.71693],[139.98708,40.71875],[139.9871,40.7195],[139.98724,40.71992],[139.98765,40.72048],[139.98939,40.72191],[139.99024,40.72307],[139.99111,40.72494],[139.9937,40.72912],[139.99421,40.7304],[139.99451,40.73185]],[[140.26807,40.78206],[140.27127,40.78153],[140.27337,40.78135],[140.27513,40.78146],[140.27847,40.78192],[140.2795,40.78214],[140.2838,40.78375],[140.28428,40.78385],[140.28661,40.78402],[140.2877,40.7843],[140.29419,40.78674],[140.29538,40.78711],[140.29624,40.78727],[140.29738,40.78735]],[[139.92968,40.65072],[139.92999,40.65124],[139.93054,40.65185],[139.93128,40.65253],[139.93148,40.65263],[139.93218,40.65287],[139.93306,40.65297],[139.93501,40.65372],[139.93709,40.6542],[139.93762,40.65461],[139.93787,40.65497],[139.93805,40.65554],[139.93776,40.6564],[139.93699,40.65773],[139.9371,40.65837],[139.93794,40.66003],[139.93793,40.6603],[139.93743,40.662],[139.93741,40.66267],[139.93755,40.66303],[139.93801,40.66357],[139.93935,40.66435],[139.94047,40.66587],[139.94088,40.66624],[139.94134,40.66652],[139.94908,40.66933],[139.9512,40.67033],[139.95187,40.67088],[139.95303,40.67268],[139.9533,40.67287],[139.9549,40.67358],[139.95519,40.67381],[139.95549,40.67426]],[[140.43777,40.73533],[140.4373,40.73679]],[[140.48085,40.675],[140.48283,40.67321],[140.48412,40.67179],[140.49609,40.65748],[140.49954,40.65416]],[[140.44776,40.80812],[140.44821,40.8095]],[[140.38848,40.80257],[140.38741,40.80223]],[[140.52083,40.64625],[140.51971,40.64503]],[[140.51971,40.64503],[140.51872,40.64428],[140.51774,40.64387],[140.51291,40.64371],[140.51173,40.64392],[140.5108,40.64425],[140.5103,40.64455],[140.50356,40.65039],[140.50174,40.65199],[140.50063,40.65309]],[[140.05512,40.76779],[140.05425,40.76767]],[[140.29849,40.78728],[140.31068,40.78613],[140.32549,40.78295],[140.3385,40.78176]],[[139.98301,40.70698],[139.98352,40.70778]],[[140.12501,40.74117],[140.12419,40.7409]],[[140.05425,40.76767],[140.05303,40.7675],[140.05235,40.76727],[140.0519,40.76699],[140.05084,40.76598],[140.04952,40.76519],[140.0482,40.76454],[140.0455,40.76347],[140.04417,40.76317],[140.04294,40.76303],[140.04114,40.76298],[140.0399,40.76276],[140.03885,40.76236],[140.03559,40.76076],[140.03406,40.75977]],[[140.09557,40.74581],[140.09459,40.74642]],[[140.4373,40.73679],[140.43417,40.74542],[140.43353,40.7475],[140.43354,40.74795],[140.43443,40.75267],[140.43528,40.75656]],[[139.96957,40.68695],[139.96769,40.68866],[139.96732,40.68959],[139.96729,40.69036],[139.9674,40.69075],[139.96875,40.69265],[139.96924,40.69407],[139.96968,40.69605],[139.96957,40.69672],[139.96937,40.69724],[139.96934,40.69772],[139.96951,40.69848],[139.9697,40.69883],[139.97047,40.69946],[139.97081,40.69963],[139.97286,40.70026],[139.97343,40.70053],[139.97464,40.70155],[139.9755,40.70202],[139.97608,40.70211],[139.97708,40.70207],[139.97793,40.70215],[139.97887,40.70244],[139.97957,40.70294],[139.98206,40.70562],[139.98301,40.70698]],[[140.3385,40.78176],[140.33984,40.78164]],[[140.16209,40.76149],[140.16119,40.76084],[140.15532,40.7578],[140.15448,40.75723],[140.14862,40.75266],[140.14643,40.75135],[140.14204,40.74852],[140.13582,40.74495],[140.1337,40.74409],[140.12501,40.74117]],[[140.48085,40.675],[140.48025,40.6755]],[[140.52239,40.64789],[140.52083,40.64625]],[[139.9503,40.513],[139.94936,40.50555],[139.94934,40.50495],[139.94936,40.50404],[139.9506,40.49679],[139.95059,40.49559],[139.95016,40.49278]],[[139.94674,40.53474],[139.94654,40.53562]],[[139.95016,40.49278],[139.95,40.49206]],[[139.9237,40.58379],[139.92187,40.58552],[139.92082,40.58628],[139.91974,40.58658],[139.91748,40.58672],[139.91696,40.58696],[139.91642,40.58737],[139.91605,40.58755],[139.91508,40.58788],[139.9143,40.58802],[139.91357,40.58798],[139.912,40.58759],[139.9057,40.58712],[139.90191,40.58571],[139.9008,40.58551],[139.90001,40.58548],[139.89842,40.58559],[139.89555,40.58606]],[[139.89128,40.63013],[139.89053,40.62981]],[[139.94654,40.53562],[139.9446,40.54365],[139.94388,40.54786],[139.94371,40.54842],[139.94299,40.55003],[139.94223,40.55115]],[[139.86462,40.6082],[139.86518,40.60889]],[[140.03374,40.25442],[140.03376,40.25612],[140.03679,40.27098]],[[139.8713,40.5933],[139.8717,40.59623],[139.87156,40.59676],[139.86409,40.60474],[139.86359,40.60544],[139.86345,40.60597],[139.86347,40.60638],[139.86361,40.60681],[139.86462,40.6082]],[[140.03679,40.27098],[140.03698,40.27186]],[[140.00187,40.38037],[140.00267,40.37958]],[[139.89053,40.62981],[139.88837,40.62883],[139.88792,40.62853],[139.88512,40.62605],[139.88426,40.6255],[139.88328,40.62507],[139.88042,40.62433],[139.87855,40.62365],[139.87777,40.62311],[139.87713,40.62248],[139.87552,40.62003],[139.87488,40.61939],[139.87018,40.61759],[139.8675,40.61592],[139.86715,40.61561],[139.86682,40.61513],[139.86666,40.61472],[139.86661,40.61427],[139.86666,40.614],[139.86736,40.61236],[139.86739,40.61202],[139.86726,40.61161],[139.86518,40.60889]],[[139.92469,40.58287],[139.9237,40.58379]],[[139.95041,40.51398],[139.95068,40.51591],[139.95068,40.51897],[139.95061,40.51944],[139.94937,40.52463],[139.94674,40.53474]],[[140.03698,40.27186],[140.03799,40.27671],[140.03816,40.27853],[140.03851,40.29139],[140.03825,40.29355],[140.0379,40.29544]],[[139.94223,40.55115],[139.94168,40.55203]],[[139.96587,40.40639],[139.96122,40.40842],[139.95929,40.4094],[139.95497,40.41282],[139.95044,40.41558],[139.94969,40.41616],[139.94928,40.41663],[139.94873,40.41753],[139.94804,40.41936],[139.94739,40.42166],[139.94649,40.42324],[139.94545,40.42438],[139.94343,40.42565],[139.94244,40.42654],[139.94206,40.42704],[139.94156,40.42812],[139.94141,40.42906],[139.94168,40.43115],[139.94167,40.43278],[139.94229,40.43468],[139.94242,40.43583],[139.94242,40.43698],[139.94212,40.43843],[139.941,40.44047],[139.9409,40.44128],[139.94101,40.44315],[139.9404,40.445],[139.94036,40.44567],[139.9406,40.44656],[139.94085,40.44694],[139.94127,40.44742],[139.94269,40.4485],[139.94314,40.44902],[139.94343,40.44957],[139.94347,40.45008],[139.94338,40.4506],[139.94298,40.45177],[139.94288,40.45229],[139.94308,40.45696],[139.9433,40.45772],[139.94376,40.45833],[139.94452,40.45912],[139.94486,40.45963],[139.94506,40.46058],[139.94505,40.46243],[139.94541,40.46379],[139.94551,40.46457],[139.94548,40.46504],[139.94469,40.46689],[139.94473,40.46788],[139.9451,40.46853],[139.94617,40.46955],[139.94646,40.46999],[139.94662,40.47042],[139.94671,40.47098],[139.94668,40.47322],[139.94679,40.47377],[139.94827,40.47785],[139.94811,40.47918],[139.94754,40.48146],[139.9474,40.4825],[139.94742,40.4832],[139.94757,40.48392],[139.948,40.48482],[139.94809,40.48518],[139.94812,40.48565],[139.94788,40.48665],[139.94782,40.4873],[139.94789,40.48773],[139.94802,40.48799],[139.94943,40.49003],[139.9497,40.4906],[139.95,40.49206]],[[139.96671,40.40601],[139.96587,40.40639]],[[139.8713,40.5933],[139.87124,40.59281]],[[140.03768,40.29668],[140.03408,40.31794],[140.03408,40.31937],[140.03438,40.32289],[140.03437,40.3237],[140.03262,40.33167]],[[140.03922,40.2261],[140.03938,40.2303],[140.03936,40.2336],[140.03531,40.24275],[140.03506,40.24346],[140.03487,40.24444],[140.03378,40.25379]],[[140.03378,40.25379],[140.03374,40.25442]],[[139.94168,40.55203],[139.93949,40.5557],[139.93898,40.55624],[139.93838,40.55667],[139.93763,40.557],[139.93686,40.55718],[139.93626,40.55725],[139.93403,40.55726],[139.93346,40.55742],[139.93284,40.55773],[139.9321,40.55833],[139.93187,40.55879],[139.9318,40.55925],[139.9319,40.56017],[139.93213,40.56055],[139.93277,40.56118],[139.9341,40.56281],[139.93433,40.56333],[139.93451,40.56418],[139.93452,40.56497],[139.93271,40.57019],[139.93233,40.57109],[139.93069,40.57376],[139.93053,40.57424],[139.93002,40.57696],[139.92976,40.57775],[139.92819,40.57961],[139.92469,40.58287]],[[140.03262,40.33167],[140.03238,40.33256]],[[140.0176,40.37193],[140.01819,40.37067]],[[139.89445,40.58628],[139.8855,40.58805],[139.87772,40.58824],[139.87652,40.58837],[139.87559,40.5887],[139.87269,40.59032],[139.87231,40.59062],[139.87195,40.59102],[139.87138,40.59188],[139.8712,40.59243],[139.87124,40.59281]],[[140.00267,40.37958],[140.00347,40.37895],[140.00509,40.37793],[140.00646,40.37758],[140.00734,40.37751],[140.00924,40.37766],[140.01094,40.37796],[140.01154,40.37796],[140.01269,40.37772],[140.01347,40.37725],[140.01401,40.37678],[140.01476,40.3759],[140.01718,40.37265],[140.0176,40.37193]],[[140.01819,40.37067],[140.01831,40.36829],[140.01869,40.36722],[140.01899,40.36678],[140.02155,40.36412],[140.02332,40.36164],[140.02437,40.36034],[140.02473,40.35962],[140.02487,40.35914],[140.02487,40.35866],[140.02442,40.35696],[140.02441,40.35628],[140.02454,40.35593],[140.02593,40.35378],[140.02649,40.35323],[140.02712,40.35284],[140.02849,40.35222],[140.02917,40.35134],[140.02944,40.35037],[140.03042,40.34216],[140.03115,40.3373],[140.0316,40.33604],[140.03238,40.33256]],[[140.0379,40.29544],[140.03768,40.29668]],[[139.98868,40.38619],[139.98997,40.38559],[139.99091,40.3853],[139.99334,40.38489],[139.9999,40.38208],[140.00042,40.38178],[140.00187,40.38037]],[[139.92916,40.64987],[139.92852,40.64846],[139.92861,40.64722],[139.92886,40.6469],[139.92994,40.64634],[139.93057,40.6458],[139.93099,40.64514],[139.93124,40.64429],[139.93121,40.64407],[139.93086,40.64323],[139.93012,40.64228],[139.92845,40.64069],[139.92756,40.64002],[139.92677,40.63972],[139.92597,40.63957],[139.92506,40.63968],[139.92447,40.63985],[139.92401,40.6401],[139.92346,40.6406],[139.92197,40.64236],[139.92172,40.64255],[139.92117,40.64277],[139.92051,40.64282],[139.91978,40.64272],[139.91464,40.64135],[139.91328,40.64116],[139.91246,40.64125],[139.9121,40.64137],[139.90676,40.64361],[139.90594,40.64379],[139.90493,40.64376],[139.90416,40.64349],[139.90377,40.64327],[139.90156,40.64127],[139.89983,40.63906],[139.89822,40.63684],[139.89767,40.63631],[139.89574,40.63493],[139.89552,40.63463],[139.89533,40.63409],[139.89525,40.63262],[139.89508,40.63226],[139.89481,40.63193],[139.89422,40.63146],[139.89128,40.63013]],[[139.9503,40.513],[139.95041,40.51398]],[[139.98868,40.38619],[139.98738,40.38679]],[[139.98738,40.38679],[139.98551,40.38765],[139.98473,40.38823],[139.98208,40.39078],[139.98184,40.3911],[139.98158,40.3918],[139.9815,40.39289],[139.98158,40.3936],[139.98209,40.39553],[139.98217,40.39617],[139.98197,40.39711],[139.98151,40.39777],[139.98112,40.39812],[139.97211,40.40229],[139.97042,40.40386],[139.96924,40.40483],[139.96671,40.40601]],[[139.89555,40.58606],[139.89445,40.58628]],[[140.03922,40.22525],[140.03922,40.2261]],[[140.06151,40.19004],[140.05997,40.18966],[140.05721,40.18922],[140.05578,40.1892],[140.05468,40.1893],[140.05327,40.18965],[140.04657,40.19182],[140.04462,40.1925],[140.04355,40.19302],[140.03706,40.19785],[140.03514,40.19936],[140.03416,40.20039],[140.03348,40.20169],[140.03322,40.20561]],[[140.06451,40.19111],[140.06151,40.19004]],[[140.03302,40.20732],[140.03305,40.20817],[140.03318,40.20896],[140.0334,40.20981],[140.0338,40.21078],[140.03875,40.21993],[140.03897,40.22089],[140.03922,40.22525]],[[140.06694,40.19204],[140.06451,40.19111]],[[140.03302,40.20732],[140.03322,40.20561]]]}}