{"type":"Feature","properties":{"id":"東日本旅客鉄道_根岸線","name":"根岸線","operator":"東日本旅客鉄道","railType":"普通鉄道(JR)","operatorType":"JR在来線","category":"rail","attribution":"国土数値情報（鉄道データ）国土交通省"},"geometry":{"type":"MultiLineString","coordinates":[[[139.64685,35.42591],[139.64609,35.42769]],[[139.64263,35.43952],[139.64336,35.43795]],[[139.64609,35.42769],[139.64579,35.42856],[139.64566,35.42943],[139.64541,35.43375],[139.64524,35.43422],[139.64336,35.43795]],[[139.64263,35.43952],[139.64215,35.44037],[139.64117,35.44137],[139.6404,35.44178],[139.63827,35.4427],[139.63686,35.44357]],[[139.62003,35.38606],[139.62061,35.38457],[139.62074,35.38359],[139.62069,35.38267],[139.62019,35.38126],[139.62005,35.38096],[139.61952,35.38032],[139.6187,35.37957],[139.61767,35.37891],[139.61654,35.37846],[139.61318,35.37777],[139.61112,35.37761],[139.60881,35.37802],[139.6037,35.37936],[139.60148,35.37961],[139.60093,35.37964],[139.5997,35.37953],[139.59833,35.37924],[139.59747,35.37897]],[[139.63526,35.44481],[139.63424,35.44588],[139.63297,35.4475],[139.63268,35.448],[139.63208,35.44971],[139.63171,35.45034]],[[139.61785,35.39966],[139.61676,35.39803],[139.61634,35.39718],[139.61593,35.39598],[139.61584,35.39543],[139.61576,35.39299],[139.61581,35.39226],[139.61598,35.39159],[139.6164,35.39068],[139.61884,35.38754]],[[139.6217,35.46467],[139.62335,35.46681]],[[139.63494,35.41557],[139.63454,35.41549],[139.63341,35.41505],[139.62747,35.41206],[139.62577,35.41109],[139.62536,35.41064],[139.62368,35.40835],[139.62111,35.4046],[139.61909,35.40149]],[[139.5771,35.37534],[139.57538,35.37497]],[[139.59747,35.37897],[139.5962,35.37859]],[[139.63686,35.44357],[139.63526,35.44481]],[[139.63005,35.45186],[139.62179,35.46211],[139.6215,35.46271],[139.62143,35.46337],[139.62156,35.46433],[139.6217,35.46467]],[[139.61884,35.38754],[139.62003,35.38606]],[[139.63725,35.41615],[139.64206,35.41722],[139.64331,35.41758],[139.64423,35.41794],[139.64513,35.41841],[139.64599,35.419],[139.64695,35.41994],[139.6474,35.42059],[139.64771,35.42144],[139.64779,35.42285],[139.64776,35.42337],[139.64752,35.42427],[139.64685,35.42591]],[[139.63725,35.41615],[139.63494,35.41557]],[[139.5962,35.37859],[139.59301,35.37767],[139.59166,35.37706],[139.59021,35.37654],[139.58789,35.37599],[139.58607,35.37586],[139.58315,35.37612],[139.58075,35.37609],[139.57991,35.37602],[139.5771,35.37534]],[[139.61909,35.40149],[139.61785,35.39966]],[[139.63005,35.45186],[139.63171,35.45034]],[[139.5512,35.36811],[139.54903,35.3676]],[[139.532,35.35561],[139.53102,35.3526]],[[139.54903,35.3676],[139.54672,35.36711],[139.54532,35.36704],[139.54385,35.36731],[139.53887,35.3686],[139.53748,35.36884],[139.53661,35.36888],[139.53538,35.36884],[139.53468,35.36871],[139.5336,35.36832],[139.53264,35.3678],[139.53219,35.36744],[139.53141,35.36657],[139.53062,35.36521],[139.52977,35.36327],[139.5295,35.3622],[139.52942,35.36145],[139.52953,35.3606],[139.52968,35.36022],[139.52997,35.35971],[139.53168,35.35746],[139.53188,35.35702],[139.53205,35.3564],[139.532,35.35561]],[[139.57538,35.37497],[139.56773,35.3734],[139.56286,35.3722],[139.56061,35.37068],[139.55949,35.37016],[139.55751,35.36958],[139.5512,35.36811]]]}}