{"type":"Feature","properties":{"id":"東日本旅客鉄道_南武線","name":"南武線","operator":"東日本旅客鉄道","railType":"普通鉄道(JR)","operatorType":"JR在来線","category":"rail","attribution":"国土数値情報（鉄道データ）国土交通省"},"geometry":{"type":"MultiLineString","coordinates":[[[139.67515,35.55108],[139.68017,35.53996]],[[139.67094,35.56098],[139.67125,35.56015]],[[139.68017,35.53996],[139.68068,35.53876]],[[139.63035,35.58688],[139.62783,35.58795]],[[139.64284,35.58018],[139.64501,35.57894],[139.6473,35.57777],[139.64861,35.57727],[139.64978,35.57699],[139.65286,35.57662],[139.65925,35.57658]],[[139.62783,35.58795],[139.62245,35.59039],[139.62178,35.59081],[139.6122,35.59818]],[[139.66714,35.57271],[139.66745,35.57164]],[[139.65925,35.57658],[139.66014,35.57655]],[[139.67481,35.55183],[139.67515,35.55108]],[[139.66014,35.57655],[139.66316,35.57652],[139.66394,35.57636],[139.66502,35.57591],[139.66588,35.57528],[139.6664,35.57469],[139.66675,35.57398],[139.66714,35.57271]],[[139.66745,35.57164],[139.66956,35.5645],[139.67029,35.56249],[139.67094,35.56098]],[[139.67125,35.56015],[139.67481,35.55183]],[[139.64144,35.58094],[139.64284,35.58018]],[[139.63035,35.58688],[139.63164,35.58632],[139.64144,35.58094]],[[139.41356,35.69751],[139.41505,35.69756]],[[139.42376,35.69427],[139.42325,35.69588],[139.42285,35.69657],[139.42209,35.69724],[139.42117,35.69773],[139.42003,35.69799],[139.41817,35.69795],[139.41707,35.6979],[139.41505,35.69756]],[[139.42405,35.69331],[139.42376,35.69427]],[[139.4322,35.68499],[139.43098,35.68516]],[[139.51984,35.64207],[139.519,35.64252],[139.5186,35.64264],[139.5177,35.64273],[139.50536,35.64321],[139.50505,35.64327],[139.50338,35.64394]],[[139.61055,35.59945],[139.60999,35.59989],[139.60906,35.60037],[139.60492,35.60127],[139.60136,35.60328]],[[139.60136,35.60328],[139.60008,35.60402]],[[139.55045,35.63015],[139.53675,35.63322]],[[139.53675,35.63322],[139.53512,35.6336]],[[139.52103,35.6414],[139.51984,35.64207]],[[139.56947,35.62101],[139.56896,35.62117],[139.56472,35.62198],[139.56334,35.62252],[139.56241,35.62308],[139.56145,35.62379],[139.56035,35.6249],[139.55864,35.62696],[139.55791,35.62765],[139.55674,35.62845],[139.55611,35.62873],[139.55437,35.62926],[139.5517,35.62989]],[[139.43098,35.68516],[139.42976,35.68532],[139.42849,35.68568],[139.42764,35.68611],[139.42696,35.68677],[139.42631,35.68789],[139.42472,35.69141],[139.42405,35.69331]],[[139.48999,35.64925],[139.49181,35.64933],[139.49284,35.64904],[139.49832,35.64613],[139.50184,35.64461]],[[139.58022,35.61515],[139.57887,35.61569]],[[139.53512,35.6336],[139.534,35.63392],[139.53334,35.63423],[139.52103,35.6414]],[[139.5517,35.62989],[139.55045,35.63015]],[[139.59232,35.61054],[139.58706,35.61357],[139.58605,35.61383],[139.58288,35.61409],[139.58022,35.61515]],[[139.59383,35.60967],[139.59232,35.61054]],[[139.47748,35.66535],[139.47857,35.66222],[139.47894,35.6615],[139.47934,35.6609],[139.47997,35.6602],[139.48189,35.65841],[139.48267,35.65734],[139.48285,35.65692],[139.48393,35.65142],[139.48414,35.65106],[139.48516,35.65019],[139.48622,35.64975],[139.48787,35.64927],[139.4891,35.64918]],[[139.45716,35.67109],[139.45407,35.67312],[139.45359,35.67349],[139.45292,35.67433],[139.45254,35.67564],[139.45249,35.6774],[139.45207,35.67857],[139.45169,35.67911],[139.45081,35.67989],[139.4504,35.68009],[139.44752,35.68111]],[[139.6122,35.59818],[139.61055,35.59945]],[[139.57105,35.62035],[139.56947,35.62101]],[[139.46948,35.66851],[139.46835,35.66833]],[[139.60008,35.60402],[139.59779,35.60533],[139.59738,35.60564],[139.59671,35.60638],[139.59585,35.60805],[139.59549,35.60855],[139.59485,35.60906],[139.59383,35.60967]],[[139.44604,35.68165],[139.44129,35.68341],[139.43956,35.68393],[139.43722,35.68434],[139.4322,35.68499]],[[139.47698,35.66638],[139.47733,35.66581],[139.47748,35.66535]],[[139.57887,35.61569],[139.57446,35.61753],[139.57146,35.62009],[139.57105,35.62035]],[[139.50338,35.64394],[139.50184,35.64461]],[[139.47698,35.66638],[139.47667,35.66705],[139.47639,35.66743],[139.47582,35.6679],[139.47486,35.6684],[139.47355,35.66867],[139.46948,35.66851]],[[139.44752,35.68111],[139.44604,35.68165]],[[139.4891,35.64918],[139.48999,35.64925]],[[139.68401,35.53158],[139.68459,35.53037]],[[139.6853,35.52916],[139.68552,35.52815],[139.68604,35.52715],[139.68659,35.5264],[139.6896,35.52394],[139.69099,35.52323]],[[139.68459,35.53037],[139.6853,35.52916]],[[139.71343,35.51045],[139.71413,35.51032]],[[139.69758,35.532],[139.69604,35.53073]],[[139.69886,35.51859],[139.69966,35.51806]],[[139.69176,35.52291],[139.6941,35.52171],[139.69886,35.51859]],[[139.69966,35.51806],[139.70442,35.51486]],[[139.69099,35.52323],[139.69176,35.52291]],[[139.69246,35.52757],[139.692,35.52729],[139.69076,35.5268],[139.68986,35.5267],[139.68908,35.52678],[139.68648,35.52787],[139.68605,35.52821],[139.6853,35.52916]],[[139.69604,35.53073],[139.69246,35.52757]],[[139.68068,35.53876],[139.68116,35.53758],[139.68401,35.53158]],[[139.45762,35.67078],[139.45716,35.67109]],[[139.46835,35.66833],[139.46504,35.66777],[139.46369,35.66768],[139.46289,35.66774],[139.4621,35.66797],[139.46168,35.66819],[139.45762,35.67078]],[[139.70442,35.51486],[139.70574,35.51397]],[[139.70574,35.51397],[139.70779,35.51259],[139.70863,35.51217],[139.71343,35.51045]]]}}