{"type":"Feature","properties":{"id":"東日本旅客鉄道_高崎線","name":"高崎線","operator":"東日本旅客鉄道","railType":"普通鉄道(JR)","operatorType":"JR在来線","category":"rail","attribution":"国土数値情報（鉄道データ）国土交通省"},"geometry":{"type":"MultiLineString","coordinates":[[[139.43095,36.11504],[139.42931,36.11671],[139.42872,36.11716],[139.42094,36.12221],[139.40666,36.12904],[139.40506,36.13013],[139.39831,36.13526],[139.39463,36.13796],[139.39378,36.1384],[139.39057,36.1396]],[[139.56515,35.99758],[139.5704,35.9926],[139.57652,35.98625]],[[139.39057,36.1396],[139.38928,36.14002]],[[139.45533,36.10217],[139.45188,36.10361]],[[139.47607,36.0864],[139.47784,36.08459]],[[139.60931,35.94168],[139.60973,35.93938]],[[139.43322,36.11275],[139.43095,36.11504]],[[139.38928,36.14002],[139.37866,36.1441],[139.3779,36.14445],[139.36754,36.15405],[139.36598,36.15527],[139.36504,36.15588]],[[139.53448,36.03059],[139.53588,36.02846],[139.53985,36.02377],[139.54849,36.0132],[139.56328,35.99929]],[[139.58781,35.97419],[139.58981,35.97185]],[[139.53261,36.03377],[139.53448,36.03059]],[[139.57863,35.98405],[139.58451,35.97798],[139.58781,35.97419]],[[139.51077,36.05763],[139.51307,36.05471],[139.52303,36.0446],[139.5305,36.03673],[139.53126,36.0358],[139.53261,36.03377]],[[139.51077,36.05763],[139.5084,36.06085]],[[139.45188,36.10361],[139.44945,36.10453],[139.44887,36.10466],[139.44306,36.10546],[139.44192,36.10566],[139.44047,36.10612],[139.43985,36.10644],[139.43884,36.10718],[139.43322,36.11275]],[[139.58981,35.97185],[139.59475,35.96614],[139.59721,35.96315],[139.59798,35.96172],[139.60106,35.95436],[139.60196,35.95247],[139.60788,35.94527],[139.60868,35.94374],[139.60895,35.94304],[139.60931,35.94168]],[[139.45533,36.10217],[139.45887,36.10068],[139.45997,36.10003],[139.46488,36.09373],[139.46628,36.09207],[139.47412,36.08806],[139.47487,36.0875],[139.47607,36.0864]],[[139.56328,35.99929],[139.56515,35.99758]],[[139.47784,36.08459],[139.48189,36.08055],[139.483,36.07967],[139.48407,36.07905],[139.4875,36.07737],[139.50015,36.06996],[139.50183,36.06895],[139.50284,36.06823],[139.50357,36.06747],[139.5084,36.06085]],[[139.57652,35.98625],[139.57863,35.98405]],[[139.60973,35.93938],[139.61033,35.93668],[139.61067,35.93596],[139.61104,35.93542],[139.61474,35.93093]],[[139.62383,35.90782],[139.62287,35.91022],[139.62243,35.91208],[139.62203,35.91316],[139.61996,35.91824],[139.61694,35.92626],[139.61636,35.92829],[139.61555,35.92982],[139.61474,35.93093]],[[139.62491,35.90505],[139.62383,35.90782]],[[139.01249,36.32059],[139.01219,36.32395]],[[139.04751,36.301],[139.04299,36.30264]],[[139.02989,36.3075],[139.03196,36.30691],[139.03713,36.30504],[139.03995,36.30376],[139.04299,36.30264]],[[139.01249,36.32059],[139.01269,36.31823],[139.0129,36.31725],[139.01341,36.31629],[139.01424,36.31541],[139.01659,36.31408],[139.02739,36.30845],[139.02801,36.30815],[139.02989,36.3075]],[[139.05137,36.29961],[139.04751,36.301]],[[139.02989,36.3075],[139.03597,36.30516],[139.03923,36.30379],[139.04299,36.30264]],[[139.32852,36.17515],[139.30283,36.18589],[139.30112,36.18639],[139.28287,36.19097]],[[139.10696,36.27238],[139.10367,36.27383]],[[139.28287,36.19097],[139.27982,36.19172]],[[139.34721,36.16551],[139.34865,36.16463],[139.35231,36.16271],[139.35463,36.16113],[139.35671,36.15995],[139.35946,36.15853],[139.36504,36.15588]],[[139.18975,36.23558],[139.18652,36.23702]],[[139.23926,36.20496],[139.23572,36.20652]],[[139.18652,36.23702],[139.15042,36.25304]],[[139.34721,36.16551],[139.34881,36.16482],[139.3514,36.16349],[139.36151,36.15806],[139.36369,36.15679],[139.36504,36.15588]],[[139.332,36.17369],[139.33491,36.17225],[139.34721,36.16551]],[[139.14761,36.25421],[139.15042,36.25304]],[[139.332,36.17369],[139.32852,36.17515]],[[139.10367,36.27383],[139.08835,36.28056],[139.08682,36.28116],[139.08517,36.28169],[139.07997,36.28287]],[[139.10696,36.27238],[139.11885,36.26717],[139.14761,36.25421]],[[139.23572,36.20652],[139.23106,36.20875],[139.22949,36.20973],[139.22634,36.21191],[139.22277,36.21416],[139.22115,36.21487],[139.21308,36.21775],[139.2115,36.21852],[139.21025,36.2195],[139.19515,36.23303],[139.1946,36.23342],[139.18975,36.23558]],[[139.27982,36.19172],[139.2708,36.1941],[139.2686,36.19438],[139.26598,36.19457],[139.2635,36.19485],[139.2621,36.19511],[139.2603,36.19564],[139.25064,36.19991],[139.24614,36.20202],[139.23926,36.20496]],[[139.05137,36.29961],[139.06314,36.29533]],[[139.06314,36.29533],[139.06455,36.29439],[139.0652,36.29381],[139.06601,36.29292],[139.06677,36.29164],[139.06777,36.28906],[139.06836,36.28785],[139.06903,36.28695],[139.06975,36.28626],[139.07078,36.28552],[139.07229,36.28476],[139.07288,36.28455]],[[139.06314,36.29533],[139.06556,36.29447],[139.06634,36.29412],[139.06711,36.29363],[139.06751,36.29323],[139.06813,36.29245],[139.06853,36.29172],[139.07034,36.28697],[139.07061,36.28645],[139.07112,36.2858],[139.07172,36.28527],[139.07288,36.28455]],[[139.07288,36.28455],[139.07403,36.2842],[139.07997,36.28287]]]}}