{"type":"Feature","properties":{"id":"東海旅客鉄道_名松線","name":"名松線","operator":"東海旅客鉄道","railType":"普通鉄道(JR)","operatorType":"JR在来線","category":"rail","attribution":"国土数値情報（鉄道データ）国土交通省"},"geometry":{"type":"MultiLineString","coordinates":[[[136.53638,34.57617],[136.53518,34.57752]],[[136.53518,34.57752],[136.53278,34.5802],[136.52744,34.58379],[136.52593,34.5855],[136.52432,34.58808],[136.52348,34.58894],[136.52157,34.59001],[136.51757,34.59169]],[[136.49965,34.59782],[136.499,34.59818]],[[136.44673,34.64757],[136.43908,34.65399],[136.43833,34.65437],[136.43648,34.65486]],[[136.31883,34.62567],[136.31962,34.62603]],[[136.41327,34.6428],[136.4123,34.64235]],[[136.51757,34.59169],[136.51479,34.59286],[136.51319,34.59342],[136.50332,34.59592],[136.50217,34.59641],[136.49965,34.59782]],[[136.26035,34.51231],[136.2612,34.51264],[136.26163,34.51271],[136.26237,34.51272],[136.26285,34.51263],[136.26319,34.5125],[136.26719,34.5101],[136.26821,34.50975],[136.26874,34.50975],[136.2695,34.50997],[136.27017,34.51045],[136.2705,34.5109],[136.27065,34.51149],[136.27063,34.51176],[136.26946,34.51765],[136.26949,34.51875],[136.26976,34.51921],[136.27001,34.51944],[136.27059,34.51973],[136.27184,34.52016],[136.27213,34.52036],[136.27256,34.52092],[136.27272,34.52163],[136.27268,34.52213],[136.2723,34.52368],[136.27141,34.52465],[136.27126,34.52492],[136.2712,34.52647],[136.27106,34.52726],[136.26999,34.5285],[136.26973,34.52942],[136.26972,34.53012],[136.26983,34.53049],[136.27066,34.53194]],[[136.26403,34.55542],[136.26445,34.556],[136.26517,34.55675],[136.26699,34.55821],[136.2673,34.55871],[136.26801,34.56036],[136.26853,34.56092],[136.26974,34.56166],[136.27204,34.56257],[136.27253,34.5629],[136.27334,34.56371],[136.27386,34.56408],[136.27466,34.56444],[136.27572,34.56475],[136.27614,34.56501],[136.27639,34.56528],[136.27664,34.56576],[136.27699,34.56679],[136.27743,34.56754],[136.27762,34.56827],[136.27758,34.56867],[136.27699,34.57097],[136.27694,34.5714],[136.27702,34.57211],[136.27723,34.57268],[136.27814,34.57376]],[[136.499,34.59818],[136.4971,34.59931],[136.49348,34.60201],[136.4886,34.60574],[136.48752,34.60682],[136.48715,34.6074],[136.48603,34.60964],[136.48226,34.61745]],[[136.38548,34.64979],[136.38487,34.6502]],[[136.31962,34.62603],[136.32059,34.62649],[136.32269,34.62721],[136.32985,34.62715],[136.33117,34.62737],[136.33183,34.62759],[136.33238,34.62789],[136.33355,34.62887],[136.33504,34.63081],[136.33564,34.63172],[136.33621,34.63301],[136.33671,34.63386],[136.33823,34.63579],[136.33939,34.63742]],[[136.43648,34.65486],[136.43571,34.65493]],[[136.25964,34.51202],[136.26035,34.51231]],[[136.27097,34.53266],[136.27105,34.53288],[136.27103,34.53339],[136.27047,34.53422],[136.26992,34.53457],[136.26901,34.53492],[136.26813,34.53541],[136.26739,34.53615],[136.26678,34.53716],[136.26671,34.53782],[136.26679,34.53907],[136.26697,34.53995],[136.26738,34.54066],[136.26889,34.54254],[136.26914,34.5432],[136.26911,34.54362],[136.26901,34.54389],[136.26867,34.54436],[136.26826,34.54469],[136.26736,34.54512],[136.26708,34.54543],[136.26684,34.54592],[136.26681,34.54653],[136.2676,34.54905],[136.26757,34.54947],[136.26731,34.54995],[136.26709,34.55016],[136.26658,34.55044],[136.26429,34.55067],[136.2637,34.55089],[136.26306,34.55145],[136.26262,34.55218],[136.26254,34.55271],[136.26265,34.55341],[136.26275,34.55365],[136.26357,34.55478]],[[136.48226,34.61745],[136.48197,34.61804]],[[136.4123,34.64235],[136.40891,34.64078],[136.4076,34.64057],[136.40617,34.64076],[136.40234,34.64237],[136.40143,34.64264],[136.40016,34.64264],[136.39862,34.64241],[136.39736,34.64237],[136.39692,34.64243],[136.39574,34.64282],[136.39521,34.64314],[136.38548,34.64979]],[[136.38487,34.6502],[136.3836,34.65102],[136.38255,34.65147],[136.38194,34.65163],[136.3759,34.65224],[136.375,34.65226],[136.37401,34.65204],[136.37272,34.65122],[136.37211,34.65101],[136.3633,34.64996],[136.36261,34.64982],[136.35731,34.64805]],[[136.33939,34.63742],[136.33982,34.63797]],[[136.43571,34.65493],[136.43485,34.65489],[136.43347,34.65461],[136.42582,34.65103],[136.42471,34.65017],[136.42139,34.64664],[136.41327,34.6428]],[[136.35618,34.6476],[136.35731,34.64805]],[[136.30902,34.59968],[136.30941,34.60039]],[[136.44729,34.6471],[136.44673,34.64757]],[[136.27066,34.53194],[136.27097,34.53266]],[[136.48197,34.61804],[136.47981,34.62257],[136.47948,34.62293],[136.46717,34.63313],[136.46657,34.63388],[136.46532,34.63662],[136.46487,34.63713],[136.45324,34.64241],[136.45149,34.64359],[136.44729,34.6471]],[[136.27861,34.57428],[136.27919,34.57513],[136.27965,34.57685],[136.27996,34.57769],[136.28014,34.57795],[136.28103,34.57853],[136.28299,34.57895],[136.28345,34.57912],[136.28779,34.58187],[136.28848,34.58267],[136.28933,34.58469],[136.28986,34.58528],[136.29076,34.58579],[136.29142,34.58598],[136.29338,34.58604],[136.29435,34.5863],[136.29475,34.58659],[136.29503,34.58709],[136.29575,34.58782],[136.29978,34.59112],[136.30504,34.59246],[136.30588,34.59283],[136.30662,34.59331],[136.30706,34.59378],[136.3073,34.59417],[136.30751,34.59474],[136.30774,34.59687],[136.30821,34.59803],[136.30902,34.59968]],[[136.33982,34.63797],[136.34174,34.64051],[136.34234,34.64118],[136.34286,34.64168],[136.34467,34.64308],[136.34651,34.64399],[136.35618,34.6476]],[[136.26357,34.55478],[136.26403,34.55542]],[[136.30941,34.60039],[136.31175,34.60491],[136.31206,34.60575],[136.31242,34.60726],[136.31289,34.60874],[136.3132,34.60918],[136.31628,34.61221],[136.31671,34.61287],[136.31734,34.6143],[136.31833,34.61518],[136.31854,34.61544],[136.31885,34.61612],[136.31884,34.61666],[136.31872,34.61695],[136.31842,34.6174],[136.31803,34.6177],[136.31539,34.61841],[136.31445,34.61902],[136.31392,34.61955],[136.3134,34.62042],[136.31327,34.62101],[136.31325,34.62141],[136.31344,34.62224],[136.31399,34.6231],[136.31471,34.6237],[136.31883,34.62567]],[[136.27814,34.57376],[136.27861,34.57428]]]}}