{"type":"Feature","properties":{"id":"東急電鉄_こどもの国線","name":"こどもの国線","operator":"東急電鉄","railType":"普通鉄道","operatorType":"民営","category":"rail","attribution":"国土数値情報（鉄道データ）国土交通省"},"geometry":{"type":"MultiLineString","coordinates":[[[139.48677,35.55761],[139.48656,35.55839]],[[139.49176,35.54596],[139.49256,35.54524]],[[139.49176,35.54596],[139.49095,35.54674],[139.49079,35.54704],[139.48982,35.55262],[139.4894,35.55326],[139.48805,35.55477],[139.48733,35.55571],[139.48677,35.55761]],[[139.49284,35.53201],[139.4922,35.53216],[139.49183,35.53235],[139.49124,35.53311],[139.49117,35.53351],[139.49127,35.534],[139.494,35.54191],[139.49399,35.54234],[139.49335,35.54419],[139.493,35.54483],[139.49256,35.54524]],[[139.49536,35.53185],[139.49284,35.53201]]]}}