{"type":"Feature","properties":{"id":"東海旅客鉄道_関西線","name":"関西線","operator":"東海旅客鉄道","railType":"普通鉄道(JR)","operatorType":"JR在来線","category":"rail","attribution":"国土数値情報（鉄道データ）国土交通省"},"geometry":{"type":"MultiLineString","coordinates":[[[136.88205,35.16976],[136.88071,35.17227]],[[136.8138,35.1432],[136.82045,35.1441],[136.82799,35.14345],[136.82915,35.14346],[136.83408,35.14436],[136.8437,35.14658]],[[136.65061,34.99749],[136.65423,35.00427],[136.65437,35.00492],[136.65435,35.00549],[136.65418,35.00612],[136.65364,35.00728]],[[136.68353,35.06538],[136.68343,35.06484],[136.68313,35.06406],[136.68256,35.06312],[136.68027,35.06064],[136.67982,35.05992],[136.67737,35.05451],[136.67684,35.05356],[136.67598,35.05273],[136.67427,35.05175],[136.67303,35.05092],[136.67215,35.05013],[136.67172,35.04961],[136.67131,35.04885],[136.67107,35.04818],[136.6707,35.04592],[136.67006,35.04467],[136.66957,35.04403],[136.65826,35.03397]],[[136.72479,35.11353],[136.72455,35.1134]],[[136.72455,35.1134],[136.71916,35.1106],[136.70441,35.10206],[136.6964,35.0985]],[[136.65774,35.0335],[136.65286,35.02912],[136.65249,35.02872],[136.65204,35.02804],[136.65173,35.02726],[136.6516,35.02662],[136.65142,35.02305],[136.65129,35.02243],[136.64921,35.01831],[136.64896,35.01757],[136.64889,35.01659],[136.64906,35.01576],[136.65078,35.01245],[136.65268,35.00904]],[[136.68353,35.06538],[136.68395,35.06796]],[[136.76488,35.13309],[136.76394,35.13259]],[[136.8514,35.14858],[136.85095,35.14844]],[[136.6964,35.0985],[136.69491,35.09784]],[[136.81297,35.1431],[136.8138,35.1432]],[[136.8514,35.14858],[136.85322,35.14905]],[[136.7269,35.1146],[136.72479,35.11353]],[[136.79412,35.14207],[136.79283,35.14189]],[[136.79283,35.14189],[136.78837,35.14116],[136.78436,35.13983],[136.77619,35.13772],[136.76908,35.13529],[136.76488,35.13309]],[[136.65364,35.00728],[136.65268,35.00904]],[[136.8437,35.14658],[136.8454,35.1469],[136.85095,35.14844]],[[136.8437,35.14658],[136.84592,35.14729],[136.8486,35.14798],[136.85095,35.14844]],[[136.81297,35.1431],[136.81089,35.14288],[136.80344,35.14239],[136.8022,35.14238],[136.7989,35.14266],[136.79412,35.14207]],[[136.69491,35.09784],[136.69288,35.09693],[136.69107,35.09625],[136.68974,35.0955],[136.67952,35.08855],[136.67869,35.08765],[136.67825,35.08677],[136.67804,35.08593],[136.67812,35.08478],[136.67861,35.08333],[136.684,35.06968],[136.68412,35.06925],[136.68395,35.06796]],[[136.65061,34.99749],[136.64958,34.99563]],[[136.65774,35.0335],[136.65826,35.03397]],[[136.76394,35.13259],[136.76226,35.13191],[136.76141,35.13166],[136.7567,35.13104],[136.75582,35.13083],[136.75445,35.13028],[136.75356,35.12977],[136.75257,35.12895],[136.74986,35.12581],[136.74858,35.12444],[136.74521,35.12232],[136.74466,35.12201],[136.74315,35.12137],[136.73087,35.11663],[136.7269,35.1146]],[[136.59898,34.9108],[136.59957,34.91167]],[[136.6105,34.94233],[136.60891,34.94077]],[[136.60302,34.91932],[136.60308,34.91775]],[[136.60891,34.94077],[136.60608,34.93795],[136.60537,34.93672],[136.60517,34.93613],[136.60243,34.92513],[136.60235,34.92457],[136.60241,34.92312],[136.60302,34.91932]],[[136.602,34.91563],[136.60269,34.91765],[136.60302,34.91932]],[[136.59957,34.91167],[136.6016,34.9146]],[[136.602,34.91563],[136.60247,34.91627],[136.60271,34.91674],[136.60308,34.91775]],[[136.62932,34.96094],[136.6283,34.95901],[136.62763,34.9582],[136.62687,34.95752],[136.62287,34.95435],[136.6105,34.94233]],[[136.6016,34.9146],[136.60289,34.91659],[136.60313,34.91758],[136.60308,34.91775]],[[136.59927,34.91176],[136.59821,34.91022]],[[136.64958,34.99563],[136.63877,34.9757],[136.63829,34.97457],[136.6378,34.97248],[136.63724,34.97106],[136.63642,34.97009],[136.63297,34.96718],[136.63169,34.96551],[136.63055,34.96349]],[[136.59927,34.91176],[136.602,34.91563]],[[136.6016,34.9146],[136.602,34.91563]],[[136.62932,34.96094],[136.63055,34.96349]],[[136.4919,34.86746],[136.48494,34.85949],[136.48422,34.85856],[136.48327,34.85761],[136.48163,34.85655],[136.47366,34.85273],[136.47137,34.85204],[136.45952,34.84958],[136.45743,34.84951],[136.45237,34.84985]],[[136.49327,34.86907],[136.4919,34.86746]],[[136.59821,34.91022],[136.59429,34.90481],[136.5935,34.90398],[136.59273,34.90352],[136.59227,34.90335],[136.59145,34.90321],[136.58617,34.90359],[136.58468,34.90335],[136.58103,34.90194],[136.57603,34.90015],[136.56861,34.89805]],[[136.45237,34.84985],[136.44867,34.85032]],[[136.56861,34.89805],[136.56746,34.89772]],[[136.52897,34.89018],[136.52733,34.8898],[136.52648,34.88952],[136.52463,34.88867],[136.52396,34.88822],[136.51956,34.88466],[136.51761,34.88322],[136.51268,34.88065],[136.50068,34.875],[136.49588,34.87181],[136.49444,34.87043],[136.49327,34.86907]],[[136.56746,34.89772],[136.56302,34.89649],[136.5604,34.89585],[136.55977,34.89579],[136.55732,34.89582],[136.5554,34.8957],[136.55347,34.89533],[136.55037,34.8946],[136.54672,34.89412],[136.53587,34.89128],[136.53101,34.89046]],[[136.53101,34.89046],[136.52897,34.89018]],[[136.85322,35.14905],[136.85715,35.14995],[136.85963,35.15068],[136.86088,35.15118],[136.86758,35.15428],[136.8702,35.15541]],[[136.8702,35.15541],[136.87205,35.15621],[136.87441,35.15753]],[[136.87441,35.15753],[136.87551,35.15833],[136.87877,35.15994],[136.88043,35.16102],[136.88374,35.16402],[136.88407,35.16441],[136.88429,35.16504],[136.8843,35.1653],[136.88423,35.16584],[136.88402,35.16654],[136.88251,35.16918],[136.88205,35.16976]]]}}