{"type":"Feature","properties":{"id":"東日本旅客鉄道_内房線","name":"内房線","operator":"東日本旅客鉄道","railType":"普通鉄道(JR)","operatorType":"JR在来線","category":"rail","attribution":"国土数値情報（鉄道データ）国土交通省"},"geometry":{"type":"MultiLineString","coordinates":[[[140.13124,35.58113],[140.13023,35.58318]],[[140.11924,35.53545],[140.12083,35.53687]],[[140.1318,35.55114],[140.13257,35.55306]],[[140.13246,35.57866],[140.13124,35.58113]],[[140.13257,35.55306],[140.13468,35.55838],[140.13496,35.55941],[140.13496,35.55976],[140.13392,35.57545],[140.13348,35.57663],[140.13246,35.57866]],[[140.12083,35.53687],[140.1275,35.54275],[140.12881,35.54404],[140.12922,35.54469],[140.1296,35.54557],[140.1318,35.55114]],[[140.10311,35.10702],[140.10431,35.10822]],[[139.83801,35.0453],[139.83877,35.04242],[139.83939,35.04131],[139.83991,35.04072],[139.84702,35.03504],[139.84762,35.03449],[139.84838,35.03361],[139.85077,35.03]],[[140.091,35.51405],[140.11578,35.53251],[140.11924,35.53545]],[[139.83091,35.1981],[139.83266,35.19918],[139.83626,35.20195],[139.83726,35.20235],[139.84345,35.20426],[139.84452,35.2047],[139.84515,35.20506],[139.84594,35.20572],[139.84671,35.20653],[139.8474,35.2075],[139.84767,35.20862],[139.84758,35.21019],[139.84768,35.21061],[139.84814,35.21143],[139.84841,35.21176],[139.84926,35.21244],[139.85052,35.21288],[139.85739,35.21448],[139.85806,35.21459],[139.86129,35.21443],[139.86244,35.21468],[139.86434,35.21533],[139.86649,35.2163],[139.86928,35.21805],[139.87002,35.21897],[139.87049,35.22008],[139.87075,35.22095]],[[139.93439,35.41558],[139.94109,35.42464],[139.94175,35.42533],[139.9426,35.42605],[139.94404,35.4269],[139.94554,35.42753],[139.95616,35.43153]],[[139.82331,35.16766],[139.82581,35.16641],[139.82631,35.16608],[139.82677,35.16556],[139.82711,35.16505],[139.82733,35.16455],[139.82748,35.1641],[139.82934,35.15262],[139.83006,35.15087],[139.8309,35.14969],[139.83296,35.14735],[139.83662,35.14362],[139.83773,35.14207]],[[139.85,35.09214],[139.84974,35.09396]],[[139.93322,35.41399],[139.93439,35.41558]],[[139.92651,35.38517],[139.92894,35.40741],[139.92922,35.40834],[139.92946,35.40876],[139.93322,35.41399]],[[139.92627,35.38289],[139.92651,35.38517]],[[139.8758,35.26092],[139.87454,35.26435],[139.87411,35.26523],[139.8736,35.26588],[139.87148,35.26793],[139.87081,35.26853],[139.87036,35.26875],[139.86869,35.26921],[139.8675,35.26943],[139.86633,35.26986],[139.8654,35.27042],[139.8647,35.2712],[139.8631,35.27393],[139.86201,35.27597],[139.85897,35.28084],[139.85807,35.28265],[139.85774,35.28356],[139.85587,35.29076]],[[140.096,35.08233],[140.09646,35.08064]],[[140.08849,35.51218],[140.091,35.51405]],[[139.83859,35.14086],[139.83773,35.14207]],[[139.90744,35.33166],[139.90809,35.33183],[139.9093,35.33236],[139.91015,35.33303],[139.9109,35.334],[139.91111,35.33463],[139.91117,35.33511],[139.91118,35.33963],[139.91159,35.34082],[139.912,35.34142],[139.91262,35.34199]],[[139.96595,34.99043],[139.96661,34.99227]],[[139.86195,34.995],[139.86186,34.99271],[139.86215,34.99153],[139.86242,34.99105],[139.86295,34.99042],[139.86399,34.98962],[139.86493,34.98923],[139.87049,34.98757],[139.87177,34.98732],[139.87393,34.98736],[139.88371,34.98799],[139.88524,34.98826],[139.88609,34.98853],[139.88701,34.98894],[139.88826,34.98975],[139.88889,34.99038],[139.88915,34.99077],[139.88951,34.99149],[139.89114,34.99546],[139.89169,34.99645],[139.89206,34.99692],[139.8927,34.99747],[139.89319,34.99776],[139.89403,34.9981],[139.89635,34.99841],[139.89807,34.99853],[139.90047,34.99815],[139.90173,34.99814],[139.90263,34.99829],[139.9042,34.99878],[139.90505,34.99893],[139.90616,34.99881],[139.90838,34.99806],[139.91023,34.9977]],[[139.92599,35.38036],[139.92627,35.38289]],[[140.06007,35.0624],[140.05753,35.06214],[140.05636,35.06194],[140.05468,35.06146],[140.05092,35.06015],[140.04201,35.05702],[140.04072,35.0565],[140.03763,35.05461],[140.03699,35.0543],[140.03571,35.05387],[140.03041,35.05238],[140.02959,35.05208],[140.02764,35.05108],[140.02648,35.05063],[140.02571,35.05023],[140.0253,35.04991],[140.02416,35.0486],[140.02337,35.04754],[140.01986,35.04211]],[[139.87075,35.22095],[139.87124,35.22271]],[[139.85587,35.29076],[139.85538,35.29249]],[[139.87124,35.22271],[139.87184,35.22484],[139.87186,35.22546],[139.87177,35.22736],[139.87108,35.23302],[139.87108,35.23371],[139.87121,35.23467],[139.87149,35.23528],[139.87579,35.24023],[139.87754,35.24257],[139.87783,35.24315],[139.87802,35.24382],[139.87798,35.24463],[139.87738,35.24644],[139.87717,35.24751],[139.87738,35.24965],[139.87804,35.25403],[139.87804,35.25469],[139.87796,35.25513],[139.87648,35.25905]],[[140.10311,35.10702],[140.1006,35.10448],[140.1001,35.10409],[140.0977,35.10275],[140.09686,35.10187],[140.09634,35.10097],[140.091,35.08959],[140.09112,35.08888],[140.09169,35.08802],[140.09456,35.08575],[140.09514,35.08514],[140.09541,35.08462],[140.096,35.08233]],[[139.95583,34.97705],[139.9569,34.97747],[139.95751,34.97782],[139.9588,34.97884],[139.96271,34.9831],[139.96355,34.98427],[139.96418,34.98547],[139.96595,34.99043]],[[139.89699,35.33324],[139.90291,35.3317],[139.90404,35.33148],[139.90569,35.33144],[139.90744,35.33166]],[[140.04356,35.47947],[140.05121,35.48341],[140.05222,35.48402],[140.06491,35.49345],[140.07874,35.50213],[140.08029,35.50363],[140.08539,35.50976],[140.08614,35.51046],[140.08849,35.51218]],[[139.89699,35.33324],[139.89444,35.33394]],[[139.8375,35.04716],[139.83801,35.0453]],[[139.99642,35.4508],[139.99443,35.44977]],[[139.83374,35.11322],[139.83308,35.11491]],[[140.01986,35.04211],[140.01936,35.04131]],[[139.85809,35.33008],[139.8532,35.32704],[139.85251,35.32641],[139.85186,35.32562],[139.85154,35.32509],[139.8513,35.32428],[139.85116,35.32337],[139.85043,35.31593],[139.85041,35.3151],[139.85067,35.3135],[139.85382,35.29824],[139.85538,35.29249]],[[140.04024,35.47779],[140.04356,35.47947]],[[139.8375,35.04716],[139.83624,35.05178],[139.8356,35.05274],[139.83387,35.05444],[139.83322,35.05525],[139.83165,35.05782],[139.83103,35.05898],[139.83078,35.05962],[139.83073,35.06005],[139.83074,35.06113],[139.83087,35.06174],[139.83123,35.06268],[139.83276,35.06539],[139.83287,35.06587],[139.83289,35.0673],[139.83313,35.06817],[139.83683,35.07495],[139.83741,35.07582],[139.83942,35.07797],[139.84246,35.08096],[139.84331,35.08153],[139.84725,35.08343],[139.84809,35.08394],[139.8492,35.08489],[139.84991,35.08581],[139.85035,35.08672],[139.85051,35.08742],[139.85,35.09214]],[[139.82331,35.16766],[139.82121,35.16873]],[[139.99642,35.4508],[140.00193,35.45358],[140.0044,35.45507],[140.00779,35.45667],[140.01126,35.4588],[140.01505,35.46057],[140.01823,35.4628],[140.02916,35.46965],[140.03072,35.47101],[140.03277,35.47348],[140.03404,35.4746],[140.04024,35.47779]],[[139.83859,35.14086],[139.83981,35.1391],[139.84026,35.138],[139.84018,35.13699],[139.83948,35.13322],[139.83997,35.13126],[139.84008,35.13007],[139.84003,35.12959],[139.83955,35.12873],[139.83729,35.12562],[139.83589,35.12282],[139.83327,35.11946],[139.83246,35.11818],[139.83233,35.11767],[139.83239,35.117],[139.83308,35.11491]],[[139.83091,35.1981],[139.82915,35.19708]],[[139.89444,35.33394],[139.88593,35.33607],[139.88429,35.33627],[139.88263,35.33627],[139.88159,35.33618],[139.86637,35.33403],[139.86324,35.33312],[139.85967,35.33105]],[[139.85967,35.33105],[139.85809,35.33008]],[[139.91023,34.9977],[139.91256,34.99733]],[[139.82121,35.16873],[139.82033,35.16925],[139.81983,35.16972],[139.81969,35.16998],[139.8192,35.17194],[139.81945,35.17374],[139.81944,35.17417],[139.81908,35.1753],[139.81868,35.17616],[139.81861,35.17657],[139.81857,35.17758],[139.81945,35.17974],[139.81953,35.18084],[139.81945,35.18146],[139.81881,35.18337],[139.81921,35.18622],[139.81964,35.18844],[139.81995,35.18946],[139.82038,35.19033],[139.82063,35.19068],[139.82286,35.193],[139.82345,35.19339],[139.82588,35.19439],[139.82773,35.19566],[139.82864,35.19673],[139.82915,35.19708]],[[139.85203,35.02808],[139.86081,35.01459],[139.86163,35.013],[139.86248,35.00994],[139.8626,35.00873],[139.86203,34.99683]],[[139.85077,35.03],[139.85203,35.02808]],[[140.01936,35.04131],[140.01751,35.03849],[140.01665,35.03777],[140.016,35.03754],[140.015,35.0375],[140.01112,35.03786],[140.01006,35.03766],[140.00914,35.03711],[140.00873,35.03677],[140.00765,35.03494],[140.00729,35.03461],[140.00491,35.03299],[140.00326,35.03208],[140.00254,35.03177],[139.99794,35.03028],[139.99564,35.02903],[139.99359,35.02781],[139.99126,35.02629],[139.9902,35.02575],[139.9856,35.02405],[139.98003,35.02162]],[[139.99443,35.44977],[139.96331,35.43415],[139.95826,35.43228]],[[140.09646,35.08064],[140.0967,35.07944],[140.0966,35.07855],[140.09631,35.07799],[140.09607,35.07774],[140.09521,35.07714],[140.09217,35.07562],[140.09115,35.0754],[140.08584,35.07485],[140.08438,35.07433],[140.08387,35.07403],[140.08348,35.07369],[140.08294,35.07292],[140.08257,35.0712],[140.08225,35.07053],[140.08198,35.07024],[140.08051,35.06929],[140.07929,35.06873],[140.07866,35.06832],[140.07807,35.06767],[140.07722,35.0658],[140.07663,35.06512],[140.07606,35.06473],[140.07548,35.06447],[140.07423,35.0641],[140.07374,35.06386],[140.07335,35.06361],[140.0722,35.06249],[140.07135,35.06181],[140.07059,35.06162],[140.06954,35.06153],[140.06898,35.06156],[140.06849,35.06165],[140.06658,35.06239],[140.06516,35.06268],[140.06405,35.06273],[140.06221,35.0626]],[[139.83374,35.11322],[139.83465,35.11087],[139.83483,35.11056],[139.83519,35.11019],[139.84633,35.10234],[139.84732,35.1016],[139.84842,35.10052],[139.84881,35.09981],[139.84898,35.09932],[139.84974,35.09396]],[[139.95321,34.97671],[139.95412,34.97667],[139.95496,34.9768],[139.95583,34.97705]],[[139.86195,34.995],[139.86203,34.99683]],[[139.91256,34.99733],[139.9166,34.99672],[139.91776,34.99639],[139.91833,34.99592],[139.92053,34.99301],[139.92134,34.99213],[139.92225,34.99158],[139.92666,34.98967],[139.93142,34.98747],[139.93232,34.98721],[139.93496,34.98669],[139.93594,34.98663],[139.93808,34.98675],[139.93878,34.98666],[139.93941,34.9864],[139.94,34.98585],[139.9407,34.98503],[139.94187,34.98337],[139.94225,34.98295],[139.94353,34.98194],[139.94993,34.97769],[139.95167,34.97692],[139.95321,34.97671]],[[139.96661,34.99227],[139.97104,35.00477],[139.97127,35.00607],[139.97128,35.00762],[139.97088,35.01097],[139.97089,35.01126],[139.9712,35.01243],[139.97359,35.0174],[139.97412,35.01831],[139.97476,35.01896],[139.9758,35.01969],[139.97698,35.0203],[139.97811,35.02077]],[[139.98003,35.02162],[139.97811,35.02077]],[[139.90744,35.33166],[139.90825,35.33177],[139.9093,35.33212],[139.90984,35.33242],[139.9104,35.33284],[139.91122,35.33387],[139.91161,35.33498],[139.91168,35.33742],[139.912,35.34073],[139.91229,35.34153],[139.91262,35.34199]],[[140.06221,35.0626],[140.06007,35.0624]],[[139.87648,35.25905],[139.8758,35.26092]],[[139.95826,35.43228],[139.95616,35.43153]],[[139.9188,35.34938],[139.91995,35.35402],[139.92108,35.36023],[139.9213,35.36104],[139.92456,35.36899],[139.92486,35.37045],[139.92599,35.38036]],[[139.91475,35.34361],[139.91635,35.34475],[139.91738,35.34564],[139.91778,35.34631],[139.91816,35.3472],[139.9188,35.34938]],[[139.91262,35.34199],[139.91475,35.34361]],[[139.91475,35.34361],[139.91613,35.34512],[139.91823,35.34835],[139.9188,35.34938]]]}}