{"type":"Feature","properties":{"id":"東日本旅客鉄道_弥彦線","name":"弥彦線","operator":"東日本旅客鉄道","railType":"普通鉄道(JR)","operatorType":"JR在来線","category":"rail","attribution":"国土数値情報（鉄道データ）国土交通省"},"geometry":{"type":"MultiLineString","coordinates":[[[138.87973,37.68775],[138.87745,37.68645]],[[138.83115,37.69904],[138.83241,37.69935]],[[138.85131,37.69081],[138.85202,37.69049]],[[138.9096,37.67947],[138.90891,37.6801]],[[138.83241,37.69935],[138.83472,37.69985],[138.83568,37.69985],[138.84487,37.69796],[138.84608,37.69758],[138.84676,37.69719],[138.84714,37.69685],[138.84766,37.69605],[138.84779,37.69568],[138.84808,37.69343],[138.84854,37.69257],[138.84913,37.69197],[138.84956,37.69168],[138.85131,37.69081]],[[138.85202,37.69049],[138.85888,37.6874],[138.86309,37.68612],[138.871,37.68392],[138.87178,37.68375],[138.87254,37.68383],[138.8738,37.68426],[138.87463,37.6847]],[[138.87463,37.6847],[138.87745,37.68645]],[[138.90891,37.6801],[138.90769,37.68104],[138.90542,37.68217],[138.88761,37.68938],[138.88624,37.68984],[138.88478,37.69],[138.88346,37.68981],[138.88237,37.68932],[138.87973,37.68775]],[[138.9296,37.66752],[138.93143,37.66725],[138.93225,37.66693],[138.93263,37.66668],[138.9332,37.6661],[138.93349,37.6654],[138.93357,37.66488],[138.93352,37.66428],[138.93203,37.6572],[138.93202,37.6562],[138.9323,37.65528],[138.93281,37.65451],[138.93329,37.65398],[138.93878,37.64957]],[[138.9096,37.67947],[138.9209,37.66945],[138.92181,37.66875],[138.92296,37.66823],[138.92386,37.66801],[138.92737,37.66776]],[[138.95638,37.63264],[138.96368,37.6314],[138.96476,37.63113],[138.96553,37.63079],[138.96592,37.6304],[138.96634,37.62974],[138.96706,37.62819],[138.96741,37.62783],[138.96772,37.62764],[138.96841,37.6274],[138.96879,37.62735],[138.97066,37.62757]],[[138.92737,37.66776],[138.9296,37.66752]],[[138.95487,37.63289],[138.95195,37.63346],[138.95124,37.63373],[138.95059,37.63421],[138.95027,37.63466],[138.94983,37.63557],[138.94856,37.63848],[138.94827,37.6397],[138.94798,37.64191],[138.94744,37.64292],[138.94705,37.6433],[138.94009,37.64852]],[[138.95487,37.63289],[138.95638,37.63264]],[[138.93878,37.64957],[138.94009,37.64852]],[[138.97283,37.62809],[138.97066,37.62757]],[[138.97668,37.629],[138.97283,37.62809]]]}}