{"type":"Feature","properties":{"id":"東日本旅客鉄道_成田線","name":"成田線","operator":"東日本旅客鉄道","railType":"普通鉄道(JR)","operatorType":"JR在来線","category":"rail","attribution":"国土数値情報（鉄道データ）国土交通省"},"geometry":{"type":"MultiLineString","coordinates":[[[140.79597,35.73905],[140.79442,35.7397]],[[140.78523,35.74364],[140.79442,35.7397]],[[140.22802,35.7099],[140.2345,35.71076],[140.23537,35.71084],[140.23678,35.7108],[140.23798,35.71052],[140.23919,35.71004],[140.24657,35.7069],[140.24848,35.70648],[140.24952,35.70639],[140.25105,35.7065],[140.25547,35.7073]],[[140.60544,35.84969],[140.60376,35.85027]],[[140.78523,35.74364],[140.78387,35.74447],[140.78252,35.74547],[140.76157,35.76353],[140.76056,35.76433],[140.75978,35.76481]],[[140.65527,35.83993],[140.64939,35.84509],[140.64851,35.84569],[140.64756,35.84607],[140.64369,35.84632],[140.63036,35.84675],[140.622,35.8455],[140.62048,35.84542],[140.61926,35.84545],[140.61714,35.84594],[140.60544,35.84969]],[[140.40971,35.89458],[140.41163,35.89511]],[[140.27661,35.80838],[140.2739,35.81015],[140.26925,35.81661],[140.26178,35.82498],[140.26033,35.82643],[140.25773,35.82825],[140.25231,35.83172],[140.2513,35.8322],[140.24777,35.8335],[140.24343,35.83526]],[[140.31387,35.79527],[140.31443,35.79561],[140.31499,35.7963],[140.31536,35.79663],[140.31604,35.79702],[140.31684,35.79727],[140.32466,35.79661],[140.32547,35.79628]],[[140.34728,35.87646],[140.34845,35.87766]],[[140.49493,35.89413],[140.49669,35.89306],[140.49788,35.89277],[140.49952,35.89253],[140.50285,35.89217],[140.50772,35.89248],[140.51015,35.89279],[140.51167,35.89313],[140.517,35.89521],[140.52194,35.89702],[140.52273,35.89721],[140.52407,35.89738],[140.53112,35.89782]],[[140.27495,35.73119],[140.27586,35.73251]],[[140.27849,35.80717],[140.27661,35.80838]],[[140.24112,35.83617],[140.23865,35.83713],[140.23576,35.83938],[140.23507,35.83971],[140.23457,35.83983],[140.23369,35.8399],[140.23311,35.83986],[140.23078,35.83958],[140.22638,35.83925],[140.22495,35.83904],[140.21683,35.83747],[140.21561,35.83713],[140.2132,35.83599],[140.20159,35.82993],[140.19998,35.82913],[140.19908,35.8288],[140.19816,35.82861],[140.19654,35.82872],[140.19602,35.82887],[140.19542,35.82916],[140.19411,35.83005]],[[140.33967,35.83249],[140.33807,35.83188]],[[140.3871,35.76693],[140.388,35.76828],[140.38893,35.77001],[140.3889,35.77096],[140.38846,35.77178]],[[140.38846,35.77178],[140.38676,35.77414]],[[140.24343,35.83526],[140.24112,35.83617]],[[140.49261,35.89573],[140.49493,35.89413]],[[140.53946,35.89857],[140.54089,35.89854],[140.54207,35.8984],[140.54872,35.89709],[140.55264,35.89612],[140.55498,35.89534],[140.55912,35.89349],[140.56101,35.89255],[140.56217,35.89188],[140.56654,35.88866],[140.56814,35.88735],[140.56959,35.886]],[[140.5337,35.89795],[140.53592,35.89812],[140.53946,35.89857]],[[140.27114,35.71746],[140.27174,35.7179],[140.27227,35.71846],[140.27268,35.71918],[140.27284,35.71991],[140.27277,35.72115],[140.27172,35.72451]],[[140.27114,35.71746],[140.27187,35.71822],[140.27229,35.71891],[140.27258,35.71965],[140.27255,35.72061],[140.27168,35.72357],[140.27172,35.72451]],[[140.65527,35.83993],[140.65638,35.83893]],[[140.34845,35.87766],[140.34953,35.87876],[140.35119,35.88015],[140.3525,35.88082],[140.35395,35.88139],[140.35477,35.88157],[140.3717,35.88409],[140.38982,35.88692],[140.39157,35.88754],[140.40452,35.89314],[140.40971,35.89458]],[[140.5337,35.89795],[140.53112,35.89782]],[[140.31281,35.78287],[140.31201,35.78368],[140.31173,35.78404],[140.31161,35.78437],[140.31159,35.78591],[140.31185,35.7886],[140.31177,35.79096],[140.31197,35.79231],[140.31222,35.79301],[140.31262,35.79365],[140.31387,35.79527]],[[140.38551,35.76452],[140.3871,35.76693]],[[140.25547,35.7073],[140.25674,35.70792],[140.25767,35.7088],[140.25871,35.71097],[140.25899,35.71134],[140.25982,35.71196],[140.2609,35.71257],[140.27114,35.71746]],[[140.72145,35.79245],[140.72034,35.79356]],[[140.41163,35.89511],[140.41441,35.89587],[140.41539,35.89605],[140.41697,35.89614],[140.41833,35.89602],[140.44848,35.88887],[140.45029,35.88846],[140.45196,35.88819],[140.45341,35.88827],[140.45427,35.88845],[140.45516,35.88874],[140.45673,35.88944]],[[140.57076,35.88491],[140.59395,35.86265],[140.5946,35.86176],[140.59525,35.86051],[140.59724,35.85443],[140.59747,35.85393],[140.59819,35.85291],[140.5989,35.85225],[140.60029,35.85142],[140.60091,35.85116],[140.60376,35.85027]],[[140.33967,35.83249],[140.34279,35.83365],[140.34376,35.83425],[140.34451,35.8351],[140.34468,35.83539],[140.34487,35.83607],[140.34507,35.85342],[140.3449,35.85397],[140.34328,35.85756],[140.34295,35.86217],[140.34303,35.86279],[140.34347,35.86359],[140.34605,35.86688],[140.34641,35.86738],[140.3467,35.86798],[140.34686,35.86901],[140.3468,35.86989],[140.34577,35.87231],[140.34564,35.87279],[140.34558,35.87354],[140.3457,35.87422],[140.34613,35.87512],[140.34728,35.87646]],[[140.38449,35.77733],[140.37902,35.78484],[140.3781,35.78588],[140.37691,35.78699],[140.37545,35.78817],[140.37263,35.78995],[140.37171,35.7904],[140.36789,35.79186],[140.36605,35.79236],[140.36312,35.79282],[140.32547,35.79628]],[[140.38676,35.77414],[140.38449,35.77733]],[[140.70194,35.81935],[140.70135,35.8208],[140.70104,35.82133],[140.70036,35.82218],[140.69961,35.82291],[140.69758,35.82475],[140.68829,35.83276],[140.6873,35.83342],[140.68552,35.83428],[140.67989,35.83591],[140.67638,35.83665],[140.6739,35.8368],[140.66255,35.83669],[140.66013,35.83681],[140.65935,35.837],[140.6584,35.83738],[140.65763,35.8379],[140.65638,35.83893]],[[140.57076,35.88491],[140.56959,35.886]],[[140.45673,35.88944],[140.45873,35.89042]],[[140.70236,35.81822],[140.70194,35.81935]],[[140.31278,35.77553],[140.31323,35.77608],[140.31338,35.77638],[140.31429,35.77898]],[[140.27849,35.80717],[140.28608,35.80231],[140.28715,35.80192],[140.28945,35.80141],[140.29083,35.8008],[140.29126,35.8005],[140.29172,35.80003],[140.29302,35.79799],[140.29372,35.79736],[140.29789,35.79548],[140.29858,35.79509],[140.29909,35.79459],[140.29965,35.79366],[140.30101,35.78966],[140.30123,35.78914],[140.30169,35.78843],[140.30214,35.78799],[140.30452,35.78638],[140.3068,35.78426],[140.30756,35.78382],[140.30798,35.7837],[140.30931,35.78354],[140.31091,35.78351],[140.31169,35.78333],[140.31281,35.78287]],[[140.27586,35.73251],[140.27716,35.73432],[140.27812,35.73513],[140.27934,35.73565],[140.28141,35.73619],[140.28502,35.73787],[140.28613,35.73863],[140.28697,35.73957],[140.28856,35.7423],[140.29018,35.7442],[140.29038,35.74453],[140.29119,35.74658],[140.2915,35.74708],[140.29211,35.74771],[140.29262,35.74811],[140.29701,35.75048],[140.30265,35.75339],[140.30554,35.75471],[140.30651,35.75527],[140.30726,35.75598],[140.30756,35.75645],[140.30783,35.75736],[140.30783,35.75835],[140.30768,35.75915],[140.30671,35.76265],[140.30662,35.76373],[140.30679,35.76443],[140.30755,35.7661],[140.30772,35.7667],[140.30757,35.76865],[140.30766,35.76942],[140.30817,35.77057],[140.30888,35.77164],[140.31278,35.77553]],[[140.70236,35.81822],[140.70357,35.81476],[140.70406,35.81374],[140.70609,35.81074],[140.71286,35.8012],[140.71414,35.79967],[140.72034,35.79356]],[[140.75978,35.76481],[140.75878,35.76529],[140.75803,35.76555]],[[140.27172,35.72451],[140.27216,35.72672],[140.27236,35.72732],[140.27268,35.72792],[140.27495,35.73119]],[[140.45873,35.89042],[140.4754,35.89839],[140.47622,35.89898],[140.47861,35.90117],[140.47941,35.90165],[140.4806,35.90202],[140.48105,35.90209],[140.48233,35.90206],[140.48363,35.90174],[140.48423,35.90142],[140.49261,35.89573]],[[140.33807,35.83188],[140.33736,35.8316],[140.33673,35.8312],[140.33597,35.83058],[140.32993,35.82464],[140.32937,35.82361],[140.32721,35.81895],[140.32701,35.81838],[140.3268,35.81317],[140.32669,35.81263],[140.32636,35.81193],[140.32144,35.80379],[140.32084,35.80312],[140.31795,35.8005],[140.31387,35.79527]],[[140.31281,35.78287],[140.3143,35.78136],[140.31453,35.78095],[140.31462,35.78034],[140.31458,35.77995],[140.31429,35.77898]],[[140.72145,35.79245],[140.74375,35.77092],[140.7455,35.76935],[140.74707,35.76839],[140.7488,35.7677],[140.75,35.76737],[140.75551,35.7662],[140.75803,35.76555]],[[140.01224,35.87292],[140.0136,35.87296]],[[140.01224,35.87292],[140.01073,35.8729],[140.00861,35.87269]],[[140.10606,35.8623],[140.10394,35.86204],[140.10248,35.86197],[140.10168,35.86202],[140.10095,35.86219],[140.09591,35.86391],[140.09499,35.86405],[140.09348,35.86401],[140.09064,35.86346],[140.08929,35.86353],[140.08876,35.86368],[140.08181,35.86665],[140.07914,35.86703]],[[140.19411,35.83005],[140.19209,35.83143]],[[140.13339,35.84839],[140.13256,35.85031]],[[140.04648,35.86889],[140.03726,35.86803],[140.03481,35.86807],[140.0254,35.8697],[140.0238,35.87015],[140.02046,35.87246],[140.01933,35.873],[140.01856,35.87311],[140.0136,35.87296]],[[140.19209,35.83143],[140.18943,35.83288],[140.17852,35.83724],[140.17116,35.83878],[140.17005,35.83892],[140.15739,35.83933],[140.15454,35.83972],[140.15375,35.83976],[140.1524,35.83967],[140.15097,35.8392],[140.1493,35.83898]],[[140.13256,35.85031],[140.13104,35.85385],[140.13066,35.85449],[140.12944,35.8562],[140.12848,35.85705],[140.12709,35.85762],[140.12443,35.85814],[140.11223,35.86272],[140.1101,35.86277],[140.10804,35.8625]],[[140.04873,35.86907],[140.04648,35.86889]],[[140.07914,35.86703],[140.07675,35.86736]],[[140.10804,35.8625],[140.10606,35.8623]],[[140.07675,35.86736],[140.0588,35.86982],[140.05803,35.86986],[140.04873,35.86907]],[[140.1493,35.83898],[140.14668,35.83878]],[[140.14668,35.83878],[140.14559,35.8387],[140.14403,35.83875],[140.14314,35.83895],[140.14232,35.83943],[140.13475,35.84567],[140.13432,35.84622],[140.13339,35.84839]],[[140.22555,35.70959],[140.22802,35.7099]]]}}