{"type":"Feature","properties":{"id":"東日本旅客鉄道_武蔵野線","name":"武蔵野線","operator":"東日本旅客鉄道","railType":"普通鉄道(JR)","operatorType":"JR在来線","category":"rail","attribution":"国土数値情報（鉄道データ）国土交通省"},"geometry":{"type":"MultiLineString","coordinates":[[[139.95915,35.70669],[139.95989,35.70775]],[[139.9671,35.72977],[139.96632,35.73115]],[[139.95989,35.70775],[139.96058,35.70912],[139.96123,35.71079],[139.96252,35.71329],[139.96737,35.72015],[139.96792,35.72127],[139.96825,35.72325],[139.96831,35.72629],[139.96826,35.72701],[139.96777,35.72863],[139.9671,35.72977]],[[139.79182,35.87605],[139.8144,35.87586],[139.82125,35.87607]],[[139.90384,35.83825],[139.90138,35.84095],[139.90054,35.84173],[139.89934,35.84257],[139.89781,35.84332],[139.89613,35.8438],[139.89475,35.84405],[139.88763,35.84476]],[[139.87013,35.85784],[139.87545,35.85346],[139.87681,35.85225],[139.87879,35.85024]],[[139.95176,35.7548],[139.95407,35.75184],[139.95507,35.75031],[139.96632,35.73115]],[[139.93867,35.79077],[139.93844,35.79181]],[[139.94362,35.77121],[139.94283,35.77398],[139.93867,35.79077]],[[139.88604,35.84491],[139.88423,35.84538]],[[139.86894,35.85894],[139.87013,35.85784]],[[139.79048,35.87604],[139.79182,35.87605]],[[139.92154,35.82526],[139.92043,35.82585]],[[139.8425,35.87672],[139.84397,35.87653]],[[139.95176,35.7548],[139.9508,35.75601]],[[139.9508,35.75601],[139.94801,35.75951],[139.9472,35.76081],[139.9441,35.76977]],[[139.87879,35.85024],[139.882,35.8469],[139.88278,35.84628],[139.88423,35.84538]],[[139.90462,35.83744],[139.90384,35.83825]],[[139.92043,35.82585],[139.91249,35.82996],[139.91059,35.83112],[139.90923,35.83232],[139.90462,35.83744]],[[139.88763,35.84476],[139.88604,35.84491]],[[139.93844,35.79181],[139.93737,35.7965],[139.93668,35.79893],[139.93124,35.81281],[139.93024,35.81554],[139.92892,35.81875],[139.92812,35.82048],[139.92735,35.82162],[139.9266,35.82235],[139.92502,35.82343],[139.92154,35.82526]],[[139.87879,35.85024],[139.88017,35.84823],[139.88111,35.84712],[139.88285,35.84597],[139.88423,35.84538]],[[139.9441,35.76977],[139.94362,35.77121]],[[139.64717,35.8462],[139.63943,35.84803],[139.63742,35.8482],[139.63582,35.84815],[139.63456,35.84795],[139.6332,35.84754],[139.63213,35.84697],[139.62831,35.84452]],[[139.70398,35.86385],[139.67853,35.8537],[139.67658,35.85263],[139.6695,35.84795]],[[139.74456,35.87527],[139.74764,35.87585],[139.74892,35.87589],[139.77503,35.87605],[139.79048,35.87604]],[[139.74456,35.87527],[139.7435,35.87506]],[[139.7435,35.87506],[139.72594,35.87182],[139.72412,35.87145],[139.72116,35.8707],[139.71882,35.86991],[139.70496,35.86422]],[[139.6487,35.84589],[139.64717,35.8462]],[[139.70496,35.86422],[139.70398,35.86385]],[[139.66838,35.84722],[139.6671,35.8465],[139.66617,35.84614],[139.66487,35.8458],[139.66312,35.84557],[139.66071,35.84549],[139.65548,35.84558],[139.6487,35.84589]],[[139.62831,35.84452],[139.62722,35.84385]],[[139.6695,35.84795],[139.66838,35.84722]],[[139.58656,35.81504],[139.5879,35.8159]],[[139.49393,35.77853],[139.49659,35.78198],[139.49951,35.78548],[139.50638,35.79092],[139.50762,35.7918],[139.51368,35.79451]],[[139.47029,35.73039],[139.4682,35.72414],[139.46779,35.72285],[139.46769,35.72226],[139.4659,35.70343],[139.46584,35.70235],[139.46592,35.70063]],[[139.49358,35.77809],[139.49393,35.77853]],[[139.5154,35.79527],[139.51988,35.79722],[139.52093,35.79755],[139.52777,35.79814],[139.53118,35.79862],[139.55546,35.80368]],[[139.51368,35.79451],[139.5154,35.79527]],[[139.5879,35.8159],[139.59317,35.81935],[139.5952,35.8204],[139.60764,35.82615],[139.60892,35.82689],[139.61119,35.82879],[139.61798,35.83655],[139.62075,35.83959],[139.62177,35.84038],[139.62722,35.84385]],[[139.55712,35.80388],[139.56265,35.80421],[139.56746,35.80474],[139.56941,35.80515],[139.57087,35.80557],[139.57245,35.80615],[139.57413,35.80699],[139.57591,35.80808],[139.58656,35.81504]],[[139.47071,35.73145],[139.47241,35.73708],[139.47487,35.74644],[139.47534,35.74765],[139.47601,35.74905],[139.47815,35.75322],[139.4787,35.75412],[139.48357,35.76441],[139.48467,35.76647],[139.48513,35.76755],[139.48666,35.7693],[139.4905,35.77431],[139.49358,35.77809]],[[139.47071,35.73145],[139.47029,35.73039]],[[139.46592,35.70063],[139.46605,35.69919]],[[139.55546,35.80368],[139.55712,35.80388]],[[139.47158,35.68148],[139.47127,35.68233],[139.46985,35.68551],[139.46644,35.69566],[139.46617,35.69764],[139.46605,35.69919]],[[139.47201,35.68023],[139.47158,35.68148]],[[139.47201,35.68023],[139.47248,35.67836],[139.47361,35.67536],[139.4759,35.6699],[139.47695,35.66675],[139.47698,35.66638]],[[139.47722,35.6653],[139.47698,35.66638]],[[139.82125,35.87607],[139.82327,35.87614]],[[139.82327,35.87614],[139.8425,35.87672]],[[139.84397,35.87653],[139.84616,35.87592],[139.84677,35.87568],[139.84817,35.87492],[139.85417,35.87109],[139.85745,35.86861]],[[139.85879,35.86757],[139.86476,35.86257],[139.86894,35.85894]],[[139.85745,35.86861],[139.85879,35.86757]],[[139.63213,35.84697],[139.63394,35.8483],[139.63444,35.84882],[139.63495,35.84953],[139.63542,35.85037],[139.64366,35.86752],[139.64415,35.86862],[139.64441,35.86957],[139.64445,35.87116],[139.64429,35.87204],[139.64387,35.87321],[139.64201,35.87714],[139.63934,35.88361]],[[139.63934,35.88361],[139.63864,35.88514]]]}}