{"type":"Feature","properties":{"id":"東日本旅客鉄道_水戸線","name":"水戸線","operator":"東日本旅客鉄道","railType":"普通鉄道(JR)","operatorType":"JR在来線","category":"rail","attribution":"国土数値情報（鉄道データ）国土交通省"},"geometry":{"type":"MultiLineString","coordinates":[[[140.2472,36.37285],[140.24564,36.37328]],[[140.21586,36.36933],[140.21421,36.36842]],[[140.21586,36.36933],[140.22941,36.3765],[140.23041,36.37681],[140.23183,36.37687],[140.2331,36.37667],[140.24564,36.37328]],[[140.14395,36.35518],[140.14206,36.35542]],[[140.10987,36.35927],[140.10761,36.35956]],[[140.14206,36.35542],[140.10987,36.35927]],[[140.30745,36.35106],[140.3046,36.34986]],[[140.3046,36.34986],[140.30302,36.34919]],[[140.0399,36.32829],[140.03852,36.32762]],[[140.14395,36.35518],[140.16056,36.35301],[140.16235,36.35267],[140.16357,36.35207],[140.16975,36.34763],[140.17097,36.34708],[140.17209,36.34685],[140.17336,36.34689],[140.17433,36.34712],[140.18639,36.35121]],[[140.18817,36.35184],[140.18905,36.35221],[140.19046,36.35297],[140.19809,36.3574],[140.19926,36.35829],[140.20499,36.36325],[140.20601,36.36399],[140.20723,36.36472],[140.21421,36.36842]],[[140.07289,36.34538],[140.07357,36.34573]],[[140.28929,36.34445],[140.2877,36.34497]],[[140.18817,36.35184],[140.18639,36.35121]],[[140.30302,36.34919],[140.29217,36.34461],[140.2914,36.3444],[140.29039,36.34432],[140.28929,36.34445]],[[140.2877,36.34497],[140.28704,36.34532],[140.27935,36.35025],[140.27813,36.35112],[140.27111,36.35765],[140.26992,36.35904],[140.26774,36.36253],[140.26722,36.36314],[140.26672,36.36352],[140.26597,36.36393],[140.26544,36.36407],[140.25903,36.36506],[140.25764,36.36537],[140.25665,36.36604],[140.25623,36.36642],[140.25587,36.36688],[140.25396,36.37012],[140.25345,36.3707],[140.25275,36.37123],[140.25192,36.3716],[140.2472,36.37285]],[[140.10761,36.35956],[140.10483,36.35981],[140.10324,36.35987],[140.10136,36.35967],[140.09987,36.35927],[140.09675,36.35773],[140.07357,36.34573]],[[140.0399,36.32829],[140.04694,36.332],[140.07289,36.34538]],[[139.98,36.30438],[139.98882,36.30563],[139.99388,36.30667],[139.99672,36.30748],[140.0006,36.30872],[140.00343,36.30973],[140.00562,36.31061],[140.0078,36.31164],[140.03852,36.32762]],[[139.97637,36.30387],[139.93934,36.29867]],[[139.87416,36.29793],[139.87192,36.29822]],[[139.8532,36.30085],[139.85401,36.30073]],[[139.80593,36.31138],[139.80561,36.31054],[139.80559,36.31006],[139.80572,36.30948],[139.80614,36.30869],[139.8067,36.30803],[139.80709,36.3077],[139.80769,36.30735],[139.80853,36.30707],[139.8532,36.30085]],[[139.89088,36.29662],[139.88182,36.29687],[139.88033,36.29701],[139.87416,36.29793]],[[139.87192,36.29822],[139.85401,36.30073]],[[139.93934,36.29867],[139.93776,36.29846]],[[139.93776,36.29846],[139.91917,36.29592],[139.91744,36.29591]],[[139.98,36.30438],[139.97637,36.30387]],[[139.89194,36.29662],[139.89088,36.29662]],[[139.91744,36.29591],[139.91525,36.29595]],[[139.91525,36.29595],[139.906,36.29606],[139.90184,36.29635],[139.89194,36.29662]],[[139.80593,36.31138],[139.80689,36.31309]]]}}