{"type":"Feature","properties":{"id":"東日本旅客鉄道_東金線","name":"東金線","operator":"東日本旅客鉄道","railType":"普通鉄道(JR)","operatorType":"JR在来線","category":"rail","attribution":"国土数値情報（鉄道データ）国土交通省"},"geometry":{"type":"MultiLineString","coordinates":[[[140.41218,35.60855],[140.41378,35.60855]],[[140.41218,35.60855],[140.40838,35.60852]],[[140.31071,35.52317],[140.30833,35.5236]],[[140.34136,35.54571],[140.32756,35.53385],[140.31521,35.52374]],[[140.39564,35.57938],[140.39671,35.58031]],[[140.39671,35.58031],[140.41118,35.593],[140.41219,35.59413],[140.41718,35.60389],[140.41737,35.60473],[140.41737,35.60529],[140.41709,35.60627],[140.4169,35.60662],[140.41633,35.60732],[140.41548,35.60792],[140.41432,35.60841],[140.41378,35.60855]],[[140.36272,35.55965],[140.36448,35.56054]],[[140.34239,35.54662],[140.34136,35.54571]],[[140.39564,35.57938],[140.38989,35.57433],[140.38774,35.57254],[140.38655,35.57168],[140.36448,35.56054]],[[140.36272,35.55965],[140.35087,35.55369],[140.34898,35.55232],[140.34239,35.54662]],[[140.31215,35.52288],[140.31071,35.52317]],[[140.31215,35.52288],[140.31266,35.52278],[140.31309,35.52279],[140.31377,35.52296],[140.31521,35.52374]]]}}