{"type":"Feature","properties":{"id":"東日本旅客鉄道_羽越線","name":"羽越線","operator":"東日本旅客鉄道","railType":"普通鉄道(JR)","operatorType":"JR在来線","category":"rail","attribution":"国土数値情報（鉄道データ）国土交通省"},"geometry":{"type":"MultiLineString","coordinates":[[[140.12947,39.71836],[140.12952,39.71624]],[[140.0573,39.38619],[140.0579,39.38753]],[[140.01936,39.34794],[140.02874,39.35066]],[[140.09034,39.44207],[140.0966,39.44497],[140.09927,39.44631],[140.10101,39.44749],[140.10207,39.44848],[140.10266,39.44922],[140.10323,39.45024],[140.10365,39.4513],[140.10388,39.45245],[140.10389,39.45428],[140.10371,39.45541],[140.10327,39.45678]],[[140.11751,39.69643],[140.12102,39.69855],[140.1228,39.70007],[140.12373,39.70097],[140.12531,39.70276],[140.12635,39.70421],[140.12719,39.70558],[140.12871,39.70825],[140.12929,39.70992],[140.12953,39.71187],[140.12952,39.71624]],[[140.05704,39.56019],[140.05696,39.55746],[140.0573,39.55546],[140.05729,39.55447],[140.05707,39.55323],[140.05573,39.54967],[140.05503,39.54742],[140.0549,39.54672]],[[140.09151,39.47624],[140.09075,39.47655]],[[139.87825,39.07041],[139.87911,39.06959]],[[140.09151,39.47624],[140.09483,39.4749]],[[140.0579,39.38753],[140.05879,39.38926],[140.05985,39.39104],[140.06156,39.39353],[140.07239,39.40782],[140.07534,39.41185],[140.07625,39.41335],[140.07657,39.41411],[140.0771,39.41636],[140.07948,39.43363],[140.07989,39.4359],[140.08037,39.43665],[140.08083,39.43717],[140.08206,39.43822],[140.0884,39.44117]],[[140.0549,39.54672],[140.05484,39.54559]],[[139.9033,39.16552],[139.9025,39.16386]],[[140.06442,39.61858],[140.06465,39.62079]],[[139.966,39.29011],[139.96327,39.28947]],[[140.09483,39.4749],[140.096,39.47418],[140.09673,39.47338],[140.10327,39.45678]],[[140.08814,39.67824],[140.08946,39.68001],[140.09014,39.68079],[140.09109,39.68159],[140.09181,39.68206],[140.11549,39.69529]],[[140.06216,39.4946],[140.06388,39.49319]],[[139.90214,39.20871],[139.90135,39.21547],[139.90142,39.2168],[139.90181,39.21811],[139.9073,39.22987],[139.90804,39.23116],[139.90889,39.23234],[139.91673,39.24187],[139.91727,39.24276],[139.91767,39.24372],[139.91778,39.2442],[139.91897,39.25283],[139.91959,39.25446],[139.92016,39.25546]],[[139.9024,39.20659],[139.90214,39.20871]],[[139.88525,39.13864],[139.88619,39.13656]],[[139.9024,39.20659],[139.90262,39.20509],[139.90298,39.20419],[139.90799,39.19731],[139.90833,39.19671],[139.90863,39.19583],[139.90884,39.19453],[139.90885,39.19397],[139.90857,39.19231],[139.90855,39.19152],[139.90867,39.19101],[139.91003,39.18859],[139.91028,39.18768],[139.91034,39.1867],[139.91013,39.18559],[139.9086,39.18197],[139.90836,39.18119],[139.90839,39.18027],[139.90885,39.17894],[139.90894,39.17826],[139.90855,39.17613],[139.90803,39.17532],[139.90674,39.17411],[139.90636,39.1735],[139.90574,39.17085],[139.90545,39.17003],[139.9033,39.16552]],[[140.02874,39.35066],[140.0309,39.35141],[140.03724,39.35526]],[[140.08739,39.67665],[140.08814,39.67824]],[[140.06632,39.64716],[140.06649,39.64787]],[[140.09075,39.47655],[140.08974,39.47703],[140.08506,39.47992],[140.06877,39.4892],[140.0663,39.49113],[140.06388,39.49319]],[[140.06649,39.64787],[140.06704,39.64873],[140.06776,39.64944],[140.06882,39.65007],[140.07211,39.65159],[140.07565,39.65511],[140.0773,39.65601],[140.07897,39.65657],[140.08034,39.6572],[140.08096,39.65759],[140.08421,39.66045],[140.08702,39.66305],[140.08746,39.66379],[140.08763,39.66423],[140.0877,39.66491],[140.08718,39.66916],[140.08681,39.67328],[140.08694,39.67506],[140.08739,39.67665]],[[139.966,39.29011],[139.96864,39.29087],[139.96926,39.29117],[139.96977,39.29153],[139.974,39.29561],[139.97469,39.29637],[139.97502,39.29686],[139.97561,39.29815],[139.97666,39.30254],[139.97703,39.30344],[139.97776,39.30444],[139.98188,39.30897],[139.9833,39.3108],[139.98606,39.31536],[139.98633,39.31592],[139.98661,39.31714],[139.98647,39.31974],[139.98786,39.32291],[139.991,39.32898],[139.99142,39.32951],[139.99219,39.33013],[139.99309,39.33057],[139.99661,39.33138],[139.99828,39.33197],[139.99976,39.33272],[140.00051,39.33325],[140.00123,39.33393],[140.00233,39.33516],[140.00476,39.33817],[140.01189,39.34508],[140.01292,39.34572],[140.01418,39.34631],[140.01813,39.34758]],[[140.0571,39.56102],[140.05704,39.56019]],[[139.96327,39.28947],[139.9557,39.28763],[139.95494,39.28739],[139.95426,39.28705],[139.93882,39.27534],[139.93823,39.27487],[139.93786,39.27443],[139.93597,39.27131],[139.93385,39.2676],[139.93323,39.26668],[139.93235,39.26572],[139.92286,39.25844],[139.92139,39.25705]],[[140.09483,39.4749],[140.09573,39.47458],[140.09657,39.47409],[140.09696,39.47378],[140.09733,39.47306],[140.10217,39.46087],[140.10277,39.4589],[140.10327,39.45678]],[[140.05484,39.54559],[140.05458,39.54203],[140.05224,39.53451],[140.05101,39.52829],[140.05047,39.52499],[140.04833,39.51346],[140.04756,39.50849],[140.04733,39.50582],[140.04746,39.50528],[140.04778,39.50476],[140.04878,39.50349],[140.04928,39.5031],[140.05058,39.50238],[140.05324,39.50124],[140.05456,39.50044],[140.05863,39.49757],[140.06216,39.4946]],[[140.0884,39.44117],[140.09034,39.44207]],[[139.92139,39.25705],[139.92016,39.25546]],[[139.88096,39.09839],[139.88082,39.09684],[139.88063,39.09636],[139.87913,39.09404],[139.8787,39.09145],[139.87838,39.09065],[139.87806,39.09015],[139.87728,39.08945],[139.87535,39.0884],[139.87496,39.08808],[139.87425,39.08732],[139.87364,39.08634],[139.87295,39.07978],[139.87297,39.07873],[139.8733,39.07797],[139.87702,39.07201],[139.87825,39.07041]],[[140.03724,39.35526],[140.03867,39.35639],[140.03955,39.3573],[140.04819,39.36767],[140.04884,39.36877],[140.04972,39.37052],[140.0573,39.38619]],[[140.01813,39.34758],[140.01936,39.34794]],[[140.0571,39.56102],[140.05721,39.56211],[140.05758,39.56385],[140.05981,39.56913],[140.06024,39.57098],[140.06025,39.57233],[140.05948,39.57678],[140.05944,39.57744],[140.0595,39.578],[140.06061,39.58106],[140.06072,39.58159],[140.06071,39.58407],[140.0605,39.58613],[140.06053,39.58702],[140.06132,39.59338],[140.06227,39.59766],[140.06244,39.60105],[140.06262,39.60266],[140.06312,39.60465],[140.06424,39.60784],[140.06508,39.61113],[140.06506,39.6124],[140.06445,39.61538],[140.06436,39.61676],[140.06442,39.61858]],[[139.9025,39.16386],[139.90191,39.16285],[139.89951,39.16013],[139.89906,39.15817],[139.89877,39.15757],[139.89724,39.15549],[139.89576,39.15371],[139.89435,39.15287],[139.89158,39.15169],[139.88985,39.15025],[139.88771,39.14907],[139.88677,39.14829],[139.88629,39.14748],[139.88579,39.14623],[139.8846,39.14461],[139.8844,39.14418],[139.88429,39.14364],[139.88413,39.14201],[139.88422,39.14105],[139.88457,39.14007],[139.88525,39.13864]],[[139.88619,39.13656],[139.88752,39.13348],[139.88792,39.13219],[139.88796,39.13127],[139.88788,39.13084],[139.88779,39.13049],[139.88749,39.12994],[139.88674,39.12913],[139.88168,39.12506],[139.88099,39.12422],[139.88001,39.12246],[139.87902,39.12107],[139.87781,39.11981],[139.87427,39.11702],[139.8727,39.11568],[139.87236,39.11527],[139.87213,39.11482],[139.87196,39.11399],[139.87206,39.11305],[139.8723,39.11247],[139.87282,39.1117],[139.87431,39.11023],[139.87459,39.10975],[139.87508,39.10851],[139.87553,39.10791],[139.87659,39.10716],[139.87936,39.10597],[139.88016,39.10535],[139.8805,39.10492],[139.88079,39.10442],[139.88108,39.10347],[139.88111,39.10243],[139.88098,39.09911]],[[139.88098,39.09911],[139.88096,39.09839]],[[140.11751,39.69643],[140.11549,39.69529]],[[140.02874,39.35066],[140.03089,39.35123],[140.03183,39.35165],[140.0346,39.35339],[140.03724,39.35526]],[[140.06465,39.62079],[140.06485,39.62203],[140.06519,39.62324],[140.06553,39.62398],[140.06649,39.62551],[140.06667,39.62599],[140.06676,39.62661],[140.06676,39.62726],[140.06616,39.63023],[140.06572,39.63396],[140.0662,39.64626],[140.06632,39.64716]],[[139.44884,38.12284],[139.44695,38.12061]],[[139.44475,38.11798],[139.44695,38.12061]],[[139.56642,38.59103],[139.56665,38.5916],[139.56668,38.5924],[139.5664,38.59348],[139.56597,38.59443],[139.56598,38.59489],[139.56612,38.59539],[139.56671,38.5967],[139.5675,38.59746],[139.56814,38.59787],[139.56984,38.59873],[139.57043,38.59927],[139.57101,38.60025],[139.57157,38.60202],[139.57185,38.60259],[139.57226,38.60309],[139.57278,38.60353],[139.57351,38.60395],[139.57436,38.60464],[139.57502,38.60555],[139.57527,38.60607],[139.57545,38.60672],[139.5755,38.60942],[139.57568,38.60999],[139.57743,38.6116],[139.58003,38.61562],[139.58067,38.61626],[139.58326,38.61815],[139.5862,38.62067],[139.58646,38.6211],[139.58706,38.62269],[139.58744,38.62347]],[[139.44682,38.2586],[139.44287,38.24874],[139.44275,38.24781],[139.44292,38.24645],[139.44333,38.24577],[139.4438,38.24532],[139.44441,38.24486],[139.44534,38.24438],[139.44618,38.24417],[139.44759,38.24401],[139.44883,38.24412],[139.45,38.24412],[139.4527,38.2438],[139.45419,38.24336],[139.45672,38.24226],[139.45772,38.24171],[139.45866,38.24103],[139.45908,38.24045],[139.45934,38.23983],[139.45945,38.2391],[139.45943,38.23858],[139.459,38.23723],[139.45796,38.23501],[139.45771,38.23393],[139.45772,38.23332],[139.45792,38.23256],[139.45831,38.23183],[139.45974,38.23017]],[[139.54891,38.5565],[139.54912,38.55705],[139.55203,38.56263],[139.55375,38.56546],[139.55628,38.56888],[139.55699,38.57032],[139.55833,38.57367],[139.55996,38.57971]],[[139.90808,38.89393],[139.90957,38.89151],[139.90982,38.89056],[139.90974,38.88829],[139.90946,38.88438],[139.90851,38.87405],[139.90816,38.86814]],[[139.90816,38.86814],[139.90809,38.86694]],[[139.84528,38.92306],[139.84296,38.92624],[139.84277,38.9275],[139.84286,38.92822],[139.84323,38.92923],[139.84361,38.92981],[139.85452,38.93982],[139.86183,38.94641],[139.86267,38.94728],[139.86346,38.94835],[139.86705,38.95389],[139.86866,38.95624],[139.87078,38.95832],[139.88107,38.96775]],[[139.65038,38.69292],[139.64898,38.69191]],[[139.9107,38.84544],[139.91193,38.84329]],[[139.58852,38.6252],[139.5908,38.62877],[139.59673,38.63995],[139.59687,38.64039],[139.59717,38.64242],[139.59744,38.6461],[139.59793,38.64726],[139.59954,38.64958],[139.60048,38.6507],[139.60134,38.65152],[139.603,38.65499],[139.6034,38.65552],[139.60581,38.65791],[139.60747,38.6607],[139.60828,38.66144],[139.6101,38.66259],[139.61049,38.66289],[139.61073,38.66319],[139.61156,38.66451],[139.61261,38.66782],[139.6131,38.66881],[139.61382,38.66956],[139.61573,38.67049]],[[139.8935,38.76814],[139.89464,38.76913]],[[139.67236,38.69941],[139.67168,38.69946],[139.67002,38.6998],[139.6685,38.70036]],[[139.4527,38.33907],[139.45269,38.34027],[139.45281,38.34124],[139.45389,38.34399],[139.45441,38.3461],[139.4547,38.34919],[139.45456,38.35107],[139.45419,38.35363],[139.45289,38.35881],[139.45276,38.35965],[139.4528,38.36222],[139.45312,38.36337]],[[139.91315,38.84114],[139.91399,38.83917],[139.9143,38.83787],[139.91439,38.8372],[139.91433,38.83686],[139.91395,38.83508],[139.91374,38.83453],[139.91263,38.83307],[139.91215,38.83201],[139.91187,38.83103],[139.90794,38.81258]],[[139.91193,38.84329],[139.91315,38.84114]],[[139.49081,38.44946],[139.48929,38.44807]],[[139.88107,38.96775],[139.88286,38.96937]],[[139.67808,38.7003],[139.67943,38.70059],[139.68111,38.7008],[139.68744,38.70127],[139.70427,38.70277],[139.70597,38.70266],[139.70891,38.70189]],[[139.44998,38.31724],[139.44991,38.31552]],[[139.55996,38.57971],[139.5605,38.58152],[139.56111,38.58405],[139.5615,38.58515],[139.56184,38.5858],[139.5645,38.58878],[139.56474,38.58908],[139.56471,38.58913]],[[139.90658,38.89634],[139.90808,38.89393]],[[139.50455,38.471],[139.50759,38.47529],[139.51212,38.48066],[139.51323,38.48219],[139.51424,38.48373],[139.51638,38.48752],[139.5169,38.48851],[139.51723,38.48945]],[[139.56548,38.58979],[139.56642,38.59103]],[[139.58744,38.62347],[139.58852,38.6252]],[[139.46331,38.22084],[139.46332,38.21892]],[[139.87688,38.90713],[139.90227,38.9004],[139.9031,38.90004],[139.90376,38.89965],[139.90479,38.89878],[139.90658,38.89634]],[[139.44991,38.31552],[139.44989,38.31439],[139.45012,38.31365],[139.45079,38.3125],[139.45235,38.31045],[139.45257,38.30996],[139.45265,38.30937],[139.45206,38.30588],[139.45024,38.29636],[139.45019,38.29573],[139.45028,38.29475],[139.45075,38.29254],[139.45068,38.29159],[139.45011,38.2885],[139.44904,38.28484],[139.44896,38.28417],[139.44914,38.28318],[139.44952,38.28185],[139.45063,38.27948],[139.45089,38.27869],[139.451,38.27746],[139.45046,38.27405]],[[139.87911,39.06959],[139.87996,39.06904],[139.88123,39.06846],[139.88342,39.06792],[139.88533,39.06718],[139.88596,39.06681],[139.8871,39.06584],[139.90838,39.04029],[139.90921,39.03878],[139.90953,39.03765],[139.90951,39.03574],[139.90529,39.01674]],[[139.54196,38.52855],[139.54234,38.53011],[139.54272,38.53085],[139.54357,38.53181],[139.54513,38.53326],[139.54555,38.53355]],[[139.73034,38.71285],[139.72178,38.70778],[139.71795,38.70461],[139.71712,38.70404],[139.71531,38.70304],[139.71373,38.70225],[139.71212,38.7018],[139.71019,38.70172],[139.70891,38.70189]],[[139.90809,38.86694],[139.90712,38.8522],[139.90718,38.85173],[139.90762,38.85066],[139.9107,38.84544]],[[139.45312,38.36337],[139.45179,38.36107],[139.45116,38.35781],[139.45098,38.35651],[139.45109,38.35579],[139.45256,38.35107],[139.45346,38.34708],[139.45332,38.34547],[139.45323,38.34514],[139.45244,38.34371],[139.45224,38.343],[139.4524,38.34045],[139.4527,38.33907]],[[139.89464,38.76913],[139.89844,38.77243],[139.90291,38.77649],[139.90376,38.77746],[139.90411,38.77801],[139.90434,38.77855],[139.90459,38.77972],[139.90478,38.78229],[139.90579,38.80178],[139.90615,38.80398],[139.90749,38.81044]],[[139.45046,38.27405],[139.45005,38.27204]],[[139.45969,38.18424],[139.45967,38.18273]],[[139.5508,38.54123],[139.55102,38.54213],[139.55107,38.54281],[139.55091,38.54371],[139.55062,38.54439],[139.55046,38.54511],[139.55036,38.54724],[139.55095,38.54879],[139.55102,38.5493],[139.55091,38.55088]],[[139.53125,38.51438],[139.53293,38.51602],[139.5351,38.51732],[139.53574,38.51787],[139.5382,38.52144],[139.53911,38.52374],[139.54128,38.52721],[139.54196,38.52855]],[[139.54875,38.55468],[139.54887,38.55403],[139.54923,38.55301],[139.55091,38.55088]],[[139.55996,38.57971],[139.55995,38.58028],[139.5603,38.58201],[139.56021,38.58298],[139.56027,38.58409],[139.56113,38.58623],[139.56162,38.58685],[139.56443,38.58902],[139.56471,38.58913]],[[139.83686,38.74002],[139.83392,38.74017]],[[139.67465,38.6996],[139.67808,38.7003]],[[139.44884,38.12284],[139.45447,38.12968],[139.45514,38.13089],[139.45563,38.132],[139.45853,38.14037],[139.45884,38.14273],[139.459,38.14937]],[[139.73275,38.71427],[139.73034,38.71285]],[[139.56471,38.58913],[139.56548,38.58979]],[[139.83392,38.74017],[139.82084,38.74077],[139.78071,38.74284],[139.77868,38.74286],[139.77596,38.74272],[139.76919,38.74222]],[[139.54555,38.53355],[139.54668,38.53513],[139.54749,38.53592],[139.5484,38.53706],[139.54981,38.53912],[139.5508,38.54123]],[[139.46822,38.40981],[139.4654,38.4067],[139.46479,38.40592],[139.46443,38.40525],[139.4634,38.40231],[139.46296,38.39995],[139.46248,38.39869],[139.46201,38.39799],[139.45924,38.39553],[139.4585,38.39465],[139.45734,38.39203],[139.45684,38.39048],[139.45672,38.38963],[139.45673,38.38911],[139.45701,38.38817],[139.45721,38.38784],[139.4585,38.38649],[139.45947,38.38507],[139.46063,38.38286],[139.461,38.3818],[139.46104,38.3811],[139.46078,38.37999],[139.46007,38.37809],[139.45916,38.37599]],[[139.45967,38.18273],[139.45905,38.15082]],[[139.90529,39.01674],[139.90498,39.01524]],[[139.44682,38.2586],[139.4467,38.25796],[139.44666,38.25689],[139.44668,38.25637],[139.44685,38.25581],[139.44759,38.25433],[139.44871,38.25245],[139.44978,38.25087],[139.45121,38.24901],[139.45247,38.24754],[139.45744,38.24256],[139.45932,38.24086],[139.45961,38.24054],[139.45978,38.24021],[139.45997,38.23945],[139.45999,38.23832],[139.45965,38.23706],[139.45877,38.23467],[139.45851,38.23331],[139.45854,38.23277],[139.45886,38.23166],[139.45974,38.23017]],[[139.61573,38.67049],[139.61646,38.67079]],[[139.67465,38.6996],[139.67347,38.69942],[139.67236,38.69941]],[[139.52952,38.51245],[139.52783,38.51037],[139.5256,38.50545],[139.52474,38.50388],[139.52411,38.50291],[139.52242,38.50067],[139.51988,38.49782],[139.51931,38.4969],[139.5191,38.49643],[139.51765,38.49091]],[[139.76681,38.74205],[139.76076,38.74164],[139.75967,38.74143],[139.75872,38.74115],[139.75781,38.74073],[139.75722,38.74036],[139.75663,38.73977],[139.74651,38.72788],[139.73699,38.71692],[139.73627,38.71635],[139.73275,38.71427]],[[139.48929,38.44807],[139.48814,38.44701],[139.48571,38.44447],[139.48531,38.44375],[139.48509,38.44262],[139.48483,38.44199],[139.48389,38.44081],[139.4835,38.44007],[139.48339,38.43936],[139.48384,38.4367],[139.48367,38.43376],[139.48355,38.43303],[139.48345,38.43285],[139.48159,38.43053],[139.48072,38.42959],[139.47676,38.42642],[139.47602,38.42567],[139.47511,38.4245],[139.4726,38.4226],[139.47161,38.42014],[139.47118,38.41958],[139.47077,38.41924],[139.47005,38.41842],[139.46973,38.41793],[139.4695,38.41731],[139.46939,38.41538],[139.46854,38.41392],[139.46829,38.41325],[139.46831,38.41256],[139.4686,38.41116],[139.46854,38.41048]],[[139.88286,38.96937],[139.89511,38.98062],[139.89574,38.98135],[139.89703,38.98319],[139.89803,38.98516],[139.89851,38.98657]],[[139.83686,38.74002],[139.85429,38.73919],[139.86189,38.73995],[139.86305,38.7403],[139.86434,38.74088],[139.86583,38.74217],[139.86878,38.74497],[139.87677,38.75289],[139.87876,38.75465],[139.88608,38.7616],[139.8935,38.76814]],[[139.5508,38.54123],[139.55106,38.5415],[139.55132,38.54215],[139.55138,38.54303],[139.55123,38.54985],[139.55117,38.55044],[139.55091,38.55088]],[[139.84655,38.92136],[139.84801,38.91953],[139.85081,38.91574],[139.85166,38.91487],[139.85222,38.91443],[139.85322,38.91382],[139.85439,38.91331],[139.85701,38.91252],[139.87365,38.908]],[[139.89851,38.98657],[139.89892,38.98829]],[[139.51729,38.48963],[139.51723,38.48945]],[[139.46854,38.41048],[139.46822,38.40981]],[[139.49081,38.44946],[139.49455,38.45214],[139.49508,38.45269],[139.49616,38.45434],[139.49723,38.45622],[139.49796,38.45873],[139.49924,38.46222],[139.50087,38.46585],[139.50134,38.46664],[139.50455,38.471]],[[139.45843,38.37437],[139.45634,38.37017],[139.4561,38.36951],[139.45571,38.36789],[139.45514,38.36648],[139.45417,38.3649],[139.45328,38.36373],[139.45312,38.36337]],[[139.46332,38.21892],[139.4634,38.21578],[139.46324,38.21335],[139.4628,38.21222],[139.46113,38.20937],[139.46037,38.20763],[139.4602,38.20704],[139.45969,38.18424]],[[139.6685,38.70036],[139.66652,38.70084],[139.6655,38.70096],[139.66453,38.70091],[139.66358,38.70075],[139.66223,38.70033],[139.66135,38.69993],[139.65963,38.69889],[139.6526,38.69427],[139.65038,38.69292]],[[139.65038,38.69292],[139.65069,38.69334],[139.65112,38.69416],[139.65142,38.69493],[139.65161,38.69572],[139.65191,38.69831],[139.65231,38.69961],[139.65266,38.70026],[139.6532,38.70084],[139.65387,38.70134],[139.65508,38.70202],[139.65628,38.70243],[139.65926,38.70322],[139.66117,38.70359],[139.66219,38.70359],[139.66352,38.70333],[139.66432,38.703],[139.66504,38.70258],[139.66605,38.70167],[139.66679,38.70114],[139.6685,38.70036]],[[139.54196,38.52855],[139.54365,38.53145],[139.54456,38.53233],[139.54555,38.53355]],[[139.64898,38.69191],[139.64766,38.69111],[139.64552,38.68948],[139.64157,38.68618],[139.64027,38.68526],[139.63914,38.68457],[139.63564,38.68281],[139.6251,38.67661],[139.62254,38.67518],[139.62142,38.67439],[139.61937,38.67221],[139.618,38.67146],[139.61646,38.67079]],[[139.44998,38.31724],[139.45008,38.31972],[139.45023,38.32042],[139.45085,38.32161],[139.45259,38.32403],[139.45299,38.32491],[139.45314,38.32551],[139.45312,38.32688],[139.45192,38.32989],[139.45177,38.33101],[139.45191,38.3322],[139.45299,38.33469],[139.45323,38.33554],[139.45327,38.33626],[139.4532,38.33715],[139.4527,38.33907]],[[139.459,38.14937],[139.45905,38.15082]],[[139.90749,38.81044],[139.90794,38.81258]],[[139.54891,38.5565],[139.54876,38.55559],[139.54875,38.55468]],[[139.51765,38.49091],[139.51729,38.48963]],[[139.45005,38.27204],[139.44799,38.2675],[139.4474,38.26594],[139.44728,38.26487],[139.44734,38.26381],[139.44772,38.26186],[139.44773,38.2615],[139.44758,38.26049],[139.44682,38.2586]],[[139.53125,38.51438],[139.52952,38.51245]],[[139.50455,38.471],[139.5051,38.47266],[139.50516,38.47394],[139.5055,38.47503],[139.50637,38.47612],[139.5078,38.47726],[139.50824,38.47778],[139.50856,38.47836],[139.50961,38.48212],[139.50978,38.48245],[139.51084,38.48346],[139.51314,38.48496],[139.51441,38.48595],[139.51525,38.48672],[139.5164,38.48805],[139.5168,38.48861],[139.51723,38.48945]],[[139.84528,38.92306],[139.84655,38.92136]],[[139.45916,38.37599],[139.45843,38.37437]],[[139.89892,38.98829],[139.90498,39.01524]],[[139.87365,38.908],[139.87688,38.90713]],[[139.67808,38.7003],[139.68111,38.70064],[139.69256,38.70147],[139.70432,38.70245],[139.70658,38.70233],[139.70891,38.70189]],[[139.76919,38.74222],[139.76681,38.74205]],[[139.45974,38.23017],[139.46261,38.22664],[139.46311,38.22566],[139.46333,38.22438],[139.46331,38.22084]],[[139.37904,38.01924],[139.38007,38.02136]],[[139.21656,37.83608],[139.20098,37.82445],[139.20017,37.82396],[139.19852,37.82339],[139.17923,37.81784]],[[139.17772,37.81741],[139.17343,37.81623],[139.16757,37.81576],[139.16638,37.8156],[139.16583,37.81545],[139.16382,37.8147],[139.14962,37.80896],[139.14884,37.80867],[139.14712,37.80827],[139.14506,37.80813],[139.12707,37.80874],[139.12575,37.80877],[139.12452,37.80862],[139.12373,37.80834],[139.12309,37.808],[139.12221,37.80728],[139.12175,37.8067],[139.12151,37.8062],[139.12119,37.80463]],[[139.30219,37.91176],[139.27308,37.8898]],[[139.42718,38.09329],[139.42862,38.09546]],[[139.30311,37.91246],[139.30219,37.91176]],[[139.30311,37.91246],[139.3114,37.91872],[139.31209,37.91935],[139.32952,37.93809]],[[139.35825,37.97589],[139.35886,37.97713]],[[139.27308,37.8898],[139.27181,37.88886]],[[139.42862,38.09546],[139.43896,38.1109],[139.43973,38.11195],[139.44475,38.11798]],[[139.39857,38.05076],[139.41324,38.07274],[139.42718,38.09329]],[[139.2179,37.83707],[139.21656,37.83608]],[[139.2455,37.86361],[139.24419,37.86213]],[[139.38007,38.02136],[139.38284,38.02718],[139.38356,38.02845],[139.39743,38.04902]],[[139.35886,37.97713],[139.37136,38.00296],[139.37273,38.00606],[139.37904,38.01924]],[[139.27181,37.88886],[139.25998,37.87998],[139.25273,37.87186],[139.2455,37.86361]],[[139.33598,37.94492],[139.34282,37.95231],[139.35496,37.96936],[139.35561,37.97051],[139.35825,37.97589]],[[139.17923,37.81784],[139.17772,37.81741]],[[139.24419,37.86213],[139.23019,37.84659],[139.22892,37.84547],[139.22745,37.84433],[139.2179,37.83707]],[[139.39743,38.04902],[139.39857,38.05076]],[[139.1212,37.80168],[139.12119,37.80463]],[[139.12122,37.79892],[139.1212,37.80168]],[[139.32952,37.93809],[139.33427,37.9431]],[[139.33427,37.9431],[139.33598,37.94492]]]}}