{"type":"Feature","properties":{"id":"東日本旅客鉄道_八高線","name":"八高線","operator":"東日本旅客鉄道","railType":"普通鉄道(JR)","operatorType":"JR在来線","category":"rail","attribution":"国土数値情報（鉄道データ）国土交通省"},"geometry":{"type":"MultiLineString","coordinates":[[[139.36883,35.68546],[139.36803,35.68636]],[[139.36361,35.66959],[139.36319,35.66896]],[[139.36361,35.66959],[139.36862,35.67772],[139.36916,35.67868],[139.36977,35.68001],[139.3701,35.68136],[139.37005,35.68249],[139.36994,35.68316],[139.36939,35.68456],[139.36883,35.68546]],[[139.05137,36.29961],[139.04751,36.301]],[[139.28895,36.00327],[139.28948,36.00386]],[[139.19556,36.09589],[139.19694,36.094],[139.1977,36.09184],[139.19843,36.09125],[139.19918,36.09088],[139.20056,36.09072],[139.20125,36.09047],[139.20198,36.09003],[139.20696,36.08651],[139.20812,36.08578],[139.20894,36.08552],[139.21109,36.08542],[139.21247,36.08521],[139.21416,36.08461],[139.21496,36.08409],[139.21581,36.08305],[139.2167,36.08223],[139.22016,36.0797],[139.22494,36.07703],[139.22592,36.07664],[139.22938,36.07567]],[[139.19412,36.11796],[139.19707,36.11822],[139.19826,36.11878],[139.19915,36.11957],[139.1994,36.11993],[139.20091,36.1229],[139.20588,36.13293],[139.2065,36.13427],[139.20701,36.13589],[139.20725,36.13753],[139.20729,36.14086],[139.20716,36.14196],[139.20679,36.14322],[139.20626,36.14442],[139.20082,36.15354]],[[139.08196,36.28178],[139.08094,36.28247]],[[139.18169,36.1734],[139.18032,36.17448],[139.17867,36.17555],[139.17714,36.17638],[139.17439,36.17759],[139.14037,36.1886],[139.13956,36.18897],[139.13855,36.18973],[139.13626,36.19222]],[[139.19509,36.09646],[139.19331,36.09863],[139.19298,36.09925],[139.19275,36.09997],[139.19268,36.10049],[139.19271,36.10143],[139.19306,36.10471],[139.193,36.10527],[139.19283,36.10572],[139.19246,36.10633],[139.19149,36.10711],[139.19048,36.10756],[139.18977,36.10771],[139.18794,36.1079],[139.18573,36.1086],[139.18467,36.10937],[139.18431,36.10998],[139.18415,36.11067],[139.18433,36.11226],[139.18479,36.11451],[139.18511,36.11556],[139.18557,36.11618],[139.18631,36.11669],[139.18717,36.11702],[139.18767,36.11707],[139.18936,36.11702],[139.1907,36.11714],[139.19293,36.11775]],[[139.13517,36.19346],[139.13303,36.19583],[139.13131,36.19716],[139.10329,36.21599]],[[139.13626,36.19222],[139.13517,36.19346]],[[139.20082,36.15354],[139.20046,36.15416]],[[139.26134,36.05877],[139.26004,36.05922]],[[139.20046,36.15416],[139.19725,36.15956],[139.19638,36.1612],[139.19599,36.16168],[139.19477,36.16284],[139.18251,36.17273]],[[139.10188,36.21694],[139.09386,36.22236],[139.09196,36.2235],[139.09019,36.22433],[139.08394,36.22663],[139.08279,36.22733],[139.0822,36.22796],[139.08203,36.22831],[139.08185,36.22901],[139.08185,36.22981],[139.08319,36.2369],[139.08324,36.2375],[139.08344,36.24945]],[[139.22938,36.07567],[139.23052,36.07533]],[[139.19293,36.11775],[139.19412,36.11796]],[[139.08094,36.28247],[139.07997,36.28287]],[[139.18251,36.17273],[139.18169,36.1734]],[[139.28948,36.00386],[139.29006,36.00464],[139.29157,36.00705],[139.29223,36.0083],[139.2923,36.00893],[139.29225,36.00926],[139.29183,36.01002],[139.2915,36.0103],[139.29124,36.01049],[139.29036,36.01088],[139.28416,36.01251],[139.28297,36.01291],[139.28214,36.01349],[139.2791,36.01635],[139.27681,36.01784],[139.27609,36.01824],[139.27474,36.0188],[139.27226,36.01922],[139.27162,36.01944],[139.26705,36.02213],[139.26624,36.02284],[139.26576,36.02361],[139.26407,36.02699],[139.26333,36.02879],[139.26336,36.0306],[139.26277,36.03208],[139.26269,36.0328],[139.26297,36.03406],[139.26312,36.03523],[139.26344,36.04106],[139.26331,36.04298],[139.26337,36.04375],[139.26357,36.04424],[139.26397,36.04488],[139.26546,36.04671],[139.2659,36.04784],[139.26686,36.05393],[139.26688,36.0548],[139.26677,36.05537],[139.26653,36.05593],[139.26629,36.05629],[139.26566,36.05694],[139.26509,36.05733],[139.26401,36.05783],[139.26134,36.05877]],[[139.08344,36.24945],[139.08349,36.25119]],[[139.08349,36.25119],[139.08387,36.27822],[139.08367,36.27927],[139.08321,36.2803],[139.08236,36.2814],[139.08196,36.28178]],[[139.19556,36.09589],[139.19509,36.09646]],[[139.10329,36.21599],[139.10188,36.21694]],[[139.23052,36.07533],[139.23517,36.07401],[139.23814,36.07342],[139.23863,36.07322],[139.23933,36.07274],[139.23963,36.07244],[139.24303,36.06838],[139.24347,36.06796],[139.25155,36.06228],[139.25286,36.06165],[139.26004,36.05922]],[[139.3091,35.94127],[139.30697,35.94684],[139.30675,35.94771],[139.30678,35.94829],[139.30752,35.95121],[139.30754,35.95193],[139.30726,35.9528],[139.30691,35.95334],[139.30635,35.95395],[139.30028,35.95997],[139.29994,35.96063],[139.29942,35.96224]],[[139.32612,35.85249],[139.32614,35.85355]],[[139.3401,35.65527],[139.33754,35.65574]],[[139.34577,35.65428],[139.3401,35.65527]],[[139.36319,35.66896],[139.35868,35.66183],[139.35771,35.66057],[139.35708,35.65997],[139.35405,35.65799],[139.34853,35.65464],[139.34705,35.6543],[139.34577,35.65428]],[[139.34308,35.72214],[139.34137,35.72449],[139.34095,35.72524],[139.34017,35.72714],[139.3363,35.74],[139.33601,35.74134],[139.33593,35.7421],[139.33581,35.74437],[139.33584,35.74537]],[[139.34675,35.77227],[139.34669,35.77331],[139.34653,35.77412],[139.34591,35.77618],[139.34548,35.77721],[139.3421,35.78379],[139.33523,35.79774],[139.33184,35.80426],[139.32885,35.81033]],[[139.29942,35.96224],[139.29908,35.96349]],[[139.33584,35.74537],[139.33597,35.74629]],[[139.30957,35.9402],[139.3091,35.94127]],[[139.34672,35.77112],[139.34675,35.77227]],[[139.36803,35.68636],[139.36472,35.68914],[139.36376,35.69004],[139.36351,35.69035],[139.3632,35.69095],[139.36305,35.69211],[139.36311,35.69917],[139.36303,35.69979],[139.36262,35.7006],[139.35079,35.71704],[139.35011,35.71763],[139.3493,35.71802],[139.34702,35.71872],[139.34612,35.71911],[139.3453,35.71965],[139.34438,35.72053]],[[139.32885,35.81033],[139.32837,35.8113]],[[139.32614,35.85355],[139.32619,35.85891],[139.32634,35.8595],[139.32656,35.85985],[139.3271,35.86048],[139.3281,35.86136],[139.33641,35.86771],[139.33709,35.86842],[139.33755,35.86929],[139.33777,35.87038],[139.33774,35.87121],[139.33748,35.87235],[139.33658,35.87506],[139.3365,35.87568],[139.33651,35.87675],[139.33666,35.87738],[139.33707,35.87841],[139.33832,35.88097],[139.34025,35.88525],[139.34173,35.88795],[139.3419,35.88875],[139.34181,35.88925],[139.34157,35.88978],[139.33842,35.89586]],[[139.32837,35.8113],[139.32454,35.81901],[139.32435,35.81955],[139.32438,35.82042],[139.32476,35.82138],[139.33056,35.82816],[139.33089,35.82874],[139.33113,35.82932],[139.33246,35.83417],[139.33327,35.83654],[139.33388,35.83862],[139.33414,35.83967],[139.33419,35.84085],[139.33407,35.84159],[139.33369,35.84255],[139.33343,35.84303],[139.33284,35.84382],[139.33181,35.8447],[139.32775,35.84736],[139.32709,35.84792],[139.32651,35.84861],[139.32621,35.84916],[139.32609,35.84968],[139.32612,35.85249]],[[139.33597,35.74629],[139.33685,35.74906],[139.33759,35.75072],[139.34201,35.75935],[139.34197,35.76057],[139.34129,35.76438],[139.34132,35.76508],[139.34153,35.76591],[139.34231,35.76687],[139.34301,35.76742],[139.34462,35.76823],[139.34544,35.76879],[139.34625,35.7697],[139.3466,35.77046],[139.34672,35.77112]],[[139.29908,35.96349],[139.29863,35.96492],[139.29806,35.96633],[139.29667,35.96937],[139.29594,35.97005],[139.29386,35.97157],[139.29313,35.97219],[139.29265,35.97293],[139.29147,35.97538],[139.29109,35.97596],[139.28713,35.98115],[139.28658,35.98202],[139.28583,35.98387],[139.28477,35.98924],[139.28371,35.99177],[139.28272,35.99706],[139.28268,35.99778],[139.28296,35.99877],[139.28334,35.99939],[139.28393,35.99999],[139.2871,36.00179],[139.2882,36.00259],[139.28895,36.00327]],[[139.33694,35.89836],[139.33621,35.89964],[139.33558,35.90146],[139.33412,35.90855],[139.33391,35.90937],[139.33364,35.91004],[139.33339,35.9105],[139.33223,35.91193],[139.33001,35.91374],[139.3293,35.91442],[139.32856,35.91553],[139.32788,35.91691],[139.32771,35.91752],[139.32771,35.91802],[139.32781,35.91849],[139.32796,35.91888],[139.32888,35.92015],[139.32915,35.92072],[139.32922,35.92133],[139.32908,35.92194],[139.32864,35.92251],[139.3257,35.92556],[139.32468,35.92729],[139.32368,35.92837],[139.31086,35.93852],[139.31002,35.93936],[139.30957,35.9402]],[[139.34438,35.72053],[139.34308,35.72214]],[[139.33694,35.89836],[139.33784,35.89688]],[[139.33842,35.89586],[139.33784,35.89688]],[[139.05137,36.29961],[139.06314,36.29533]],[[139.06314,36.29533],[139.06556,36.29447],[139.06634,36.29412],[139.06711,36.29363],[139.06751,36.29323],[139.06813,36.29245],[139.06853,36.29172],[139.07034,36.28697],[139.07061,36.28645],[139.07112,36.2858],[139.07172,36.28527],[139.07288,36.28455]],[[139.07288,36.28455],[139.07403,36.2842],[139.07997,36.28287]],[[139.06314,36.29533],[139.06455,36.29439],[139.0652,36.29381],[139.06601,36.29292],[139.06677,36.29164],[139.06777,36.28906],[139.06836,36.28785],[139.06903,36.28695],[139.06975,36.28626],[139.07078,36.28552],[139.07229,36.28476],[139.07288,36.28455]]]}}