{"type":"Feature","properties":{"id":"東日本旅客鉄道_小海線","name":"小海線","operator":"東日本旅客鉄道","railType":"普通鉄道(JR)","operatorType":"JR在来線","category":"rail","attribution":"国土数値情報（鉄道データ）国土交通省"},"geometry":{"type":"MultiLineString","coordinates":[[[138.44814,36.30441],[138.44367,36.30763],[138.44315,36.30835],[138.44303,36.30872],[138.44285,36.31005],[138.44266,36.31042],[138.44204,36.31086],[138.44088,36.31121]],[[138.44015,36.31139],[138.43645,36.3124],[138.43516,36.31296],[138.43459,36.31344],[138.43407,36.31406],[138.43363,36.31468],[138.43268,36.31634],[138.43233,36.31677]],[[138.43233,36.31677],[138.43185,36.31725]],[[138.42342,36.32501],[138.42172,36.32666]],[[138.44088,36.31121],[138.44015,36.31139]],[[138.43185,36.31725],[138.42342,36.32501]],[[138.44875,36.30395],[138.44814,36.30441]],[[138.45034,36.29257],[138.45148,36.2957],[138.45156,36.29666],[138.45037,36.30231],[138.45004,36.30288],[138.44981,36.30312],[138.44875,36.30395]],[[138.45015,36.29202],[138.45034,36.29257]],[[138.31854,35.86334],[138.31431,35.86428]],[[138.31431,35.86428],[138.31248,35.86497]],[[138.47207,36.27459],[138.46381,36.2774]],[[138.48585,36.15547],[138.48602,36.15609]],[[138.48988,36.16667],[138.49093,36.16801],[138.49118,36.16849],[138.49149,36.16975],[138.49082,36.17284],[138.48925,36.18097]],[[138.47071,36.06132],[138.47186,36.06393],[138.47223,36.06441],[138.47313,36.06498],[138.47507,36.0657],[138.4757,36.06619],[138.47611,36.06685],[138.47622,36.06724],[138.47629,36.06902],[138.47656,36.06963],[138.47742,36.07091],[138.47755,36.0713],[138.47751,36.07184],[138.47711,36.073],[138.47709,36.07352],[138.47725,36.07427],[138.47746,36.07469],[138.47863,36.07602],[138.47904,36.07664],[138.48175,36.08283],[138.48183,36.08315],[138.48182,36.08361],[138.48112,36.08496],[138.48105,36.08555],[138.48117,36.08606],[138.48262,36.0882]],[[138.4704,36.06067],[138.47071,36.06132]],[[138.4774,36.11608],[138.47714,36.1166],[138.47597,36.11787],[138.47562,36.11857],[138.47395,36.12112],[138.47226,36.12437],[138.47204,36.12494],[138.47197,36.12551],[138.47221,36.12606],[138.47307,36.12722],[138.47637,36.13113],[138.47722,36.13278]],[[138.35984,35.87966],[138.36148,35.88008],[138.36338,35.88075],[138.36429,35.8813],[138.36612,35.88272],[138.36654,35.88291],[138.3672,35.88299],[138.36881,35.88297],[138.36944,35.88314],[138.37037,35.88354],[138.37084,35.88364],[138.37329,35.8834],[138.37405,35.88353],[138.37549,35.88444],[138.37622,35.88479],[138.38059,35.8862],[138.38228,35.88745],[138.38314,35.88784],[138.3837,35.88787],[138.3841,35.8878],[138.38612,35.88709],[138.38668,35.88705],[138.38724,35.88718],[138.38772,35.88738],[138.38836,35.88782],[138.39029,35.88959],[138.39216,35.89075],[138.39281,35.89098],[138.39706,35.89198],[138.39903,35.89327],[138.40375,35.89442],[138.40513,35.89535],[138.40596,35.89573],[138.40675,35.89591],[138.4092,35.89626]],[[138.48262,36.0882],[138.48315,36.08915]],[[138.48912,36.18165],[138.48925,36.18097]],[[138.4736,36.04098],[138.47352,36.04164]],[[138.43621,35.91893],[138.43404,35.91782],[138.43341,35.91725],[138.42836,35.90987],[138.42784,35.9093],[138.42692,35.9089],[138.42631,35.90882],[138.42599,35.90888],[138.42534,35.90908],[138.4247,35.90944],[138.42442,35.90969],[138.42362,35.91089],[138.42288,35.91178],[138.42146,35.91284],[138.42044,35.91342],[138.41989,35.91363],[138.41869,35.91388],[138.41702,35.91386],[138.41574,35.91354],[138.41488,35.91313],[138.41444,35.91281],[138.41402,35.9124],[138.41372,35.9119],[138.41367,35.91112],[138.41385,35.91067],[138.41459,35.90964],[138.41506,35.90882],[138.41521,35.90817],[138.41513,35.90654],[138.41523,35.90603],[138.41554,35.90545],[138.41583,35.90511],[138.41764,35.90398],[138.41823,35.9034],[138.41874,35.90235],[138.41879,35.90162],[138.41869,35.90116],[138.4184,35.9005],[138.4178,35.89972],[138.41684,35.89898],[138.41606,35.89851],[138.41489,35.89794],[138.41251,35.89698],[138.41131,35.8966],[138.41014,35.89639]],[[138.47671,36.2553],[138.47572,36.26667],[138.47529,36.27095],[138.47501,36.27265],[138.47482,36.27313],[138.47454,36.27348],[138.47377,36.27397],[138.4728,36.27437]],[[138.49078,36.20452],[138.49067,36.20391]],[[138.41014,35.89639],[138.4092,35.89626]],[[138.47488,36.23902],[138.4748,36.23973],[138.47531,36.24182],[138.47515,36.24572],[138.47521,36.24716],[138.47615,36.25222],[138.47669,36.25452]],[[138.48315,36.08915],[138.48376,36.09016],[138.48391,36.09206],[138.48513,36.09381],[138.48526,36.09421],[138.48526,36.09504],[138.48448,36.09662],[138.48445,36.09719],[138.48483,36.09814],[138.48598,36.10007],[138.48601,36.10138]],[[138.48602,36.15609],[138.48759,36.16104],[138.48809,36.16224],[138.48818,36.16286],[138.48815,36.16447],[138.48859,36.16516],[138.48941,36.16612]],[[138.52733,35.97559],[138.52684,35.97616]],[[138.45323,36.28101],[138.4519,36.28147],[138.45141,36.28176],[138.45087,36.28217],[138.45032,36.28281],[138.45005,36.28337],[138.44883,36.28748],[138.44883,36.28805],[138.44903,36.28895],[138.45015,36.29202]],[[138.47766,36.11541],[138.4774,36.11608]],[[138.4793,36.23097],[138.4785,36.23333],[138.47513,36.23841]],[[138.48832,36.19435],[138.48816,36.19364]],[[138.51939,36.004],[138.51935,36.00834],[138.51927,36.00921],[138.51915,36.00956],[138.51874,36.01006],[138.51805,36.0105],[138.51776,36.01059],[138.51728,36.01068],[138.5167,36.01067],[138.51455,36.01008],[138.51399,36.01006],[138.51306,36.01023],[138.51165,36.01117],[138.51129,36.01133],[138.51096,36.01144],[138.51003,36.01155],[138.50878,36.01146],[138.50745,36.01102],[138.50683,36.01099],[138.50611,36.01123],[138.50336,36.01301],[138.50265,36.01327],[138.50212,36.01334],[138.50129,36.01328],[138.49983,36.01292],[138.49547,36.01109],[138.4949,36.01104],[138.49438,36.01109],[138.49385,36.01133],[138.49343,36.01171],[138.49287,36.01242],[138.4927,36.01312],[138.4931,36.01397],[138.49427,36.01536],[138.49439,36.01577],[138.49428,36.01622],[138.49334,36.01769],[138.49104,36.02088]],[[138.5194,36.00337],[138.51939,36.004]],[[138.46281,36.27775],[138.45399,36.28075]],[[138.48832,36.19435],[138.48979,36.19964],[138.49067,36.20391]],[[138.52684,35.97616],[138.52573,35.97767],[138.52541,35.97824],[138.52509,35.97931],[138.5248,35.97991],[138.523,35.98147],[138.52263,35.98202],[138.52244,35.9826],[138.52224,35.98377],[138.52166,35.99165],[138.52174,35.99203],[138.52214,35.99263],[138.52349,35.99393],[138.52369,35.99445],[138.52371,35.99505],[138.52363,35.99537],[138.52344,35.99566],[138.51966,35.99997],[138.51949,36.00046],[138.5194,36.00337]],[[138.48747,36.22056],[138.48808,36.2201]],[[138.48747,36.22056],[138.48273,36.22403],[138.48137,36.22516],[138.48098,36.2257],[138.48071,36.22635],[138.4795,36.23032]],[[138.48596,36.1023],[138.48589,36.10336],[138.4855,36.10479],[138.48387,36.10775],[138.48346,36.10815],[138.48039,36.10984],[138.47972,36.1104],[138.47921,36.1113],[138.47879,36.11263],[138.47791,36.11431],[138.47766,36.11541]],[[138.4704,36.06067],[138.47006,36.06018],[138.46938,36.05947],[138.46898,36.05874],[138.46859,36.05711],[138.46843,36.05552],[138.46848,36.05485],[138.46915,36.05358],[138.46963,36.05299],[138.47194,36.0514],[138.47261,36.05087],[138.47282,36.05057],[138.47289,36.05023],[138.47285,36.05002],[138.47216,36.048],[138.4721,36.04747],[138.47221,36.04696],[138.47278,36.04597],[138.47295,36.04549],[138.47295,36.04493],[138.47269,36.04393],[138.47276,36.04321],[138.47352,36.04164]],[[138.47762,36.13387],[138.478,36.13478],[138.47856,36.13661],[138.47903,36.13845],[138.47958,36.14118],[138.47993,36.14239],[138.48136,36.14662],[138.48189,36.14792],[138.48585,36.15547]],[[138.47488,36.23902],[138.47513,36.23841]],[[138.31248,35.86497],[138.30506,35.86886],[138.30389,35.8697],[138.3033,35.87061],[138.30319,35.8715],[138.30343,35.87237],[138.30386,35.87304],[138.30451,35.87354],[138.30515,35.87383],[138.30627,35.87408],[138.30701,35.87405],[138.30795,35.87385],[138.3103,35.87261],[138.3118,35.87222],[138.31384,35.87214],[138.32235,35.8727],[138.32303,35.87263],[138.32602,35.87178],[138.32746,35.87167],[138.32854,35.87172],[138.33377,35.87227],[138.33521,35.87246],[138.33621,35.87272],[138.34728,35.87607],[138.35084,35.87755],[138.35314,35.87829],[138.35446,35.87861],[138.35894,35.87945]],[[138.47722,36.13278],[138.47762,36.13387]],[[138.45399,36.28075],[138.45323,36.28101]],[[138.46381,36.2774],[138.46281,36.27775]],[[138.48941,36.16612],[138.48988,36.16667]],[[138.48912,36.18165],[138.48744,36.19046],[138.48744,36.19103],[138.48816,36.19364]],[[138.35894,35.87945],[138.35984,35.87966]],[[138.4728,36.27437],[138.47207,36.27459]],[[138.4793,36.23097],[138.4795,36.23032]],[[138.47456,35.9556],[138.47442,35.95504]],[[138.48601,36.10138],[138.48596,36.1023]],[[138.43705,35.91937],[138.43621,35.91893]],[[138.49104,36.02088],[138.4906,36.02149]],[[138.47442,35.95504],[138.47376,35.95255],[138.47356,35.95224],[138.47276,35.95169],[138.45344,35.94502],[138.45252,35.94461],[138.45178,35.94406],[138.45149,35.94371],[138.45116,35.9431],[138.45001,35.94075],[138.44984,35.94026],[138.44981,35.93979],[138.44991,35.93924],[138.4504,35.93773],[138.45042,35.93723],[138.45026,35.93678],[138.45003,35.93648],[138.44952,35.93609],[138.44826,35.93551],[138.44788,35.93524],[138.44757,35.93489],[138.44734,35.93443],[138.44733,35.93387],[138.44772,35.93216],[138.4477,35.93177],[138.44753,35.93133],[138.44715,35.93093],[138.44469,35.92924],[138.44439,35.92895],[138.44327,35.92597],[138.44308,35.92568],[138.44281,35.92548],[138.44099,35.92475],[138.44042,35.92429],[138.44019,35.92375],[138.44005,35.92165],[138.43972,35.92107],[138.438,35.91985],[138.43705,35.91937]],[[138.47456,35.9556],[138.47486,35.95689],[138.47507,35.95743],[138.47537,35.95783],[138.47587,35.95823],[138.4767,35.95861],[138.48528,35.96173],[138.48614,35.96177],[138.48661,35.9617],[138.49019,35.96022],[138.49072,35.96006],[138.49132,35.96003],[138.49464,35.96155],[138.4956,35.96185],[138.51243,35.96528],[138.51328,35.96526],[138.51883,35.96424],[138.5246,35.96394],[138.529,35.96301],[138.52959,35.96296],[138.53252,35.96312],[138.53416,35.96356],[138.53477,35.96364],[138.5369,35.96357],[138.53768,35.96382],[138.53831,35.96423],[138.5387,35.96493],[138.53889,35.96655],[138.53885,35.96739],[138.53874,35.96782],[138.5382,35.96854],[138.5374,35.96917],[138.53573,35.97012],[138.53276,35.9715],[138.53088,35.97215],[138.53031,35.97242],[138.52982,35.97286],[138.52733,35.97559]],[[138.49078,36.20452],[138.49286,36.2148],[138.4928,36.21581],[138.49238,36.21668],[138.49163,36.21747],[138.48808,36.2201]],[[138.47669,36.25452],[138.47671,36.2553]],[[138.4736,36.04098],[138.47339,36.04015],[138.47289,36.03908],[138.47269,36.03831],[138.47269,36.03799],[138.47283,36.03754],[138.47362,36.03652],[138.47472,36.03539],[138.47552,36.03489],[138.47621,36.03457],[138.47852,36.03385],[138.48154,36.03346],[138.48266,36.03317],[138.48339,36.03278],[138.48481,36.03169],[138.48546,36.03103],[138.48604,36.03016],[138.48613,36.02962],[138.48594,36.02842],[138.48613,36.02766],[138.4906,36.02149]]]}}