{"type":"Feature","properties":{"id":"東日本旅客鉄道_八戸線","name":"八戸線","operator":"東日本旅客鉄道","railType":"普通鉄道(JR)","operatorType":"JR在来線","category":"rail","attribution":"国土数値情報（鉄道データ）国土交通省"},"geometry":{"type":"MultiLineString","coordinates":[[[141.43065,40.5084],[141.43217,40.50998]],[[141.43217,40.50998],[141.43685,40.5147]],[[141.76726,40.34519],[141.76898,40.34472],[141.76998,40.34421],[141.77047,40.34368],[141.77089,40.34288],[141.77099,40.34243],[141.77095,40.3419],[141.77078,40.34134],[141.77047,40.34078],[141.76922,40.33928],[141.76871,40.33846],[141.76857,40.33799],[141.76858,40.33736],[141.76887,40.33673],[141.77004,40.33505],[141.77023,40.33459],[141.77024,40.33415],[141.77012,40.3335],[141.76988,40.33274],[141.76988,40.33202],[141.76997,40.33174],[141.77037,40.33098],[141.77174,40.32961],[141.77219,40.32906],[141.77323,40.32682],[141.77341,40.32598],[141.77343,40.32541],[141.77336,40.32485],[141.7732,40.32437]],[[141.69894,40.42588],[141.68206,40.44414]],[[141.58122,40.52467],[141.5806,40.52504],[141.58015,40.52551],[141.579,40.52891],[141.57906,40.52947],[141.57952,40.53076],[141.5795,40.53174],[141.57779,40.53488],[141.57755,40.53569],[141.57758,40.53646],[141.57813,40.53836],[141.57801,40.5392],[141.57762,40.53984],[141.5771,40.54033],[141.57631,40.54075],[141.57581,40.54091],[141.575,40.54102],[141.57393,40.541],[141.5722,40.54049],[141.57152,40.5404],[141.56927,40.54066],[141.56819,40.54066],[141.56742,40.54045],[141.56553,40.53963],[141.56276,40.53906],[141.56207,40.5388],[141.56158,40.53846],[141.55845,40.53549],[141.55802,40.53484],[141.55757,40.53343],[141.55731,40.53291],[141.55555,40.53085]],[[141.63695,40.47631],[141.63304,40.4794],[141.63238,40.48014],[141.63213,40.48086],[141.63189,40.48229],[141.63137,40.48698],[141.63122,40.48753],[141.63105,40.48782],[141.63026,40.48873],[141.62338,40.49474]],[[141.55555,40.53085],[141.55442,40.52963]],[[141.5919,40.51677],[141.59075,40.51704],[141.58793,40.51728],[141.58743,40.51743],[141.58674,40.51783],[141.58623,40.51835],[141.58573,40.51928],[141.58563,40.52098],[141.58549,40.52152],[141.58529,40.52193],[141.58484,40.52243],[141.58441,40.52274],[141.58194,40.52425]],[[141.60724,40.50735],[141.60719,40.5084],[141.60726,40.50889],[141.608,40.51102],[141.60806,40.51167],[141.60801,40.51198],[141.60766,40.51267],[141.6073,40.51306],[141.60692,40.51333],[141.60484,40.51462],[141.60407,40.51488],[141.60151,40.51499],[141.5941,40.51609],[141.59268,40.51651]],[[141.46628,40.52142],[141.46543,40.52126]],[[141.5096,40.5188],[141.5068,40.51892],[141.50587,40.51882],[141.5051,40.51857],[141.5018,40.5172],[141.49969,40.51665],[141.49809,40.51634],[141.49425,40.51607],[141.49237,40.51611],[141.4896,40.51633]],[[141.71503,40.41111],[141.71536,40.40966]],[[141.62338,40.49474],[141.62253,40.49551]],[[141.66437,40.45738],[141.65671,40.46424],[141.65612,40.46461],[141.65133,40.46695]],[[141.78789,40.30467],[141.78763,40.30547]],[[141.66546,40.45641],[141.66437,40.45738]],[[141.7352,40.38009],[141.73785,40.37542],[141.73869,40.37448],[141.74652,40.36647]],[[141.69952,40.42527],[141.7033,40.42119],[141.70409,40.42046],[141.71312,40.41411],[141.71399,40.41321],[141.71471,40.41228],[141.71503,40.41111]],[[141.52675,40.52293],[141.52257,40.52135],[141.51996,40.51958],[141.51936,40.51928],[141.51828,40.51891],[141.51653,40.51861],[141.5106,40.51876]],[[141.54243,40.52209],[141.54101,40.52196]],[[141.5106,40.51876],[141.5096,40.5188]],[[141.48839,40.51642],[141.485,40.51663],[141.48326,40.51703],[141.47432,40.52138],[141.47362,40.52167],[141.4722,40.52208],[141.47138,40.52218],[141.4704,40.52214],[141.46628,40.52142]],[[141.58194,40.52425],[141.58122,40.52467]],[[141.69952,40.42527],[141.69894,40.42588]],[[141.68147,40.44478],[141.67977,40.44655],[141.67922,40.44697],[141.66996,40.45247],[141.66546,40.45641]],[[141.4896,40.51633],[141.48839,40.51642]],[[141.63769,40.47572],[141.63695,40.47631]],[[141.52808,40.52341],[141.52675,40.52293]],[[141.7605,40.26216],[141.76059,40.26331],[141.76081,40.26396],[141.76126,40.26485],[141.76166,40.26558],[141.76224,40.26636],[141.76309,40.26713],[141.76404,40.26772],[141.76472,40.26794],[141.76585,40.2681],[141.76783,40.26818],[141.76842,40.26834],[141.76936,40.26878],[141.77003,40.26932],[141.7703,40.26975],[141.77042,40.27039],[141.77033,40.27352],[141.77042,40.2738],[141.7708,40.27437],[141.77117,40.27476],[141.7743,40.27743],[141.77543,40.27902],[141.77612,40.27972],[141.77726,40.28032],[141.77902,40.28099],[141.7797,40.28148],[141.78015,40.28215],[141.78033,40.28292],[141.78062,40.28795],[141.78081,40.28861],[141.78143,40.28932],[141.78221,40.28986],[141.78606,40.29145],[141.78657,40.29173],[141.78687,40.29208],[141.78763,40.2935],[141.78861,40.29566],[141.79043,40.29787],[141.79071,40.29845],[141.79075,40.29889],[141.79036,40.29989],[141.78836,40.30341],[141.78808,40.30399],[141.78789,40.30467]],[[141.65133,40.46695],[141.65033,40.46744]],[[141.46543,40.52126],[141.44071,40.51677],[141.44,40.51657],[141.43902,40.51614],[141.43685,40.5147]],[[141.71536,40.40966],[141.71817,40.39698],[141.71851,40.39635],[141.71934,40.39528],[141.72705,40.38758],[141.72874,40.38631],[141.73236,40.38408],[141.73316,40.38337],[141.73377,40.3826],[141.73484,40.38074]],[[141.68206,40.44414],[141.68147,40.44478]],[[141.65033,40.46744],[141.64505,40.47005],[141.63769,40.47572]],[[141.74703,40.36587],[141.75051,40.36232],[141.75139,40.36125],[141.75193,40.36026],[141.7521,40.35977],[141.75252,40.3578],[141.75292,40.35656],[141.75316,40.35609],[141.75393,40.35505],[141.75492,40.35412],[141.7555,40.35374],[141.75694,40.35306],[141.75758,40.35291],[141.75987,40.35285],[141.76102,40.35239],[141.76183,40.35185],[141.76244,40.35122],[141.76283,40.35056],[141.76297,40.34984],[141.76304,40.34848],[141.7632,40.34782],[141.76338,40.34746],[141.76445,40.34642],[141.76548,40.34579],[141.76588,40.34564]],[[141.54101,40.52196],[141.53975,40.52191],[141.53888,40.52196],[141.53654,40.52234],[141.53034,40.52391],[141.52963,40.52388],[141.52898,40.52374],[141.52808,40.52341]],[[141.78763,40.30547],[141.78729,40.30713],[141.78687,40.30813],[141.7866,40.30855],[141.78609,40.30912],[141.78485,40.31013],[141.78431,40.31067],[141.78384,40.31125],[141.78325,40.31241],[141.78279,40.31299],[141.78203,40.31362],[141.78052,40.31467],[141.77996,40.31542],[141.77943,40.31694],[141.779,40.31756],[141.77817,40.31817],[141.77665,40.31877],[141.77573,40.31925],[141.77366,40.32127],[141.77323,40.32177],[141.77309,40.32208],[141.77292,40.32295],[141.77298,40.32372]],[[141.55442,40.52963],[141.55356,40.52871],[141.55231,40.52782],[141.55093,40.52743],[141.54839,40.52704],[141.5471,40.52641],[141.54656,40.52577],[141.54597,40.52384],[141.5454,40.52313],[141.54481,40.52273],[141.54416,40.52243],[141.54243,40.52209]],[[141.59268,40.51651],[141.5919,40.51677]],[[141.76071,40.26104],[141.7605,40.26216]],[[141.76588,40.34564],[141.76726,40.34519]],[[141.74652,40.36647],[141.74703,40.36587]],[[141.73484,40.38074],[141.7352,40.38009]],[[141.62253,40.49551],[141.62002,40.49767],[141.61974,40.49807],[141.61915,40.49939],[141.61893,40.50071],[141.61837,40.50191],[141.61804,40.50227],[141.61702,40.50273],[141.61615,40.50289],[141.61508,40.5029],[141.61465,40.50283],[141.61392,40.50257],[141.61326,40.50253],[141.6124,40.50253],[141.61155,40.50273],[141.61023,40.50339],[141.60888,40.50448],[141.60835,40.505],[141.60787,40.50564],[141.60744,40.50649]],[[141.77298,40.32372],[141.7732,40.32437]],[[141.60744,40.50649],[141.60724,40.50735]],[[141.77103,40.18982],[141.77066,40.19119]],[[141.77066,40.19119],[141.77025,40.19274],[141.77024,40.19324],[141.77039,40.19398],[141.77077,40.1947],[141.77113,40.19514],[141.77161,40.19563],[141.77245,40.19615],[141.79163,40.20217],[141.79263,40.20274],[141.79312,40.20326],[141.79326,40.20358],[141.79341,40.20402],[141.79339,40.20486],[141.79328,40.2052],[141.79215,40.20737]],[[141.79182,40.20797],[141.79027,40.2108],[141.79007,40.2114],[141.79,40.21172],[141.79003,40.21215],[141.7903,40.21331],[141.79047,40.21478],[141.79046,40.21586],[141.79034,40.21653],[141.79004,40.21756],[141.78948,40.21875],[141.7884,40.2203],[141.78818,40.22076],[141.78803,40.22129],[141.78802,40.22175],[141.78823,40.22295],[141.78821,40.22358],[141.78811,40.22403],[141.78781,40.22468],[141.78711,40.22563],[141.78687,40.22612],[141.78668,40.22695],[141.78667,40.2279],[141.7865,40.22837],[141.78596,40.22904],[141.78543,40.22937],[141.78426,40.22986],[141.78267,40.23031],[141.78188,40.23065],[141.78161,40.23086],[141.78114,40.23142],[141.77942,40.23419],[141.77866,40.23567],[141.77866,40.23649],[141.77891,40.23835],[141.77895,40.23937],[141.77885,40.24039],[141.7787,40.24096],[141.77819,40.24227],[141.77716,40.24388],[141.77658,40.2446],[141.77608,40.245],[141.77527,40.2453],[141.77453,40.24546],[141.77072,40.24558],[141.76916,40.24587],[141.76794,40.24628],[141.76589,40.24719],[141.76538,40.24748],[141.76464,40.24825],[141.76425,40.2489],[141.76413,40.24954],[141.76422,40.25053],[141.76469,40.25188],[141.76463,40.25307],[141.76427,40.25358],[141.7635,40.25436],[141.76322,40.25476],[141.76294,40.25622],[141.76071,40.26104]],[[141.79215,40.20737],[141.79182,40.20797]]]}}