{"type":"Feature","properties":{"id":"東日本旅客鉄道_総武線","name":"総武線","operator":"東日本旅客鉄道","railType":"普通鉄道(JR)","operatorType":"JR在来線","category":"rail","attribution":"国土数値情報（鉄道データ）国土交通省"},"geometry":{"type":"MultiLineString","coordinates":[[[140.20076,35.68626],[140.19987,35.68519]],[[140.6846,35.72969],[140.6821,35.72907]],[[140.49187,35.66233],[140.48968,35.66124]],[[140.8261,35.7295],[140.81736,35.73044],[140.81605,35.7307],[140.79597,35.73905]],[[140.31649,35.66363],[140.30129,35.67115],[140.29898,35.67242],[140.29828,35.67292],[140.29693,35.67412],[140.28868,35.68344]],[[140.55323,35.69974],[140.55156,35.69885]],[[140.65587,35.72199],[140.65351,35.72168]],[[140.55323,35.69974],[140.57185,35.7095],[140.576,35.71153],[140.57933,35.71243],[140.60239,35.71813]],[[140.28755,35.68471],[140.28868,35.68344]],[[140.65351,35.72168],[140.65017,35.72124],[140.64801,35.7211],[140.61216,35.72043],[140.60423,35.71856]],[[140.52241,35.68561],[140.53203,35.69046],[140.53517,35.69176],[140.54564,35.69581],[140.55156,35.69885]],[[140.52241,35.68561],[140.52042,35.68457]],[[140.25547,35.7073],[140.25673,35.70757],[140.25795,35.70763],[140.25889,35.70746],[140.25966,35.70726],[140.26395,35.70555],[140.26689,35.70454]],[[140.22802,35.7099],[140.2345,35.71076],[140.23537,35.71084],[140.23678,35.7108],[140.23798,35.71052],[140.23919,35.71004],[140.24657,35.7069],[140.24848,35.70648],[140.24952,35.70639],[140.25105,35.7065],[140.25547,35.7073]],[[140.7134,35.73744],[140.71116,35.7363],[140.71008,35.73588],[140.6905,35.73107],[140.6846,35.72969]],[[140.73832,35.74748],[140.73641,35.74722]],[[140.73641,35.74722],[140.73015,35.74635],[140.72964,35.74625],[140.72875,35.74583],[140.7271,35.74472],[140.72609,35.74378],[140.72577,35.74329],[140.72487,35.74102],[140.7246,35.74054],[140.72416,35.74003],[140.72369,35.73966],[140.72313,35.73929],[140.72243,35.73896],[140.72124,35.73857],[140.72016,35.73842],[140.71742,35.73874],[140.71614,35.73867],[140.71535,35.73845],[140.71458,35.73807]],[[140.26689,35.70454],[140.26898,35.70406]],[[140.82883,35.72915],[140.8261,35.7295]],[[140.6821,35.72907],[140.66998,35.726],[140.65882,35.72247],[140.65775,35.72224],[140.65587,35.72199]],[[140.79597,35.73905],[140.79442,35.7397]],[[140.78523,35.74364],[140.79442,35.7397]],[[140.73832,35.74748],[140.73986,35.74767],[140.74036,35.74763],[140.74104,35.74753],[140.74296,35.74705],[140.74435,35.74689],[140.7456,35.74701],[140.7497,35.74823],[140.75133,35.74846],[140.77329,35.74826],[140.77421,35.74814],[140.77497,35.74793],[140.78523,35.74364]],[[140.48968,35.66124],[140.47749,35.65515],[140.47514,35.6539],[140.47193,35.65069],[140.45887,35.63718]],[[140.26898,35.70406],[140.27034,35.70367],[140.27084,35.70343],[140.27174,35.70268],[140.28755,35.68471]],[[140.31834,35.66272],[140.31649,35.66363]],[[140.22555,35.70959],[140.22802,35.7099]],[[140.60239,35.71813],[140.60423,35.71856]],[[140.52042,35.68457],[140.51881,35.68375],[140.51793,35.68312],[140.50223,35.6681],[140.50152,35.66757],[140.4967,35.66482],[140.49456,35.66365],[140.49187,35.66233]],[[140.71458,35.73807],[140.7134,35.73744]],[[140.22555,35.70959],[140.2207,35.70895],[140.21966,35.70866],[140.21821,35.70792],[140.21734,35.70723],[140.21521,35.70531],[140.20672,35.6975],[140.20589,35.69653],[140.20506,35.69518],[140.20475,35.69433],[140.20383,35.69046],[140.20351,35.68967],[140.20286,35.68877],[140.20076,35.68626]],[[140.1638,35.66235],[140.1612,35.66133],[140.15951,35.66036],[140.15824,35.65928],[140.15753,35.65832],[140.15703,35.65726],[140.1566,35.65562],[140.15417,35.64227],[140.15395,35.64121],[140.1537,35.64045],[140.15343,35.63989],[140.15263,35.63876],[140.15151,35.63772],[140.15046,35.63692]],[[140.03625,35.67785],[140.03939,35.67599],[140.04137,35.67496],[140.04342,35.67347],[140.0469,35.66991],[140.05077,35.66665],[140.05299,35.66434],[140.05529,35.6617]],[[139.9581,35.70796],[139.96004,35.70682]],[[139.9602,35.707],[139.9581,35.70796]],[[140.09168,35.63856],[140.08502,35.64798],[140.08469,35.64838],[140.08375,35.64923],[140.08256,35.64999],[140.08141,35.65052],[140.08005,35.65094],[140.07449,35.65167]],[[140.04316,35.67199],[140.05529,35.6617]],[[140.07449,35.65167],[140.0722,35.65193]],[[140.0722,35.65193],[140.07006,35.6523],[140.06862,35.65286],[140.06181,35.65641],[140.06029,35.65745],[140.05849,35.65896]],[[140.01922,35.69222],[140.01323,35.69727],[140.01139,35.69848],[140.01033,35.69893],[140.00938,35.69921],[140.00758,35.6995],[140.00537,35.6997]],[[140.16599,35.66323],[140.16813,35.66401],[140.17044,35.66501],[140.1784,35.66991],[140.18234,35.67224],[140.18371,35.67337],[140.18707,35.67716],[140.18852,35.67828],[140.18929,35.67867],[140.19413,35.68012],[140.19589,35.68096],[140.1973,35.68207],[140.19987,35.68519]],[[140.04099,35.67382],[140.03625,35.67785]],[[140.01922,35.69222],[140.02122,35.69052]],[[140.02122,35.69052],[140.02429,35.68802],[140.03625,35.67785]],[[139.98306,35.70189],[139.97761,35.70237],[139.97706,35.70235],[139.97448,35.70196],[139.97376,35.70195],[139.97159,35.70224],[139.96997,35.70268]],[[140.04316,35.67199],[140.04099,35.67382]],[[139.96547,35.70476],[139.96997,35.70268]],[[140.00277,35.69996],[139.98629,35.70158]],[[140.16599,35.66323],[140.1638,35.66235]],[[140.05715,35.66013],[140.05529,35.6617]],[[139.9581,35.70796],[139.95799,35.70801]],[[140.05849,35.65896],[140.05715,35.66013]],[[139.98629,35.70158],[139.98306,35.70189]],[[139.95799,35.70801],[139.96014,35.70721],[139.96547,35.70476]],[[140.00277,35.69996],[140.00537,35.6997]],[[139.76591,35.68245],[139.7662,35.68274],[139.76689,35.68307],[139.76763,35.68435],[139.76864,35.68699],[139.76887,35.68718],[139.76992,35.6877],[139.7733,35.68873]],[[139.77449,35.6982],[139.77194,35.69844]],[[139.94395,35.71391],[139.95294,35.71025],[139.95799,35.70801]],[[139.88259,35.73384],[139.88111,35.73282]],[[139.90948,35.72835],[139.90686,35.72939]],[[139.79449,35.69567],[139.79558,35.69564],[139.79705,35.6958]],[[139.84158,35.70595],[139.84319,35.70695]],[[139.78329,35.69403],[139.78484,35.69524],[139.78602,35.69571],[139.78728,35.69608],[139.78963,35.69647],[139.79054,35.69651],[139.79431,35.69623],[139.79705,35.6958]],[[139.82534,35.69729],[139.82788,35.69739]],[[139.92828,35.72048],[139.92653,35.72122]],[[139.8157,35.69678],[139.82534,35.69729]],[[139.82788,35.69739],[139.83161,35.69772],[139.83304,35.69792],[139.83404,35.69813],[139.83495,35.69845],[139.83569,35.69885],[139.83617,35.6992],[139.83687,35.69998],[139.83932,35.70392],[139.83969,35.70438],[139.84072,35.70538],[139.84158,35.70595]],[[139.79705,35.6958],[139.81294,35.69666]],[[139.81294,35.69666],[139.8157,35.69678]],[[139.94395,35.71391],[139.94219,35.71466]],[[139.76755,35.69883],[139.77194,35.69844]],[[139.78588,35.69728],[139.7885,35.69697],[139.79162,35.69592],[139.79221,35.69584]],[[139.7733,35.68873],[139.77529,35.68935]],[[139.84319,35.70695],[139.85047,35.71205],[139.8551,35.7152],[139.85625,35.71587]],[[139.85905,35.7177],[139.86118,35.71875],[139.86198,35.71926],[139.8663,35.72234],[139.86858,35.72425],[139.87072,35.72574],[139.87176,35.72635],[139.88111,35.73282]],[[139.90686,35.72939],[139.90398,35.73076],[139.89991,35.73224],[139.89529,35.73413],[139.89236,35.7355],[139.89041,35.73594],[139.88967,35.736],[139.88812,35.73597],[139.88623,35.73558],[139.88486,35.7351],[139.88259,35.73384]],[[139.78158,35.69271],[139.78329,35.69403]],[[139.90948,35.72835],[139.91481,35.7262],[139.92653,35.72122]],[[139.94219,35.71466],[139.92828,35.72048]],[[139.77529,35.68935],[139.77717,35.69002],[139.78075,35.69207],[139.78158,35.69271]],[[139.79221,35.69584],[139.79449,35.69567]],[[139.77449,35.6982],[139.7831,35.6975]],[[139.7831,35.6975],[139.78588,35.69728]],[[139.85625,35.71587],[139.85905,35.7177]],[[139.76755,35.69883],[139.76634,35.69926]],[[139.76372,35.69995],[139.76634,35.69926]],[[139.76491,35.68098],[139.76591,35.68245]],[[140.41218,35.60855],[140.40838,35.60852]],[[140.36174,35.62862],[140.36074,35.62911],[140.35913,35.6302],[140.35491,35.63324],[140.35331,35.63465],[140.35277,35.6353],[140.35219,35.63628],[140.34961,35.64241],[140.34906,35.64315],[140.3485,35.64367],[140.34773,35.64411],[140.34293,35.64616],[140.33824,35.64901],[140.33756,35.64956],[140.33696,35.6503],[140.33584,35.6527],[140.33548,35.65321],[140.3351,35.6536],[140.3346,35.65394],[140.33169,35.65491],[140.32421,35.65976],[140.31834,35.66272]],[[140.41378,35.60855],[140.42649,35.60867],[140.42799,35.60881],[140.42862,35.60893],[140.4293,35.6092],[140.43434,35.61211],[140.43507,35.61265],[140.43546,35.61304],[140.45728,35.63553]],[[140.41218,35.60855],[140.41378,35.60855]],[[140.45887,35.63718],[140.45728,35.63553]],[[140.40838,35.60852],[140.40144,35.60849],[140.3804,35.61298],[140.37965,35.61321],[140.37872,35.61372],[140.37763,35.61475],[140.37171,35.62229],[140.37093,35.6234],[140.37005,35.62436],[140.36909,35.62515],[140.36803,35.62576],[140.36312,35.62797]],[[140.11218,35.61405],[140.11035,35.61508]],[[140.11492,35.61315],[140.11409,35.6133],[140.11255,35.61385],[140.11218,35.61405]],[[140.12154,35.61655],[140.11958,35.61523],[140.11662,35.61342],[140.11563,35.61313],[140.11492,35.61315]],[[140.1233,35.6177],[140.12154,35.61655]],[[140.14791,35.63512],[140.13041,35.62235],[140.1233,35.6177]],[[140.36312,35.62797],[140.36174,35.62862]],[[140.15046,35.63692],[140.14791,35.63512]],[[140.09345,35.63606],[140.09168,35.63856]],[[140.10398,35.6219],[140.10267,35.62336]],[[140.11035,35.61508],[140.10969,35.61561],[140.10857,35.61677],[140.10398,35.6219]],[[140.10267,35.62336],[140.10145,35.62475],[140.09345,35.63606]],[[139.9602,35.707],[139.9643,35.7051]],[[139.9643,35.7051],[139.968,35.7034],[139.96997,35.70268]],[[139.96004,35.70682],[139.96239,35.70575],[139.9643,35.7051]],[[139.9643,35.7051],[139.96547,35.70476]]]}}