{"type":"Feature","properties":{"id":"東日本旅客鉄道_吾妻線","name":"吾妻線","operator":"東日本旅客鉄道","railType":"普通鉄道(JR)","operatorType":"JR在来線","category":"rail","attribution":"国土数値情報（鉄道データ）国土交通省"},"geometry":{"type":"MultiLineString","coordinates":[[[138.8525,36.5854],[138.85046,36.58542]],[[139.0083,36.48986],[139.00928,36.4926]],[[139.00928,36.4926],[139.0102,36.49523]],[[138.97702,36.52916],[138.97582,36.53001]],[[138.80177,36.54882],[138.80042,36.54864]],[[138.85046,36.58542],[138.84711,36.58537],[138.83988,36.58414],[138.83766,36.58356],[138.83489,36.58265],[138.83394,36.58197],[138.83312,36.58114],[138.83266,36.58043],[138.832,36.57873],[138.83151,36.5778],[138.83047,36.57642],[138.83,36.57595],[138.8291,36.57525],[138.82489,36.57223]],[[138.90472,36.5569],[138.9039,36.5569]],[[138.78492,36.55255],[138.78359,36.55296]],[[138.80042,36.54864],[138.79764,36.54849],[138.79634,36.54869],[138.79524,36.54917],[138.79412,36.54994],[138.79155,36.55107],[138.79015,36.55144],[138.78492,36.55255]],[[139.0102,36.49523],[139.01025,36.49631],[139.0102,36.49662],[139.00979,36.49742],[139.00353,36.50396],[139.00213,36.50568],[138.99903,36.50969],[138.99159,36.5204],[138.99043,36.52187],[138.98985,36.52244],[138.989,36.52311],[138.98726,36.52414],[138.98568,36.5248],[138.98185,36.52603],[138.98121,36.52631],[138.97702,36.52916]],[[138.95697,36.54108],[138.95518,36.54788],[138.95469,36.5487],[138.95426,36.54902],[138.95365,36.5493],[138.94817,36.55056],[138.94523,36.55116],[138.94476,36.55117],[138.94404,36.55111],[138.94324,36.55093],[138.94238,36.5503],[138.94176,36.54999],[138.94046,36.54902],[138.93961,36.54868],[138.93819,36.54835],[138.93642,36.5484],[138.9354,36.5486],[138.93425,36.54911],[138.93349,36.54959],[138.93104,36.55148],[138.93022,36.5519],[138.92965,36.55208],[138.9283,36.55224],[138.92308,36.55245]],[[138.97582,36.53001],[138.97234,36.53243],[138.97072,36.53328],[138.96962,36.53366],[138.96817,36.53402],[138.96553,36.53437],[138.96415,36.5347],[138.96281,36.53518],[138.96134,36.5359],[138.96011,36.53671],[138.95865,36.53808],[138.95759,36.53952],[138.95715,36.5404]],[[138.88176,36.57093],[138.87961,36.57214],[138.8787,36.57278],[138.87737,36.57409],[138.87535,36.57632],[138.87419,36.57731],[138.86504,36.58387],[138.86398,36.5845],[138.86306,36.58486],[138.86066,36.58535],[138.8525,36.5854]],[[138.95715,36.5404],[138.95697,36.54108]],[[138.82489,36.57223],[138.82342,36.57117]],[[138.9039,36.5569],[138.90102,36.5569],[138.9,36.5572],[138.89898,36.55787],[138.89727,36.56007],[138.89697,36.5607],[138.89689,36.56107],[138.89696,36.5628],[138.89691,36.56302],[138.89639,36.56392],[138.89573,36.56451],[138.89407,36.56516],[138.8908,36.5661],[138.88976,36.56649],[138.88281,36.57035]],[[138.92308,36.55245],[138.92139,36.55253]],[[138.82342,36.57117],[138.82062,36.56919],[138.8201,36.56873],[138.81557,36.5632],[138.81441,36.56233],[138.81191,36.56103],[138.81044,36.55941],[138.81009,36.55882],[138.80986,36.5582],[138.80916,36.55493],[138.80839,36.5537],[138.80709,36.5512],[138.80641,36.55024],[138.80518,36.54944],[138.80469,36.54925],[138.80388,36.54907],[138.80177,36.54882]],[[138.92139,36.55253],[138.91594,36.55273],[138.91447,36.55282],[138.91387,36.55294],[138.91306,36.55329],[138.9125,36.55372],[138.911,36.55575],[138.9103,36.55637],[138.90971,36.55671],[138.90915,36.55688],[138.9086,36.55693],[138.90472,36.5569]],[[138.88281,36.57035],[138.88176,36.57093]],[[138.57851,36.544],[138.57617,36.5439],[138.5696,36.54205],[138.56158,36.54015],[138.56036,36.53939],[138.55823,36.53722],[138.55789,36.53696],[138.55709,36.53645],[138.55383,36.53476],[138.55291,36.53386],[138.55202,36.53265]],[[138.55079,36.53138],[138.54894,36.52971],[138.54304,36.52363],[138.54095,36.52076],[138.54042,36.52038],[138.53951,36.51991],[138.53628,36.51897],[138.53483,36.51821],[138.53307,36.51625],[138.53221,36.51543],[138.531,36.51462],[138.52937,36.51376]],[[138.62769,36.55371],[138.62474,36.55294],[138.62403,36.55265],[138.6232,36.55215],[138.62153,36.55154],[138.61898,36.55144],[138.6159,36.55144],[138.61378,36.55166],[138.60995,36.5522],[138.6093,36.5522],[138.60852,36.55206],[138.60759,36.5517],[138.60614,36.55066]],[[138.57984,36.54404],[138.57851,36.544]],[[138.52937,36.51376],[138.52866,36.51339]],[[138.64883,36.54672],[138.6477,36.54708],[138.64672,36.54775],[138.64626,36.5483],[138.64473,36.55069],[138.64422,36.55119],[138.64358,36.55158],[138.63778,36.55313],[138.63322,36.55417],[138.63206,36.55431],[138.63058,36.55436],[138.62849,36.55391]],[[138.60485,36.54967],[138.60347,36.54864],[138.6027,36.54828],[138.60197,36.54806],[138.60089,36.54805],[138.60008,36.54823],[138.59924,36.54865],[138.59861,36.54916],[138.5981,36.5498],[138.59769,36.55017],[138.5971,36.55045],[138.59523,36.55074],[138.59064,36.55114],[138.58904,36.55115],[138.58787,36.55077],[138.58727,36.5504],[138.58669,36.54992],[138.58594,36.54899],[138.58536,36.5475],[138.58465,36.54633],[138.58389,36.54557],[138.5824,36.54469],[138.58139,36.54438],[138.57984,36.54404]],[[138.60614,36.55066],[138.60485,36.54967]],[[138.55202,36.53265],[138.55079,36.53138]],[[138.65046,36.54629],[138.64883,36.54672]],[[138.75922,36.56356],[138.75398,36.56595],[138.75302,36.56629],[138.75012,36.56701],[138.74843,36.56758],[138.74726,36.56781],[138.74629,36.56787],[138.74508,36.56778],[138.7439,36.56752],[138.74335,36.56733],[138.74223,36.56677],[138.71873,36.55112],[138.71682,36.55002],[138.71596,36.54963],[138.71432,36.54908],[138.69811,36.5453]],[[138.62849,36.55391],[138.62769,36.55371]],[[138.78359,36.55296],[138.77273,36.55717],[138.77131,36.55795],[138.76867,36.56019],[138.76763,36.56082],[138.76313,36.56186],[138.76065,36.56292]],[[138.76065,36.56292],[138.75922,36.56356]],[[138.65046,36.54629],[138.65142,36.54598],[138.65228,36.54558],[138.65715,36.54388],[138.65831,36.54328],[138.6591,36.54269],[138.65971,36.54206],[138.66019,36.54142],[138.66092,36.54012],[138.66164,36.53919],[138.66223,36.53864],[138.66292,36.53815],[138.66443,36.53736],[138.66526,36.53708],[138.66657,36.53681],[138.67454,36.53628],[138.67642,36.53644],[138.67769,36.53671],[138.67849,36.537],[138.69299,36.54394],[138.69409,36.54431],[138.69635,36.54487]],[[138.69635,36.54487],[138.69811,36.5453]]]}}