{"type":"Feature","properties":{"id":"東急電鉄_目黒線","name":"目黒線","operator":"東急電鉄","railType":"普通鉄道","operatorType":"民営","category":"rail","attribution":"国土数値情報（鉄道データ）国土交通省"},"geometry":{"type":"MultiLineString","coordinates":[[[139.70392,35.6202],[139.70502,35.62082]],[[139.69845,35.61513],[139.69897,35.61574]],[[139.70502,35.62082],[139.71279,35.62522]],[[139.69897,35.61574],[139.70125,35.61848],[139.70225,35.61925],[139.70392,35.6202]],[[139.71542,35.6332],[139.7159,35.63177]],[[139.71279,35.62522],[139.71362,35.62569]],[[139.71362,35.62569],[139.71412,35.62599],[139.71449,35.62634],[139.71634,35.62897],[139.71646,35.62967],[139.71642,35.63036],[139.7159,35.63177]],[[139.68404,35.60699],[139.68543,35.60736]],[[139.69444,35.61043],[139.69564,35.61172],[139.69845,35.61513]],[[139.67285,35.60406],[139.68404,35.60699]],[[139.67197,35.60383],[139.67285,35.60406]],[[139.69377,35.60975],[139.69444,35.61043]],[[139.68543,35.60736],[139.69331,35.60942],[139.69357,35.60954],[139.69377,35.60975]],[[139.66727,35.5986],[139.66748,35.60112],[139.66816,35.60217],[139.66886,35.6028],[139.66951,35.60313],[139.67197,35.60383]],[[139.66726,35.59795],[139.66727,35.5986]],[[139.66726,35.59795],[139.66731,35.59663]]]}}