{"type":"Feature","properties":{"id":"東日本旅客鉄道_左沢線","name":"左沢線","operator":"東日本旅客鉄道","railType":"普通鉄道(JR)","operatorType":"JR在来線","category":"rail","attribution":"国土数値情報（鉄道データ）国土交通省"},"geometry":{"type":"MultiLineString","coordinates":[[[140.20775,38.38199],[140.20845,38.38242]],[[140.30317,38.27674],[140.31287,38.2724],[140.31973,38.26884],[140.32062,38.26848],[140.3214,38.26827],[140.32229,38.26814],[140.32723,38.26806],[140.32864,38.26791],[140.32945,38.2677],[140.33044,38.26724],[140.33133,38.26659],[140.33194,38.26595]],[[140.27429,38.3725],[140.27295,38.37382],[140.27216,38.37441],[140.27162,38.37476],[140.26915,38.3759],[140.26854,38.37634],[140.26788,38.37715],[140.26674,38.37927]],[[140.27055,38.3213],[140.27036,38.32044]],[[140.27293,38.33229],[140.27055,38.3213]],[[140.27321,38.33353],[140.27293,38.33229]],[[140.27142,38.29543],[140.27173,38.29378]],[[140.33245,38.26509],[140.33278,38.26415]],[[140.26674,38.37927],[140.26642,38.37991]],[[140.27036,38.32044],[140.26866,38.31249],[140.26857,38.31168],[140.26858,38.31086],[140.2688,38.30913],[140.27142,38.29543]],[[140.27508,38.37157],[140.27429,38.3725]],[[140.2254,38.38099],[140.22624,38.38077]],[[140.24915,38.39773],[140.24802,38.39729]],[[140.27737,38.35637],[140.27615,38.36905],[140.27602,38.36968],[140.27569,38.3706],[140.27538,38.37119],[140.27508,38.37157]],[[140.27321,38.33353],[140.27343,38.33474],[140.27359,38.33628],[140.27439,38.33994],[140.27746,38.34862],[140.27786,38.35097],[140.27744,38.35561]],[[140.30237,38.27712],[140.30317,38.27674]],[[140.20845,38.38242],[140.21238,38.38462],[140.21283,38.38478],[140.21381,38.38501],[140.21736,38.38537],[140.21799,38.38528],[140.21904,38.38493],[140.22255,38.38215],[140.2234,38.38168],[140.22426,38.38133],[140.2254,38.38099]],[[140.27173,38.29378],[140.27221,38.29141],[140.27268,38.29059],[140.27307,38.29008],[140.27392,38.28948],[140.27477,38.28914],[140.2802,38.28756],[140.2818,38.28692],[140.29389,38.28095],[140.30237,38.27712]],[[140.27744,38.35561],[140.27737,38.35637]],[[140.24802,38.39729],[140.2474,38.39694],[140.24611,38.39585],[140.24568,38.3954],[140.2454,38.39497],[140.24508,38.39436],[140.24432,38.39179],[140.2412,38.38404],[140.24102,38.38368],[140.2403,38.38296],[140.23969,38.38254],[140.2384,38.38204],[140.2335,38.38164],[140.23285,38.38136],[140.23187,38.38075],[140.23102,38.38039],[140.23025,38.3803],[140.2284,38.38038],[140.22624,38.38077]],[[140.33194,38.26595],[140.33245,38.26509]],[[140.26642,38.37991],[140.26033,38.39233],[140.25992,38.39297],[140.25945,38.39351],[140.25641,38.39652],[140.25578,38.39694],[140.25474,38.39745],[140.2536,38.39782],[140.252,38.39806],[140.25077,38.39805],[140.24915,38.39773]]]}}