{"type":"Feature","properties":{"id":"東日本旅客鉄道_山手線","name":"山手線","operator":"東日本旅客鉄道","railType":"普通鉄道(JR)","operatorType":"JR在来線","category":"rail","attribution":"国土数値情報（鉄道データ）国土交通省"},"geometry":{"type":"MultiLineString","coordinates":[[[139.74144,35.73419],[139.74697,35.73634]],[[139.7585,35.74006],[139.76067,35.73826]],[[139.74914,35.73738],[139.75459,35.7401],[139.75559,35.74046],[139.75622,35.74053],[139.75683,35.74048],[139.7585,35.74006]],[[139.70915,35.72618],[139.7066,35.72145]],[[139.7105,35.72903],[139.70915,35.72618]],[[139.71167,35.73152],[139.7105,35.72903]],[[139.72695,35.73203],[139.71958,35.73399],[139.71732,35.7345],[139.71626,35.73455],[139.7157,35.7345],[139.7146,35.73423],[139.71398,35.73401],[139.71308,35.73349],[139.71258,35.73304],[139.71167,35.73152]],[[139.76067,35.73826],[139.76248,35.73669]],[[139.74144,35.73419],[139.73926,35.73325]],[[139.70423,35.7141],[139.70342,35.71171]],[[139.74697,35.73634],[139.74914,35.73738]],[[139.7066,35.72145],[139.70596,35.71933]],[[139.72893,35.73154],[139.72695,35.73203]],[[139.70596,35.71933],[139.70423,35.7141]],[[139.73926,35.73325],[139.73449,35.7312],[139.73372,35.731],[139.73296,35.73088],[139.73173,35.7309],[139.72893,35.73154]],[[139.70024,35.68926],[139.70088,35.68719],[139.70203,35.6845]],[[139.70176,35.68735],[139.70222,35.68555]],[[139.70019,35.70011],[139.69999,35.69828],[139.69952,35.69644],[139.6994,35.69531],[139.69999,35.69264],[139.70004,35.69167]],[[139.70129,35.65907],[139.70118,35.65978],[139.70251,35.67042]],[[139.70125,35.6879],[139.70148,35.68712],[139.70222,35.68555]],[[139.70295,35.6722],[139.70399,35.67489],[139.70412,35.67552],[139.70413,35.67667],[139.70384,35.67842]],[[139.70004,35.69167],[139.70024,35.68926]],[[139.7006,35.68995],[139.70004,35.69167]],[[139.70125,35.6879],[139.7006,35.68995]],[[139.70203,35.6845],[139.70239,35.68309]],[[139.70239,35.68309],[139.70313,35.68105],[139.70384,35.67842]],[[139.70032,35.70175],[139.70019,35.70011]],[[139.70251,35.67042],[139.70295,35.6722]],[[139.70068,35.69107],[139.70176,35.68735]],[[139.70342,35.71171],[139.70065,35.70389],[139.70032,35.70175]],[[139.70222,35.68555],[139.70377,35.67936],[139.70384,35.67842]],[[139.72888,35.61912],[139.72761,35.62077]],[[139.71054,35.64593],[139.70971,35.64743]],[[139.72761,35.62077],[139.72436,35.62526]],[[139.71334,35.64093],[139.71413,35.63949],[139.71438,35.63865]],[[139.70971,35.64743],[139.70773,35.65097],[139.70221,35.65723]],[[139.70221,35.65723],[139.70174,35.65785],[139.70129,35.65907]],[[139.72436,35.62526],[139.72321,35.62672],[139.72262,35.62727]],[[139.73881,35.62549],[139.73883,35.62608],[139.73863,35.627]],[[139.73762,35.62049],[139.73881,35.62549]],[[139.7328,35.61677],[139.73399,35.61691],[139.73444,35.61704],[139.73508,35.61729],[139.7356,35.61761],[139.73634,35.61828],[139.73695,35.61901],[139.73762,35.62049]],[[139.72888,35.61912],[139.7295,35.6183],[139.7304,35.61748],[139.73149,35.617],[139.7328,35.61677]],[[139.73863,35.627],[139.73844,35.62927]],[[139.72262,35.62727],[139.7214,35.62806],[139.71773,35.62975],[139.71713,35.63027],[139.71636,35.63136]],[[139.71636,35.63136],[139.71585,35.63284],[139.71544,35.63452]],[[139.71054,35.64593],[139.71334,35.64093]],[[139.71334,35.64093],[139.71354,35.64012],[139.71408,35.63901],[139.71438,35.63865]],[[139.71438,35.63865],[139.71499,35.63644]],[[139.71438,35.63865],[139.71472,35.63822],[139.71497,35.6375],[139.71503,35.63721],[139.71499,35.63644]],[[139.71499,35.63644],[139.71544,35.63452]]]}}