{"type":"Feature","properties":{"id":"東海旅客鉄道_身延線","name":"身延線","operator":"東海旅客鉄道","railType":"普通鉄道(JR)","operatorType":"JR在来線","category":"rail","attribution":"国土数値情報（鉄道データ）国土交通省"},"geometry":{"type":"MultiLineString","coordinates":[[[138.58896,35.6601],[138.58949,35.65957]],[[138.57916,35.66198],[138.57993,35.66165],[138.58122,35.66138],[138.58801,35.66061],[138.58849,35.66045],[138.58896,35.6601]],[[138.56991,35.66664],[138.57082,35.66644]],[[138.57858,35.66245],[138.57916,35.66198]],[[138.57082,35.66644],[138.57325,35.66588],[138.57471,35.66534],[138.5759,35.66455],[138.57858,35.66245]],[[138.51107,35.56277],[138.51057,35.56208],[138.50956,35.56107],[138.50896,35.56061],[138.50775,35.56],[138.50723,35.5599],[138.50626,35.5599],[138.50298,35.56059],[138.50241,35.56063]],[[138.45364,35.37939],[138.45286,35.37852],[138.4524,35.37772],[138.45232,35.37547],[138.45239,35.37466],[138.4527,35.3739],[138.4535,35.37273],[138.45545,35.36917],[138.4558,35.3684],[138.45601,35.36752],[138.45586,35.36673],[138.45545,35.36601],[138.45495,35.36552],[138.45388,35.36473],[138.4536,35.36439],[138.45334,35.3637],[138.45312,35.36193]],[[138.553,35.63087],[138.5511,35.63025]],[[138.61665,35.22089],[138.61449,35.22146]],[[138.63591,35.20507],[138.63531,35.20547]],[[138.47206,35.42555],[138.46969,35.42428],[138.46841,35.4238],[138.46795,35.4237],[138.46607,35.42367],[138.4648,35.42332],[138.46412,35.42281],[138.46386,35.42251],[138.46289,35.42074],[138.46231,35.42005],[138.46168,35.41955],[138.46008,35.41882]],[[138.45933,35.4182],[138.45857,35.41742],[138.45814,35.41674],[138.45758,35.41536],[138.45688,35.40648],[138.45222,35.39689],[138.45194,35.39604],[138.45195,35.39543],[138.45207,35.39489],[138.45332,35.39257],[138.45376,35.39152],[138.45545,35.38238],[138.45536,35.38174],[138.45511,35.38107],[138.45416,35.37996]],[[138.51144,35.56338],[138.51107,35.56277]],[[138.53352,35.6174],[138.53273,35.61668]],[[138.47703,35.44421],[138.47723,35.44313],[138.477,35.44228],[138.47672,35.4419],[138.47497,35.44021],[138.47467,35.43976],[138.47445,35.43916],[138.4744,35.43819],[138.47469,35.43631],[138.47485,35.43571],[138.4756,35.43387],[138.47561,35.43294],[138.47497,35.43051],[138.47486,35.4298],[138.47489,35.42871],[138.47479,35.42821],[138.47445,35.42755],[138.47388,35.42684],[138.47344,35.42641],[138.47288,35.42602]],[[138.47153,35.50381],[138.47096,35.50335]],[[138.46328,35.49297],[138.46287,35.49205]],[[138.47691,35.44516],[138.47703,35.44421]],[[138.57767,35.64331],[138.57024,35.63681]],[[138.64712,35.1886],[138.64611,35.18922],[138.64526,35.19006],[138.64497,35.1907],[138.64455,35.19233],[138.64438,35.19269],[138.64425,35.19286],[138.64298,35.19379],[138.64264,35.19416],[138.64235,35.19502],[138.64182,35.19849],[138.64161,35.19902],[138.63793,35.20384],[138.63734,35.20428],[138.63591,35.20507]],[[138.46696,35.48156],[138.4679,35.48143]],[[138.5511,35.63025],[138.54753,35.62912],[138.54668,35.62878],[138.5456,35.62816],[138.54229,35.6253],[138.53352,35.6174]],[[138.60182,35.22623],[138.60002,35.22832],[138.59921,35.22878],[138.59848,35.22894],[138.59392,35.22902],[138.59283,35.22891],[138.59241,35.2288],[138.5916,35.22839],[138.59097,35.22791],[138.59073,35.22757],[138.5905,35.22679],[138.59054,35.22638],[138.5907,35.22592],[138.59154,35.22444],[138.59312,35.22199],[138.59319,35.22102],[138.59344,35.21993],[138.59343,35.21897],[138.59329,35.21857],[138.59297,35.21817],[138.5922,35.21762],[138.59147,35.21732],[138.58921,35.21666],[138.58886,35.21646],[138.58815,35.21554],[138.58706,35.21377],[138.58632,35.21292],[138.58552,35.21142],[138.58516,35.2104],[138.58505,35.2098],[138.58517,35.20938],[138.58599,35.20826],[138.58616,35.20785],[138.58617,35.20727],[138.58585,35.20627],[138.58575,35.20566],[138.58598,35.20467],[138.5857,35.20351],[138.58461,35.20165],[138.58436,35.19963]],[[138.51686,35.22996],[138.51489,35.23042]],[[138.62682,35.21454],[138.62189,35.21552],[138.6211,35.21583],[138.62041,35.21642],[138.61834,35.2198],[138.61789,35.22028],[138.61736,35.22066]],[[138.61046,35.22256],[138.61068,35.22258]],[[138.58949,35.65957],[138.58974,35.65924],[138.59003,35.6585],[138.59005,35.658],[138.58991,35.65741],[138.58598,35.65089],[138.58501,35.64973],[138.57869,35.64418]],[[138.52709,35.59527],[138.52696,35.59443]],[[138.48214,35.46202],[138.48193,35.46078],[138.48172,35.46003],[138.4805,35.45697],[138.48028,35.45618],[138.48028,35.45567],[138.48052,35.45437],[138.4806,35.45301],[138.48056,35.45166],[138.48038,35.45101],[138.48018,35.45055],[138.47963,35.44969],[138.47806,35.44781],[138.47706,35.44602],[138.47691,35.44549],[138.47691,35.44516]],[[138.45213,35.32784],[138.45215,35.3285]],[[138.52111,35.56955],[138.51988,35.56962]],[[138.5636,35.19765],[138.563,35.19851],[138.56202,35.19938],[138.56157,35.1996],[138.5597,35.20011],[138.55908,35.20036],[138.55855,35.20069],[138.55739,35.20172],[138.55659,35.20222],[138.55592,35.20279],[138.55552,35.20335],[138.55542,35.20363],[138.55535,35.20543],[138.55509,35.20593],[138.55454,35.20668],[138.55391,35.20864],[138.55265,35.2103],[138.55223,35.21072],[138.55105,35.21111],[138.5461,35.21193],[138.5456,35.21216],[138.54526,35.21253],[138.54503,35.21296],[138.54495,35.21344],[138.54497,35.21478],[138.54455,35.21574],[138.54429,35.21685],[138.54395,35.21783],[138.54227,35.21993],[138.54205,35.22037],[138.54194,35.22092],[138.5422,35.22202],[138.54215,35.22287],[138.54206,35.22324],[138.54133,35.22497],[138.54054,35.22642],[138.53953,35.22728],[138.53774,35.22903],[138.53732,35.22964],[138.53708,35.23022]],[[138.5286,35.60488],[138.52849,35.60418]],[[138.64305,35.15183],[138.64228,35.15212],[138.64091,35.15284],[138.64035,35.15322],[138.63997,35.15361],[138.63933,35.15462],[138.63906,35.15534],[138.63895,35.15625],[138.63901,35.15697]],[[138.65036,35.15134],[138.64305,35.15183]],[[138.46485,35.28251],[138.46429,35.28338],[138.46351,35.2842],[138.46299,35.28451],[138.46202,35.28483],[138.46124,35.28523],[138.4607,35.28571],[138.46035,35.28619],[138.46018,35.2867],[138.46017,35.28818],[138.45997,35.28918],[138.46025,35.29129],[138.46023,35.29198],[138.46009,35.29259],[138.45983,35.29314],[138.45952,35.29352],[138.45916,35.29375],[138.45757,35.29428],[138.45716,35.29466],[138.45665,35.29539],[138.45655,35.29594],[138.45664,35.29763],[138.45642,35.29965],[138.45715,35.30108],[138.45729,35.30141],[138.45733,35.30176],[138.45661,35.30341],[138.45661,35.30406],[138.45616,35.30558],[138.45589,35.30716],[138.45514,35.30952],[138.45516,35.31033],[138.45552,35.31122],[138.45559,35.3117],[138.45547,35.31237],[138.45492,35.31429],[138.45498,35.31567],[138.45435,35.31718],[138.45264,35.32013],[138.45253,35.32086],[138.45271,35.32179],[138.45268,35.32277],[138.45251,35.3231],[138.45183,35.32386],[138.45159,35.32438],[138.45154,35.32542],[138.45199,35.32654],[138.45213,35.32784]],[[138.46008,35.41882],[138.45933,35.4182]],[[138.56406,35.19685],[138.5636,35.19765]],[[138.62742,35.21443],[138.62682,35.21454]],[[138.53708,35.23022],[138.53679,35.23085]],[[138.63531,35.20547],[138.63481,35.20585],[138.63418,35.2067],[138.62972,35.21337],[138.62942,35.21366],[138.62864,35.21409],[138.62742,35.21443]],[[138.47083,35.54094],[138.47086,35.53932],[138.47107,35.53826],[138.47154,35.53694],[138.47207,35.53611],[138.47516,35.5329],[138.47625,35.53208],[138.47717,35.53174],[138.47797,35.5312],[138.48193,35.52767],[138.48238,35.52709],[138.48349,35.52502],[138.48377,35.52413],[138.48369,35.52357],[138.4829,35.52199],[138.48252,35.52086],[138.48239,35.51984],[138.48244,35.51809],[138.48222,35.51701],[138.48106,35.51452],[138.48072,35.51406],[138.48028,35.51367],[138.47958,35.51327],[138.47779,35.51258],[138.47703,35.51205],[138.47669,35.51171],[138.47627,35.51115],[138.47592,35.51049],[138.4757,35.50923],[138.47546,35.50836],[138.47487,35.50717],[138.47428,35.50643],[138.47153,35.50381]],[[138.45416,35.37996],[138.45364,35.37939]],[[138.57869,35.64418],[138.57767,35.64331]],[[138.52696,35.59443],[138.5253,35.58417],[138.52533,35.58319],[138.52553,35.58238],[138.52582,35.58188],[138.53007,35.57673],[138.53041,35.57623],[138.53064,35.57551],[138.53055,35.57455],[138.53006,35.57357],[138.52943,35.57305],[138.5228,35.56977],[138.52204,35.56957],[138.52111,35.56955]],[[138.64613,35.16861],[138.64709,35.17006],[138.64803,35.17096],[138.65453,35.17511],[138.65516,35.17586],[138.65537,35.17647],[138.65538,35.17693],[138.65523,35.17779],[138.6547,35.17982],[138.65441,35.18037],[138.64982,35.18684],[138.64954,35.18709],[138.64793,35.1881]],[[138.49402,35.56048],[138.49239,35.56045]],[[138.47093,35.54189],[138.47083,35.54094]],[[138.56964,35.63638],[138.56867,35.63586],[138.56788,35.63555],[138.553,35.63087]],[[138.61665,35.22089],[138.61736,35.22066]],[[138.46287,35.49205],[138.46168,35.48932],[138.46167,35.48848],[138.4619,35.48746],[138.46228,35.48678],[138.46557,35.48229],[138.46629,35.48178],[138.46696,35.48156]],[[138.53273,35.61668],[138.53084,35.61492],[138.53036,35.61429],[138.53013,35.61383],[138.52984,35.61255],[138.5286,35.60488]],[[138.52849,35.60418],[138.52709,35.59527]],[[138.50163,35.56063],[138.49402,35.56048]],[[138.51988,35.56962],[138.51873,35.56968],[138.51773,35.56955],[138.51724,35.56935],[138.51586,35.56846],[138.51464,35.56751],[138.51376,35.56663],[138.51289,35.56551],[138.51144,35.56338]],[[138.4679,35.48143],[138.47029,35.48105],[138.47114,35.48082],[138.4717,35.48056],[138.47617,35.47761],[138.47684,35.47695],[138.47717,35.47628],[138.47727,35.4757],[138.47713,35.47494],[138.4766,35.47355],[138.47676,35.47232],[138.48125,35.46454],[138.48182,35.46374],[138.48204,35.46326],[138.48213,35.46266]],[[138.60334,35.22469],[138.60249,35.22544],[138.60182,35.22623]],[[138.48213,35.46266],[138.48214,35.46202]],[[138.50241,35.56063],[138.50163,35.56063]],[[138.47463,35.265],[138.47393,35.26547],[138.47359,35.26587],[138.47199,35.26731],[138.47158,35.26782],[138.47141,35.26818],[138.47096,35.2694],[138.471,35.26986],[138.47124,35.27047],[138.47123,35.271],[138.47044,35.27277],[138.47032,35.27322],[138.47023,35.27436],[138.47004,35.27489],[138.4695,35.2759],[138.46927,35.27708],[138.4689,35.278],[138.46792,35.27908],[138.46581,35.28102],[138.46521,35.28191]],[[138.45312,35.36193],[138.453,35.36097]],[[138.64613,35.16861],[138.64545,35.16752]],[[138.61046,35.22256],[138.60634,35.22377],[138.60568,35.22378],[138.60633,35.22369],[138.60934,35.22274],[138.61046,35.22256]],[[138.453,35.36097],[138.45287,35.36021],[138.45134,35.3569],[138.45112,35.35614],[138.45142,35.35053],[138.45139,35.3475],[138.45124,35.34704],[138.45009,35.3447],[138.45003,35.34336],[138.44985,35.34254],[138.44955,35.34175],[138.4495,35.34107],[138.44947,35.33872],[138.45041,35.33561],[138.45065,35.33385],[138.4508,35.33356],[138.45181,35.33241],[138.45205,35.3318],[138.45215,35.3285]],[[138.58436,35.19963],[138.58414,35.19895]],[[138.65382,35.15116],[138.65036,35.15134]],[[138.49239,35.56045],[138.49036,35.56034],[138.48937,35.56008],[138.48847,35.55967],[138.48742,35.55895],[138.48669,35.55812],[138.48605,35.55709],[138.48527,35.55557],[138.48497,35.55522],[138.48392,35.55445],[138.48029,35.55208],[138.47885,35.55102],[138.47277,35.54513],[138.47164,35.54373],[138.47127,35.54301],[138.47093,35.54189]],[[138.46521,35.28191],[138.46485,35.28251]],[[138.61373,35.22168],[138.61435,35.22129],[138.61549,35.22086],[138.61736,35.22066]],[[138.64545,35.16752],[138.64067,35.16016],[138.63961,35.15846],[138.63921,35.15765]],[[138.51489,35.23042],[138.51326,35.231],[138.51282,35.23128],[138.51249,35.23162],[138.51199,35.23253],[138.51137,35.23456],[138.51118,35.23551],[138.51089,35.23609],[138.51028,35.23676],[138.50823,35.23818],[138.50744,35.23886],[138.5069,35.23953],[138.50625,35.24078],[138.50581,35.24119],[138.50515,35.2415],[138.50351,35.24193],[138.50078,35.24328],[138.50009,35.24351],[138.49959,35.24351],[138.498,35.2431],[138.4969,35.24322],[138.4965,35.24335],[138.4935,35.24508],[138.49202,35.24679],[138.49133,35.2473]],[[138.47096,35.50335],[138.46618,35.49862],[138.46554,35.49772],[138.46508,35.49688],[138.46328,35.49297]],[[138.47288,35.42602],[138.47206,35.42555]],[[138.49133,35.2473],[138.49064,35.24761]],[[138.57024,35.63681],[138.56964,35.63638]],[[138.63921,35.15765],[138.63901,35.15697]],[[138.47536,35.26467],[138.47463,35.265]],[[138.58414,35.19895],[138.58386,35.19834],[138.58345,35.19786],[138.58278,35.19754],[138.58218,35.19744],[138.58134,35.19737],[138.58067,35.19741],[138.57984,35.1976],[138.57896,35.19796],[138.57774,35.19822],[138.57728,35.19824],[138.57682,35.19815],[138.57524,35.1973],[138.57393,35.19639],[138.57229,35.19477],[138.57171,35.19431],[138.57118,35.19402],[138.57059,35.19385],[138.56945,35.19384],[138.56846,35.19396],[138.56679,35.19437],[138.56521,35.19533],[138.56491,35.19564],[138.56406,35.19685]],[[138.60334,35.22469],[138.60374,35.22444],[138.60421,35.22427],[138.60647,35.22388],[138.61068,35.22258]],[[138.49064,35.24761],[138.48984,35.24801],[138.48869,35.24909],[138.48774,35.24959],[138.48735,35.25002],[138.48677,35.25111],[138.48645,35.25141],[138.48386,35.25257],[138.48335,35.25292],[138.483,35.25355],[138.48258,35.25496],[138.48222,35.25575],[138.48063,35.25825],[138.48024,35.2597],[138.47973,35.26063],[138.47761,35.26328],[138.47602,35.26434],[138.47536,35.26467]],[[138.61449,35.22146],[138.61373,35.22168]],[[138.64793,35.1881],[138.64712,35.1886]],[[138.61068,35.22258],[138.61373,35.22168]],[[138.53679,35.23085],[138.53657,35.23128],[138.53618,35.2317],[138.53595,35.23184],[138.53499,35.23219],[138.53359,35.23234],[138.533,35.23222],[138.53265,35.23204],[138.53153,35.23105],[138.52987,35.22997],[138.52883,35.22945],[138.52772,35.22912],[138.52686,35.22926],[138.52557,35.22974],[138.52432,35.22972],[138.52305,35.22934],[138.52238,35.22929],[138.52113,35.22948],[138.51952,35.2299],[138.5177,35.2298],[138.51686,35.22996]]]}}