{"type":"Feature","properties":{"id":"東日本旅客鉄道_鹿島線","name":"鹿島線","operator":"東日本旅客鉄道","railType":"普通鉄道(JR)","operatorType":"JR在来線","category":"rail","attribution":"国土数値情報（鉄道データ）国土交通省"},"geometry":{"type":"MultiLineString","coordinates":[[[140.5458,35.91648],[140.54586,35.91756]],[[140.54586,35.91756],[140.54639,35.92599],[140.54656,35.92723],[140.54716,35.92951],[140.5494,35.93647]],[[140.62467,35.97048],[140.62719,35.97092]],[[140.58931,35.95794],[140.59042,35.95767],[140.59128,35.95758],[140.59359,35.95762],[140.59516,35.95794],[140.59668,35.95849],[140.5983,35.95947],[140.60799,35.96677],[140.60901,35.9674],[140.61012,35.9679],[140.6118,35.96835],[140.62467,35.97048]],[[140.5494,35.93647],[140.54998,35.93844]],[[140.63605,35.99275],[140.63577,35.99338]],[[140.62719,35.97092],[140.63121,35.97163],[140.63269,35.97217],[140.63403,35.97292],[140.63518,35.97384],[140.63575,35.97447],[140.63623,35.97521],[140.63785,35.97839],[140.63831,35.97955],[140.63917,35.98265],[140.63928,35.98352],[140.63919,35.98509],[140.63879,35.98663],[140.63605,35.99275]],[[140.54998,35.93844],[140.55016,35.94025],[140.54989,35.94484],[140.54991,35.94611],[140.55011,35.94711],[140.55071,35.94846],[140.55169,35.94979],[140.55269,35.95072],[140.5536,35.9513],[140.55508,35.95199],[140.56236,35.95487],[140.57416,35.95948],[140.57567,35.96005],[140.57665,35.96033],[140.57791,35.96056],[140.57891,35.96064],[140.57999,35.96061],[140.58085,35.96049],[140.58223,35.96018],[140.5883,35.95825]],[[140.5883,35.95825],[140.58931,35.95794]],[[140.5337,35.89795],[140.53592,35.89812],[140.53946,35.89857]],[[140.5337,35.89795],[140.53112,35.89782]],[[140.53946,35.89857],[140.54156,35.89903],[140.54285,35.89961],[140.54333,35.89993],[140.54421,35.90078],[140.54477,35.90189],[140.54499,35.90331],[140.5458,35.91648]]]}}