{"type":"Feature","properties":{"id":"東日本旅客鉄道_大糸線","name":"大糸線","operator":"東日本旅客鉄道","railType":"普通鉄道(JR)","operatorType":"JR在来線","category":"rail","attribution":"国土数値情報（鉄道データ）国土交通省"},"geometry":{"type":"MultiLineString","coordinates":[[[137.90894,36.77527],[137.90782,36.774]],[[137.90075,36.76291],[137.9005,36.7622],[137.89954,36.76024],[137.89903,36.75899],[137.89874,36.75805],[137.89866,36.75726],[137.89851,36.7568],[137.89779,36.75532],[137.89574,36.75347],[137.89542,36.75328],[137.89362,36.75268],[137.89266,36.75189],[137.89219,36.75118],[137.89205,36.75082],[137.89162,36.74769],[137.89132,36.74696],[137.89083,36.74646],[137.89032,36.74611],[137.88892,36.74556],[137.88845,36.7452],[137.88743,36.74349],[137.88579,36.74206],[137.88547,36.7414],[137.88544,36.74071]],[[137.85455,36.6055],[137.85542,36.60615]],[[137.84261,36.55378],[137.84262,36.55444]],[[137.84656,36.53511],[137.84594,36.53617]],[[137.84192,36.63744],[137.84236,36.63792],[137.84263,36.639],[137.84253,36.64371],[137.84275,36.6452],[137.84281,36.64622],[137.84293,36.64655],[137.84391,36.64802],[137.84422,36.64871],[137.84426,36.64898],[137.84411,36.64966],[137.84406,36.65042],[137.84416,36.65103],[137.84438,36.65161],[137.84477,36.6523],[137.84588,36.65361],[137.84613,36.65411],[137.8464,36.65595],[137.84653,36.65748]],[[137.85824,36.51734],[137.85789,36.51787]],[[137.84996,36.67031],[137.85036,36.6709]],[[137.84653,36.65748],[137.8467,36.65904]],[[137.86142,36.49977],[137.85666,36.49202]],[[137.85789,36.51787],[137.84656,36.53511]],[[137.84134,36.63691],[137.84192,36.63744]],[[137.85036,36.6709],[137.85505,36.67948],[137.86349,36.69528]],[[137.88564,36.7392],[137.88544,36.74071]],[[137.90782,36.774],[137.90648,36.77233],[137.90611,36.77165],[137.90602,36.77065],[137.90622,36.7694],[137.90613,36.769],[137.9059,36.7686],[137.90559,36.7683],[137.9018,36.76572],[137.90147,36.76522],[137.90095,36.76357]],[[137.84261,36.55378],[137.84263,36.54937],[137.84362,36.54634],[137.8441,36.54536],[137.84419,36.54488],[137.84417,36.5441],[137.84395,36.54231],[137.84432,36.53921],[137.84447,36.53872],[137.84594,36.53617]],[[137.87262,36.71133],[137.87999,36.71368],[137.88053,36.71395],[137.88158,36.71502],[137.8826,36.71767],[137.88485,36.72034],[137.88496,36.7208],[137.88496,36.7213],[137.8847,36.72226],[137.88469,36.72317],[137.88612,36.72515],[137.88687,36.72564],[137.88715,36.72593],[137.88728,36.72643],[137.88751,36.73],[137.88741,36.73071],[137.88569,36.73505],[137.88563,36.73568],[137.88592,36.7367],[137.88593,36.7371],[137.88564,36.7392]],[[137.90095,36.76357],[137.90075,36.76291]],[[137.85824,36.51734],[137.85949,36.51544],[137.86,36.51453],[137.86361,36.50493],[137.86372,36.50424],[137.8637,36.50362],[137.86347,36.50309],[137.86207,36.50085]],[[137.84262,36.55444],[137.8427,36.55651],[137.84352,36.55824],[137.84364,36.55869],[137.8437,36.55997],[137.8441,36.56143],[137.84416,36.56216],[137.84405,36.5626],[137.84367,36.56337],[137.84205,36.56542]],[[137.86349,36.69528],[137.8643,36.69674]],[[137.85542,36.60615],[137.85648,36.60696],[137.85763,36.6084],[137.85796,36.60908],[137.85858,36.6113],[137.85885,36.61177],[137.85962,36.61264],[137.86048,36.61427],[137.86026,36.61761],[137.86026,36.61872],[137.86017,36.61913],[137.85984,36.61965],[137.85926,36.62025],[137.85852,36.62065],[137.85801,36.62077],[137.85627,36.62071],[137.85575,36.62076],[137.85522,36.62087],[137.85455,36.62122],[137.85393,36.62181],[137.85212,36.62421],[137.85117,36.62489],[137.85071,36.62501],[137.85005,36.62503],[137.84906,36.62487],[137.84781,36.62452],[137.84678,36.62455],[137.84393,36.62498],[137.84323,36.62522],[137.8428,36.6255],[137.84222,36.62625],[137.8421,36.62671],[137.84236,36.62998],[137.84222,36.63117],[137.84179,36.63212],[137.84049,36.63453],[137.8404,36.63487],[137.84045,36.63564],[137.84058,36.63604],[137.84078,36.63637],[137.84134,36.63691]],[[137.84205,36.56542],[137.84164,36.56594]],[[137.8467,36.65904],[137.84684,36.65981],[137.84721,36.66369],[137.84751,36.66553],[137.84769,36.66608],[137.84921,36.66875],[137.8496,36.66974],[137.84996,36.67031]],[[137.86207,36.50085],[137.86142,36.49977]],[[137.8643,36.69674],[137.86721,36.70213],[137.86826,36.70735],[137.86859,36.70812],[137.86929,36.7091],[137.86991,36.70981],[137.87048,36.71025],[137.87124,36.71069]],[[137.84164,36.56594],[137.83868,36.56956],[137.83826,36.5703],[137.83795,36.57302],[137.83757,36.57765],[137.83752,36.57902],[137.83762,36.58018],[137.83792,36.58087],[137.83832,36.58141],[137.83881,36.58188],[137.83974,36.58253],[137.83997,36.58287],[137.84014,36.58326],[137.84109,36.58726],[137.84144,36.58828],[137.84242,36.59039],[137.84318,36.59167],[137.84437,36.59408]],[[137.85666,36.49202],[137.85588,36.49105]],[[137.87124,36.71069],[137.87262,36.71133]],[[137.84437,36.59408],[137.84518,36.59555]],[[137.84518,36.59555],[137.84621,36.59789],[137.84683,36.59907],[137.84783,36.60068],[137.84822,36.60114],[137.84944,36.60222],[137.85033,36.60275],[137.85199,36.60356],[137.85455,36.6055]],[[137.95468,36.2419],[137.95957,36.23849],[137.96068,36.23744]],[[137.96405,36.2314],[137.96147,36.23639]],[[137.9652,36.22914],[137.96405,36.2314]],[[137.96147,36.23639],[137.96068,36.23744]],[[137.87852,36.35927],[137.87797,36.36075]],[[137.94441,36.24706],[137.94399,36.24719],[137.94285,36.2472],[137.93218,36.24637]],[[137.88172,36.33984],[137.8817,36.34107],[137.88235,36.34822],[137.8823,36.34876],[137.88202,36.35007],[137.87852,36.35927]],[[137.8658,36.39676],[137.86577,36.39738]],[[137.90132,36.29944],[137.90056,36.3006]],[[137.86259,36.40669],[137.86045,36.41064],[137.85907,36.41825],[137.85863,36.42357]],[[137.87797,36.36075],[137.87598,36.36598],[137.87308,36.37131]],[[137.84704,36.46796],[137.84728,36.46678]],[[137.93106,36.24629],[137.92731,36.24601],[137.92639,36.24602],[137.92564,36.24616],[137.92433,36.24664],[137.92227,36.24765],[137.9187,36.24979]],[[137.9187,36.24979],[137.91746,36.25058]],[[137.85455,36.4481],[137.85498,36.44751]],[[137.9035,36.29159],[137.90351,36.29457],[137.90322,36.29609],[137.9027,36.2972],[137.90132,36.29944]],[[137.84728,36.46678],[137.84972,36.45462],[137.85022,36.45377],[137.85455,36.4481]],[[137.85498,36.44751],[137.85721,36.44453],[137.85756,36.44362],[137.85765,36.44315],[137.85772,36.44227],[137.85737,36.43944],[137.85852,36.42538]],[[137.95468,36.2419],[137.9527,36.24297],[137.94732,36.2452],[137.94512,36.24675]],[[137.85852,36.42538],[137.85863,36.42357]],[[137.87308,36.37131],[137.87247,36.37242]],[[137.90348,36.29039],[137.9035,36.29159]],[[137.86287,36.40619],[137.86259,36.40669]],[[137.88819,36.32306],[137.88461,36.33442],[137.8835,36.33645],[137.88228,36.33832]],[[137.85588,36.49105],[137.85531,36.49056],[137.85371,36.48948],[137.84664,36.48417],[137.8461,36.48337],[137.84481,36.47904],[137.84704,36.46796]],[[137.90331,36.27446],[137.90348,36.29039]],[[137.90351,36.26064],[137.9029,36.26132],[137.9025,36.2619],[137.90211,36.2627],[137.90187,36.26353],[137.90193,36.26422],[137.90312,36.26872],[137.90322,36.26944],[137.90329,36.27331]],[[137.93218,36.24637],[137.93106,36.24629]],[[137.90056,36.3006],[137.89948,36.30213],[137.89273,36.31028],[137.89189,36.31148],[137.89156,36.3122],[137.88853,36.32189]],[[137.86577,36.39738],[137.86562,36.40025],[137.86543,36.40148],[137.86287,36.40619]],[[137.88228,36.33832],[137.88188,36.33904],[137.88172,36.33984]],[[137.90329,36.27331],[137.90331,36.27446]],[[137.88853,36.32189],[137.88819,36.32306]],[[137.87247,36.37242],[137.87162,36.37409],[137.87035,36.37917],[137.86676,36.386],[137.86635,36.38709],[137.8658,36.39676]],[[137.91746,36.25058],[137.91356,36.25313],[137.90613,36.25773],[137.90554,36.25826],[137.90445,36.25953]],[[137.94512,36.24675],[137.94441,36.24706]],[[137.90445,36.25953],[137.90351,36.26064]]]}}