{"type":"Feature","properties":{"id":"東日本旅客鉄道_相模線","name":"相模線","operator":"東日本旅客鉄道","railType":"普通鉄道(JR)","operatorType":"JR在来線","category":"rail","attribution":"国土数値情報（鉄道データ）国土交通省"},"geometry":{"type":"MultiLineString","coordinates":[[[139.36332,35.55737],[139.36295,35.55791]],[[139.36337,35.5451],[139.36289,35.54562]],[[139.36289,35.54562],[139.36197,35.54662],[139.36124,35.5477],[139.36097,35.54855],[139.36099,35.5492],[139.36117,35.55002],[139.36308,35.55399],[139.36363,35.55537],[139.36358,35.55667],[139.36332,35.55737]],[[139.37963,35.38254],[139.37903,35.38784],[139.37883,35.38858],[139.37827,35.39006],[139.37792,35.39145],[139.37794,35.39367],[139.37823,35.39466]],[[139.38071,35.51788],[139.38127,35.51672],[139.38161,35.51621],[139.38377,35.51383],[139.38473,35.51173],[139.38492,35.51111],[139.38586,35.49543],[139.38622,35.49329]],[[139.39991,35.35621],[139.39975,35.35699]],[[139.38022,35.40643],[139.37989,35.40697]],[[139.3889,35.45403],[139.38123,35.4503],[139.38055,35.44993],[139.37974,35.44929],[139.37936,35.44875],[139.37906,35.44797],[139.37864,35.44414]],[[139.39975,35.35699],[139.39957,35.35764],[139.39905,35.35872],[139.39846,35.35955],[139.3974,35.36058],[139.39647,35.36131],[139.38773,35.3674]],[[139.37864,35.44414],[139.37857,35.4435]],[[139.3869,35.36801],[139.3858,35.36866],[139.38368,35.3696],[139.38281,35.36993],[139.38155,35.37018],[139.38019,35.37073],[139.37947,35.37118],[139.37898,35.37165],[139.37829,35.37279],[139.3781,35.37321],[139.37797,35.37381],[139.3779,35.37486],[139.37804,35.37554],[139.37963,35.38062],[139.37972,35.38129],[139.3797,35.38189]],[[139.38622,35.49329],[139.38642,35.49226]],[[139.38031,35.51876],[139.38071,35.51788]],[[139.38773,35.3674],[139.3869,35.36801]],[[139.37564,35.52874],[139.37609,35.52814],[139.37628,35.52775],[139.37679,35.5256],[139.37902,35.52152],[139.38031,35.51876]],[[139.3897,35.45443],[139.3889,35.45403]],[[139.37509,35.52925],[139.37564,35.52874]],[[139.39204,35.47805],[139.39541,35.47113],[139.39554,35.46973],[139.3929,35.45758],[139.39232,35.45643],[139.39166,35.45566],[139.39085,35.45505],[139.3897,35.45443]],[[139.36337,35.5451],[139.36575,35.54242],[139.37242,35.53316],[139.37347,35.53105],[139.37386,35.53042],[139.37509,35.52925]],[[139.37857,35.4435],[139.37842,35.4411],[139.37851,35.44031],[139.38078,35.43504],[139.38094,35.43422],[139.38063,35.42983],[139.38038,35.42869],[139.38003,35.42799],[139.37781,35.42555],[139.37742,35.42499],[139.37709,35.42428],[139.37701,35.42372],[139.37716,35.42074]],[[139.37989,35.40697],[139.37815,35.40981],[139.3778,35.41057],[139.37741,35.4157],[139.37721,35.42008]],[[139.40797,35.33101],[139.41022,35.33185],[139.41078,35.3324],[139.41102,35.33283],[139.41105,35.33305],[139.41099,35.33336],[139.41077,35.33381],[139.40773,35.3392]],[[139.37854,35.39545],[139.38133,35.40181],[139.38153,35.40252],[139.38156,35.40344],[139.38142,35.40419],[139.38108,35.40497],[139.38022,35.40643]],[[139.3797,35.38189],[139.37963,35.38254]],[[139.3917,35.47871],[139.39204,35.47805]],[[139.40773,35.3392],[139.40721,35.34016]],[[139.40606,35.33035],[139.40797,35.33101]],[[139.37823,35.39466],[139.37854,35.39545]],[[139.40721,35.34016],[139.40114,35.35111],[139.40076,35.35229],[139.39991,35.35621]],[[139.38642,35.49226],[139.38703,35.48899],[139.38764,35.48625],[139.3881,35.48537],[139.38887,35.4844],[139.38919,35.48386],[139.3917,35.47871]],[[139.37716,35.42074],[139.37721,35.42008]],[[139.36295,35.55791],[139.36197,35.55908],[139.35932,35.56152],[139.35824,35.56235],[139.35553,35.56373],[139.35523,35.56397],[139.35478,35.56445],[139.35419,35.56532],[139.35193,35.569],[139.35181,35.56956],[139.35185,35.57082],[139.35238,35.57982]],[[139.34601,35.59436],[139.35105,35.59173]],[[139.35105,35.59173],[139.35234,35.59055],[139.35271,35.58996],[139.35294,35.58927],[139.35298,35.58829],[139.35269,35.585],[139.35246,35.58098]],[[139.34418,35.59532],[139.34601,35.59436]],[[139.35238,35.57982],[139.35246,35.58098]]]}}