{"type":"Feature","properties":{"id":"横浜高速鉄道_みなとみらい21線","name":"みなとみらい21線","operator":"横浜高速鉄道","railType":"普通鉄道","operatorType":"第三セクター","category":"rail","attribution":"国土数値情報（鉄道データ）国土交通省"},"geometry":{"type":"MultiLineString","coordinates":[[[139.64175,35.44735],[139.6437,35.44624]],[[139.6437,35.44624],[139.64528,35.44534],[139.64783,35.44429],[139.64977,35.44296]],[[139.64977,35.44296],[139.65171,35.44165]],[[139.62275,35.46687],[139.62195,35.466]],[[139.63519,35.4505],[139.63721,35.44965]],[[139.63309,35.45688],[139.63379,35.45589],[139.63402,35.45496],[139.63406,35.45415],[139.63379,35.45208],[139.63391,35.45149],[139.634,35.45129],[139.63428,35.45103],[139.63519,35.4505]],[[139.62567,35.46196],[139.6273,35.46195]],[[139.62195,35.466],[139.62125,35.46517],[139.62115,35.46492],[139.62117,35.46465],[139.62137,35.46425],[139.62229,35.46323],[139.62305,35.46259],[139.62368,35.46227],[139.62567,35.46196]],[[139.63721,35.44965],[139.64175,35.44735]],[[139.63183,35.45847],[139.63309,35.45688]],[[139.6273,35.46195],[139.62822,35.46189],[139.62875,35.46173],[139.62924,35.46153],[139.62963,35.46124],[139.63183,35.45847]]]}}