{"type":"Feature","properties":{"id":"横浜市_4号線","name":"4号線","operator":"横浜市","railType":"普通鉄道","operatorType":"公営","category":"rail","attribution":"国土数値情報（鉄道データ）国土交通省"},"geometry":{"type":"MultiLineString","coordinates":[[[139.54926,35.52872],[139.55263,35.53214],[139.55338,35.53284],[139.55461,35.53376],[139.55594,35.53458],[139.55696,35.53506],[139.56071,35.53635]],[[139.64646,35.55342],[139.64722,35.55323]],[[139.63279,35.54962],[139.63388,35.55021]],[[139.63388,35.55021],[139.63493,35.5508],[139.63656,35.55216],[139.63744,35.5527],[139.63904,35.55324],[139.64176,35.55401],[139.64268,35.55415],[139.64377,35.55406],[139.64646,35.55342]],[[139.61977,35.54985],[139.62141,35.54925]],[[139.62141,35.54925],[139.62216,35.54897],[139.62465,35.54859],[139.62861,35.54819],[139.62981,35.54839],[139.63177,35.54906],[139.63279,35.54962]],[[139.60565,35.55425],[139.60643,35.55417]],[[139.60643,35.55417],[139.61093,35.55376],[139.61304,35.55257],[139.61604,35.55123],[139.61977,35.54985]],[[139.59218,35.56119],[139.59355,35.56093]],[[139.59355,35.56093],[139.59523,35.56057],[139.59663,35.56],[139.59816,35.55914],[139.59985,35.55802],[139.60167,35.5554],[139.60241,35.55483],[139.60343,35.55448],[139.60565,35.55425]],[[139.57874,35.55382],[139.57991,35.55619],[139.58061,35.55662],[139.58955,35.56127],[139.59047,35.56143],[139.59218,35.56119]],[[139.57794,35.55219],[139.57874,35.55382]],[[139.57486,35.54591],[139.57794,35.55219]],[[139.57417,35.54452],[139.57486,35.54591]],[[139.54869,35.52817],[139.54926,35.52872]],[[139.54001,35.51435],[139.54052,35.51513]],[[139.54052,35.51513],[139.54352,35.51975],[139.54497,35.5222],[139.54538,35.52408],[139.54624,35.5259],[139.54869,35.52817]],[[139.56071,35.53635],[139.5619,35.53677]],[[139.5619,35.53677],[139.56963,35.53941],[139.57282,35.54161],[139.57417,35.54452]]]}}