{"type":"Feature","properties":{"id":"横浜シーサイドライン_金沢シーサイドライン","name":"金沢シーサイドライン","operator":"横浜シーサイドライン","railType":"案内軌条式(軌道)","operatorType":"第三セクター","category":"agt","attribution":"国土数値情報（鉄道データ）国土交通省"},"geometry":{"type":"MultiLineString","coordinates":[[[139.65012,35.34425],[139.65014,35.34356]],[[139.64675,35.35342],[139.6477,35.35338],[139.64817,35.35314],[139.64845,35.35283],[139.64851,35.35254],[139.64852,35.34995]],[[139.6459,35.35343],[139.64675,35.35342]],[[139.64369,35.35805],[139.64369,35.35874]],[[139.64369,35.35874],[139.64354,35.36025],[139.64311,35.36168],[139.64304,35.36219],[139.64298,35.3651]],[[139.64277,35.37164],[139.64269,35.37239]],[[139.64299,35.3658],[139.64281,35.36717],[139.64277,35.37164]],[[139.64203,35.37691],[139.64157,35.37745]],[[139.64855,35.34927],[139.64854,35.34663],[139.6486,35.34617],[139.64887,35.34583],[139.64981,35.34527],[139.65003,35.34503],[139.65014,35.34474],[139.65012,35.34425]],[[139.64298,35.3651],[139.64299,35.3658]],[[139.6459,35.35343],[139.64495,35.35343],[139.64441,35.35358],[139.64401,35.35395],[139.64389,35.3542],[139.64369,35.35805]],[[139.64269,35.37239],[139.6425,35.37539],[139.64203,35.37691]],[[139.64852,35.34995],[139.64855,35.34927]],[[139.63281,35.38027],[139.62853,35.38145],[139.62634,35.38227],[139.62348,35.38382],[139.62179,35.38489],[139.62108,35.38545]],[[139.64106,35.3406],[139.6406,35.34119]],[[139.65014,35.34356],[139.65008,35.34118],[139.64992,35.3409],[139.64944,35.3406],[139.64664,35.34005],[139.64174,35.34008],[139.64134,35.34028],[139.64106,35.3406]],[[139.63123,35.33042],[139.63188,35.33077]],[[139.64157,35.37745],[139.64075,35.37812],[139.63999,35.37854],[139.63947,35.37873],[139.63799,35.37914],[139.6336,35.3801]],[[139.63622,35.34236],[139.6356,35.34188]],[[139.6406,35.34119],[139.63945,35.34263],[139.63884,35.34304],[139.63829,35.34317],[139.63762,35.34315],[139.63695,35.3429],[139.63622,35.34236]],[[139.62115,35.33161],[139.62153,35.33162],[139.62188,35.3315],[139.62366,35.32992],[139.62559,35.32863],[139.62627,35.32843],[139.62709,35.3284],[139.62812,35.32873],[139.63123,35.33042]],[[139.62032,35.3316],[139.62115,35.33161]],[[139.62108,35.38545],[139.62041,35.38597]],[[139.63217,35.33754],[139.63211,35.33686]],[[139.63211,35.33686],[139.6321,35.33661],[139.63246,35.33512],[139.63319,35.33308],[139.63342,35.33232],[139.63342,35.33208],[139.63321,35.33156],[139.63188,35.33077]],[[139.6336,35.3801],[139.63281,35.38027]],[[139.6356,35.34188],[139.63425,35.34074],[139.6325,35.33841],[139.63217,35.33754]]]}}