{"type":"Feature","properties":{"id":"樽見鉄道_樽見線","name":"樽見線","operator":"樽見鉄道","railType":"普通鉄道","operatorType":"第三セクター","category":"rail","attribution":"国土数値情報（鉄道データ）国土交通省"},"geometry":{"type":"MultiLineString","coordinates":[[[136.66136,35.41305],[136.66109,35.41203],[136.66096,35.41108],[136.66103,35.39605]],[[136.66982,35.48826],[136.66997,35.48754]],[[136.66103,35.39605],[136.66103,35.39543]],[[136.64997,35.5178],[136.64937,35.51811]],[[136.67421,35.4395],[136.67525,35.43758],[136.67559,35.43669],[136.67563,35.43516],[136.67547,35.43437],[136.67498,35.43304],[136.67407,35.43163],[136.66263,35.41558],[136.66211,35.41478],[136.66158,35.4137]],[[136.6595,35.3866],[136.65899,35.38429],[136.65855,35.38341],[136.65797,35.38276],[136.6576,35.38247],[136.65185,35.37918],[136.6469,35.37561]],[[136.667,35.49997],[136.66718,35.49932]],[[136.64997,35.5178],[136.65102,35.51709],[136.65223,35.51601],[136.65288,35.51509],[136.65377,35.51309],[136.65455,35.51226],[136.65505,35.51194],[136.65575,35.51167],[136.65735,35.51155],[136.6582,35.51134],[136.65939,35.51071],[136.66016,35.51007],[136.66067,35.50947],[136.66097,35.50879],[136.66103,35.50749],[136.66121,35.50677],[136.66138,35.50642],[136.66237,35.50568],[136.66532,35.50318],[136.66569,35.50277],[136.66645,35.50159],[136.667,35.49997]],[[136.6469,35.37561],[136.64634,35.37517]],[[136.65962,35.38726],[136.6595,35.3866]],[[136.66158,35.4137],[136.66136,35.41305]],[[136.66978,35.4635],[136.66976,35.46285]],[[136.66718,35.49932],[136.66982,35.48826]],[[136.66978,35.4635],[136.66974,35.46788],[136.6698,35.47081],[136.66998,35.4725],[136.67097,35.47929],[136.67116,35.48142],[136.67109,35.48242],[136.66997,35.48754]],[[136.66103,35.39543],[136.66085,35.39385],[136.65962,35.38726]],[[136.67379,35.44014],[136.67421,35.4395]],[[136.61543,35.6356],[136.61617,35.63473]],[[136.62587,35.60213],[136.62584,35.60146]],[[136.6422,35.5275],[136.64214,35.52686]],[[136.63669,35.56547],[136.63718,35.56226],[136.63766,35.56071],[136.63827,35.55926],[136.64001,35.55603]],[[136.62088,35.61718],[136.62122,35.61594],[136.62116,35.615],[136.62097,35.61407],[136.62101,35.61325],[136.62129,35.6128],[136.62193,35.61226],[136.62432,35.60988],[136.62486,35.60918],[136.62524,35.60852],[136.62573,35.60727],[136.62611,35.60568],[136.62587,35.60213]],[[136.64115,35.54305],[136.6416,35.54249]],[[136.64034,35.55543],[136.64071,35.55466],[136.6409,35.55395],[136.64091,35.55332],[136.64081,35.55279],[136.64044,35.55206],[136.63847,35.54941],[136.6381,35.54849],[136.63806,35.54781],[136.63823,35.54708],[136.63867,35.54628],[136.64115,35.54305]],[[136.63147,35.58256],[136.63171,35.58201]],[[136.63171,35.58201],[136.63349,35.57806],[136.63494,35.57552],[136.63708,35.57211],[136.63723,35.57145],[136.63727,35.57078],[136.63709,35.56999],[136.63671,35.56902],[136.63655,35.5681],[136.63654,35.56683],[136.63662,35.56613]],[[136.6422,35.5275],[136.64259,35.52838],[136.64339,35.5294],[136.6464,35.53211],[136.64711,35.5329],[136.64751,35.53367],[136.64763,35.53444],[136.6475,35.53514],[136.64709,35.5359],[136.64589,35.53723],[136.6416,35.54249]],[[136.61392,35.63727],[136.61543,35.6356]],[[136.61617,35.63473],[136.61765,35.63298],[136.61842,35.63175],[136.61922,35.62998],[136.61977,35.62834],[136.62009,35.62672],[136.62077,35.6178]],[[136.64034,35.55543],[136.64001,35.55603]],[[136.63669,35.56547],[136.63662,35.56613]],[[136.62077,35.6178],[136.62088,35.61718]],[[136.62584,35.60146],[136.62597,35.59918],[136.62727,35.59248],[136.62777,35.59114],[136.62821,35.59026],[136.62987,35.58785],[136.63053,35.58651],[136.63072,35.58548],[136.63074,35.58479],[136.63101,35.58369],[136.63147,35.58256]],[[136.64214,35.52686],[136.64216,35.52596],[136.64241,35.52513],[136.64371,35.52251],[136.64477,35.52072],[136.64539,35.52015],[136.64595,35.5198],[136.64937,35.51811]],[[136.6449,35.3741],[136.63348,35.36889],[136.63148,35.36817],[136.62975,35.36769],[136.62703,35.36721],[136.62475,35.367],[136.62061,35.36703]],[[136.64634,35.37517],[136.6449,35.3741]],[[136.62061,35.36703],[136.61592,35.36718]],[[136.66976,35.46285],[136.66971,35.45528]],[[136.66971,35.45528],[136.66971,35.4546]],[[136.66971,35.4546],[136.66972,35.45037],[136.66979,35.44922],[136.67054,35.44497],[136.67104,35.44396],[136.67379,35.44014]]]}}