{"type":"Feature","properties":{"id":"水島臨海鉄道_水島本線","name":"水島本線","operator":"水島臨海鉄道","railType":"普通鉄道","operatorType":"第三セクター","category":"rail","attribution":"国土数値情報（鉄道データ）国土交通省"},"geometry":{"type":"MultiLineString","coordinates":[[[133.73453,34.52282],[133.73376,34.52281]],[[133.74452,34.56965],[133.74442,34.57035]],[[133.76434,34.60037],[133.75913,34.5967],[133.74748,34.59131]],[[133.74347,34.53438],[133.74484,34.53761]],[[133.74748,34.59131],[133.74685,34.591]],[[133.73453,34.52282],[133.73555,34.52284],[133.73673,34.5235],[133.73726,34.52406],[133.73781,34.52499],[133.73813,34.52534],[133.73986,34.52657],[133.74044,34.52735],[133.74116,34.5289]],[[133.74524,34.53844],[133.74748,34.54373]],[[133.74964,34.56192],[133.74949,34.56264],[133.74885,34.56369],[133.74524,34.56754],[133.74479,34.5684],[133.74452,34.56965]],[[133.76492,34.60079],[133.76434,34.60037]],[[133.74484,34.53761],[133.74524,34.53844]],[[133.74345,34.57747],[133.74338,34.5781]],[[133.74775,34.54437],[133.75022,34.55043],[133.75048,34.55184],[133.75062,34.55418],[133.75056,34.5558],[133.74976,34.56112]],[[133.74748,34.54373],[133.74775,34.54437]],[[133.74116,34.5289],[133.74154,34.52973]],[[133.74321,34.53372],[133.74347,34.53438]],[[133.74976,34.56112],[133.74964,34.56192]],[[133.74442,34.57035],[133.74369,34.57532],[133.74345,34.57747]],[[133.74685,34.591],[133.74554,34.59011],[133.745,34.58958],[133.74463,34.58915],[133.74389,34.58762],[133.74368,34.58657],[133.74321,34.58017],[133.74338,34.5781]],[[133.74154,34.52973],[133.74321,34.53372]]]}}