{"type":"Feature","properties":{"id":"江ノ島電鉄_江ノ島電鉄線","name":"江ノ島電鉄線","operator":"江ノ島電鉄","railType":"普通鉄道","operatorType":"民営","category":"rail","attribution":"国土数値情報（鉄道データ）国土交通省"},"geometry":{"type":"MultiLineString","coordinates":[[[139.51024,35.30637],[139.50975,35.30618]],[[139.5451,35.31368],[139.54184,35.31295]],[[139.48787,35.31092],[139.48738,35.31113]],[[139.49359,35.30823],[139.49312,35.30845]],[[139.53598,35.31125],[139.53468,35.31092],[139.5325,35.31076],[139.52968,35.30989],[139.52874,35.30937]],[[139.48743,35.33772],[139.48701,35.33679]],[[139.52199,35.30432],[139.52084,35.30426],[139.52004,35.30398],[139.51794,35.304],[139.51651,35.30417],[139.51586,35.3041],[139.51182,35.30534],[139.51147,35.30555],[139.51097,35.3063],[139.5105,35.30642],[139.51024,35.30637]],[[139.50023,35.30677],[139.49703,35.30692],[139.49592,35.30681],[139.49542,35.30684],[139.49514,35.30697],[139.49453,35.30782],[139.49359,35.30823]],[[139.53654,35.3114],[139.53598,35.31125]],[[139.52254,35.30434],[139.52199,35.30432]],[[139.48565,35.33277],[139.48551,35.33215]],[[139.52832,35.30904],[139.52721,35.30798],[139.52691,35.30753],[139.52674,35.30691],[139.52649,35.30656],[139.52539,35.30578],[139.52433,35.3048],[139.52386,35.30454],[139.52311,35.30436],[139.52254,35.30434]],[[139.52874,35.30937],[139.52832,35.30904]],[[139.54566,35.31381],[139.5451,35.31368]],[[139.54131,35.31281],[139.53905,35.31228],[139.53812,35.31183],[139.53654,35.3114]],[[139.50076,35.30675],[139.50023,35.30677]],[[139.48522,35.32706],[139.48513,35.32648],[139.48442,35.32475],[139.48426,35.32446],[139.48379,35.32396],[139.48278,35.32164]],[[139.54184,35.31295],[139.54131,35.31281]],[[139.48523,35.32752],[139.48515,35.32838],[139.48517,35.33017],[139.48551,35.33215]],[[139.48312,35.31534],[139.48218,35.31605],[139.4819,35.31664],[139.4819,35.31712],[139.482,35.31754],[139.48297,35.31891],[139.48316,35.31937],[139.48318,35.31968],[139.48309,35.31998],[139.48243,35.32065],[139.48241,35.32078],[139.48256,35.32116]],[[139.50975,35.30618],[139.50864,35.30605],[139.50667,35.30612],[139.50549,35.30641],[139.50435,35.30642],[139.50076,35.30675]],[[139.48352,35.31506],[139.48312,35.31534]],[[139.48256,35.32116],[139.48278,35.32164]],[[139.55009,35.3181],[139.55028,35.31722],[139.55021,35.3169],[139.55002,35.31658],[139.547,35.31449],[139.54617,35.31401],[139.54566,35.31381]],[[139.48738,35.31113],[139.48631,35.31186],[139.48534,35.31332],[139.48435,35.31405],[139.48352,35.31506]],[[139.48523,35.32752],[139.48522,35.32706]],[[139.55009,35.31849],[139.55009,35.3181]],[[139.48701,35.33679],[139.48642,35.33595],[139.48565,35.33277]],[[139.49312,35.30845],[139.49255,35.30871],[139.48947,35.31075],[139.48862,35.31073],[139.48787,35.31092]]]}}