{"type":"Feature","properties":{"id":"沖縄都市モノレール_沖縄都市モノレール線","name":"沖縄都市モノレール線","operator":"沖縄都市モノレール","railType":"跨座式モノレール(軌道)","operatorType":"第三セクター","category":"monorail","attribution":"国土数値情報（鉄道データ）国土交通省"},"geometry":{"type":"MultiLineString","coordinates":[[[127.67948,26.21454],[127.68217,26.21728],[127.68357,26.21862],[127.68419,26.21905]],[[127.67821,26.2061],[127.67855,26.20547]],[[127.69246,26.2173],[127.69266,26.21693]],[[127.67554,26.20077],[127.67699,26.20137],[127.67911,26.20206],[127.67936,26.20225],[127.67945,26.20242],[127.67945,26.2027],[127.67903,26.20378],[127.67855,26.20547]],[[127.69587,26.217],[127.69559,26.21649]],[[127.66102,26.19334],[127.66281,26.19373],[127.66392,26.19411],[127.66446,26.19441],[127.66679,26.19635]],[[127.69848,26.22289],[127.6986,26.22365],[127.69907,26.22474],[127.69996,26.22602],[127.70168,26.22782],[127.70218,26.22873],[127.70279,26.23035]],[[127.68465,26.21927],[127.68525,26.21948],[127.68903,26.22003],[127.68968,26.22],[127.69142,26.21893],[127.69246,26.2173]],[[127.65229,26.20636],[127.65243,26.20433],[127.65272,26.20374],[127.65318,26.20318],[127.65998,26.19762],[127.66012,26.19717],[127.66008,26.19686],[127.65915,26.19569],[127.65903,26.19537],[127.65894,26.19457],[127.65912,26.19375],[127.65936,26.19335],[127.65974,26.19318],[127.66031,26.19319]],[[127.7196,26.22422],[127.72373,26.2189],[127.72403,26.21872],[127.7243,26.21867],[127.72461,26.21872],[127.72518,26.21899]],[[127.67915,26.21424],[127.67948,26.21454]],[[127.68465,26.21927],[127.68419,26.21905]],[[127.6754,26.21162],[127.67556,26.21228]],[[127.71899,26.22477],[127.7196,26.22422]],[[127.65228,26.20696],[127.65229,26.20636]],[[127.67821,26.2061],[127.67738,26.2075],[127.67696,26.20801],[127.67532,26.20922],[127.67502,26.20964],[127.675,26.21],[127.6754,26.21162]],[[127.70309,26.23093],[127.7035,26.23137],[127.704,26.23159],[127.70444,26.23158],[127.70474,26.23146],[127.71002,26.22752]],[[127.72593,26.21937],[127.72518,26.21899]],[[127.69848,26.22243],[127.69848,26.22289]],[[127.69266,26.21693],[127.69354,26.2154],[127.69372,26.21519],[127.69416,26.21491],[127.69462,26.21493],[127.69487,26.21512],[127.69559,26.21649]],[[127.71002,26.22752],[127.71052,26.22715]],[[127.66727,26.19675],[127.66842,26.19771],[127.66931,26.19827],[127.6715,26.19922],[127.67494,26.20054]],[[127.67556,26.21228],[127.67569,26.21278],[127.67597,26.21339],[127.67624,26.21376],[127.67692,26.2144],[127.67715,26.21447],[127.67743,26.21444],[127.67847,26.21405],[127.67883,26.21406],[127.67915,26.21424]],[[127.71052,26.22715],[127.71169,26.22635],[127.71269,26.22593],[127.71754,26.2253],[127.71838,26.22507],[127.71899,26.22477]],[[127.66727,26.19675],[127.66679,26.19635]],[[127.66031,26.19319],[127.66102,26.19334]],[[127.67554,26.20077],[127.67494,26.20054]],[[127.69587,26.217],[127.69843,26.22095],[127.69854,26.22144],[127.69848,26.22243]],[[127.70279,26.23035],[127.70309,26.23093]],[[127.72593,26.21937],[127.72632,26.21963],[127.72651,26.21988],[127.72698,26.22148],[127.7289,26.22664]],[[127.7289,26.22664],[127.72916,26.22734]],[[127.72916,26.22734],[127.7292,26.22804],[127.72869,26.23345],[127.72843,26.23419],[127.72802,26.23483],[127.72743,26.23542],[127.72729,26.2358],[127.7274,26.23612],[127.72756,26.23627],[127.72818,26.2365]],[[127.72818,26.2365],[127.72886,26.2369]],[[127.72886,26.2369],[127.72974,26.23736],[127.73005,26.23781],[127.7301,26.23883],[127.73087,26.24164],[127.73099,26.24355],[127.73112,26.24377],[127.73131,26.24389],[127.73154,26.24398],[127.7319,26.24396]],[[127.7319,26.24396],[127.73268,26.24371]],[[127.73268,26.24371],[127.73368,26.24351],[127.73481,26.2436],[127.73567,26.24351],[127.73804,26.24276],[127.73997,26.2424],[127.74155,26.24186]],[[127.74155,26.24186],[127.74229,26.24161]]]}}