{"type":"Feature","properties":{"id":"泉北高速鉄道_泉北高速鉄道線","name":"泉北高速鉄道線","operator":"泉北高速鉄道","railType":"普通鉄道","operatorType":"第三セクター","category":"rail","attribution":"国土数値情報（鉄道データ）国土交通省"},"geometry":{"type":"MultiLineString","coordinates":[[[135.45736,34.46192],[135.4555,34.46093]],[[135.50839,34.55312],[135.50514,34.55555]],[[135.49769,34.53118],[135.49814,34.53212],[135.49902,34.53312],[135.51161,34.54337],[135.5126,34.54432],[135.51327,34.54541],[135.51336,34.54626],[135.51322,34.54701],[135.51306,34.54746],[135.51261,34.54826],[135.5094,34.55206],[135.50911,34.5525],[135.50839,34.55312]],[[135.51216,34.4977],[135.51255,34.49821],[135.51302,34.49909],[135.51327,34.50036],[135.51327,34.50087],[135.51314,34.50155],[135.51249,34.50328],[135.49805,34.52723],[135.49752,34.52842],[135.49741,34.52893],[135.49741,34.52952]],[[135.50342,34.55692],[135.50514,34.55555]],[[135.4555,34.46093],[135.4549,34.46057]],[[135.47644,34.4754],[135.47429,34.4739]],[[135.48933,34.48442],[135.47644,34.4754]],[[135.49112,34.48568],[135.4972,34.48985],[135.51057,34.4964]],[[135.49741,34.52952],[135.49769,34.53118]],[[135.47429,34.4739],[135.4668,34.46867],[135.46236,34.46518],[135.46006,34.4635],[135.45736,34.46192]],[[135.49112,34.48568],[135.48933,34.48442]],[[135.51057,34.4964],[135.5112,34.49679],[135.51216,34.4977]]]}}