{"type":"Feature","properties":{"id":"津軽鉄道_津軽鉄道線","name":"津軽鉄道線","operator":"津軽鉄道","railType":"普通鉄道","operatorType":"民営","category":"rail","attribution":"国土数値情報（鉄道データ）国土交通省"},"geometry":{"type":"MultiLineString","coordinates":[[[140.44364,40.92666],[140.44306,40.92767],[140.4395,40.9323],[140.43755,40.93498],[140.43726,40.93577],[140.43724,40.93611],[140.43738,40.93965]],[[140.47817,40.82077],[140.47874,40.82128]],[[140.4374,40.94072],[140.43758,40.94593],[140.43767,40.94672],[140.43791,40.94747],[140.4386,40.94869],[140.43889,40.94906],[140.44084,40.95104]],[[140.44378,40.926],[140.44364,40.92666]],[[140.44137,40.95154],[140.44276,40.95301],[140.44312,40.95355],[140.44332,40.95404],[140.44357,40.95516],[140.44373,40.95924],[140.44365,40.95967],[140.44329,40.96056],[140.44117,40.96456]],[[140.4695,40.88053],[140.47518,40.8647],[140.47764,40.85831]],[[140.44885,40.81062],[140.44946,40.81297],[140.4497,40.81354],[140.45025,40.81438],[140.45061,40.81473],[140.4517,40.81538],[140.45662,40.81744]],[[140.44117,40.96456],[140.44085,40.96521]],[[140.43738,40.93965],[140.4374,40.94072]],[[140.47941,40.82923],[140.4794,40.82994]],[[140.47874,40.82128],[140.47934,40.82212],[140.4796,40.82288],[140.47963,40.82392],[140.47941,40.82923]],[[140.45129,40.91239],[140.45201,40.91208]],[[140.44855,40.80959],[140.44885,40.81062]],[[140.47764,40.85831],[140.47784,40.8578]],[[140.45201,40.91208],[140.45879,40.90908],[140.45962,40.9086],[140.46023,40.90812],[140.46075,40.90722],[140.46085,40.90686],[140.46089,40.9061],[140.46011,40.90342]],[[140.46922,40.88142],[140.4695,40.88053]],[[140.45662,40.81744],[140.45749,40.81764]],[[140.47784,40.8578],[140.48092,40.84987],[140.48104,40.84894],[140.48093,40.84798],[140.47918,40.84179],[140.47903,40.84066],[140.4794,40.82994]],[[140.44378,40.926],[140.44541,40.91699],[140.44587,40.91566],[140.44647,40.91488],[140.44752,40.91409],[140.45129,40.91239]],[[140.46011,40.90342],[140.45978,40.90248]],[[140.44084,40.95104],[140.44137,40.95154]],[[140.45978,40.90248],[140.4589,40.89993],[140.45807,40.89721],[140.45797,40.89589],[140.45821,40.89502],[140.45849,40.89449],[140.45912,40.89374],[140.46773,40.88483],[140.46833,40.88373],[140.46922,40.88142]],[[140.45749,40.81764],[140.45877,40.81786],[140.47399,40.8191],[140.47493,40.81924],[140.47622,40.81967],[140.47817,40.82077]]]}}