{"type":"Feature","properties":{"id":"流鉄_流山線","name":"流山線","operator":"流鉄","railType":"普通鉄道","operatorType":"民営","category":"rail","attribution":"国土数値情報（鉄道データ）国土交通省"},"geometry":{"type":"MultiLineString","coordinates":[[[139.92012,35.82741],[139.92,35.82668]],[[139.90119,35.85079],[139.90126,35.85145]],[[139.91656,35.83627],[139.91719,35.83578]],[[139.91085,35.84121],[139.90863,35.84315],[139.90198,35.84859],[139.90147,35.84922],[139.90124,35.84976],[139.90119,35.85079]],[[139.90176,35.85522],[139.9019,35.85638]],[[139.91713,35.81243],[139.91694,35.81176]],[[139.91719,35.83578],[139.91801,35.83516],[139.91867,35.83447],[139.91902,35.83385],[139.91981,35.83143],[139.92018,35.83001],[139.92033,35.82892],[139.92012,35.82741]],[[139.91138,35.84073],[139.9135,35.83871],[139.91656,35.83627]],[[139.92,35.82668],[139.91791,35.81514],[139.91713,35.81243]],[[139.90126,35.85145],[139.90176,35.85522]],[[139.91138,35.84073],[139.91085,35.84121]]]}}