{"type":"Feature","properties":{"id":"湘南モノレール_江の島線","name":"江の島線","operator":"湘南モノレール","railType":"懸垂式モノレール","operatorType":"民営","category":"monorail","attribution":"国土数値情報（鉄道データ）国土交通省"},"geometry":{"type":"MultiLineString","coordinates":[[[139.50405,35.31926],[139.50462,35.31956]],[[139.49654,35.31729],[139.496,35.31734]],[[139.49592,35.31735],[139.49494,35.31739],[139.4945,35.31722],[139.49423,35.31697],[139.49372,35.31564],[139.49345,35.31526],[139.49178,35.31422]],[[139.50462,35.31956],[139.50493,35.3199],[139.50551,35.32119],[139.50581,35.32147],[139.50635,35.32174],[139.50765,35.32201],[139.50856,35.32234],[139.51362,35.32548],[139.51414,35.32599],[139.51578,35.32812],[139.51613,35.32869],[139.51648,35.32972],[139.51727,35.331],[139.51824,35.33237],[139.51871,35.33279]],[[139.52275,35.33816],[139.52269,35.33755]],[[139.52957,35.34562],[139.52907,35.34508]],[[139.49125,35.31392],[139.48801,35.31202]],[[139.48801,35.31202],[139.48762,35.31173]],[[139.51871,35.33279],[139.51911,35.33316]],[[139.52907,35.34508],[139.52584,35.34173],[139.52431,35.34047],[139.52307,35.33887],[139.5228,35.33841],[139.52275,35.33816]],[[139.53155,35.3531],[139.5312,35.35182]],[[139.52269,35.33755],[139.52245,35.33661],[139.52223,35.33616],[139.51911,35.33316]],[[139.49654,35.31729],[139.49743,35.31722],[139.49813,35.31738],[139.50065,35.319],[139.50114,35.31922],[139.50209,35.31932],[139.5038,35.31915],[139.50405,35.31926]],[[139.5312,35.35182],[139.53101,35.35069],[139.53114,35.3503],[139.53169,35.34944],[139.53206,35.3486],[139.53211,35.34798],[139.53203,35.34776],[139.53085,35.34695],[139.52957,35.34562]],[[139.49178,35.31422],[139.49125,35.31392]],[[139.496,35.31734],[139.49592,35.31735]]]}}