{"type":"Feature","properties":{"id":"熊本市_水前寺線","name":"水前寺線","operator":"熊本市","railType":"軌道","operatorType":"公営","category":"tram","attribution":"国土数値情報（鉄道データ）国土交通省"},"geometry":{"type":"MultiLineString","coordinates":[[[130.71229,32.80243],[130.71276,32.8023]],[[130.71634,32.8008],[130.71673,32.80049]],[[130.72703,32.79347],[130.72751,32.79315]],[[130.71276,32.8023],[130.71432,32.80181],[130.71634,32.8008]],[[130.72751,32.79315],[130.72926,32.79198]],[[130.71673,32.80049],[130.71963,32.79791]],[[130.71963,32.79791],[130.72002,32.79758]],[[130.72926,32.79198],[130.72963,32.79173]],[[130.72318,32.79591],[130.72367,32.79572]],[[130.72963,32.79173],[130.73204,32.79015]],[[130.73204,32.79015],[130.73243,32.78989]],[[130.72002,32.79758],[130.72076,32.79694],[130.7213,32.79661],[130.72318,32.79591]],[[130.72367,32.79572],[130.72417,32.79548],[130.72703,32.79347]]]}}