{"type":"Feature","properties":{"id":"熊本電気鉄道_藤崎線","name":"藤崎線","operator":"熊本電気鉄道","railType":"普通鉄道","operatorType":"民営","category":"rail","attribution":"国土数値情報（鉄道データ）国土交通省"},"geometry":{"type":"MultiLineString","coordinates":[[[130.72187,32.82799],[130.72186,32.82722]],[[130.72187,32.82395],[130.72186,32.82722]],[[130.71695,32.81813],[130.71754,32.81859]],[[130.71321,32.80867],[130.71329,32.80935]],[[130.71754,32.81859],[130.71969,32.82032],[130.72051,32.82107],[130.7214,32.82231],[130.72167,32.82296],[130.72187,32.82395]],[[130.71329,32.80935],[130.71342,32.81005],[130.71416,32.81177],[130.71451,32.81345],[130.71496,32.81448],[130.71493,32.81571],[130.715,32.81627],[130.71546,32.81691],[130.71695,32.81813]]]}}