{"type":"Feature","properties":{"id":"熊本市_上熊本線","name":"上熊本線","operator":"熊本市","railType":"軌道","operatorType":"公営","category":"tram","attribution":"国土数値情報（鉄道データ）国土交通省"},"geometry":{"type":"MultiLineString","coordinates":[[[130.70504,32.79871],[130.70511,32.79916]],[[130.70297,32.79862],[130.70475,32.79842],[130.70498,32.79852],[130.70504,32.79871]],[[130.69757,32.79945],[130.69796,32.7993],[130.69856,32.79921]],[[130.69702,32.81028],[130.69559,32.80681]],[[130.69916,32.79913],[130.70193,32.79876]],[[130.69856,32.79921],[130.69916,32.79913]],[[130.69719,32.8107],[130.69702,32.81028]],[[130.69842,32.8136],[130.69856,32.8139]],[[130.70193,32.79876],[130.70241,32.7987]],[[130.69939,32.8173],[130.69953,32.81766]],[[130.70241,32.7987],[130.70297,32.79862]],[[130.69913,32.81519],[130.69926,32.81613],[130.69915,32.81671],[130.69939,32.8173]],[[130.69559,32.80681],[130.69542,32.80638]],[[130.69842,32.8136],[130.69719,32.8107]],[[130.6971,32.79975],[130.69757,32.79945]],[[130.69703,32.80401],[130.69702,32.80359]],[[130.69913,32.81519],[130.69901,32.81492]],[[130.69702,32.80359],[130.69695,32.80043],[130.69697,32.79997],[130.6971,32.79975]],[[130.69542,32.80638],[130.69532,32.80603],[130.69544,32.8058],[130.69696,32.80502],[130.69703,32.80401]],[[130.69901,32.81492],[130.69856,32.8139]]]}}