{"type":"Feature","properties":{"id":"熊本市_幹線","name":"幹線","operator":"熊本市","railType":"軌道","operatorType":"公営","category":"tram","attribution":"国土数値情報（鉄道データ）国土交通省"},"geometry":{"type":"MultiLineString","coordinates":[[[130.69701,32.79578],[130.69712,32.79593],[130.69731,32.79596],[130.70061,32.79496]],[[130.70608,32.80177],[130.70782,32.80369]],[[130.69453,32.79271],[130.6951,32.7929]],[[130.70511,32.79916],[130.70549,32.801],[130.70578,32.80142]],[[130.69015,32.78988],[130.69039,32.79026]],[[130.70969,32.80331],[130.71007,32.80305]],[[130.69679,32.79532],[130.69701,32.79578]],[[130.70504,32.79871],[130.70511,32.79916]],[[130.70108,32.79481],[130.70154,32.79468],[130.70174,32.79471],[130.70196,32.79487],[130.70222,32.79554],[130.70247,32.79687]],[[130.70815,32.80403],[130.70831,32.80415],[130.70848,32.80415],[130.70969,32.80331]],[[130.70578,32.80142],[130.70608,32.80177]],[[130.6951,32.7929],[130.69565,32.79312],[130.69584,32.79329],[130.69679,32.79532]],[[130.69039,32.79026],[130.69312,32.79239],[130.69332,32.79249],[130.69392,32.79253],[130.69453,32.79271]],[[130.70782,32.80369],[130.70815,32.80403]],[[130.70297,32.79862],[130.70475,32.79842],[130.70498,32.79852],[130.70504,32.79871]],[[130.70253,32.79722],[130.70273,32.79837],[130.70278,32.7985],[130.70297,32.79862]],[[130.70247,32.79687],[130.70253,32.79722]],[[130.71007,32.80305],[130.71229,32.80243]],[[130.71229,32.80243],[130.71276,32.8023]],[[130.70061,32.79496],[130.70108,32.79481]]]}}