{"type":"Feature","properties":{"id":"熊本市_健軍線","name":"健軍線","operator":"熊本市","railType":"軌道","operatorType":"公営","category":"tram","attribution":"国土数値情報（鉄道データ）国土交通省"},"geometry":{"type":"MultiLineString","coordinates":[[[130.73204,32.79015],[130.73243,32.78989]],[[130.75472,32.7805],[130.75135,32.78175]],[[130.74533,32.78359],[130.74581,32.78355]],[[130.75135,32.78175],[130.75086,32.78193]],[[130.73458,32.78847],[130.73497,32.78822]],[[130.76084,32.77839],[130.75975,32.77867],[130.7577,32.77937]],[[130.74249,32.78364],[130.74533,32.78359]],[[130.7613,32.77832],[130.76084,32.77839]],[[130.73872,32.78565],[130.73909,32.78538]],[[130.74195,32.78365],[130.74249,32.78364]],[[130.73909,32.78538],[130.74128,32.78383],[130.74167,32.78366],[130.74195,32.78365]],[[130.73497,32.78822],[130.73872,32.78565]],[[130.73243,32.78989],[130.73458,32.78847]],[[130.75086,32.78193],[130.74851,32.78279],[130.74581,32.78355]],[[130.75518,32.78032],[130.75472,32.7805]],[[130.7577,32.77937],[130.75723,32.77955]],[[130.75723,32.77955],[130.75518,32.78032]]]}}