{"type":"Feature","properties":{"id":"熊本電気鉄道_菊池線","name":"菊池線","operator":"熊本電気鉄道","railType":"普通鉄道","operatorType":"民営","category":"rail","attribution":"国土数値情報（鉄道データ）国土交通省"},"geometry":{"type":"MultiLineString","coordinates":[[[130.73641,32.85878],[130.7364,32.8594],[130.73655,32.86011],[130.73678,32.86055],[130.73762,32.86156],[130.73801,32.86238],[130.73834,32.86338]],[[130.74308,32.87113],[130.74429,32.8737],[130.74529,32.87651],[130.74625,32.87815]],[[130.72233,32.83741],[130.7224,32.8367],[130.72246,32.83272],[130.72196,32.83142],[130.72191,32.83109],[130.72187,32.82799]],[[130.7254,32.84933],[130.72526,32.84867]],[[130.73856,32.86402],[130.73834,32.86338]],[[130.70196,32.82431],[130.70246,32.82512],[130.70317,32.82604],[130.70398,32.82659],[130.70454,32.82685],[130.70569,32.82717],[130.70598,32.82718]],[[130.72187,32.82799],[130.72186,32.82722]],[[130.71355,32.82397],[130.7141,32.82349]],[[130.70682,32.82715],[130.70803,32.82683],[130.71208,32.82512],[130.71355,32.82397]],[[130.73856,32.86402],[130.73891,32.8647],[130.74099,32.86768],[130.74178,32.86866],[130.7428,32.8706]],[[130.74813,32.88124],[130.75012,32.88481]],[[130.72308,32.8416],[130.72289,32.84095]],[[130.72226,32.83808],[130.72233,32.83741]],[[130.70196,32.82431],[130.7017,32.82385]],[[130.74775,32.88062],[130.74813,32.88124]],[[130.73643,32.85811],[130.73642,32.85781],[130.73616,32.85694],[130.7358,32.85644],[130.73335,32.85452],[130.73253,32.85397],[130.73176,32.85368],[130.73054,32.85342]],[[130.72187,32.82395],[130.72186,32.82722]],[[130.71934,32.82148],[130.72031,32.82192],[130.72089,32.82234],[130.72129,32.82286],[130.72187,32.82395]],[[130.74653,32.87864],[130.74775,32.88062]],[[130.73641,32.85878],[130.73643,32.85811]],[[130.74653,32.87864],[130.74625,32.87815]],[[130.75012,32.88481],[130.75052,32.88549]],[[130.73054,32.85342],[130.72984,32.85327]],[[130.72984,32.85327],[130.72769,32.85279],[130.72695,32.85243],[130.72639,32.85198],[130.726,32.85147],[130.72581,32.85099],[130.7254,32.84933]],[[130.72289,32.84095],[130.72231,32.83993],[130.72225,32.83969],[130.72218,32.83934],[130.72226,32.83808]],[[130.74308,32.87113],[130.7428,32.8706]],[[130.71877,32.82136],[130.71934,32.82148]],[[130.72526,32.84867],[130.7247,32.84635],[130.72389,32.84503],[130.72357,32.84422],[130.72308,32.8416]],[[130.69991,32.81884],[130.70004,32.8193],[130.70011,32.82084],[130.7017,32.82385]],[[130.7141,32.82349],[130.71563,32.82219],[130.71665,32.82159],[130.71759,32.82136],[130.71877,32.82136]],[[130.69971,32.81828],[130.69991,32.81884]],[[130.70682,32.82715],[130.70598,32.82718]]]}}