{"type":"Feature","properties":{"id":"甘木鉄道_甘木線","name":"甘木線","operator":"甘木鉄道","railType":"普通鉄道","operatorType":"第三セクター","category":"rail","attribution":"国土数値情報（鉄道データ）国土交通省"},"geometry":{"type":"MultiLineString","coordinates":[[[130.58257,33.3997],[130.58164,33.39977]],[[130.60966,33.414],[130.60879,33.41384],[130.60763,33.4135],[130.60652,33.41304],[130.60572,33.41261],[130.60472,33.41194],[130.59953,33.40806]],[[130.61927,33.41391],[130.61848,33.41394]],[[130.61927,33.41391],[130.62947,33.41355],[130.6318,33.41375],[130.63352,33.41409]],[[130.5528,33.39743],[130.55041,33.39717],[130.54917,33.3973],[130.54826,33.39752],[130.5471,33.39794],[130.5463,33.39837],[130.54557,33.39892],[130.54493,33.39955],[130.54441,33.40024],[130.54405,33.40104],[130.54166,33.40973],[130.54134,33.41038],[130.54089,33.41103],[130.53957,33.41232]],[[130.65231,33.4186],[130.65346,33.41938]],[[130.61048,33.41411],[130.60966,33.414]],[[130.59953,33.40806],[130.59883,33.40754]],[[130.59387,33.40384],[130.59091,33.40156],[130.58961,33.40082],[130.5885,33.40035],[130.58736,33.39999],[130.58588,33.39971],[130.58437,33.39961],[130.58257,33.3997]],[[130.63452,33.41432],[130.65081,33.41809],[130.65231,33.4186]],[[130.59883,33.40754],[130.59468,33.40445]],[[130.59468,33.40445],[130.59387,33.40384]],[[130.53957,33.41232],[130.53899,33.41278]],[[130.55353,33.39753],[130.5528,33.39743]],[[130.61848,33.41394],[130.61279,33.41415],[130.61048,33.41411]],[[130.58164,33.39977],[130.57627,33.40019],[130.57472,33.40019],[130.56147,33.39855]],[[130.63352,33.41409],[130.63452,33.41432]],[[130.53899,33.41278],[130.5383,33.41324],[130.53695,33.41394],[130.53348,33.41522],[130.53274,33.41567],[130.53229,33.41609],[130.53208,33.4165],[130.53195,33.4175],[130.53241,33.41998],[130.53237,33.42013]],[[130.5607,33.39845],[130.55353,33.39753]],[[130.56147,33.39855],[130.5607,33.39845]],[[130.53219,33.42229],[130.53232,33.42137],[130.53237,33.42013]]]}}