{"type":"Feature","properties":{"id":"由利高原鉄道_鳥海山ろく線","name":"鳥海山ろく線","operator":"由利高原鉄道","railType":"普通鉄道","operatorType":"第三セクター","category":"rail","attribution":"国土数値情報（鉄道データ）国土交通省"},"geometry":{"type":"MultiLineString","coordinates":[[[140.13872,39.23055],[140.13936,39.23008]],[[140.11107,39.29587],[140.11073,39.29413],[140.11078,39.29371],[140.11104,39.29302],[140.11142,39.29258],[140.11263,39.29155],[140.11304,39.29109],[140.11538,39.28759],[140.11662,39.28562],[140.11675,39.28529],[140.11687,39.28485],[140.11692,39.28294],[140.1165,39.27874]],[[140.0936,39.32043],[140.09964,39.32151],[140.10061,39.3215],[140.10117,39.32138],[140.10213,39.32102]],[[140.11121,39.29655],[140.11107,39.29587]],[[140.11454,39.26862],[140.11537,39.26839]],[[140.06019,39.35019],[140.06176,39.34864],[140.06832,39.34316],[140.06861,39.34283],[140.0689,39.34198],[140.06876,39.34045],[140.06895,39.33857],[140.06879,39.33815],[140.06738,39.33616],[140.06711,39.3355],[140.06706,39.33473],[140.06735,39.33395],[140.06969,39.32997],[140.0704,39.32922],[140.071,39.3288]],[[140.05967,39.35067],[140.06019,39.35019]],[[140.0573,39.38619],[140.0579,39.38753]],[[140.13936,39.23008],[140.13967,39.22984]],[[140.11271,39.3132],[140.11297,39.31245]],[[140.11537,39.26839],[140.12283,39.2663],[140.12435,39.26579],[140.12492,39.26541],[140.12546,39.26489],[140.12584,39.26433],[140.126,39.26383],[140.12604,39.2636],[140.12593,39.26289],[140.12563,39.26229],[140.12531,39.26189],[140.12076,39.25805],[140.12021,39.25748],[140.1196,39.25646],[140.11919,39.25471],[140.11892,39.25121],[140.1191,39.25053],[140.11936,39.24997],[140.1201,39.24923]],[[140.0573,39.38619],[140.05736,39.38618],[140.05683,39.38473],[140.05165,39.37411],[140.04897,39.3684]],[[140.071,39.3288],[140.07178,39.32837]],[[140.04872,39.36776],[140.04779,39.36559],[140.04755,39.36471],[140.0475,39.36384],[140.04768,39.36319],[140.04786,39.36287],[140.04887,39.36159],[140.05872,39.35155],[140.05967,39.35067]],[[140.09266,39.32041],[140.0936,39.32043]],[[140.11644,39.27805],[140.1162,39.27573],[140.11583,39.27485],[140.11563,39.2746],[140.1148,39.27395],[140.11352,39.27326],[140.11311,39.27295],[140.11248,39.27214],[140.11226,39.2716],[140.11225,39.2708],[140.11239,39.27035],[140.11267,39.26985],[140.1131,39.26939],[140.11356,39.26904],[140.11454,39.26862]],[[140.10213,39.32102],[140.1029,39.32068]],[[140.11297,39.31245],[140.11438,39.30832],[140.11462,39.30741],[140.11466,39.30687],[140.11393,39.30251],[140.1138,39.30216],[140.11343,39.30159],[140.11246,39.3004],[140.11183,39.29924],[140.11121,39.29655]],[[140.07178,39.32837],[140.07338,39.32792],[140.08042,39.32644],[140.08087,39.32628],[140.09017,39.32125],[140.09143,39.3207],[140.09266,39.32041]],[[140.1201,39.24923],[140.12072,39.24875]],[[140.12072,39.24875],[140.12143,39.24842],[140.12281,39.24812],[140.12569,39.248],[140.12701,39.24775],[140.1278,39.24744],[140.12863,39.24695],[140.13003,39.2459],[140.13129,39.24477],[140.13204,39.24375],[140.13243,39.24293],[140.13246,39.24223],[140.13213,39.23965],[140.13218,39.23877],[140.13309,39.23611],[140.13349,39.23526],[140.13428,39.2341],[140.13478,39.23359],[140.13617,39.23245],[140.13872,39.23055]],[[140.04897,39.3684],[140.04872,39.36776]],[[140.1029,39.32068],[140.11112,39.31658],[140.11153,39.31617],[140.11198,39.31528],[140.11271,39.3132]],[[140.1165,39.27874],[140.11644,39.27805]]]}}