{"type":"Feature","properties":{"id":"相模鉄道_いずみ野線","name":"いずみ野線","operator":"相模鉄道","railType":"普通鉄道","operatorType":"民営","category":"rail","attribution":"国土数値情報（鉄道データ）国土交通省"},"geometry":{"type":"MultiLineString","coordinates":[[[139.48707,35.41438],[139.4873,35.41582]],[[139.5221,35.43993],[139.5254,35.4481],[139.52643,35.45128],[139.5264,35.4522]],[[139.50741,35.43011],[139.51314,35.43154],[139.51395,35.43181],[139.51548,35.43258],[139.51756,35.43395],[139.5186,35.43477],[139.5202,35.43667],[139.52153,35.43881]],[[139.5264,35.4522],[139.52628,35.45297]],[[139.49405,35.42971],[139.49619,35.42928]],[[139.50586,35.42975],[139.50741,35.43011]],[[139.4828,35.40613],[139.48539,35.40907],[139.48639,35.4104],[139.48689,35.41188],[139.48707,35.41438]],[[139.52153,35.43881],[139.5221,35.43993]],[[139.52628,35.45297],[139.52614,35.45355],[139.52576,35.45451],[139.52472,35.45666],[139.52469,35.45738],[139.52476,35.45786],[139.525,35.45843],[139.52551,35.45908],[139.52632,35.45987],[139.52706,35.46035],[139.52836,35.46102]],[[139.52836,35.46102],[139.52898,35.46116],[139.52993,35.46152],[139.53156,35.46278]],[[139.48192,35.40516],[139.4828,35.40613]],[[139.49619,35.42928],[139.49897,35.42881],[139.50004,35.42868],[139.50096,35.42869],[139.50171,35.42878],[139.50586,35.42975]],[[139.4873,35.41582],[139.48771,35.4189],[139.48764,35.41954],[139.48696,35.42197],[139.4869,35.42321],[139.48711,35.42591],[139.48731,35.42679],[139.4876,35.42753],[139.48827,35.42846],[139.48865,35.42883],[139.48964,35.42945],[139.49037,35.42971],[139.49145,35.4299],[139.49326,35.42983],[139.49405,35.42971]],[[139.53156,35.46278],[139.53318,35.464]],[[139.4652,35.39602],[139.46704,35.39646]],[[139.46704,35.39646],[139.47049,35.3972],[139.474,35.39777]],[[139.474,35.39777],[139.4764,35.39844],[139.47733,35.39899],[139.47784,35.39942],[139.47859,35.40029],[139.47997,35.40283],[139.48192,35.40516]]]}}