{"type":"Feature","properties":{"id":"相模鉄道_本線","name":"本線","operator":"相模鉄道","railType":"普通鉄道","operatorType":"民営","category":"rail","attribution":"国土数値情報（鉄道データ）国土交通省"},"geometry":{"type":"MultiLineString","coordinates":[[[139.60835,35.45325],[139.60959,35.45394]],[[139.60185,35.45424],[139.60321,35.45378]],[[139.58594,35.46392],[139.58682,35.4635]],[[139.61678,35.46019],[139.62082,35.46456],[139.62123,35.46481]],[[139.58139,35.46663],[139.58223,35.46601],[139.58367,35.46511],[139.58594,35.46392]],[[139.59467,35.45881],[139.59572,35.45766]],[[139.61615,35.4595],[139.61678,35.46019]],[[139.58682,35.4635],[139.59164,35.4617],[139.59249,35.46124],[139.59467,35.45881]],[[139.60321,35.45378],[139.6052,35.45311],[139.60629,35.45284],[139.6068,35.45282],[139.60757,35.45293],[139.60835,35.45325]],[[139.62313,35.46693],[139.62179,35.46553],[139.62123,35.46481]],[[139.57952,35.46811],[139.58139,35.46663]],[[139.59572,35.45766],[139.59694,35.45642],[139.59799,35.45566],[139.59889,35.45526],[139.60185,35.45424]],[[139.60959,35.45394],[139.61139,35.45494],[139.61227,35.45551],[139.6131,35.45618],[139.61511,35.45827],[139.61615,35.4595]],[[139.50155,35.46818],[139.50359,35.46739]],[[139.44055,35.47065],[139.44176,35.47043]],[[139.46224,35.46989],[139.46933,35.46962],[139.47245,35.4696],[139.48215,35.47037]],[[139.54941,35.47493],[139.55056,35.47525]],[[139.55056,35.47525],[139.55169,35.47564],[139.55337,35.47698],[139.55444,35.4775],[139.55874,35.47803],[139.56433,35.47811]],[[139.56433,35.47811],[139.56671,35.47802]],[[139.56671,35.47802],[139.56967,35.47746],[139.57047,35.47705],[139.57098,35.47659],[139.57125,35.47623],[139.57219,35.47425],[139.57287,35.47343],[139.57952,35.46811]],[[139.53318,35.464],[139.53729,35.46701],[139.54068,35.46889],[139.5419,35.46966],[139.54709,35.47392],[139.54819,35.47452],[139.54941,35.47493]],[[139.48215,35.47037],[139.48303,35.47043]],[[139.41483,35.46646],[139.41694,35.46723]],[[139.44176,35.47043],[139.44852,35.46933],[139.44977,35.46925],[139.45153,35.46943],[139.45354,35.46999],[139.45441,35.47012],[139.45976,35.46997]],[[139.46224,35.46989],[139.45976,35.46997]],[[139.50359,35.46739],[139.50474,35.46682],[139.50547,35.4662],[139.50617,35.46544],[139.50789,35.46319],[139.50897,35.46229],[139.51059,35.4614],[139.51255,35.46077]],[[139.5144,35.46031],[139.51585,35.46],[139.51694,35.46001],[139.52299,35.46118],[139.52662,35.46082],[139.52836,35.46102]],[[139.41694,35.46723],[139.41905,35.46812],[139.42347,35.47077],[139.42443,35.47127],[139.42541,35.47155],[139.4279,35.47153]],[[139.43017,35.47147],[139.43605,35.47131],[139.44055,35.47065]],[[139.51255,35.46077],[139.5144,35.46031]],[[139.3928,35.45392],[139.39466,35.4557],[139.39556,35.45675],[139.39637,35.45733],[139.39713,35.45756],[139.39831,35.45777],[139.40115,35.45788],[139.40242,35.4581],[139.40326,35.45836],[139.40546,35.45941],[139.40767,35.46075],[139.40875,35.46155],[139.40972,35.46252],[139.41197,35.46504],[139.41334,35.46587],[139.41483,35.46646]],[[139.4279,35.47153],[139.43017,35.47147]],[[139.39167,35.45296],[139.3928,35.45392]],[[139.48303,35.47043],[139.48613,35.47056],[139.49506,35.47049],[139.49642,35.4702],[139.50155,35.46818]],[[139.53156,35.46278],[139.53318,35.464]],[[139.52836,35.46102],[139.52898,35.46116],[139.52993,35.46152],[139.53156,35.46278]]]}}