{"type":"Feature","properties":{"id":"真岡鐵道_真岡線","name":"真岡線","operator":"真岡鐵道","railType":"普通鉄道","operatorType":"第三セクター","category":"rail","attribution":"国土数値情報（鉄道データ）国土交通省"},"geometry":{"type":"MultiLineString","coordinates":[[[140.1813,36.53032],[140.18081,36.52857],[140.18043,36.528],[140.17952,36.52735],[140.17887,36.52712],[140.17845,36.52706],[140.17778,36.52708],[140.17708,36.52722],[140.17659,36.52742],[140.17528,36.52826],[140.17465,36.52856],[140.17334,36.52893],[140.17291,36.52894],[140.17203,36.5288],[140.17016,36.5281],[140.1654,36.52743],[140.16433,36.52752],[140.16012,36.52813],[140.15642,36.52927]],[[140.18155,36.53131],[140.1813,36.53032]],[[140.0888,36.46337],[140.08827,36.46234]],[[140.0944,36.49221],[140.09427,36.49138]],[[140.00283,36.43974],[140.00441,36.44399],[140.00535,36.4454],[140.00638,36.44647],[140.00717,36.44708],[140.00806,36.44762],[140.00943,36.44821],[140.01115,36.44868],[140.01357,36.44902]],[[140.08981,36.51558],[140.08948,36.51079],[140.08947,36.50842],[140.09112,36.50315],[140.09224,36.49921],[140.0943,36.49587],[140.09462,36.49499],[140.09465,36.49401],[140.0944,36.49221]],[[140.04911,36.45339],[140.06706,36.4556]],[[140.06793,36.4557],[140.06706,36.4556]],[[140.09427,36.49138],[140.091,36.46876],[140.09065,36.46739],[140.09036,36.46666],[140.0888,36.46337]],[[140.00242,36.43853],[140.00062,36.43311],[140.00036,36.43257],[139.99567,36.4266],[139.99196,36.42225],[139.98444,36.4172],[139.98334,36.41626],[139.98277,36.41548],[139.98029,36.41121]],[[140.04911,36.45339],[140.04818,36.45327]],[[139.9716,36.37564],[139.97166,36.37636]],[[140.01357,36.44902],[140.01446,36.44912]],[[140.1556,36.52937],[140.1547,36.52962],[140.15396,36.52998],[140.15195,36.53157],[140.15075,36.53225],[140.14924,36.53273],[140.14652,36.53316],[140.14599,36.53333],[140.1451,36.53378]],[[140.11053,36.5385],[140.11244,36.5405],[140.1167,36.54433],[140.11731,36.54465],[140.11805,36.54488],[140.11956,36.54495],[140.12082,36.54456],[140.12242,36.54381],[140.12523,36.54174],[140.12633,36.54103],[140.13421,36.53806],[140.13763,36.53577],[140.13892,36.53504],[140.13985,36.53482],[140.14196,36.53474],[140.14297,36.53461],[140.14438,36.53414]],[[139.97035,36.35814],[139.9704,36.35881]],[[140.08988,36.51638],[140.09008,36.51857],[140.09038,36.51954],[140.09106,36.52066],[140.09327,36.52343],[140.09419,36.52421],[140.09892,36.52699],[140.102,36.52941],[140.10315,36.53043],[140.10487,36.53217],[140.10986,36.53774]],[[140.11053,36.5385],[140.10986,36.53774]],[[139.9704,36.35881],[139.9716,36.37564]],[[140.08827,36.46234],[140.08702,36.45973],[140.08664,36.4591],[140.08586,36.45841],[140.08478,36.45791],[140.0837,36.45765],[140.06793,36.4557]],[[140.08981,36.51558],[140.08988,36.51638]],[[140.1451,36.53378],[140.14438,36.53414]],[[140.00242,36.43853],[140.00283,36.43974]],[[139.97994,36.41059],[139.98029,36.41121]],[[140.04818,36.45327],[140.01446,36.44912]],[[139.97166,36.37636],[139.97323,36.39815],[139.97359,36.39922],[139.97409,36.40028],[139.97994,36.41059]],[[140.15642,36.52927],[140.1556,36.52937]],[[139.97131,36.3403],[139.97106,36.34097]],[[139.97106,36.34097],[139.96933,36.34541],[139.96908,36.34618],[139.96887,36.34743],[139.96887,36.34864],[139.96901,36.34993],[139.97011,36.35552],[139.97035,36.35814]],[[139.97191,36.3197],[139.97225,36.31895]],[[139.97225,36.31895],[139.97246,36.31837],[139.97259,36.31769],[139.97254,36.31656],[139.97121,36.30755],[139.97109,36.30656],[139.97115,36.30594],[139.97127,36.30555],[139.97168,36.30488],[139.9722,36.3044],[139.97282,36.30411],[139.97323,36.30397],[139.97414,36.30384],[139.9754,36.3038],[139.97637,36.30387]],[[139.97191,36.3197],[139.97107,36.32177],[139.97085,36.32266],[139.97072,36.32385],[139.97082,36.32539],[139.97224,36.33417],[139.97242,36.33598],[139.97241,36.33668],[139.9722,36.33766],[139.97131,36.3403]],[[139.98,36.30438],[139.97637,36.30387]]]}}