{"type":"Feature","properties":{"id":"神戸電鉄_公園都市線","name":"公園都市線","operator":"神戸電鉄","railType":"普通鉄道","operatorType":"民営","category":"rail","attribution":"国土数値情報（鉄道データ）国土交通省"},"geometry":{"type":"MultiLineString","coordinates":[[[135.18411,34.90928],[135.18353,34.91006]],[[135.21972,34.87664],[135.22042,34.8774]],[[135.21972,34.87664],[135.21849,34.87539],[135.21803,34.87503],[135.21756,34.87477],[135.21679,34.87451],[135.21601,34.87454],[135.21328,34.87505],[135.21191,34.87556],[135.21078,34.87629],[135.20987,34.87721],[135.20713,34.88037],[135.20257,34.88533]],[[135.18942,34.90213],[135.18411,34.90928]],[[135.20213,34.88582],[135.20257,34.88533]],[[135.18997,34.90136],[135.18942,34.90213]],[[135.18997,34.90136],[135.19128,34.89953],[135.19239,34.89763],[135.19529,34.89104],[135.19577,34.89012],[135.1965,34.88938],[135.19706,34.88896],[135.20092,34.88683],[135.20143,34.88649],[135.20213,34.88582]]]}}