{"type":"Feature","properties":{"id":"神戸新交通_六甲アイランド線","name":"六甲アイランド線","operator":"神戸新交通","railType":"案内軌条式(軌道)","operatorType":"第三セクター","category":"agt","attribution":"国土数値情報（鉄道データ）国土交通省"},"geometry":{"type":"MultiLineString","coordinates":[[[135.26861,34.71397],[135.26829,34.71601],[135.26692,34.71927],[135.26634,34.72047],[135.2662,34.72059],[135.26579,34.72068],[135.2641,34.71989],[135.26276,34.71954]],[[135.26276,34.71954],[135.26177,34.7193]],[[135.26935,34.6888],[135.26924,34.68947]],[[135.26865,34.71333],[135.26861,34.71397]],[[135.26735,34.70369],[135.26714,34.70271],[135.26713,34.70213],[135.26815,34.69577],[135.2681,34.69495],[135.26826,34.694],[135.26872,34.6932]],[[135.26743,34.70647],[135.26781,34.70704]],[[135.27004,34.68456],[135.26935,34.6888]],[[135.26781,34.70704],[135.26811,34.70756],[135.26824,34.70801],[135.26869,34.71027],[135.26875,34.71156],[135.26865,34.71333]],[[135.27015,34.68388],[135.27004,34.68456]],[[135.26924,34.68947],[135.26873,34.69264]],[[135.26873,34.69264],[135.26872,34.6932]],[[135.26872,34.6932],[135.26902,34.69418],[135.26888,34.69512],[135.26864,34.69584],[135.26735,34.70369]],[[135.26735,34.70369],[135.26716,34.70501],[135.26721,34.70577],[135.26743,34.70647]]]}}