{"type":"Feature","properties":{"id":"神戸市_北神線","name":"北神線","operator":"神戸市","railType":"普通鉄道","operatorType":"公営","category":"rail","attribution":"国土数値情報（鉄道データ）国土交通省"},"geometry":{"type":"MultiLineString","coordinates":[[[135.17198,34.7618],[135.17063,34.76131]],[[135.19571,34.70498],[135.19561,34.70439]],[[135.17063,34.76131],[135.166,34.75979],[135.16502,34.75917],[135.16424,34.75848],[135.16365,34.75769],[135.16335,34.75708],[135.16306,34.75621],[135.16304,34.75538],[135.16338,34.75422],[135.16495,34.75193],[135.16774,34.74742],[135.18018,34.72717],[135.18165,34.72458],[135.18319,34.72291],[135.19066,34.71629],[135.19546,34.71108],[135.19601,34.70992],[135.19618,34.70864],[135.19571,34.70498]]]}}