{"type":"Feature","properties":{"id":"神戸電鉄_有馬線","name":"有馬線","operator":"神戸電鉄","railType":"普通鉄道","operatorType":"民営","category":"rail","attribution":"国土数値情報（鉄道データ）国土交通省"},"geometry":{"type":"MultiLineString","coordinates":[[[135.22135,34.79675],[135.22062,34.7962]],[[135.22186,34.79723],[135.22135,34.79675]],[[135.1992,34.78121],[135.19859,34.78082]],[[135.14593,34.72317],[135.14642,34.71852],[135.14635,34.71791],[135.14609,34.71736],[135.14567,34.71687],[135.14394,34.7154],[135.14364,34.7148],[135.14359,34.71419],[135.14365,34.7137],[135.14379,34.71337],[135.14423,34.71286],[135.14529,34.71219],[135.14742,34.71145],[135.14795,34.71116],[135.14916,34.71007],[135.1496,34.70921],[135.1498,34.70849],[135.1499,34.70736],[135.14981,34.7033],[135.14968,34.70286],[135.14942,34.70242],[135.14786,34.70056]],[[135.16579,34.67959],[135.16644,34.67897]],[[135.21149,34.79],[135.2107,34.788],[135.21036,34.78736],[135.20976,34.78658],[135.20943,34.78633],[135.20874,34.78601],[135.20656,34.78541]],[[135.20656,34.78541],[135.20577,34.78509]],[[135.156,34.75718],[135.15551,34.75663]],[[135.24604,34.79932],[135.24523,34.79959]],[[135.14786,34.70056],[135.14741,34.7]],[[135.14951,34.68129],[135.14956,34.68053],[135.14984,34.67995],[135.1504,34.67943],[135.15092,34.67919],[135.15135,34.67909],[135.15199,34.67905],[135.15336,34.67915],[135.15719,34.67971],[135.15813,34.67996],[135.15982,34.68076],[135.16126,34.681],[135.16241,34.6811],[135.16318,34.68109],[135.1639,34.68083],[135.16532,34.68005],[135.16579,34.67959]],[[135.156,34.75718],[135.1563,34.75822],[135.15666,34.75896],[135.15706,34.75929],[135.1577,34.75958],[135.15912,34.75989],[135.16139,34.76017],[135.16641,34.7604],[135.16858,34.76082],[135.17056,34.76151]],[[135.14959,34.68198],[135.14951,34.68129]],[[135.18691,34.76938],[135.18347,34.76699],[135.18262,34.76661],[135.18018,34.76577],[135.17928,34.76525],[135.17872,34.76479],[135.17799,34.76384],[135.17723,34.76323],[135.17685,34.76303],[135.17556,34.76263],[135.17198,34.7618]],[[135.1534,34.74588],[135.15356,34.74535],[135.15354,34.74456],[135.1524,34.74168],[135.15209,34.74024]],[[135.22062,34.7962],[135.21906,34.79552],[135.21719,34.79501],[135.21653,34.7947],[135.21249,34.79182],[135.21207,34.79141],[135.21171,34.79066]],[[135.24523,34.79959],[135.24439,34.79972],[135.23667,34.79922],[135.23552,34.79907],[135.2346,34.79869],[135.23281,34.79751],[135.23031,34.79649],[135.22959,34.79632],[135.22878,34.7964],[135.22546,34.79743],[135.22391,34.79777],[135.2227,34.79763],[135.22186,34.79723]],[[135.19859,34.78082],[135.19787,34.78019],[135.19673,34.77895],[135.19589,34.77793],[135.19522,34.77693],[135.19468,34.77582],[135.19437,34.77476],[135.19403,34.77313],[135.19359,34.77245],[135.19326,34.7722],[135.19254,34.77189],[135.19098,34.77178],[135.18994,34.77147],[135.18755,34.76985]],[[135.18755,34.76985],[135.18691,34.76938]],[[135.17056,34.76151],[135.17198,34.7618]],[[135.14291,34.69327],[135.1426,34.69282],[135.14219,34.6925]],[[135.14579,34.72448],[135.14583,34.7241]],[[135.15181,34.73886],[135.15152,34.73802],[135.15055,34.73646],[135.15011,34.73558],[135.14961,34.7337],[135.14933,34.73299],[135.14862,34.73215],[135.14703,34.731],[135.14666,34.73065],[135.14623,34.73017],[135.14576,34.72934],[135.14553,34.72857],[135.14551,34.72781],[135.14579,34.72448]],[[135.14741,34.7],[135.14718,34.69947],[135.147,34.6981],[135.14673,34.69758],[135.14613,34.69687],[135.14392,34.69527],[135.14349,34.69485],[135.14291,34.69327]],[[135.14431,34.68571],[135.14625,34.68423],[135.14796,34.68374],[135.14881,34.68338],[135.1494,34.68281],[135.14955,34.68252],[135.14959,34.68198]],[[135.20577,34.78509],[135.20528,34.78479],[135.20267,34.78264],[135.20186,34.78224],[135.1992,34.78121]],[[135.14583,34.7241],[135.14593,34.72317]],[[135.14361,34.68612],[135.14431,34.68571]],[[135.15302,34.74647],[135.1534,34.74588]],[[135.21171,34.79066],[135.21149,34.79]],[[135.15551,34.75663],[135.15283,34.75502],[135.15258,34.75478],[135.15217,34.75415],[135.15189,34.75324],[135.1514,34.75247],[135.15091,34.75212],[135.14886,34.75112],[135.14847,34.75086],[135.14788,34.75025],[135.14767,34.74971],[135.14771,34.74899],[135.14787,34.74863],[135.14836,34.74806],[135.14917,34.74771],[135.15208,34.74697],[135.15266,34.74675],[135.15302,34.74647]],[[135.14219,34.6925],[135.14073,34.69157],[135.14031,34.6912],[135.14006,34.69065],[135.14006,34.68997],[135.14014,34.68967],[135.14075,34.68874],[135.14178,34.68753],[135.14278,34.68666],[135.14361,34.68612]],[[135.15209,34.74024],[135.15181,34.73886]]]}}