{"type":"Feature","properties":{"id":"神戸新交通_ポートアイランド線","name":"ポートアイランド線","operator":"神戸新交通","railType":"案内軌条式","operatorType":"第三セクター","category":"agt","attribution":"国土数値情報（鉄道データ）国土交通省"},"geometry":{"type":"MultiLineString","coordinates":[[[135.20735,34.67338],[135.20769,34.67281]],[[135.21468,34.67329],[135.217,34.66956]],[[135.20769,34.67281],[135.20796,34.6726],[135.20851,34.67265],[135.2133,34.67458],[135.2138,34.67456],[135.21434,34.67384]],[[135.21018,34.66876],[135.20981,34.66937]],[[135.21734,34.66901],[135.21735,34.66899]],[[135.19962,34.6891],[135.20026,34.68759],[135.19993,34.68654],[135.2,34.68608],[135.2003,34.68569],[135.20114,34.6851],[135.20127,34.68493],[135.20213,34.68177]],[[135.21738,34.6648],[135.21676,34.66454]],[[135.21434,34.67384],[135.21468,34.67329]],[[135.21735,34.66899],[135.21878,34.66671],[135.21901,34.66617],[135.2189,34.66569],[135.21866,34.6654],[135.21738,34.6648]],[[135.19549,34.69472],[135.19572,34.69488],[135.19594,34.69488],[135.19628,34.69466],[135.1993,34.68963]],[[135.1951,34.6943],[135.19549,34.69472]],[[135.1993,34.68963],[135.19962,34.6891]],[[135.21262,34.6646],[135.21226,34.66521]],[[135.21676,34.66454],[135.21477,34.66374],[135.21435,34.6636],[135.21392,34.66357],[135.21325,34.66379],[135.21296,34.66407],[135.21262,34.6646]],[[135.217,34.66956],[135.21734,34.66901]],[[135.20231,34.68114],[135.20263,34.68005],[135.20293,34.67956],[135.20515,34.67701],[135.20662,34.67554],[135.20683,34.67499],[135.20695,34.67409],[135.20735,34.67338]],[[135.20213,34.68177],[135.20231,34.68114]],[[135.21226,34.66521],[135.21018,34.66876]],[[135.20981,34.66937],[135.20773,34.67273]],[[135.21655,34.6583],[135.21874,34.65476],[135.21901,34.65452],[135.21962,34.65426],[135.22017,34.65426],[135.22124,34.65468]],[[135.22124,34.65468],[135.22183,34.65494]],[[135.22183,34.65494],[135.22334,34.65553],[135.22406,34.65557],[135.22456,34.65551],[135.22513,34.65527],[135.22555,34.65487],[135.23141,34.6452],[135.23185,34.64426],[135.23224,34.64291],[135.23262,34.64011],[135.23277,34.63822],[135.23264,34.63798],[135.23213,34.63761],[135.22949,34.63737]],[[135.22949,34.63737],[135.22846,34.63733]],[[135.21262,34.6646],[135.21627,34.65874]],[[135.21627,34.65874],[135.21655,34.6583]]]}}