{"type":"Feature","properties":{"id":"神戸市_西神延伸線","name":"西神延伸線","operator":"神戸市","railType":"普通鉄道","operatorType":"公営","category":"rail","attribution":"国土数値情報（鉄道データ）国土交通省"},"geometry":{"type":"MultiLineString","coordinates":[[[135.07474,34.68178],[135.07253,34.68203],[135.06308,34.68123],[135.05818,34.68139]],[[135.04074,34.6883],[135.04206,34.68735]],[[135.08007,34.67977],[135.08496,34.67937],[135.08945,34.67926]],[[135.03043,34.69914],[135.03419,34.69492],[135.03926,34.68946],[135.04074,34.6883]],[[135.05676,34.68147],[135.05511,34.68154],[135.054,34.68169],[135.05222,34.68224],[135.04558,34.6853],[135.04206,34.68735]],[[135.01724,34.71966],[135.01824,34.71519],[135.01861,34.71409],[135.0196,34.71169],[135.02643,34.70355],[135.02996,34.69966]],[[135.01708,34.72031],[135.01724,34.71966]],[[135.05818,34.68139],[135.05676,34.68147]],[[135.08007,34.67977],[135.081,34.67951],[135.08502,34.67917],[135.08778,34.6791],[135.08888,34.67914],[135.08945,34.67926]],[[135.0936,34.67926],[135.08945,34.67926]],[[135.07589,34.68154],[135.07733,34.68109],[135.07914,34.6801],[135.08007,34.67977]],[[135.09516,34.67927],[135.0936,34.67926]],[[135.07474,34.68178],[135.07589,34.68154]],[[135.02996,34.69966],[135.03043,34.69914]]]}}