{"type":"Feature","properties":{"id":"神戸市_海岸線","name":"海岸線","operator":"神戸市","railType":"普通鉄道","operatorType":"公営","category":"rail","attribution":"国土数値情報（鉄道データ）国土交通省"},"geometry":{"type":"MultiLineString","coordinates":[[[135.17866,34.67841],[135.17956,34.68075],[135.17995,34.68145],[135.18219,34.68446],[135.1831,34.68531],[135.18355,34.68563]],[[135.14902,34.65274],[135.14579,34.65598]],[[135.18355,34.68563],[135.18427,34.68607]],[[135.14996,34.65171],[135.14902,34.65274]],[[135.19006,34.6893],[135.19074,34.68967]],[[135.15583,34.65344],[135.15461,34.65292],[135.15152,34.65125],[135.15072,34.65126],[135.15027,34.65145],[135.14996,34.65171]],[[135.19561,34.69166],[135.19634,34.69195]],[[135.1759,34.66667],[135.17586,34.66532]],[[135.17843,34.67775],[135.17866,34.67841]],[[135.1575,34.65399],[135.15583,34.65344]],[[135.18427,34.68607],[135.18484,34.68635],[135.18868,34.68761],[135.18897,34.68779],[135.18924,34.68812],[135.18974,34.68894],[135.19006,34.6893]],[[135.19074,34.68967],[135.19236,34.69045],[135.19561,34.69166]],[[135.17681,34.65873],[135.1753,34.65714]],[[135.1759,34.66667],[135.17607,34.66992],[135.17628,34.67127],[135.1768,34.67299],[135.17792,34.676],[135.17843,34.67775]],[[135.14579,34.65598],[135.14482,34.65696]],[[135.17586,34.66532],[135.17571,34.66363],[135.17577,34.66266],[135.17699,34.65943],[135.177,34.65908],[135.17681,34.65873]],[[135.1753,34.65714],[135.17454,34.6564],[135.17394,34.65599],[135.17133,34.65526],[135.17019,34.6551],[135.16616,34.65487]],[[135.16616,34.65487],[135.16437,34.65457]],[[135.16437,34.65457],[135.1633,34.65434],[135.16259,34.65428],[135.15833,34.65423],[135.1575,34.65399]]]}}