{"type":"Feature","properties":{"id":"福井鉄道_福武線","name":"福武線","operator":"福井鉄道","railType":"普通鉄道","operatorType":"民営","category":"rail","attribution":"国土数値情報（鉄道データ）国土交通省"},"geometry":{"type":"MultiLineString","coordinates":[[[136.21514,36.04061],[136.21526,36.04125]],[[136.21724,36.0748],[136.21795,36.07467]],[[136.19357,35.98886],[136.1904,35.98199],[136.18984,35.98161],[136.18912,35.98136],[136.18835,35.98133],[136.18792,35.9814]],[[136.21759,36.06374],[136.21756,36.06332]],[[136.19381,35.98947],[136.19807,35.99901]],[[136.19357,35.98886],[136.19381,35.98947]],[[136.18191,35.97304],[136.18207,35.97398],[136.18333,35.9782],[136.18385,35.97985],[136.18442,35.98116],[136.18502,35.98165],[136.18574,35.98186],[136.18718,35.9816]],[[136.215,36.05757],[136.2148,36.05634],[136.21498,36.05381]],[[136.22229,36.06225],[136.22204,36.06197]],[[136.22204,36.06197],[136.22182,36.06179],[136.22152,36.06171],[136.21836,36.06228],[136.21774,36.06266],[136.21753,36.06291]],[[136.21382,36.03323],[136.21391,36.03374]],[[136.21263,36.02871],[136.21337,36.03043],[136.21382,36.03323]],[[136.21664,36.04903],[136.21653,36.05143],[136.2164,36.05182],[136.21562,36.05227]],[[136.20551,36.01441],[136.20935,36.02211]],[[136.21795,36.07467],[136.21838,36.07445],[136.21841,36.07428],[136.21809,36.06953]],[[136.21391,36.03374],[136.21514,36.04061]],[[136.21666,36.0484],[136.21664,36.04903]],[[136.21502,36.05335],[136.21498,36.05381]],[[136.21513,36.05798],[136.21574,36.06002],[136.217,36.06157],[136.21748,36.06255],[136.21753,36.06291]],[[136.20522,36.01381],[136.20551,36.01441]],[[136.20159,36.00648],[136.20188,36.00705]],[[136.21526,36.04125],[136.21648,36.04715],[136.21666,36.0484]],[[136.20188,36.00705],[136.20522,36.01381]],[[136.21513,36.05798],[136.215,36.05757]],[[136.18186,35.97243],[136.18191,35.97304]],[[136.21232,36.02812],[136.21263,36.02871]],[[136.21756,36.06332],[136.21753,36.06291]],[[136.18792,35.9814],[136.18718,35.9816]],[[136.21806,36.0691],[136.21759,36.06374]],[[136.21809,36.06953],[136.21806,36.0691]],[[136.21562,36.05227],[136.21516,36.05254],[136.21502,36.05335]],[[136.17018,35.90625],[136.17017,35.9069]],[[136.17017,35.9069],[136.17004,35.90811],[136.16992,35.90834],[136.16935,35.9089],[136.16901,35.90905],[136.16721,35.90935],[136.16677,35.90981]],[[136.18184,35.94668],[136.18209,35.94603]],[[136.18297,35.96256],[136.18328,35.962]],[[136.17083,35.9263],[136.17274,35.93189],[136.17313,35.93253],[136.17351,35.93283],[136.17416,35.93305],[136.17736,35.93311],[136.17824,35.93333],[136.17871,35.93355],[136.17911,35.93391],[136.18051,35.93628]],[[136.1858,35.95279],[136.18589,35.95702],[136.18328,35.962]],[[136.18574,35.95218],[136.18556,35.95111],[136.18527,35.95052],[136.18493,35.95027],[136.18334,35.94976],[136.18283,35.94947],[136.1817,35.94809],[136.18156,35.94772],[136.18184,35.94668]],[[136.16677,35.90981],[136.16642,35.9104]],[[136.17083,35.9263],[136.17064,35.92573]],[[136.18209,35.94603],[136.18337,35.94233],[136.18346,35.94177],[136.1834,35.94142],[136.18281,35.9402],[136.18084,35.93682]],[[136.1858,35.95279],[136.18574,35.95218]],[[136.16642,35.9104],[136.16634,35.91116],[136.16653,35.91372],[136.16683,35.91487],[136.16747,35.91673],[136.16814,35.91929]],[[136.18084,35.93682],[136.18051,35.93628]],[[136.18297,35.96256],[136.18177,35.96488],[136.18164,35.96527],[136.18155,35.9696],[136.18186,35.97243]],[[136.16831,35.91967],[136.16955,35.92264],[136.17064,35.92573]],[[136.16814,35.91929],[136.16831,35.91967]],[[136.19826,35.99942],[136.19993,36.00311],[136.20159,36.00648]],[[136.19807,35.99901],[136.19826,35.99942]],[[136.20951,36.02243],[136.21232,36.02812]],[[136.20935,36.02211],[136.20951,36.02243]]]}}