{"type":"Feature","properties":{"id":"福島交通_飯坂線","name":"飯坂線","operator":"福島交通","railType":"普通鉄道","operatorType":"民営","category":"rail","attribution":"国土数値情報（鉄道データ）国土交通省"},"geometry":{"type":"MultiLineString","coordinates":[[[140.45955,37.76008],[140.46001,37.75523]],[[140.4552,37.76742],[140.45556,37.76683]],[[140.44114,37.79618],[140.44106,37.7956]],[[140.45556,37.76683],[140.45922,37.76113],[140.45943,37.76054]],[[140.44577,37.77846],[140.44744,37.77657]],[[140.44085,37.78387],[140.44129,37.78336]],[[140.45485,37.83044],[140.45451,37.82983]],[[140.44642,37.81639],[140.44627,37.81581]],[[140.43977,37.78763],[140.43968,37.78699]],[[140.4507,37.82675],[140.44922,37.82309],[140.44803,37.82082],[140.44738,37.81978],[140.44716,37.81904],[140.447,37.81811],[140.4466,37.81711],[140.44642,37.81639]],[[140.43968,37.78699],[140.43953,37.78581],[140.43959,37.78537],[140.44085,37.78387]],[[140.45943,37.76054],[140.45955,37.76008]],[[140.44788,37.77597],[140.44935,37.77401],[140.45017,37.77314],[140.45075,37.77282],[140.45311,37.77205],[140.45357,37.77182],[140.45412,37.77131],[140.4543,37.77082],[140.45481,37.76806],[140.4552,37.76742]],[[140.45093,37.82737],[140.4507,37.82675]],[[140.4428,37.80537],[140.4427,37.80477]],[[140.45451,37.82983],[140.45435,37.82967],[140.45225,37.8288],[140.45157,37.82839],[140.45115,37.82793],[140.45093,37.82737]],[[140.4427,37.80477],[140.44114,37.79618]],[[140.44744,37.77657],[140.44788,37.77597]],[[140.46001,37.75523],[140.46006,37.75341]],[[140.44106,37.7956],[140.43977,37.78763]],[[140.44129,37.78336],[140.44321,37.78115],[140.44526,37.779]],[[140.44526,37.779],[140.44577,37.77846]],[[140.44627,37.81581],[140.44459,37.80989],[140.44306,37.80636],[140.4428,37.80537]]]}}