{"type":"Feature","properties":{"id":"福岡市_3号線(七隈線)","name":"3号線(七隈線)","operator":"福岡市","railType":"普通鉄道","operatorType":"公営","category":"rail","attribution":"国土数値情報（鉄道データ）国土交通省"},"geometry":{"type":"MultiLineString","coordinates":[[[130.40153,33.58789],[130.40154,33.58753],[130.40165,33.58732],[130.4044,33.58463]],[[130.40551,33.5835],[130.40579,33.58314],[130.40584,33.58288],[130.40579,33.58262],[130.40551,33.58231],[130.40405,33.58178],[130.40301,33.58175]],[[130.4034,33.58888],[130.40201,33.58831],[130.40151,33.58802],[130.40153,33.58789]],[[130.40139,33.58176],[130.40301,33.58175]],[[130.3975,33.58086],[130.39581,33.58025]],[[130.4044,33.58463],[130.40551,33.5835]],[[130.40139,33.58176],[130.40053,33.58176],[130.3997,33.58162],[130.3975,33.58086]],[[130.32165,33.55446],[130.32028,33.55577]],[[130.35393,33.54589],[130.35564,33.5454]],[[130.37669,33.57727],[130.37073,33.57463]],[[130.33679,33.55073],[130.33079,33.55217]],[[130.38622,33.57735],[130.38804,33.57715]],[[130.33894,33.55022],[130.33679,33.55073]],[[130.35393,33.54589],[130.34788,33.54791]],[[130.36847,33.57359],[130.36823,33.57322],[130.36811,33.5728],[130.36819,33.57093],[130.36743,33.56872],[130.36596,33.56695]],[[130.3288,33.55265],[130.32638,33.55274],[130.32493,33.55299],[130.32311,33.55358],[130.32221,33.55404],[130.32165,33.55446]],[[130.36596,33.56695],[130.36497,33.56546]],[[130.34788,33.54791],[130.34558,33.54853]],[[130.36214,33.54817],[130.36238,33.54674]],[[130.36497,33.56546],[130.3643,33.56447],[130.3622,33.56047]],[[130.34558,33.54853],[130.33894,33.55022]],[[130.36163,33.55369],[130.36177,33.55217]],[[130.39581,33.58025],[130.3934,33.57936],[130.39282,33.57892],[130.39187,33.57779],[130.39161,33.57765],[130.39047,33.57732],[130.38911,33.57715],[130.38804,33.57715]],[[130.37073,33.57463],[130.36847,33.57359]],[[130.36129,33.55875],[130.3612,33.55827],[130.36163,33.55369]],[[130.36129,33.55875],[130.3622,33.56047]],[[130.37669,33.57727],[130.37808,33.57793]],[[130.38622,33.57735],[130.38362,33.57763],[130.38234,33.57785],[130.38032,33.578],[130.37899,33.57833],[130.37808,33.57793]],[[130.3288,33.55265],[130.33079,33.55217]],[[130.36177,33.55217],[130.36214,33.54817]],[[130.36238,33.54674],[130.36247,33.54619],[130.36239,33.54569],[130.36203,33.54535],[130.36147,33.54519],[130.36024,33.54507],[130.35759,33.54505],[130.35564,33.5454]]]}}