{"type":"Feature","properties":{"id":"福岡市_1号線(空港線)","name":"1号線(空港線)","operator":"福岡市","railType":"普通鉄道","operatorType":"公営","category":"rail","attribution":"国土数値情報（鉄道データ）国土交通省"},"geometry":{"type":"MultiLineString","coordinates":[[[130.41401,33.59435],[130.41159,33.59617],[130.4108,33.59648],[130.40986,33.59655],[130.40929,33.59646],[130.4083,33.59614],[130.40745,33.59572]],[[130.40745,33.59572],[130.40674,33.595]],[[130.42131,33.59005],[130.42018,33.5901]],[[130.42018,33.5901],[130.41976,33.59018],[130.41916,33.5905],[130.41476,33.59379]],[[130.40674,33.595],[130.40595,33.59422]],[[130.43102,33.58936],[130.43056,33.58867],[130.43004,33.58822],[130.42908,33.58785],[130.42848,33.58783],[130.42792,33.58793],[130.4272,33.58822],[130.42561,33.58947],[130.42493,33.58986],[130.42131,33.59005]],[[130.39924,33.59139],[130.39802,33.59113]],[[130.44856,33.59722],[130.44739,33.59753]],[[130.44739,33.59753],[130.44481,33.59823],[130.44218,33.59864],[130.44059,33.59862],[130.43935,33.59851],[130.43826,33.5983],[130.43702,33.59784],[130.43645,33.59751],[130.43537,33.59662],[130.43465,33.59575],[130.43395,33.59463],[130.43148,33.59017]],[[130.40595,33.59422],[130.40486,33.59316],[130.40446,33.59284],[130.40364,33.59237],[130.39924,33.59139]],[[130.41476,33.59379],[130.41401,33.59435]],[[130.43148,33.59017],[130.43102,33.58936]],[[130.3491,33.58139],[130.34749,33.5813]],[[130.35925,33.58362],[130.35807,33.58318],[130.35079,33.58192],[130.3491,33.58139]],[[130.34749,33.5813],[130.34658,33.58125],[130.34613,33.5811],[130.34025,33.58061]],[[130.32596,33.58353],[130.32417,33.58363]],[[130.37918,33.59005],[130.37363,33.59044],[130.37027,33.59018]],[[130.37027,33.59018],[130.36962,33.58998]],[[130.39088,33.5891],[130.39015,33.58895]],[[130.39802,33.59113],[130.39608,33.59066],[130.39542,33.59013],[130.39476,33.58991],[130.39088,33.5891]],[[130.3598,33.58391],[130.35925,33.58362]],[[130.33947,33.58074],[130.33897,33.58095],[130.33862,33.58125],[130.33805,33.582],[130.33771,33.58229],[130.33725,33.58255],[130.3357,33.58293],[130.33438,33.58312],[130.32596,33.58353]],[[130.38005,33.58986],[130.37918,33.59005]],[[130.36962,33.58998],[130.36548,33.58759],[130.36172,33.58503],[130.3598,33.58391]],[[130.39015,33.58895],[130.3871,33.58855],[130.38634,33.58855],[130.38247,33.58912],[130.38005,33.58986]],[[130.34025,33.58061],[130.33947,33.58074]]]}}