{"type":"Feature","properties":{"id":"秋田内陸縦貫鉄道_秋田内陸線","name":"秋田内陸線","operator":"秋田内陸縦貫鉄道","railType":"普通鉄道","operatorType":"第三セクター","category":"rail","attribution":"国土数値情報（鉄道データ）国土交通省"},"geometry":{"type":"MultiLineString","coordinates":[[[140.36238,40.23068],[140.36756,40.23177]],[[140.36756,40.23177],[140.37099,40.23246]],[[140.60252,39.77084],[140.603,39.77143]],[[140.45288,39.90516],[140.45353,39.9048]],[[140.51622,39.9194],[140.51973,39.91823],[140.52153,39.91751],[140.52245,39.91695],[140.54537,39.89034],[140.56046,39.87269],[140.56248,39.87096],[140.56712,39.86783],[140.56857,39.86692],[140.56976,39.86628],[140.5704,39.86604],[140.5765,39.86461],[140.57797,39.86406],[140.57888,39.8635],[140.57966,39.86289],[140.58029,39.8622],[140.58058,39.8617],[140.58092,39.86073],[140.58117,39.85941]],[[140.48795,39.91077],[140.47375,39.90452],[140.47266,39.90395],[140.4717,39.9033],[140.46936,39.9013],[140.4682,39.90047],[140.46694,39.90009],[140.46619,39.89997],[140.4643,39.89985],[140.46211,39.90011],[140.46139,39.90033],[140.45915,39.90141],[140.45353,39.9048]],[[140.51533,39.91966],[140.51315,39.92028],[140.51173,39.92055],[140.5107,39.92051],[140.50976,39.92035],[140.50788,39.91963],[140.48898,39.91122]],[[140.40224,40.05027],[140.40269,40.05078]],[[140.41775,40.10108],[140.41785,40.10177]],[[140.40269,40.05078],[140.40312,40.05123],[140.40385,40.05181],[140.40624,40.05299],[140.40823,40.05368],[140.40991,40.05384],[140.41201,40.05475],[140.41456,40.05546],[140.41504,40.0557],[140.41529,40.05597],[140.41766,40.05945],[140.41773,40.05964],[140.41782,40.06117]],[[140.41784,40.06182],[140.41793,40.06338],[140.41757,40.06412],[140.4171,40.06465],[140.41576,40.06564],[140.41508,40.06665],[140.41491,40.06713],[140.41484,40.06765],[140.41506,40.06896],[140.41559,40.07104],[140.4162,40.07238],[140.4162,40.07438],[140.41614,40.07477],[140.41568,40.07565],[140.41576,40.0771],[140.41533,40.07861],[140.41524,40.07946],[140.41581,40.08314],[140.41576,40.08357],[140.41523,40.08466],[140.41439,40.08608],[140.41382,40.08669],[140.41326,40.08748],[140.41311,40.08829],[140.41312,40.08871],[140.41326,40.08932],[140.41388,40.0903],[140.41445,40.09078],[140.41538,40.09139],[140.4156,40.09164],[140.41594,40.09239],[140.41588,40.09409],[140.41595,40.09453],[140.41654,40.09581],[140.41687,40.09627],[140.41713,40.09683],[140.41775,40.10108]],[[140.59058,39.74435],[140.59688,39.7498],[140.59765,39.7507],[140.59826,39.75172],[140.59857,39.75279],[140.5988,39.75709],[140.59908,39.75884],[140.60042,39.76298],[140.60047,39.76371],[140.60022,39.76686],[140.60032,39.76757],[140.60049,39.76814],[140.60099,39.76901],[140.60252,39.77084]],[[140.56501,39.72759],[140.56043,39.72622],[140.55908,39.72554],[140.55586,39.72325],[140.55371,39.72146],[140.55289,39.72043],[140.55274,39.72004],[140.55239,39.7178],[140.55254,39.71631],[140.55321,39.71211],[140.55533,39.70026],[140.55541,39.69949],[140.5554,39.69888],[140.55522,39.69765],[140.55339,39.69111],[140.55318,39.69019],[140.55289,39.68812]],[[140.41306,39.93471],[140.41316,39.93541]],[[140.58117,39.85941],[140.58128,39.85872]],[[140.603,39.77143],[140.60425,39.77304],[140.6046,39.77405],[140.60458,39.77509],[140.60421,39.77608],[140.60337,39.77724],[140.60122,39.77937],[140.59502,39.78931],[140.59422,39.79039],[140.59336,39.79114],[140.59265,39.79156],[140.58909,39.79328],[140.58823,39.79389],[140.58759,39.79459],[140.58736,39.79497],[140.58696,39.7961],[140.58618,39.80155]],[[140.56293,39.65352],[140.56314,39.65281]],[[140.59006,39.7439],[140.57941,39.73471],[140.57686,39.73282],[140.5756,39.73202],[140.57114,39.72967],[140.56911,39.72883],[140.56584,39.72783]],[[140.43027,39.92126],[140.42934,39.92146],[140.42857,39.92179],[140.42529,39.92398],[140.42365,39.9248],[140.42257,39.92522],[140.41536,39.92755],[140.4142,39.92811],[140.41373,39.92855],[140.41354,39.92885],[140.41288,39.93035],[140.41257,39.93144],[140.41255,39.93167],[140.41293,39.93348],[140.41306,39.93471]],[[140.57145,39.59225],[140.57091,39.59134]],[[140.41208,39.95877],[140.4101,39.96012],[140.40753,39.96137],[140.40686,39.96191],[140.40647,39.96249],[140.40636,39.963],[140.40639,39.96382],[140.40688,39.96556],[140.40696,39.96623],[140.40691,39.96667],[140.40311,39.97322],[140.40295,39.97385],[140.40238,39.97969]],[[140.58607,39.80227],[140.58603,39.80312],[140.58635,39.80741],[140.58622,39.80863],[140.58568,39.81009],[140.58358,39.81442],[140.58264,39.8177]],[[140.51533,39.91966],[140.51622,39.9194]],[[140.4011,40.03342],[140.40129,40.03406]],[[140.4311,39.92108],[140.43027,39.92126]],[[140.59058,39.74435],[140.59006,39.7439]],[[140.40106,40.00063],[140.40058,40.00197],[140.40021,40.00276],[140.40009,40.00454],[140.3999,40.00512],[140.39961,40.00549],[140.39868,40.00618],[140.39819,40.0067],[140.39758,40.00754],[140.39757,40.00793],[140.39782,40.00877],[140.39836,40.00948],[140.40075,40.01214],[140.40106,40.01265],[140.40115,40.01304],[140.40106,40.01475],[140.40142,40.0155],[140.40131,40.01616],[140.40053,40.01755],[140.40054,40.01804],[140.40122,40.02092],[140.40114,40.02201],[140.40126,40.0229],[140.40125,40.02376],[140.40118,40.02455],[140.401,40.02536],[140.40048,40.02684],[140.40042,40.03093],[140.40057,40.03177],[140.4011,40.03342]],[[140.56584,39.72783],[140.56501,39.72759]],[[140.41316,39.93541],[140.41362,39.9393],[140.41385,39.94009],[140.41428,39.94101],[140.41436,39.94136],[140.41436,39.94183],[140.41411,39.94341],[140.41411,39.94501],[140.41392,39.9466],[140.41392,39.94737],[140.41442,39.95161],[140.4146,39.95214],[140.41556,39.95405],[140.41575,39.95476],[140.41554,39.95578],[140.41491,39.95666],[140.41425,39.95726],[140.41272,39.95831]],[[140.56314,39.65281],[140.56372,39.65069],[140.56481,39.64773],[140.56946,39.63809],[140.57012,39.6369],[140.57306,39.63323],[140.57369,39.6322],[140.57399,39.63099],[140.57421,39.62764]],[[140.58264,39.8177],[140.58245,39.81836]],[[140.55276,39.68739],[140.5526,39.68612],[140.55263,39.68542],[140.55529,39.68022],[140.55617,39.67814],[140.55845,39.66992],[140.55956,39.66628],[140.56156,39.65892],[140.56293,39.65352]],[[140.40139,39.99953],[140.40106,40.00063]],[[140.58128,39.85872],[140.58235,39.85077],[140.58231,39.8502],[140.5816,39.84801],[140.58148,39.84739],[140.58149,39.84608],[140.58203,39.84347],[140.58198,39.84189],[140.58181,39.84105],[140.58161,39.84049],[140.58062,39.83823],[140.57951,39.83526],[140.57909,39.83381],[140.57878,39.83186],[140.57904,39.83022],[140.57933,39.82913],[140.58245,39.81836]],[[140.48795,39.91077],[140.48898,39.91122]],[[140.40242,39.98038],[140.40268,39.98182],[140.40293,39.98251],[140.4036,39.98379],[140.40491,39.98579],[140.40504,39.98615],[140.40507,39.98679],[140.40488,39.98771],[140.40459,39.9884],[140.404,39.98932],[140.40208,39.99187],[140.40167,39.99267],[140.40105,39.99438],[140.40096,39.9949],[140.401,39.99555],[140.40143,39.99745],[140.40156,39.99839],[140.40151,39.99917],[140.40139,39.99953]],[[140.41272,39.95831],[140.41208,39.95877]],[[140.4311,39.92108],[140.43312,39.92064],[140.43367,39.92045],[140.43435,39.92007],[140.4361,39.91726],[140.43637,39.91696],[140.43852,39.91523],[140.43915,39.91442],[140.43977,39.91314],[140.44013,39.91267],[140.4412,39.91179],[140.44631,39.90836],[140.44711,39.90794],[140.44981,39.90695],[140.45288,39.90516]],[[140.40129,40.03406],[140.40146,40.03502],[140.40123,40.03552],[140.40059,40.03612],[140.39969,40.03659],[140.39928,40.03689],[140.39891,40.03733],[140.39879,40.03776],[140.39892,40.03847],[140.39978,40.03965],[140.39991,40.03994],[140.39949,40.04386],[140.39949,40.04486],[140.4015,40.04906],[140.40224,40.05027]],[[140.41782,40.06117],[140.41784,40.06182]],[[140.40238,39.97969],[140.40242,39.98038]],[[140.55289,39.68812],[140.55276,39.68739]],[[140.57429,39.62697],[140.57512,39.61737],[140.57526,39.61653],[140.57551,39.61574],[140.57999,39.60603],[140.58034,39.60501],[140.58051,39.604],[140.58044,39.60324],[140.58023,39.60257],[140.57981,39.60173],[140.57932,39.60105],[140.57803,39.59979]],[[140.57803,39.59979],[140.57564,39.59837],[140.57486,39.59776],[140.57446,39.59728],[140.57145,39.59225]],[[140.57421,39.62764],[140.57429,39.62697]],[[140.58618,39.80155],[140.58607,39.80227]],[[140.35007,40.14615],[140.34948,40.14663]],[[140.3298,40.16156],[140.32739,40.16345],[140.32687,40.16394],[140.32645,40.16473],[140.3264,40.16524],[140.32691,40.17315],[140.32687,40.17436],[140.32618,40.17624],[140.32612,40.17669],[140.32619,40.17754],[140.32646,40.17841],[140.32749,40.18053],[140.32811,40.18134],[140.32872,40.18187],[140.33135,40.18342],[140.33261,40.18399],[140.33361,40.18419],[140.33575,40.18431],[140.33684,40.18466],[140.33743,40.18495],[140.34023,40.18668]],[[140.37296,40.12843],[140.37154,40.12853],[140.37063,40.12871],[140.36977,40.12904],[140.36857,40.12969],[140.36769,40.13043],[140.36586,40.13261],[140.36505,40.13342],[140.35007,40.14615]],[[140.34963,40.20516],[140.34882,40.20497]],[[140.37386,40.12841],[140.37296,40.12843]],[[140.41785,40.10177],[140.41792,40.10254],[140.41787,40.10277],[140.41655,40.10566],[140.4162,40.10625],[140.41378,40.10855],[140.40842,40.11097],[140.40706,40.11113],[140.4042,40.11127],[140.40303,40.11147],[140.40178,40.11209],[140.40108,40.11264],[140.39885,40.11548],[140.39806,40.11667],[140.39761,40.11743],[140.39704,40.11931],[140.3956,40.12115],[140.39269,40.1235],[140.39142,40.12484],[140.39018,40.12597],[140.38929,40.12657],[140.38857,40.12688],[140.38588,40.12768],[140.38387,40.12915],[140.38306,40.1295],[140.38253,40.12964],[140.37931,40.1299],[140.3748,40.12847],[140.37386,40.12841]],[[140.35782,40.22446],[140.35603,40.22095],[140.3549,40.21698],[140.35428,40.2144],[140.35319,40.21042],[140.35187,40.20669],[140.35149,40.20604],[140.35107,40.20562],[140.35074,40.20544],[140.34963,40.20516]],[[140.34098,40.18715],[140.34023,40.18668]],[[140.33046,40.16104],[140.3298,40.16156]],[[140.35815,40.2251],[140.36039,40.22924],[140.36112,40.2299],[140.36238,40.23068]],[[140.34882,40.20497],[140.34717,40.20453],[140.34648,40.20404],[140.34212,40.19868],[140.3411,40.19732],[140.34092,40.19662],[140.34103,40.19574],[140.3431,40.1903],[140.34316,40.18955],[140.34296,40.18881],[140.34262,40.18832],[140.34222,40.18794],[140.34098,40.18715]],[[140.34948,40.14663],[140.3464,40.14921],[140.34104,40.15196],[140.34001,40.1526],[140.33739,40.15453],[140.33678,40.15506],[140.33298,40.15905],[140.33046,40.16104]],[[140.35815,40.2251],[140.35782,40.22446]]]}}