{"type":"Feature","properties":{"id":"秩父鉄道_秩父本線","name":"秩父本線","operator":"秩父鉄道","railType":"普通鉄道","operatorType":"民営","category":"rail","attribution":"国土数値情報（鉄道データ）国土交通省"},"geometry":{"type":"MultiLineString","coordinates":[[[139.45763,36.14367],[139.45393,36.14377],[139.45258,36.14354],[139.45153,36.14318],[139.44933,36.14204],[139.44829,36.14137],[139.44531,36.13885],[139.44476,36.13854],[139.44398,36.13827],[139.44203,36.13773]],[[139.46863,36.1476],[139.46802,36.14706]],[[139.36833,36.14782],[139.36968,36.1473]],[[139.5337,36.1701],[139.53354,36.17079]],[[139.44117,36.1375],[139.43856,36.13686],[139.43793,36.13678],[139.42489,36.13651]],[[139.44203,36.13773],[139.44117,36.1375]],[[139.45997,36.14359],[139.45763,36.14367]],[[139.48899,36.16269],[139.48815,36.16237]],[[139.51094,36.17144],[139.51005,36.17108]],[[139.38021,36.14331],[139.36968,36.1473]],[[139.38137,36.14285],[139.38021,36.14331]],[[139.52489,36.17666],[139.52403,36.17651]],[[139.51005,36.17108],[139.48899,36.16269]],[[139.38923,36.13926],[139.38674,36.14081],[139.38137,36.14285]],[[139.38949,36.13915],[139.38923,36.13926]],[[139.48815,36.16237],[139.48356,36.16056],[139.48258,36.16001],[139.46863,36.1476]],[[139.46802,36.14706],[139.46542,36.14478],[139.46457,36.14426],[139.46266,36.14361],[139.46184,36.14353],[139.45997,36.14359]],[[139.52403,36.17651],[139.52139,36.17557],[139.51094,36.17144]],[[139.53354,36.17079],[139.53309,36.1722],[139.53234,36.17335],[139.53128,36.1745],[139.53012,36.17547],[139.52928,36.17595],[139.52775,36.17648],[139.52619,36.1767],[139.52489,36.17666]],[[139.12302,36.13132],[139.12222,36.13083]],[[139.22282,36.12894],[139.24287,36.12924],[139.24467,36.12942],[139.24549,36.12958],[139.24666,36.12997],[139.24802,36.13056]],[[139.094,36.06813],[139.09399,36.06911]],[[139.09399,36.06911],[139.094,36.06999],[139.09412,36.07067],[139.09454,36.07158],[139.09617,36.07367],[139.09661,36.07416],[139.09748,36.07491],[139.09888,36.07572],[139.10021,36.07626],[139.10543,36.07745]],[[139.19418,36.11769],[139.19299,36.11743]],[[139.20782,36.12872],[139.20663,36.12869],[139.20534,36.12845],[139.20436,36.12807],[139.20341,36.12738],[139.20318,36.12713],[139.19958,36.11991],[139.19882,36.11906],[139.19801,36.11846],[139.19742,36.11819],[139.197,36.11807],[139.19418,36.11769]],[[139.25995,36.13556],[139.27544,36.14183],[139.27613,36.14199],[139.27699,36.14207],[139.28114,36.14217]],[[139.35236,36.14625],[139.36507,36.14841],[139.36629,36.1484],[139.36715,36.14825],[139.36833,36.14782]],[[139.10693,36.07778],[139.10871,36.07806],[139.11071,36.07803],[139.11179,36.0782],[139.11273,36.07851],[139.1138,36.07899],[139.11422,36.07925],[139.11496,36.08],[139.11525,36.08041],[139.1154,36.08079],[139.1155,36.0817],[139.11539,36.08236],[139.11511,36.08297],[139.11381,36.08478],[139.11341,36.08553]],[[139.08237,35.9889],[139.08352,35.99202]],[[139.19299,36.11743],[139.19062,36.11695],[139.18965,36.11685],[139.18841,36.11684],[139.18717,36.11705],[139.18664,36.11725],[139.18082,36.12025],[139.18004,36.1205],[139.17889,36.12065],[139.17749,36.12053],[139.16486,36.11886],[139.16407,36.11886],[139.16323,36.11898],[139.16251,36.11918],[139.16149,36.11978],[139.16119,36.12003],[139.16,36.12152],[139.15869,36.12351],[139.15825,36.12432],[139.15804,36.12534],[139.15808,36.12639]],[[139.33244,36.14467],[139.35038,36.14592],[139.35137,36.14608]],[[139.28234,36.14222],[139.30277,36.14289]],[[139.1109,36.11198],[139.11084,36.11124]],[[139.08377,35.9927],[139.08581,35.99824]],[[139.11341,36.08553],[139.11324,36.08606],[139.11332,36.08694]],[[139.11202,36.09594],[139.1126,36.09506]],[[139.15816,36.12722],[139.15828,36.12948],[139.15885,36.1316],[139.15889,36.13209],[139.15879,36.13273],[139.15836,36.13346],[139.15785,36.13393],[139.15709,36.13438],[139.15616,36.13477],[139.1551,36.13482],[139.15191,36.13474],[139.14964,36.13454],[139.14881,36.13433],[139.14761,36.13378],[139.14543,36.13213],[139.14415,36.13142],[139.14301,36.13112],[139.14167,36.13104],[139.13994,36.13125],[139.13865,36.13162],[139.13754,36.13218],[139.13392,36.13428],[139.1327,36.13466],[139.13135,36.13473],[139.12989,36.13442],[139.12789,36.1335],[139.12535,36.13249],[139.12302,36.13132]],[[139.08624,35.99935],[139.09283,36.01684],[139.09324,36.01757],[139.09388,36.01836]],[[139.20866,36.12872],[139.20782,36.12872]],[[139.30277,36.14289],[139.30381,36.14291]],[[139.08581,35.99824],[139.08624,35.99935]],[[139.11202,36.09594],[139.11074,36.09794],[139.1104,36.09862],[139.11024,36.09961],[139.11084,36.11124]],[[139.35137,36.14608],[139.35236,36.14625]],[[139.28114,36.14217],[139.28234,36.14222]],[[139.10174,36.04642],[139.10165,36.0471]],[[139.30381,36.14291],[139.31313,36.14333],[139.33137,36.14458]],[[139.10543,36.07745],[139.10693,36.07778]],[[139.25907,36.1352],[139.25995,36.13556]],[[139.33137,36.14458],[139.33244,36.14467]],[[139.09434,36.01893],[139.09606,36.02113],[139.0964,36.02174],[139.09666,36.02252],[139.09683,36.02361],[139.09742,36.03309],[139.1014,36.04484],[139.10162,36.04556],[139.10174,36.04642]],[[139.22282,36.12894],[139.22196,36.12892]],[[139.09388,36.01836],[139.09434,36.01893]],[[139.11332,36.08694],[139.11367,36.08813],[139.11466,36.08982],[139.1148,36.09018],[139.11488,36.09101],[139.1148,36.09146],[139.11448,36.09214],[139.1126,36.09506]],[[139.10165,36.0471],[139.10123,36.0496],[139.1006,36.05142],[139.0984,36.05631],[139.09522,36.06229],[139.09434,36.0642],[139.09417,36.06496],[139.094,36.06813]],[[139.08352,35.99202],[139.08377,35.9927]],[[139.12222,36.13083],[139.12018,36.12956],[139.11764,36.12733],[139.11248,36.12343],[139.11209,36.12293],[139.11169,36.12212],[139.11132,36.12065],[139.1109,36.11198]],[[139.22196,36.12892],[139.20866,36.12872]],[[139.15808,36.12639],[139.15816,36.12722]],[[139.02151,35.95387],[139.02252,35.95386]],[[139.03494,35.95819],[139.03593,35.95856]],[[138.9929,35.95879],[138.99366,35.95904]],[[139.05772,35.9639],[139.05856,35.96394]],[[138.99366,35.95904],[138.99423,35.95916],[138.99532,35.95902],[138.99683,35.95903],[139.0011,35.95885],[139.00193,35.95832],[139.00341,35.9569],[139.00383,35.95659],[139.00522,35.95614],[139.00663,35.95553],[139.01738,35.95392],[139.02151,35.95387]],[[139.06811,35.97161],[139.06866,35.97238]],[[139.03593,35.95856],[139.04257,35.96112],[139.04368,35.96194],[139.04705,35.96489],[139.04789,35.96541],[139.04841,35.96557],[139.04917,35.9657],[139.04983,35.96561],[139.05194,35.96448],[139.05291,35.96411],[139.05772,35.9639]],[[139.06866,35.97238],[139.0693,35.97303],[139.07651,35.97865],[139.07905,35.98104],[139.07956,35.98171],[139.08,35.98251],[139.08237,35.9889]],[[139.06811,35.97161],[139.06551,35.96817],[139.06469,35.96726],[139.06426,35.96699],[139.06387,35.96689],[139.06179,35.96678],[139.06088,35.96645],[139.06031,35.96596],[139.05958,35.96461],[139.05927,35.96422],[139.05894,35.96403],[139.05856,35.96394]],[[139.02252,35.95386],[139.0235,35.95375],[139.02658,35.95294],[139.02728,35.95294],[139.02771,35.95312],[139.02877,35.95387],[139.03326,35.95743],[139.03494,35.95819]],[[138.9929,35.95879],[138.992,35.95868],[138.98964,35.95913],[138.98865,35.95922],[138.98545,35.95862],[138.98424,35.95862],[138.98369,35.95867],[138.97814,35.96007]],[[138.97732,35.96028],[138.97814,35.96007]],[[139.42413,36.1365],[139.40755,36.13621],[139.40249,36.13595],[139.40162,36.13586],[139.39844,36.13527],[139.39733,36.13524],[139.39611,36.13548],[139.39548,36.13571],[139.39475,36.13616],[139.39275,36.13784],[139.39164,36.13836],[139.38949,36.13915]],[[139.42489,36.13651],[139.42413,36.1365]],[[139.24802,36.13056],[139.24871,36.13085]],[[139.24871,36.13085],[139.25907,36.1352]]]}}