{"type":"Feature","properties":{"id":"立山黒部貫光_無軌条電車線","name":"無軌条電車線","operator":"立山黒部貫光","railType":"無軌条電車","operatorType":"民営","category":"trolleybus","attribution":"国土数値情報（鉄道データ）国土交通省"},"geometry":{"type":"MultiLineString","coordinates":[[[137.59606,36.57698],[137.59615,36.5769],[137.59658,36.57686],[137.60589,36.57659],[137.6276,36.56739],[137.62821,36.56765],[137.63085,36.56981],[137.6316,36.56976]],[[137.59487,36.57805],[137.59525,36.57742],[137.59559,36.57712],[137.59573,36.57723],[137.59606,36.57698]],[[137.6316,36.56976],[137.63183,36.56968]]]}}