{"type":"Feature","properties":{"id":"筑波観光鉄道_筑波山鋼索鉄道線","name":"筑波山鋼索鉄道線","operator":"筑波観光鉄道","railType":"鋼索鉄道","operatorType":"民営","category":"cable","attribution":"国土数値情報（鉄道データ）国土交通省"},"geometry":{"type":"MultiLineString","coordinates":[[[140.10027,36.21487],[140.0999,36.2144]],[[140.10027,36.21487],[140.10446,36.22037],[140.10477,36.22095],[140.10487,36.22139],[140.10492,36.22204],[140.10486,36.22237],[140.1046,36.22298],[140.10424,36.22348],[140.10338,36.22418],[140.10135,36.22544]],[[140.10135,36.22544],[140.10073,36.22582]]]}}