{"type":"Feature","properties":{"id":"筑豊電気鉄道_筑豊電気鉄道線","name":"筑豊電気鉄道線","operator":"筑豊電気鉄道","railType":"普通鉄道","operatorType":"民営","category":"rail","attribution":"国土数値情報（鉄道データ）国土交通省"},"geometry":{"type":"MultiLineString","coordinates":[[[130.74091,33.85363],[130.7405,33.85239],[130.7398,33.8459]],[[130.76142,33.86633],[130.76051,33.86633],[130.75838,33.86616]],[[130.74464,33.85716],[130.74198,33.85519],[130.74138,33.85453],[130.7412,33.85422]],[[130.74521,33.85758],[130.74464,33.85716]],[[130.75763,33.8661],[130.75395,33.86605],[130.75356,33.866],[130.7527,33.86566],[130.7519,33.86508],[130.75121,33.86432],[130.7493,33.86132]],[[130.7493,33.86132],[130.74904,33.86096]],[[130.76194,33.86633],[130.76142,33.86633]],[[130.76499,33.86638],[130.76194,33.86633]],[[130.75838,33.86616],[130.75763,33.8661]],[[130.73825,33.83914],[130.73803,33.83859]],[[130.7412,33.85422],[130.74091,33.85363]],[[130.73637,33.83516],[130.73582,33.83459]],[[130.7398,33.8459],[130.73971,33.84519]],[[130.73803,33.83859],[130.73741,33.8366],[130.73676,33.83561],[130.73637,33.83516]],[[130.74904,33.86096],[130.74764,33.85946],[130.74521,33.85758]],[[130.76542,33.86638],[130.76499,33.86638]],[[130.73971,33.84519],[130.73928,33.84198],[130.73825,33.83914]],[[130.72741,33.82316],[130.72661,33.8229]],[[130.73076,33.76898],[130.73111,33.76831]],[[130.73295,33.75857],[130.73171,33.7568],[130.7313,33.75643],[130.72674,33.75376]],[[130.71146,33.80819],[130.7111,33.80642],[130.71115,33.80547],[130.71149,33.80436],[130.71206,33.80343],[130.71299,33.80252],[130.7138,33.80196],[130.71437,33.80165],[130.71794,33.80016],[130.71871,33.79976]],[[130.73252,33.83041],[130.73232,33.8297]],[[130.7251,33.77813],[130.72557,33.77733],[130.72788,33.7741],[130.73076,33.76898]],[[130.72481,33.7788],[130.7251,33.77813]],[[130.72157,33.82024],[130.71714,33.81716]],[[130.73111,33.76831],[130.73262,33.76561],[130.73334,33.76411],[130.73387,33.76098],[130.73381,33.76019],[130.73335,33.75916]],[[130.72448,33.78329],[130.72431,33.78149],[130.72434,33.78082],[130.72449,33.77995],[130.72481,33.7788]],[[130.72674,33.75376],[130.72607,33.75336]],[[130.72661,33.8229],[130.72402,33.82196],[130.72327,33.82155],[130.72217,33.82073]],[[130.71654,33.81666],[130.7163,33.81637],[130.71522,33.81412],[130.7149,33.8136],[130.71427,33.81287],[130.71294,33.81173],[130.71223,33.8108],[130.71184,33.80986],[130.71158,33.80882]],[[130.72217,33.82073],[130.72157,33.82024]],[[130.72465,33.78904],[130.72483,33.78819],[130.72486,33.7875],[130.72455,33.78402]],[[130.72455,33.78402],[130.72448,33.78329]],[[130.71714,33.81716],[130.71654,33.81666]],[[130.71936,33.79929],[130.72018,33.79863],[130.72074,33.79789],[130.72115,33.79697],[130.72159,33.7948],[130.72181,33.79408],[130.72244,33.79283],[130.72349,33.79124],[130.72438,33.78969]],[[130.73582,33.83459],[130.73409,33.83288],[130.7334,33.83209],[130.73282,33.83115],[130.73252,33.83041]],[[130.71158,33.80882],[130.71146,33.80819]],[[130.73335,33.75916],[130.73295,33.75857]],[[130.71871,33.79976],[130.71936,33.79929]],[[130.73232,33.8297],[130.73167,33.82716],[130.73103,33.82582],[130.73007,33.8247],[130.72944,33.82416],[130.72858,33.82364],[130.72741,33.82316]],[[130.72438,33.78969],[130.72465,33.78904]]]}}