{"type":"Feature","properties":{"id":"箱根登山鉄道_鋼索線","name":"鋼索線","operator":"箱根登山鉄道","railType":"鋼索鉄道","operatorType":"民営","category":"cable","attribution":"国土数値情報（鉄道データ）国土交通省"},"geometry":{"type":"MultiLineString","coordinates":[[[139.04301,35.24902],[139.04067,35.24821]],[[139.04365,35.24925],[139.04301,35.24902]],[[139.04762,35.2506],[139.04639,35.25019]],[[139.04568,35.24996],[139.04365,35.24925]],[[139.04826,35.25087],[139.04762,35.2506]],[[139.03735,35.24701],[139.03622,35.24661]],[[139.04639,35.25019],[139.04568,35.24996]],[[139.03997,35.24795],[139.0381,35.24727]],[[139.04067,35.24821],[139.03997,35.24795]],[[139.03622,35.24661],[139.03543,35.24631]],[[139.0381,35.24727],[139.03735,35.24701]]]}}