{"type":"Feature","properties":{"id":"箱根登山鉄道_鉄道線","name":"鉄道線","operator":"箱根登山鉄道","railType":"普通鉄道","operatorType":"民営","category":"rail","attribution":"国土数値情報（鉄道データ）国土交通省"},"geometry":{"type":"MultiLineString","coordinates":[[[139.12956,35.24631],[139.13055,35.24642],[139.13184,35.24693],[139.13256,35.24707],[139.13485,35.24672],[139.13609,35.24671],[139.1399,35.24706],[139.14036,35.24699],[139.14174,35.24626],[139.14292,35.24577],[139.14479,35.24525]],[[139.10429,35.23374],[139.10361,35.23334]],[[139.07421,35.23889],[139.07351,35.23924]],[[139.07524,35.23596],[139.07505,35.23629],[139.07499,35.23661],[139.07545,35.23781],[139.07538,35.23824]],[[139.05039,35.24679],[139.05113,35.24651]],[[139.09375,35.23452],[139.0926,35.23449],[139.09055,35.23424],[139.08622,35.23438],[139.08556,35.23424],[139.08516,35.23383],[139.08506,35.2336],[139.08508,35.23345],[139.08592,35.23274],[139.0866,35.23248]],[[139.07421,35.23889],[139.07538,35.23824]],[[139.04816,35.25124],[139.04835,35.25057]],[[139.0943,35.2344],[139.09375,35.23452]],[[139.05356,35.2402],[139.05431,35.23983],[139.05435,35.23933],[139.05459,35.23911],[139.05519,35.23914],[139.05569,35.23942],[139.05601,35.23977],[139.05604,35.24049],[139.05629,35.241],[139.05662,35.2423],[139.05688,35.24256],[139.05736,35.24272],[139.0601,35.24294],[139.06138,35.24285],[139.06177,35.24279],[139.06274,35.24223]],[[139.14558,35.24506],[139.14674,35.24484],[139.14725,35.24484],[139.14779,35.245],[139.14827,35.24531],[139.14942,35.24701],[139.15162,35.25054],[139.15265,35.252],[139.15327,35.25328],[139.15491,35.25564]],[[139.07596,35.23505],[139.07524,35.23596]],[[139.1214,35.24097],[139.12072,35.24059]],[[139.10361,35.23334],[139.10276,35.23268],[139.10134,35.23216],[139.10079,35.2321],[139.10018,35.23234],[139.09942,35.23292],[139.09878,35.23323],[139.0943,35.2344]],[[139.1214,35.24097],[139.1245,35.24287],[139.1278,35.24557],[139.12876,35.24617]],[[139.15595,35.25707],[139.15491,35.25564]],[[139.05281,35.24049],[139.05356,35.2402]],[[139.04835,35.25057],[139.04867,35.24936],[139.04869,35.24902],[139.04829,35.24748],[139.04819,35.24692],[139.04823,35.24657],[139.04858,35.24645],[139.04897,35.24647],[139.05015,35.24679],[139.05039,35.24679]],[[139.12072,35.24059],[139.119,35.23967],[139.11755,35.23849],[139.1149,35.23702],[139.11447,35.23671],[139.11281,35.23489],[139.11189,35.23422],[139.11042,35.23386],[139.10747,35.23411],[139.10429,35.23374]],[[139.14479,35.24525],[139.14558,35.24506]],[[139.08819,35.23237],[139.0866,35.23248]],[[139.12876,35.24617],[139.12956,35.24631]],[[139.07538,35.23824],[139.07569,35.2379],[139.07611,35.23674],[139.07634,35.23637],[139.07753,35.23586],[139.07786,35.23474],[139.07785,35.23426],[139.0781,35.23378],[139.07905,35.23312],[139.07929,35.23302],[139.08024,35.23294],[139.08093,35.23279],[139.08152,35.23253],[139.0822,35.23209],[139.08255,35.232],[139.08332,35.23201],[139.08475,35.23245],[139.0866,35.23248]],[[139.05113,35.24651],[139.05155,35.24569],[139.05164,35.24312],[139.05171,35.24251],[139.0519,35.24182],[139.05177,35.24149],[139.05127,35.24073],[139.05128,35.24064],[139.05139,35.24051],[139.05161,35.2405],[139.0522,35.24071],[139.05281,35.24049]],[[139.06331,35.24175],[139.06348,35.24102],[139.06411,35.24104],[139.06438,35.24096],[139.06526,35.24037],[139.06582,35.23977],[139.06666,35.23931],[139.06681,35.23905],[139.06685,35.23852],[139.06692,35.23842],[139.06716,35.23838],[139.06805,35.23866],[139.06858,35.23861],[139.06895,35.23843],[139.06909,35.23812],[139.0692,35.23727],[139.06942,35.23692],[139.06964,35.23681],[139.0704,35.23659],[139.0715,35.23649],[139.07412,35.23653],[139.0746,35.23639],[139.07524,35.23596]],[[139.06274,35.24223],[139.06331,35.24175]]]}}