{"type":"Feature","properties":{"id":"紀州鉄道_紀州鉄道線","name":"紀州鉄道線","operator":"紀州鉄道","railType":"普通鉄道","operatorType":"民営","category":"rail","attribution":"国土数値情報（鉄道データ）国土交通省"},"geometry":{"type":"MultiLineString","coordinates":[[[135.15505,33.89461],[135.15448,33.89408]],[[135.15688,33.89653],[135.15644,33.89596]],[[135.15448,33.89408],[135.15353,33.89314],[135.15317,33.8925],[135.153,33.89188],[135.15298,33.88993]],[[135.15293,33.88607],[135.15296,33.88662]],[[135.15779,33.90733],[135.15632,33.90688],[135.15605,33.90673],[135.15565,33.90616],[135.15554,33.90578],[135.15556,33.9054],[135.15671,33.90283],[135.1569,33.90202],[135.15714,33.89785],[135.15713,33.89736],[135.15688,33.89653]],[[135.15298,33.88993],[135.15298,33.88928]],[[135.15296,33.88662],[135.15298,33.88928]],[[135.15644,33.89596],[135.15505,33.89461]],[[135.15975,33.90791],[135.15779,33.90733]]]}}