{"type":"Feature","properties":{"id":"肥薩おれんじ鉄道_肥薩おれんじ鉄道線","name":"肥薩おれんじ鉄道線","operator":"肥薩おれんじ鉄道","railType":"普通鉄道","operatorType":"第三セクター","category":"rail","attribution":"国土数値情報（鉄道データ）国土交通省"},"geometry":{"type":"MultiLineString","coordinates":[[[130.61983,32.50508],[130.62254,32.50375]],[[130.48858,32.3283],[130.48769,32.33099],[130.48766,32.3317],[130.48781,32.33249],[130.48798,32.33291],[130.49023,32.33674],[130.49071,32.33771],[130.49164,32.33916],[130.49254,32.34013],[130.49385,32.34109],[130.49914,32.34437],[130.5045,32.35041]],[[130.35751,32.09057],[130.35843,32.08807]],[[130.50666,32.36311],[130.50774,32.35877],[130.50766,32.35492],[130.50755,32.35439],[130.50719,32.35363],[130.5065,32.35271],[130.50499,32.35096]],[[130.37484,32.16611],[130.3737,32.16502]],[[130.50505,32.27077],[130.51032,32.26486],[130.5107,32.26429],[130.51242,32.26108],[130.51259,32.26055],[130.51261,32.25958],[130.51241,32.25902],[130.51155,32.25752],[130.51076,32.25647],[130.50978,32.2557],[130.50835,32.25511],[130.50732,32.25438],[130.50598,32.25299],[130.50473,32.25049],[130.50438,32.24997],[130.50212,32.24772],[130.50078,32.2468],[130.48813,32.2394],[130.48504,32.23736],[130.4843,32.23705],[130.48312,32.23674],[130.47414,32.23477],[130.47329,32.23439],[130.47021,32.23274],[130.46372,32.2316],[130.4584,32.23038],[130.45762,32.23027],[130.45635,32.23028],[130.45549,32.23045],[130.45427,32.2309],[130.45239,32.2319],[130.45181,32.2321],[130.45077,32.2323]],[[130.39712,32.20559],[130.39521,32.20427]],[[130.5045,32.35041],[130.50499,32.35096]],[[130.33852,32.07509],[130.31969,32.06801],[130.31754,32.06714],[130.309,32.06288],[130.30754,32.06255],[130.30286,32.06249]],[[130.34239,32.12281],[130.34158,32.12148]],[[130.51826,32.39279],[130.51727,32.39235],[130.51626,32.39207],[130.51417,32.39181],[130.51309,32.3912],[130.51271,32.39083],[130.51236,32.39018],[130.51202,32.38809],[130.51178,32.38747],[130.51155,32.38711],[130.51027,32.38583],[130.50955,32.38471],[130.50849,32.38358],[130.5072,32.38254],[130.50573,32.38117],[130.50398,32.38012],[130.50349,32.37966],[130.50315,32.37913],[130.50297,32.37843],[130.5031,32.37721],[130.50651,32.36374]],[[130.26838,32.06317],[130.26642,32.0633]],[[130.49763,32.30284],[130.497,32.30201]],[[130.51896,32.39313],[130.51826,32.39279]],[[130.34005,32.07568],[130.33852,32.07509]],[[130.39521,32.20427],[130.39184,32.20212],[130.38789,32.19939],[130.38677,32.19886],[130.38352,32.19796],[130.38301,32.19761],[130.38235,32.19681],[130.38219,32.19634],[130.38172,32.19288],[130.38163,32.19259],[130.3802,32.18997],[130.37995,32.18924],[130.38001,32.18852],[130.38035,32.18773],[130.38095,32.18697],[130.38557,32.18306],[130.38647,32.18203],[130.38665,32.18171],[130.38675,32.1812],[130.38687,32.17796],[130.38677,32.17692],[130.38638,32.17589],[130.38514,32.17367],[130.38404,32.17203],[130.38305,32.17085],[130.38236,32.17032],[130.37967,32.16872],[130.37891,32.16842],[130.37733,32.16814],[130.37682,32.16793],[130.37484,32.16611]],[[130.49763,32.30284],[130.49846,32.30395],[130.49913,32.30529],[130.49938,32.30616],[130.49937,32.30667],[130.49923,32.30718],[130.49873,32.30812],[130.49819,32.30879],[130.4943,32.31255],[130.49377,32.31327],[130.4888,32.32764]],[[130.61273,32.47538],[130.61218,32.47493]],[[130.58248,32.43656],[130.58161,32.43577]],[[130.4888,32.32764],[130.48858,32.3283]],[[130.26642,32.0633],[130.26017,32.06376],[130.25853,32.06415],[130.25746,32.06451],[130.25582,32.06548],[130.25166,32.06873],[130.25021,32.06965],[130.24948,32.06995],[130.24542,32.07123],[130.24455,32.07139],[130.24384,32.07141],[130.24307,32.07129],[130.24229,32.07099],[130.2402,32.06984],[130.23674,32.06777],[130.22978,32.06524],[130.22928,32.06515],[130.22871,32.06516],[130.22636,32.06552],[130.22574,32.0655],[130.22483,32.06528],[130.22414,32.06491],[130.2237,32.06448],[130.22246,32.06237],[130.22187,32.06176],[130.22136,32.06151],[130.22064,32.0613],[130.21824,32.06101]],[[130.54966,32.42004],[130.54911,32.4196]],[[130.42959,32.21106],[130.42929,32.21084]],[[130.30079,32.06248],[130.28643,32.06226],[130.27246,32.06291],[130.26838,32.06317]],[[130.21677,32.06088],[130.21824,32.06101]],[[130.35751,32.09057],[130.35614,32.09408],[130.35577,32.09608],[130.35536,32.09959],[130.35388,32.10344],[130.35311,32.10632],[130.35266,32.10754],[130.35083,32.11061],[130.35031,32.11121],[130.34932,32.11189],[130.34223,32.1158],[130.34166,32.11619],[130.34104,32.11679],[130.34052,32.11783],[130.34046,32.11902],[130.34091,32.12024],[130.34158,32.12148]],[[130.50403,32.27194],[130.50505,32.27077]],[[130.54966,32.42004],[130.55166,32.42129],[130.55246,32.42165],[130.55473,32.42233],[130.55587,32.42292],[130.55627,32.42329],[130.55757,32.42495],[130.5583,32.42549],[130.55887,32.42571],[130.56076,32.42618],[130.56291,32.42636],[130.56344,32.42647],[130.56453,32.42691],[130.56499,32.4272],[130.56673,32.42888],[130.5684,32.43],[130.56955,32.43038],[130.57248,32.43047],[130.5739,32.43075],[130.57718,32.43222],[130.5785,32.43306],[130.58161,32.43577]],[[130.39712,32.20559],[130.39946,32.2071],[130.40026,32.2075],[130.4009,32.20765],[130.40197,32.2077],[130.40366,32.20734],[130.41197,32.20472],[130.41572,32.20365],[130.41715,32.20337],[130.41782,32.20337],[130.41898,32.20351],[130.41995,32.2039],[130.42057,32.20431],[130.42232,32.20613],[130.42469,32.20727],[130.42583,32.20831],[130.42929,32.21084]],[[130.50651,32.36374],[130.50666,32.36311]],[[130.42959,32.21106],[130.4317,32.21267],[130.43248,32.21317],[130.43364,32.21368],[130.4354,32.21431],[130.43644,32.21493],[130.43733,32.2157],[130.43759,32.21627],[130.43885,32.22009],[130.43855,32.22271],[130.43855,32.2232],[130.43866,32.22362],[130.43921,32.22449],[130.44159,32.22703],[130.44214,32.22775],[130.44453,32.23194],[130.44517,32.23245],[130.44604,32.23278],[130.44666,32.23288],[130.44792,32.23282],[130.44966,32.2325]],[[130.63255,32.49537],[130.63068,32.49848],[130.62946,32.49986],[130.62852,32.50051],[130.62254,32.50375]],[[130.61273,32.47538],[130.61327,32.47581],[130.61925,32.47978],[130.61999,32.48044],[130.62489,32.48552],[130.6256,32.48603],[130.62698,32.48673],[130.63279,32.48852],[130.63361,32.48891],[130.63419,32.48933],[130.63454,32.48976],[130.63483,32.49045],[130.63485,32.49103],[130.63472,32.49165],[130.63444,32.49225],[130.63255,32.49537]],[[130.58248,32.43656],[130.58485,32.43857],[130.58535,32.43909],[130.58575,32.43967],[130.58813,32.4471],[130.58888,32.44789],[130.59357,32.45124],[130.59661,32.45448],[130.59929,32.45614],[130.59978,32.45666],[130.60321,32.46222],[130.61023,32.47287],[130.61089,32.47366],[130.61218,32.47493]],[[130.45077,32.2323],[130.44966,32.2325]],[[130.3737,32.16502],[130.36621,32.15779],[130.36584,32.15735],[130.36527,32.15645],[130.36513,32.1559],[130.36519,32.15515],[130.36564,32.15348],[130.36564,32.15301],[130.36525,32.15198],[130.36441,32.15041],[130.36392,32.14984],[130.36323,32.14935],[130.36119,32.14862],[130.36066,32.1483],[130.35763,32.14569],[130.35706,32.14504],[130.35641,32.14394],[130.35349,32.13769],[130.35315,32.13691],[130.35284,32.13578],[130.35243,32.13505],[130.35114,32.13358],[130.35022,32.13224],[130.34979,32.13174],[130.3476,32.13063],[130.34682,32.13004],[130.3464,32.12958],[130.3443,32.12694],[130.34402,32.12634],[130.34367,32.12507],[130.34239,32.12281]],[[130.30286,32.06249],[130.30079,32.06248]],[[130.497,32.30201],[130.49519,32.29963],[130.49489,32.29894],[130.49477,32.29829],[130.49521,32.28576],[130.4955,32.28506],[130.49604,32.28435],[130.49883,32.28278],[130.49952,32.28226],[130.49984,32.28187],[130.50023,32.28078],[130.50026,32.27911],[130.50047,32.27822],[130.50204,32.2746],[130.50244,32.27387],[130.50291,32.27318],[130.50403,32.27194]],[[130.54911,32.4196],[130.54763,32.41836],[130.54241,32.41436],[130.54189,32.41365],[130.54154,32.41269],[130.54131,32.4123],[130.54082,32.41175],[130.53933,32.41049],[130.53776,32.40796],[130.53703,32.40752],[130.53448,32.4064],[130.53301,32.40496],[130.53134,32.40409],[130.53075,32.40356],[130.53014,32.40282],[130.52965,32.40242],[130.52754,32.40114],[130.52648,32.39996],[130.52566,32.39936],[130.52409,32.39791],[130.52253,32.39685],[130.52154,32.3953],[130.52035,32.39396],[130.51896,32.39313]],[[130.35843,32.08807],[130.35906,32.08634],[130.359,32.08566],[130.35883,32.08507],[130.35831,32.08426],[130.35717,32.08303],[130.35547,32.0816],[130.34005,32.07568]],[[130.23439,31.85381],[130.23375,31.8543],[130.23272,31.85491]],[[130.21983,31.95003],[130.22012,31.95028],[130.22162,31.95109],[130.22207,31.95142],[130.22252,31.95191],[130.22276,31.95241],[130.22306,31.95356],[130.22299,31.95494],[130.22335,31.95751],[130.22327,31.95812],[130.22304,31.95858],[130.22252,31.95926],[130.21993,31.96109],[130.21855,31.96197],[130.21703,31.96311],[130.2166,31.96355],[130.21566,31.96492],[130.2152,31.96544],[130.21335,31.96671],[130.21163,31.96802],[130.21113,31.96857],[130.21077,31.96922],[130.21014,31.97145],[130.20986,31.972],[130.20919,31.97264],[130.20746,31.97385]],[[130.19667,32.02179],[130.19612,32.02435]],[[130.29242,31.83548],[130.29103,31.83641]],[[130.31193,31.81451],[130.3112,31.81641],[130.31042,31.81935],[130.30975,31.8215],[130.30899,31.82304],[130.30859,31.82357],[130.30564,31.82644],[130.30322,31.82845],[130.29242,31.83548]],[[130.22394,31.91572],[130.22355,31.91708]],[[130.22059,31.89285],[130.22147,31.89483],[130.22268,31.89912],[130.22297,31.89985],[130.2233,31.90142],[130.22373,31.90285],[130.22507,31.90832],[130.22513,31.90996],[130.22502,31.91086],[130.22394,31.91572]],[[130.22355,31.91708],[130.22245,31.92098],[130.22116,31.92254],[130.22071,31.9234],[130.22067,31.92449],[130.22077,31.92655],[130.22044,31.9286],[130.2204,31.93208],[130.22032,31.93282],[130.21838,31.93635],[130.2176,31.93821],[130.21756,31.9391],[130.21792,31.94231],[130.21794,31.94496],[130.2181,31.94795],[130.21819,31.94843],[130.21845,31.94879]],[[130.23272,31.85491],[130.23017,31.85571],[130.22941,31.85603],[130.22885,31.85644],[130.22816,31.85722],[130.22777,31.85789],[130.22758,31.85849],[130.22747,31.86081],[130.2273,31.86135],[130.22681,31.86214],[130.22494,31.86431],[130.22449,31.86509],[130.2243,31.86655],[130.22473,31.86901],[130.22478,31.87011],[130.22461,31.87129],[130.2242,31.87248],[130.22383,31.8731],[130.22334,31.87359],[130.22005,31.8759],[130.21966,31.87627],[130.21744,31.87918],[130.21611,31.88129],[130.21598,31.88198],[130.21603,31.88242],[130.21624,31.88307],[130.21652,31.88357],[130.217,31.88412],[130.21943,31.88645],[130.22001,31.88725],[130.22022,31.88773],[130.22039,31.88828],[130.22044,31.88893],[130.22053,31.89223]],[[130.22053,31.89223],[130.22059,31.89285]],[[130.20687,31.97419],[130.20746,31.97385]],[[130.20687,31.97419],[130.20609,31.97481],[130.20509,31.97588],[130.2046,31.97665],[130.20441,31.97736],[130.20444,31.97826],[130.20466,31.97962],[130.20581,31.98264],[130.206,31.9834],[130.20592,31.98449],[130.2057,31.98507],[130.20542,31.98552],[130.20496,31.98604],[130.20254,31.98812],[130.2009,31.98923],[130.19914,31.99013],[130.19864,31.99051],[130.19823,31.99098],[130.19786,31.99168],[130.19773,31.99223],[130.19783,31.99401],[130.19775,31.99499],[130.19689,31.99683],[130.19611,31.99917],[130.19607,31.99992],[130.19728,32.01092],[130.19777,32.01277],[130.19867,32.01488],[130.19885,32.01599],[130.1987,32.01695],[130.19689,32.02109],[130.19667,32.02179]],[[130.29103,31.83641],[130.28032,31.84331],[130.27913,31.84389],[130.27815,31.84407],[130.27547,31.84419],[130.2727,31.84572],[130.27189,31.84603],[130.26876,31.84601],[130.26729,31.8462],[130.26643,31.84657],[130.26465,31.84778],[130.26324,31.84819],[130.26151,31.84857],[130.26074,31.84859],[130.25999,31.84843],[130.25693,31.84681],[130.25537,31.84632],[130.25379,31.84634],[130.24935,31.84661],[130.24837,31.84676],[130.24774,31.84697],[130.24327,31.84952],[130.24087,31.85065],[130.23939,31.85114],[130.23767,31.85139],[130.23682,31.85169],[130.23636,31.85201],[130.23439,31.85381]],[[130.19612,32.02435],[130.19592,32.02562],[130.19594,32.02744],[130.19523,32.03057],[130.19538,32.03275],[130.19559,32.03364],[130.19598,32.03426],[130.19667,32.03476],[130.2026,32.03706],[130.20357,32.0378],[130.20426,32.0387],[130.20442,32.03943],[130.20449,32.04117],[130.20464,32.0418],[130.20492,32.04253],[130.20633,32.04544],[130.20658,32.04618],[130.20602,32.05398],[130.20627,32.05508],[130.20669,32.05601],[130.20868,32.05907],[130.20945,32.05981],[130.21019,32.06027],[130.21102,32.06054],[130.21169,32.06061],[130.21456,32.06071],[130.21677,32.06088]],[[130.31247,31.81275],[130.31193,31.81451]],[[130.21845,31.94879],[130.21983,31.95003]]]}}