{"type":"Feature","properties":{"id":"能勢電鉄_日生線","name":"日生線","operator":"能勢電鉄","railType":"普通鉄道","operatorType":"民営","category":"rail","attribution":"国土数値情報（鉄道データ）国土交通省"},"geometry":{"type":"MultiLineString","coordinates":[[[135.39356,34.90607],[135.39251,34.90677]],[[135.41249,34.89333],[135.412,34.89268]],[[135.39356,34.90607],[135.39866,34.90279],[135.40086,34.9017],[135.4028,34.90114],[135.40807,34.90048],[135.40868,34.90011],[135.40944,34.8995],[135.41066,34.8983],[135.41309,34.89539],[135.41323,34.89499],[135.41316,34.89431],[135.41249,34.89333]]]}}