{"type":"Feature","properties":{"id":"若桜鉄道_若桜線","name":"若桜線","operator":"若桜鉄道","railType":"普通鉄道","operatorType":"第三セクター","category":"rail","attribution":"国土数値情報（鉄道データ）国土交通省"},"geometry":{"type":"MultiLineString","coordinates":[[[134.24855,35.40988],[134.24685,35.40731],[134.24626,35.40567]],[[134.33523,35.36448],[134.33606,35.36433]],[[134.27091,35.38875],[134.26983,35.3888]],[[134.31597,35.3636],[134.31032,35.36352],[134.30942,35.36364],[134.30827,35.36403],[134.30435,35.36629],[134.30069,35.36894],[134.30036,35.36928],[134.29943,35.37066],[134.29902,35.371],[134.29209,35.3743]],[[134.26983,35.3888],[134.26262,35.38925],[134.26132,35.38951],[134.26034,35.38994],[134.25278,35.39403],[134.24986,35.39498]],[[134.29209,35.3743],[134.29122,35.37472]],[[134.31715,35.36361],[134.31597,35.3636]],[[134.25131,35.41347],[134.25036,35.41215]],[[134.24856,35.39541],[134.24639,35.39617],[134.24538,35.39675],[134.24483,35.39733],[134.24443,35.39829],[134.24437,35.39869],[134.24442,35.39944],[134.24605,35.40499]],[[134.24986,35.39498],[134.24856,35.39541]],[[134.33523,35.36448],[134.33459,35.36457],[134.3341,35.36454],[134.32856,35.36285],[134.32746,35.36266],[134.32681,35.36266],[134.32071,35.36369],[134.31715,35.36361]],[[134.35666,35.36068],[134.3592,35.36052],[134.36213,35.36058],[134.36574,35.36089],[134.36677,35.36112],[134.36753,35.36151],[134.36805,35.36198],[134.37164,35.36677],[134.37228,35.36738],[134.37324,35.36782],[134.37397,35.36797],[134.37462,35.36797],[134.37544,35.36784],[134.37592,35.36763],[134.37673,35.36702],[134.37736,35.3663],[134.37759,35.36587],[134.3781,35.35921],[134.37838,35.35823],[134.37855,35.35794],[134.37913,35.35733],[134.38472,35.35313],[134.38992,35.34941],[134.3907,35.3491],[134.39373,35.34832],[134.39492,35.3478],[134.3964,35.34695],[134.39775,35.34579]],[[134.24605,35.40499],[134.24626,35.40567]],[[134.35556,35.36079],[134.35242,35.36103],[134.33606,35.36433]],[[134.39775,35.34579],[134.39898,35.34468]],[[134.29122,35.37472],[134.28721,35.37664],[134.28608,35.37745],[134.28563,35.37803],[134.28523,35.37878],[134.28441,35.38204],[134.28401,35.38265],[134.28351,35.3831],[134.28317,35.3833],[134.27986,35.38464],[134.27566,35.38792],[134.27499,35.38831],[134.27426,35.38853],[134.27091,35.38875]],[[134.35666,35.36068],[134.35556,35.36079]],[[134.25036,35.41215],[134.24855,35.40988]]]}}