{"type":"Feature","properties":{"id":"西日本旅客鉄道_草津線","name":"草津線","operator":"西日本旅客鉄道","railType":"普通鉄道(JR)","operatorType":"JR在来線","category":"rail","attribution":"国土数値情報（鉄道データ）国土交通省"},"geometry":{"type":"MultiLineString","coordinates":[[[136.18637,34.91875],[136.18533,34.91942]],[[136.08347,34.99998],[136.11195,34.98346],[136.11264,34.98317],[136.11362,34.98302],[136.11666,34.98311]],[[136.1685,34.93233],[136.16954,34.93117]],[[136.11666,34.98311],[136.1185,34.98315]],[[136.08127,35.00124],[136.08347,34.99998]],[[136.15697,34.95],[136.16104,34.9416],[136.16195,34.94034],[136.1685,34.93233]],[[136.15578,34.95127],[136.15638,34.95087],[136.15673,34.95046],[136.15697,34.95]],[[135.99902,35.02741],[135.99986,35.02744]],[[136.05388,35.01722],[136.08127,35.00124]],[[135.97042,35.02945],[135.97182,35.03036],[135.97286,35.03082],[135.97342,35.03097],[135.9744,35.03105],[135.97503,35.031],[135.97643,35.03073]],[[136.05226,35.01818],[136.05388,35.01722]],[[136.15255,34.95264],[136.15578,34.95127]],[[135.99902,35.02741],[135.99642,35.02709],[135.9863,35.02625],[135.98512,35.02627],[135.98401,35.02657],[135.9834,35.02686],[135.97643,35.03073]],[[135.99986,35.02744],[136.02319,35.02695],[136.0271,35.02685],[136.02804,35.02676],[136.02929,35.02652],[136.04363,35.02306],[136.04483,35.02249],[136.05226,35.01818]],[[136.1185,34.98315],[136.12083,34.98318],[136.12177,34.98294],[136.12264,34.98239],[136.12333,34.98149],[136.12705,34.97585],[136.12721,34.97541],[136.12749,34.97379],[136.12853,34.97145],[136.12867,34.97054],[136.12871,34.96919],[136.12876,34.96889],[136.12898,34.96842],[136.13143,34.96471],[136.13223,34.96382],[136.14397,34.95474],[136.14507,34.95431],[136.15076,34.95338],[136.15255,34.95264]],[[136.16954,34.93117],[136.17148,34.92901],[136.17244,34.92807],[136.17304,34.92762],[136.18533,34.91942]],[[135.96166,35.02201],[135.96385,35.0239]],[[135.96385,35.0239],[135.97042,35.02945]],[[135.96237,35.02322],[135.96487,35.02521],[135.97058,35.03003],[135.97184,35.03085],[135.97264,35.03116],[135.97324,35.0313],[135.97429,35.03137],[135.97521,35.03123],[135.97643,35.03073]],[[135.96064,35.02155],[135.96153,35.02249],[135.96237,35.02322]],[[135.95754,35.01731],[135.95854,35.01893],[135.9594,35.0201],[135.96064,35.02155]],[[136.25659,34.84601],[136.25574,34.84749]],[[136.25445,34.84971],[136.25574,34.84749]],[[136.23014,34.88912],[136.22904,34.89027]],[[136.25445,34.84971],[136.25368,34.85085],[136.25094,34.85433],[136.25062,34.85509],[136.24994,34.85773],[136.24921,34.86012],[136.24884,34.86106],[136.24804,34.86247],[136.2419,34.87104],[136.24093,34.87334],[136.23963,34.87552],[136.23181,34.88696],[136.23014,34.88912]],[[136.2136,34.90074],[136.21191,34.90185]],[[136.22904,34.89027],[136.22773,34.89134],[136.22589,34.89265],[136.2136,34.90074]],[[136.21191,34.90185],[136.18637,34.91875]]]}}