{"type":"Feature","properties":{"id":"西日本旅客鉄道_北陸線","name":"北陸線","operator":"西日本旅客鉄道","railType":"普通鉄道(JR)","operatorType":"JR在来線","category":"rail","attribution":"国土数値情報（鉄道データ）国土交通省"},"geometry":{"type":"MultiLineString","coordinates":[[[136.64858,36.57927],[136.64774,36.57826],[136.64711,36.57726]],[[136.3131,36.29957],[136.30538,36.29441],[136.30266,36.29249],[136.30147,36.29149],[136.29541,36.28542],[136.29482,36.2846],[136.29449,36.28391],[136.29362,36.28083],[136.29299,36.27945],[136.29243,36.27868],[136.29117,36.27725],[136.29051,36.27614],[136.28989,36.27486],[136.28922,36.27302],[136.28898,36.27163],[136.28889,36.27035],[136.2881,36.26816],[136.28737,36.2671],[136.28688,36.26659],[136.28353,36.26375],[136.28323,36.2634],[136.28286,36.26288],[136.2825,36.26209],[136.28203,36.26006]],[[136.21807,36.03726],[136.218,36.03986]],[[136.453,36.40394],[136.45288,36.40144]],[[136.59783,36.54158],[136.60004,36.54268]],[[136.23372,36.16359],[136.23339,36.16149]],[[136.23522,36.21677],[136.23517,36.21405]],[[136.48842,36.48578],[136.49104,36.48622]],[[136.45955,36.45026],[136.4595,36.45061],[136.45958,36.45175],[136.45989,36.4527]],[[136.23517,36.21405],[136.23496,36.20778],[136.23402,36.16644],[136.23372,36.16359]],[[136.38405,36.32896],[136.3821,36.32781]],[[136.6223,36.55385],[136.63617,36.5632],[136.63738,36.56421],[136.63811,36.56497],[136.64161,36.5695],[136.64418,36.57295],[136.64711,36.57726]],[[136.22292,36.11028],[136.2221,36.10836]],[[136.2573,36.24154],[136.25612,36.23971]],[[136.2221,36.10836],[136.22116,36.10601],[136.22101,36.10544],[136.22098,36.10446],[136.22123,36.10321],[136.2217,36.10234],[136.22427,36.0983],[136.22523,36.09657],[136.2327,36.08174],[136.23338,36.08021],[136.23365,36.07903],[136.23369,36.07835],[136.23357,36.07629],[136.23307,36.07118],[136.23301,36.07078],[136.23243,36.06954],[136.23163,36.06859],[136.22516,36.06378],[136.22413,36.06288]],[[136.34881,36.32023],[136.3309,36.31596],[136.32905,36.31531],[136.32793,36.31478],[136.32684,36.31393],[136.32639,36.31334],[136.32427,36.30835],[136.32362,36.30713],[136.32288,36.30626],[136.31532,36.3011]],[[136.21666,36.01123],[136.2186,36.01911],[136.2188,36.02095],[136.21807,36.03726]],[[136.52847,36.50366],[136.55297,36.52052],[136.5568,36.52306],[136.55821,36.52376],[136.56472,36.52616]],[[136.3821,36.32781],[136.38031,36.32685],[136.379,36.3265],[136.37776,36.32639],[136.36334,36.32624],[136.36224,36.32611],[136.36042,36.32545],[136.35685,36.32275],[136.35599,36.32223],[136.35429,36.32148],[136.35192,36.32091]],[[136.52628,36.50221],[136.51533,36.49472],[136.5142,36.494],[136.5129,36.49333],[136.49995,36.48905],[136.49475,36.48724],[136.49234,36.48652],[136.49104,36.48622]],[[136.19885,35.97264],[136.19801,35.97064]],[[136.21752,36.04576],[136.21763,36.04435]],[[136.453,36.40394],[136.45324,36.41127],[136.4536,36.41242],[136.45393,36.41316],[136.45563,36.41482],[136.45916,36.41717],[136.46018,36.41799],[136.46052,36.41836],[136.46097,36.41894],[136.46252,36.42227],[136.46309,36.42419],[136.46314,36.42473]],[[136.56472,36.52616],[136.56759,36.52722]],[[136.22181,36.06002],[136.22352,36.06224],[136.22413,36.06288]],[[136.35192,36.32091],[136.34881,36.32023]],[[136.42536,36.35686],[136.42379,36.35468]],[[136.56759,36.52722],[136.57086,36.52845],[136.5739,36.52979],[136.59783,36.54158]],[[136.23339,36.16149],[136.22889,36.13082]],[[136.46314,36.42473],[136.46318,36.42588]],[[136.22858,36.1287],[136.22767,36.12231],[136.2273,36.12072],[136.22292,36.11028]],[[136.42379,36.35468],[136.42216,36.35215],[136.4212,36.3512],[136.42047,36.35062],[136.38844,36.33163],[136.38405,36.32896]],[[136.218,36.03986],[136.21801,36.04068]],[[136.21801,36.04068],[136.21751,36.05112],[136.21756,36.05248],[136.21773,36.05342],[136.21825,36.05477],[136.22181,36.06002]],[[136.31532,36.3011],[136.3131,36.29957]],[[136.60004,36.54268],[136.62002,36.5525]],[[136.19885,35.97264],[136.2058,35.98909],[136.20705,35.99109],[136.21353,36.00018],[136.21411,36.00107],[136.21439,36.00166],[136.21484,36.00311],[136.21635,36.00986]],[[136.46318,36.42588],[136.46312,36.42696],[136.46214,36.43356],[136.45955,36.45026]],[[136.52628,36.50221],[136.52847,36.50366]],[[136.47554,36.4773],[136.47774,36.48068],[136.47849,36.48145],[136.47896,36.48182],[136.48346,36.48446],[136.48449,36.48499],[136.4857,36.48543],[136.48683,36.48564],[136.48842,36.48578]],[[136.28203,36.26006],[136.28197,36.25982],[136.28142,36.25884]],[[136.21635,36.00986],[136.21666,36.01123]],[[136.22889,36.13082],[136.22858,36.1287]],[[136.28142,36.25884],[136.27812,36.25388],[136.27752,36.25309],[136.27618,36.25182],[136.27549,36.25142],[136.27276,36.25047],[136.26912,36.24851],[136.26789,36.24823],[136.26555,36.24808],[136.26467,36.24789],[136.26319,36.24732],[136.26252,36.24698],[136.26124,36.2459],[136.2578,36.24222],[136.2573,36.24154]],[[136.45989,36.4527],[136.46016,36.45328],[136.47424,36.47531]],[[136.47424,36.47531],[136.47554,36.4773]],[[136.62002,36.5525],[136.6223,36.55385]],[[136.25612,36.23971],[136.25421,36.23649],[136.25386,36.23543],[136.25372,36.23448],[136.25332,36.23317],[136.253,36.23265],[136.25226,36.23181],[136.25131,36.23112],[136.23809,36.22395],[136.23727,36.22346],[136.23641,36.22267],[136.23574,36.22179],[136.2354,36.22097],[136.23531,36.22055],[136.23522,36.21677]],[[136.45288,36.40144],[136.45276,36.39932],[136.45262,36.39838],[136.45243,36.39761],[136.45212,36.3968],[136.45152,36.39561],[136.44487,36.38497],[136.44192,36.38053],[136.43584,36.37197],[136.42536,36.35686]],[[136.14163,35.55472],[136.14334,35.5535]],[[136.15329,35.53544],[136.15461,35.53394],[136.1554,35.53331],[136.15611,35.53289],[136.15681,35.53261],[136.15788,35.53232],[136.16032,35.53196],[136.1621,35.53152],[136.16624,35.52906],[136.16748,35.52856],[136.16871,35.52829],[136.17018,35.52828],[136.17218,35.5287],[136.18458,35.53158],[136.1924,35.53349]],[[136.19873,35.7736],[136.1966,35.77591],[136.19624,35.77652],[136.19602,35.7771],[136.19594,35.77803],[136.19605,35.77941],[136.197,35.78353],[136.19684,35.78531],[136.19665,35.78622],[136.19613,35.7877],[136.19533,35.78927],[136.19404,35.79125],[136.19336,35.79252],[136.19215,35.79572],[136.19147,35.7981],[136.19142,35.79916],[136.19154,35.79987],[136.19185,35.80079],[136.19283,35.8029]],[[136.07788,35.64582],[136.08835,35.65075],[136.09,35.65113],[136.09307,35.65136],[136.09439,35.65165],[136.10774,35.65634],[136.11061,35.65774],[136.11275,35.65896],[136.11467,35.6603],[136.11712,35.6624],[136.11916,35.66465],[136.12016,35.666],[136.1226,35.66982],[136.12626,35.67621],[136.15937,35.7325],[136.16526,35.74238],[136.16925,35.74926],[136.17052,35.75125],[136.1717,35.75265],[136.17249,35.75339],[136.1731,35.75385],[136.17409,35.75442],[136.17554,35.75514],[136.17765,35.75605],[136.179,35.75644],[136.18414,35.75732]],[[136.18414,35.75732],[136.18545,35.75761]],[[136.15329,35.53544],[136.15459,35.5344],[136.15577,35.53375],[136.15707,35.53329],[136.15929,35.5328],[136.16143,35.53222],[136.16265,35.5317],[136.16421,35.53065],[136.16621,35.52945],[136.16791,35.52883],[136.16891,35.52867],[136.17058,35.52874],[136.18878,35.53287],[136.19113,35.53335],[136.1924,35.53349]],[[136.09402,35.60344],[136.09575,35.60322],[136.09708,35.6026],[136.09826,35.60155],[136.09882,35.60074],[136.09907,35.60016]],[[136.22213,35.50497],[136.22104,35.50739]],[[136.17162,35.92176],[136.17204,35.92288],[136.1724,35.9235],[136.17292,35.92415],[136.17399,35.92513],[136.17509,35.92567],[136.1788,35.92697],[136.17999,35.92747]],[[136.14745,35.55089],[136.14784,35.55017]],[[136.23724,35.47156],[136.23815,35.46954]],[[136.14334,35.5535],[136.1453,35.55243],[136.14745,35.55089]],[[136.1932,35.80378],[136.19477,35.80736],[136.19523,35.81087],[136.19563,35.81304],[136.19666,35.81485],[136.19774,35.81609],[136.19919,35.81809],[136.19941,35.81862],[136.19977,35.82046],[136.19974,35.82119],[136.19923,35.82442],[136.19901,35.82537],[136.19776,35.8271],[136.19563,35.8298],[136.19424,35.83117]],[[136.19424,35.83117],[136.19283,35.83243]],[[136.07576,35.64393],[136.07511,35.64319],[136.07489,35.64282],[136.07373,35.63991],[136.07403,35.63768],[136.07509,35.63195],[136.07652,35.62669],[136.07699,35.62561],[136.07725,35.62525],[136.07947,35.62329],[136.08205,35.62134],[136.08246,35.62094],[136.08286,35.62034],[136.08321,35.61925],[136.08318,35.61833],[136.08298,35.61776],[136.08261,35.61711],[136.08196,35.61644]],[[136.14784,35.55017],[136.1483,35.54953],[136.14854,35.54904],[136.14935,35.54694],[136.14966,35.54589]],[[136.17117,35.902],[136.17078,35.90463]],[[136.18886,35.9446],[136.18871,35.94815],[136.18896,35.94918],[136.19801,35.97064]],[[136.16575,35.86603],[136.16536,35.86661]],[[136.14941,35.54581],[136.14981,35.54464]],[[136.14334,35.5535],[136.14707,35.55086]],[[136.10092,35.59384],[136.10046,35.59458]],[[136.22104,35.50739],[136.21392,35.52301],[136.2135,35.5241],[136.21268,35.52711],[136.21196,35.52836],[136.20932,35.53083],[136.20749,35.5324],[136.20673,35.53293],[136.2059,35.53337],[136.20462,35.5338],[136.20341,35.53401],[136.20243,35.53406],[136.19945,35.53395]],[[136.15185,35.53837],[136.15092,35.54105]],[[136.17999,35.92747],[136.18124,35.92813],[136.18238,35.9292],[136.18863,35.9382],[136.18894,35.93933],[136.18897,35.94236]],[[136.1997,35.77259],[136.19873,35.7736]],[[136.14707,35.55086],[136.14794,35.54951],[136.14837,35.54798],[136.14877,35.54697],[136.14941,35.54581]],[[136.09402,35.60344],[136.09282,35.60345],[136.09041,35.60363],[136.08918,35.6039],[136.08857,35.60415],[136.08741,35.60492],[136.08395,35.60764],[136.08324,35.60847],[136.08268,35.60951],[136.08251,35.61016],[136.08219,35.61248],[136.08185,35.61348],[136.07941,35.61636],[136.0785,35.61951],[136.07776,35.62052],[136.0773,35.62088],[136.07629,35.62136],[136.07513,35.62156],[136.07355,35.62139],[136.07287,35.62123],[136.07187,35.62076],[136.07101,35.6201],[136.07051,35.6194],[136.07027,35.61883],[136.07013,35.6181],[136.07012,35.61746],[136.07017,35.61693],[136.07045,35.61605],[136.07072,35.61566],[136.0715,35.61494],[136.07266,35.61431],[136.07437,35.61396],[136.07601,35.61399],[136.07706,35.61419],[136.07792,35.61445],[136.08019,35.61539]],[[136.14707,35.55086],[136.14784,35.55017]],[[136.13988,35.55565],[136.14163,35.55472]],[[136.15092,35.54105],[136.15023,35.54291],[136.14995,35.54385],[136.14981,35.54464]],[[136.10046,35.59458],[136.10019,35.59538],[136.09907,35.60016]],[[136.22213,35.50497],[136.23724,35.47156]],[[136.14784,35.55017],[136.14923,35.54664],[136.14941,35.54581]],[[136.07518,35.64361],[136.07454,35.64262],[136.07334,35.63968],[136.07313,35.63851],[136.07313,35.63788],[136.07356,35.63458],[136.07511,35.6307]],[[136.07511,35.6307],[136.07623,35.62667],[136.0765,35.62594],[136.07688,35.62532],[136.07925,35.62319],[136.07977,35.6226],[136.08005,35.62207],[136.08196,35.61644]],[[136.14163,35.55472],[136.14393,35.55361],[136.14491,35.55322],[136.14586,35.55269],[136.14627,35.55231],[136.14745,35.55089]],[[136.14966,35.54589],[136.14981,35.54464]],[[136.08196,35.61644],[136.08361,35.61167],[136.08381,35.61117],[136.08438,35.61033],[136.08476,35.60998],[136.08681,35.60858],[136.0872,35.60824],[136.08747,35.60794],[136.08874,35.606],[136.08959,35.60523],[136.09075,35.6046],[136.09402,35.60344]],[[136.0779,35.64578],[136.0768,35.64499],[136.07576,35.64393]],[[136.13988,35.55565],[136.13909,35.55604],[136.13831,35.5566],[136.128,35.56677],[136.11637,35.57796],[136.10184,35.59235],[136.10126,35.59314],[136.10092,35.59384]],[[136.10092,35.59384],[136.10216,35.59253],[136.12025,35.5748],[136.12432,35.57097],[136.13988,35.55565]],[[136.08019,35.61539],[136.08113,35.61587],[136.08196,35.61644]],[[136.18886,35.9446],[136.18897,35.94236]],[[136.09402,35.60344],[136.09588,35.6028],[136.09691,35.60225],[136.098,35.60137],[136.09907,35.60016]],[[136.15185,35.53837],[136.15234,35.53692]],[[136.15234,35.53692],[136.15329,35.53544]],[[136.19283,35.83243],[136.18225,35.84181],[136.18139,35.84271],[136.16575,35.86603]],[[136.17078,35.90463],[136.17044,35.90734],[136.17045,35.90904],[136.17123,35.91755],[136.17151,35.91979],[136.17162,35.92176]],[[136.17162,35.92176],[136.17166,35.92318],[136.17186,35.92377],[136.17243,35.92465],[136.17353,35.92559],[136.17434,35.92593],[136.17999,35.92747]],[[136.19283,35.8029],[136.1932,35.80378]],[[136.19945,35.53395],[136.19602,35.53377]],[[136.14745,35.55089],[136.14836,35.54989],[136.14884,35.54903],[136.14934,35.54759],[136.14966,35.54589]],[[136.19602,35.53377],[136.1924,35.53349]],[[136.18545,35.75761],[136.18674,35.758],[136.18971,35.75925],[136.19234,35.76084],[136.20004,35.76522],[136.20108,35.76654],[136.20129,35.76695],[136.2015,35.76852],[136.20149,35.76916],[136.20134,35.77011],[136.20107,35.77088],[136.20076,35.7714],[136.1997,35.77259]],[[136.07518,35.64361],[136.07681,35.64516],[136.07788,35.64582]],[[136.16536,35.86661],[136.16372,35.86916],[136.1631,35.87051],[136.16291,35.87132],[136.16288,35.87185],[136.16297,35.87333],[136.16526,35.88455],[136.16571,35.88633],[136.17109,35.89909],[136.17134,35.90045],[136.17117,35.902]],[[136.28993,35.315],[136.28908,35.31274]],[[136.29179,35.3209],[136.29103,35.31759],[136.29063,35.31649],[136.28993,35.315]],[[136.26563,35.37759],[136.26435,35.37962]],[[136.28176,35.35673],[136.28019,35.362],[136.27959,35.3635],[136.27834,35.36551],[136.27671,35.36733],[136.27145,35.37227],[136.27087,35.37275],[136.26999,35.37331],[136.26756,35.3747],[136.26736,35.3749],[136.26563,35.37759]],[[136.25759,35.42391],[136.25719,35.4252]],[[136.282,35.35589],[136.28176,35.35673]],[[136.24963,35.44811],[136.25719,35.4252]],[[136.24939,35.44876],[136.24728,35.45576],[136.24651,35.45706],[136.24565,35.45805],[136.24267,35.46026],[136.24209,35.46096],[136.23815,35.46954]],[[136.24963,35.44811],[136.24939,35.44876]],[[136.29061,35.31579],[136.29143,35.3176],[136.29153,35.31815]],[[136.29153,35.31815],[136.29179,35.3209]],[[136.29179,35.3209],[136.29175,35.32217],[136.28777,35.33581]],[[136.28759,35.33644],[136.282,35.35589]],[[136.26435,35.37962],[136.26393,35.38056],[136.26363,35.3821],[136.26096,35.41337],[136.25861,35.42049],[136.25759,35.42391]],[[136.28777,35.33581],[136.28759,35.33644]],[[136.28984,35.31389],[136.29061,35.31579]]]}}