{"type":"Feature","properties":{"id":"西日本旅客鉄道_JR東西線","name":"JR東西線","operator":"西日本旅客鉄道","railType":"普通鉄道(JR)","operatorType":"JR在来線","category":"rail","attribution":"国土数値情報（鉄道データ）国土交通省"},"geometry":{"type":"MultiLineString","coordinates":[[[135.51768,34.69711],[135.51891,34.69712],[135.52055,34.69752],[135.52161,34.6975],[135.52215,34.69735],[135.52305,34.69686],[135.52377,34.69619],[135.52479,34.69504]],[[135.53334,34.69581],[135.53483,34.69624]],[[135.4724,34.69613],[135.47354,34.69516]],[[135.49828,34.69831],[135.50108,34.69816]],[[135.49584,34.69843],[135.49828,34.69831]],[[135.45442,34.72741],[135.4552,34.72692],[135.45564,34.7265],[135.45587,34.72611],[135.45605,34.72523],[135.45565,34.72195],[135.45556,34.71778],[135.4556,34.7137]],[[135.45562,34.71169],[135.45577,34.71063],[135.45612,34.71019],[135.4623,34.70662],[135.46293,34.70616],[135.46443,34.70453],[135.46882,34.69941],[135.47101,34.69726],[135.4724,34.69613]],[[135.4556,34.7137],[135.45562,34.71169]],[[135.48647,34.69522],[135.49401,34.6981],[135.49495,34.6984],[135.49584,34.69843]],[[135.51437,34.69734],[135.51768,34.69711]],[[135.51232,34.69749],[135.51437,34.69734]],[[135.50108,34.69816],[135.51232,34.69749]],[[135.43066,34.73204],[135.4329,34.73167]],[[135.4329,34.73167],[135.44812,34.72886]],[[135.44812,34.72886],[135.45007,34.7287],[135.45272,34.72806]],[[135.45272,34.72806],[135.45385,34.72769],[135.45442,34.72741]],[[135.47354,34.69516],[135.47423,34.6947],[135.47512,34.6943],[135.47613,34.69409],[135.4778,34.69394],[135.48212,34.6938],[135.48308,34.694],[135.48464,34.69454]],[[135.52479,34.69504],[135.5259,34.69406]],[[135.48464,34.69454],[135.48647,34.69522]],[[135.5259,34.69406],[135.52652,34.69387],[135.52704,34.69382],[135.52812,34.69389],[135.52866,34.69405],[135.53128,34.69516],[135.53334,34.69581]]]}}