{"type":"Feature","properties":{"id":"西日本鉄道_貝塚線","name":"貝塚線","operator":"西日本鉄道","railType":"普通鉄道","operatorType":"民営","category":"rail","attribution":"国土数値情報（鉄道データ）国土交通省"},"geometry":{"type":"MultiLineString","coordinates":[[[130.43132,33.64234],[130.43069,33.64205],[130.43016,33.6417],[130.42875,33.6403],[130.42628,33.63806],[130.42559,33.63722],[130.42547,33.63692],[130.42543,33.63628],[130.42573,33.63302]],[[130.44273,33.65546],[130.4425,33.65479]],[[130.42253,33.70302],[130.42254,33.70234]],[[130.43642,33.71379],[130.4308,33.71088],[130.42837,33.71004],[130.42492,33.70909],[130.42397,33.70864],[130.42316,33.70785],[130.42292,33.70751],[130.42267,33.7069],[130.42254,33.70495],[130.42253,33.70302]],[[130.44126,33.66046],[130.44155,33.65984]],[[130.43985,33.64882],[130.44096,33.65019]],[[130.43454,33.66945],[130.4346,33.66887],[130.43478,33.6683],[130.43497,33.66777],[130.43524,33.66732],[130.43561,33.66691],[130.43748,33.6655],[130.43866,33.66447],[130.43992,33.66276],[130.44126,33.66046]],[[130.43985,33.64882],[130.43753,33.64598],[130.43649,33.64505],[130.43511,33.64418],[130.43207,33.64269]],[[130.43132,33.64234],[130.43207,33.64269]],[[130.42989,33.6882],[130.43278,33.68535],[130.43328,33.68472],[130.43437,33.68073]],[[130.43437,33.68073],[130.43458,33.68002]],[[130.43458,33.68002],[130.43511,33.67784],[130.43523,33.6769],[130.43523,33.67623],[130.43466,33.67064]],[[130.44155,33.65984],[130.44239,33.65743],[130.44273,33.656],[130.44273,33.65546]],[[130.4425,33.65479],[130.4422,33.65294],[130.44176,33.65147],[130.44149,33.65088],[130.44096,33.65019]],[[130.42254,33.70234],[130.42262,33.69772],[130.4227,33.69685],[130.42286,33.69602],[130.42337,33.69486],[130.42494,33.69254],[130.4259,33.69127],[130.42644,33.6909],[130.42795,33.69016],[130.42944,33.6887]],[[130.42944,33.6887],[130.42989,33.6882]],[[130.43708,33.71414],[130.43642,33.71379]],[[130.43466,33.67064],[130.43454,33.66945]],[[130.42573,33.63302],[130.42568,33.63237],[130.42536,33.63072]]]}}