{"type":"Feature","properties":{"id":"西日本旅客鉄道_山陽線","name":"山陽線","operator":"西日本旅客鉄道","railType":"普通鉄道(JR)","operatorType":"JR在来線","category":"rail","attribution":"国土数値情報（鉄道データ）国土交通省"},"geometry":{"type":"MultiLineString","coordinates":[[[135.12595,34.64681],[135.12301,34.64511],[135.1209,34.64409],[135.11961,34.64357],[135.11871,34.64333],[135.1141,34.64253]],[[134.81368,34.78421],[134.81069,34.78534]],[[134.73416,34.81775],[134.73237,34.8188],[134.72765,34.82133],[134.72611,34.82211],[134.72509,34.8225],[134.72263,34.82299],[134.71292,34.8243]],[[135.17309,34.65778],[135.16124,34.66277],[135.16059,34.66325],[135.16027,34.66376],[135.16015,34.66416],[135.16024,34.66497],[135.1604,34.66527],[135.16135,34.66606],[135.16373,34.66739]],[[134.88964,34.71925],[134.8884,34.72139]],[[134.86995,34.74495],[134.8686,34.74642]],[[135.17442,34.65722],[135.17309,34.65778]],[[135.05475,34.62916],[135.05296,34.62902]],[[135.11121,34.642],[135.10907,34.64157],[135.10693,34.64074],[135.10456,34.63945],[135.102,34.63745],[135.10117,34.63706],[135.09909,34.63633],[135.0965,34.6356],[135.09146,34.63458],[135.08772,34.63407],[135.08412,34.63388]],[[135.1635,34.66746],[135.15645,34.6636],[135.14804,34.65922],[135.14655,34.65825]],[[134.75191,34.80626],[134.75404,34.80486]],[[135.14655,34.65825],[135.1448,34.65727]],[[134.75191,34.80626],[134.7365,34.81626]],[[135.17838,34.68057],[135.17806,34.67787]],[[134.95972,34.6662],[134.95821,34.66736],[134.95734,34.66818],[134.95632,34.66936]],[[134.84042,34.76665],[134.83861,34.76846]],[[135.17806,34.67787],[135.17781,34.67699],[135.17733,34.67614],[135.17689,34.67559],[135.17619,34.67499],[135.16887,34.6709],[135.16575,34.6687]],[[135.03368,34.63368],[135.03129,34.63582],[135.02954,34.63783],[135.02863,34.6386],[135.02785,34.6391],[135.02643,34.63983],[135.02174,34.64249],[135.02051,34.64308],[135.01819,34.64402]],[[134.99081,34.6493],[134.99004,34.6494],[134.98466,34.65073],[134.98294,34.65125],[134.98197,34.65174],[134.97099,34.65849]],[[134.9608,34.66547],[134.95972,34.6662]],[[134.69286,34.82649],[134.68865,34.82698]],[[134.76893,34.79372],[134.76784,34.79454],[134.76302,34.79894],[134.76148,34.80002],[134.75404,34.80486]],[[135.16477,34.668],[135.16373,34.66739]],[[134.9608,34.66547],[134.96291,34.6641],[134.96955,34.65939],[134.97099,34.65849]],[[134.99456,34.64888],[134.99081,34.6493]],[[135.03479,34.63281],[135.03368,34.63368]],[[134.9381,34.68278],[134.93483,34.68506],[134.93326,34.68588],[134.91851,34.69024],[134.91386,34.69123],[134.91154,34.69188],[134.90988,34.6928],[134.90701,34.69554]],[[135.01819,34.64402],[135.01677,34.64446]],[[135.08412,34.63388],[135.08262,34.63357]],[[135.13682,34.65257],[135.13431,34.65113]],[[134.646,34.81393],[134.64355,34.8128]],[[134.8884,34.72139],[134.88396,34.7292],[134.88331,34.73017],[134.88183,34.73191],[134.86995,34.74495]],[[134.90701,34.69554],[134.90521,34.69734]],[[135.1141,34.64253],[135.11121,34.642]],[[134.8686,34.74642],[134.86705,34.74806],[134.86506,34.74972],[134.86164,34.75237],[134.85574,34.75665],[134.84287,34.76462],[134.84181,34.76541],[134.84042,34.76665]],[[135.16575,34.6687],[135.1635,34.66746]],[[134.95632,34.66936],[134.95831,34.66757],[134.95958,34.66654],[134.96101,34.66554],[134.96291,34.66436],[134.96535,34.66303],[134.96643,34.66233],[134.97099,34.65849]],[[134.77086,34.79287],[134.76962,34.79335],[134.76893,34.79372]],[[135.05296,34.62902],[135.04633,34.62849],[135.04408,34.62854],[135.04209,34.62881],[135.04069,34.62917],[135.03886,34.62991],[135.03479,34.63281]],[[134.68865,34.82698],[134.68643,34.82731],[134.68565,34.82735],[134.68441,34.8273],[134.68327,34.82707],[134.67631,34.82493],[134.65545,34.81809],[134.65154,34.81652],[134.646,34.81393]],[[134.90521,34.69734],[134.89903,34.70349],[134.8983,34.70434],[134.88964,34.71925]],[[135.1448,34.65727],[135.14252,34.65622],[135.13855,34.65382],[135.13682,34.65257]],[[134.94025,34.68119],[134.95632,34.66936]],[[134.81069,34.78534],[134.79547,34.79106],[134.79393,34.7915],[134.7914,34.79183],[134.77357,34.79258],[134.77086,34.79287]],[[135.08262,34.63357],[135.08074,34.63299],[135.07512,34.63163],[135.07267,34.63088],[135.06639,34.62952],[135.06227,34.62895],[135.05991,34.62891],[135.05704,34.62916],[135.05475,34.62916]],[[135.01677,34.64446],[135.01513,34.64488],[135.01302,34.6453],[135.00809,34.6469],[135.00579,34.64736],[134.99723,34.64839],[134.99456,34.64888]],[[134.7365,34.81626],[134.73416,34.81775]],[[134.83861,34.76846],[134.83064,34.77639],[134.82911,34.77781],[134.82843,34.77832],[134.82721,34.779],[134.82581,34.77962],[134.81368,34.78421]],[[134.94025,34.68119],[134.9381,34.68278]],[[134.55932,34.819],[134.564,34.81736],[134.57408,34.81577],[134.57702,34.81571],[134.57919,34.81555]],[[134.27967,34.8083],[134.28135,34.80931],[134.28294,34.80999],[134.28471,34.81088],[134.28545,34.81139],[134.28608,34.81195],[134.28787,34.81386],[134.2925,34.81958],[134.29368,34.82093],[134.29663,34.82473],[134.29725,34.82544],[134.29869,34.82679]],[[134.3942,34.82929],[134.39211,34.82993],[134.38844,34.83134],[134.38713,34.83217],[134.38647,34.8328],[134.38594,34.8335],[134.38533,34.83496],[134.38499,34.83656],[134.38412,34.84266],[134.38404,34.84491],[134.38374,34.84615],[134.37901,34.85829],[134.37821,34.85965],[134.37704,34.86092],[134.37591,34.86178],[134.37488,34.86236],[134.37387,34.86277],[134.37229,34.86317],[134.37069,34.86339],[134.36683,34.86358],[134.35987,34.86336],[134.35923,34.86345],[134.35804,34.86377],[134.3547,34.86552]],[[134.58354,34.81453],[134.57919,34.81555]],[[134.20587,34.81218],[134.20296,34.81231]],[[134.02023,34.69909],[134.02106,34.69953]],[[134.1518,34.79659],[134.15386,34.79794]],[[134.29869,34.82679],[134.3002,34.82788],[134.30443,34.83007],[134.30521,34.83055],[134.3062,34.83133],[134.30683,34.832],[134.30718,34.83256],[134.30747,34.83315],[134.30813,34.83514],[134.3091,34.83655],[134.31516,34.84319],[134.31572,34.8437],[134.31656,34.84422],[134.31974,34.84552],[134.32049,34.84616],[134.32097,34.84679],[134.32124,34.84758],[134.32129,34.84881],[134.3201,34.85291],[134.31934,34.85441],[134.31787,34.85645],[134.31752,34.85706],[134.31725,34.85769],[134.31713,34.85835],[134.31723,34.85895],[134.31866,34.86414],[134.31974,34.86996],[134.32035,34.87112],[134.32091,34.87192],[134.32157,34.87272],[134.32213,34.87322],[134.32291,34.87372],[134.32433,34.87421],[134.32568,34.87419],[134.32678,34.87392],[134.32786,34.87338],[134.32886,34.87275],[134.33693,34.86676],[134.3388,34.86598],[134.33978,34.8658],[134.34171,34.86575],[134.34404,34.86602],[134.34894,34.86686]],[[134.34894,34.86686],[134.35029,34.86682],[134.35235,34.86648]],[[134.52265,34.82555],[134.53477,34.82704],[134.53575,34.82707],[134.53692,34.82695],[134.53791,34.82663],[134.54831,34.82143],[134.55055,34.8205],[134.55165,34.82025],[134.55932,34.819]],[[134.27967,34.8083],[134.28128,34.80963],[134.28276,34.81107],[134.29672,34.82514],[134.2974,34.8258],[134.29869,34.82679]],[[134.02106,34.69953],[134.02439,34.70127],[134.02894,34.70259],[134.02967,34.70285],[134.03085,34.70342],[134.03188,34.70413],[134.03313,34.70526],[134.03418,34.70637],[134.03534,34.70786],[134.03588,34.70895],[134.0362,34.71051],[134.03636,34.72385],[134.03651,34.72522],[134.03677,34.72597],[134.03706,34.7265],[134.03766,34.72735],[134.03889,34.7287],[134.03961,34.72967],[134.04135,34.73339]],[[134.27571,34.80429],[134.27389,34.80229],[134.27342,34.80187],[134.27238,34.80117],[134.27146,34.80074],[134.27104,34.80063],[134.27034,34.80051],[134.26933,34.80048],[134.26869,34.80056],[134.26781,34.80082],[134.2654,34.80201],[134.26285,34.80285],[134.26141,34.80346],[134.25997,34.80419],[134.25604,34.80656],[134.25532,34.8068],[134.25316,34.80715],[134.25216,34.80743],[134.24475,34.81009],[134.24332,34.81047],[134.24219,34.8106],[134.24109,34.81057],[134.23971,34.81022],[134.23755,34.80947],[134.2365,34.80924],[134.23569,34.80917],[134.23464,34.80919],[134.23056,34.80963],[134.22864,34.80976],[134.22426,34.80963],[134.22281,34.80984],[134.21399,34.81177],[134.21171,34.81198],[134.20587,34.81218]],[[134.08184,34.75904],[134.08448,34.76063],[134.0855,34.76114],[134.0873,34.76171],[134.09213,34.76276],[134.09346,34.76335],[134.09447,34.76406],[134.09506,34.76467],[134.09576,34.76564],[134.09992,34.77261],[134.10039,34.77321],[134.10118,34.77402],[134.1019,34.7746],[134.10617,34.77764],[134.10713,34.77847],[134.10744,34.77883],[134.10867,34.78091],[134.10923,34.78247]],[[134.58598,34.81396],[134.58354,34.81453]],[[134.52265,34.82555],[134.52127,34.82537]],[[134.55932,34.819],[134.57533,34.8164],[134.57919,34.81555]],[[134.15386,34.79794],[134.16483,34.80534],[134.16998,34.80925],[134.17121,34.81],[134.17283,34.81066],[134.18001,34.81243],[134.18544,34.81367],[134.18702,34.81395],[134.18799,34.81403],[134.18959,34.81398],[134.19145,34.81377],[134.19896,34.81269],[134.20296,34.81231]],[[134.52127,34.82537],[134.5189,34.82506],[134.50322,34.82078],[134.50114,34.82034],[134.50031,34.82026],[134.48929,34.81996],[134.48821,34.81979],[134.48066,34.81802],[134.479,34.8178],[134.47571,34.81786]],[[134.04245,34.73577],[134.04336,34.73724],[134.04455,34.73849],[134.04559,34.73942],[134.05471,34.74568],[134.07036,34.75323],[134.07598,34.75581],[134.07926,34.75746]],[[134.39734,34.82944],[134.39537,34.8292],[134.3942,34.82929]],[[134.10967,34.78471],[134.11001,34.78611],[134.11046,34.78726],[134.11075,34.78771],[134.11151,34.7885],[134.11227,34.78903],[134.1135,34.78963],[134.11607,34.79074],[134.11764,34.79124],[134.11884,34.7915],[134.12048,34.79164],[134.12532,34.79146],[134.12634,34.79154],[134.12922,34.79208],[134.1321,34.79204],[134.13404,34.79218],[134.13917,34.79319],[134.14198,34.79357],[134.14696,34.79469],[134.14988,34.79563],[134.1518,34.79659]],[[134.35235,34.86648],[134.35353,34.86609],[134.3547,34.86552]],[[134.04135,34.73339],[134.04245,34.73577]],[[134.27689,34.8057],[134.27852,34.80737],[134.27967,34.8083]],[[134.10923,34.78247],[134.10967,34.78471]],[[134.07926,34.75746],[134.08184,34.75904]],[[134.64355,34.8128],[134.64044,34.81135],[134.63873,34.81089],[134.61566,34.81019]],[[134.47023,34.81816],[134.46922,34.81823],[134.46814,34.81844],[134.46719,34.81888],[134.46593,34.81974],[134.46178,34.82313],[134.46037,34.82382],[134.45906,34.82422],[134.42341,34.83078],[134.41654,34.83194],[134.4133,34.83237],[134.41223,34.83243],[134.41136,34.83236],[134.39734,34.82944]],[[134.27571,34.80429],[134.27689,34.8057]],[[134.47023,34.81816],[134.47155,34.8181]],[[134.47571,34.81786],[134.47155,34.8181]],[[133.92239,34.67488],[133.91978,34.66939]],[[133.91922,34.66836],[133.91744,34.66556]],[[133.91978,34.66939],[133.91922,34.66836]],[[133.95868,34.68303],[133.95669,34.68286]],[[133.99335,34.68614],[133.99447,34.68629],[133.99571,34.68657],[133.99733,34.6872],[134.00554,34.69138],[134.02023,34.69909]],[[133.9884,34.68571],[133.99335,34.68614]],[[133.93926,34.67927],[133.94282,34.68037],[133.94599,34.68155],[133.94697,34.68183],[133.94798,34.68203],[133.94942,34.68219],[133.95669,34.68286]],[[133.95868,34.68303],[133.98599,34.68548]],[[133.98599,34.68548],[133.9884,34.68571]],[[133.91744,34.66556],[133.91697,34.66495],[133.91605,34.66399],[133.91513,34.66322],[133.91448,34.66279],[133.9125,34.66178],[133.90947,34.66058]],[[133.76653,34.60246],[133.76449,34.60097]],[[133.77703,34.60998],[133.78616,34.61667]],[[133.62001,34.54074],[133.62199,34.54125]],[[133.2334,34.43532],[133.23591,34.43874],[133.23708,34.43982],[133.23776,34.44029],[133.23897,34.44092],[133.25179,34.44663],[133.2533,34.4476],[133.25599,34.44966],[133.25767,34.45045]],[[133.58672,34.52676],[133.58868,34.52771]],[[133.54964,34.50733],[133.55146,34.50819]],[[133.43892,34.49853],[133.43635,34.49974],[133.43357,34.50179],[133.43214,34.50265],[133.43103,34.503],[133.42941,34.5031],[133.42813,34.50282],[133.42722,34.50237],[133.42581,34.50131],[133.42325,34.4992],[133.42211,34.49867],[133.42052,34.49819],[133.41809,34.49764],[133.40788,34.49552]],[[133.40788,34.49552],[133.40521,34.49502]],[[133.3541,34.48867],[133.34633,34.48837],[133.34109,34.4874],[133.33823,34.48661],[133.32535,34.4838],[133.32417,34.48343],[133.32324,34.48297],[133.31079,34.47471],[133.3086,34.47365],[133.30722,34.47289]],[[133.30722,34.47289],[133.30483,34.47151]],[[133.88554,34.65317],[133.8844,34.6527]],[[133.77323,34.60721],[133.77703,34.60998]],[[133.6799,34.56561],[133.67775,34.56421]],[[133.50368,34.50524],[133.50543,34.50436]],[[133.76662,34.60237],[133.76458,34.60086]],[[133.44153,34.49809],[133.443,34.49834],[133.44459,34.49879],[133.44801,34.49986],[133.44933,34.50044],[133.45114,34.50167],[133.45402,34.50324],[133.46391,34.50811],[133.46496,34.50873],[133.46601,34.50943],[133.46724,34.51039],[133.47177,34.51443],[133.47304,34.51524],[133.47491,34.51618],[133.47728,34.51673],[133.48017,34.51702],[133.48108,34.517],[133.48208,34.51691],[133.48342,34.51658],[133.48418,34.51622],[133.48715,34.51409],[133.48774,34.5138],[133.48866,34.51342],[133.49206,34.51285],[133.49311,34.5125],[133.4942,34.51187],[133.49874,34.50798],[133.4995,34.50743],[133.50368,34.50524]],[[133.26017,34.45148],[133.25767,34.45045]],[[133.8096,34.62694],[133.80679,34.62597]],[[133.72668,34.58519],[133.72185,34.5829],[133.72054,34.58247],[133.71949,34.58227],[133.71844,34.58219],[133.717,34.58225],[133.70948,34.58316],[133.70837,34.58321],[133.70628,34.58305],[133.70497,34.58266],[133.70337,34.58185],[133.70191,34.58086],[133.69223,34.57419],[133.68626,34.5697],[133.6799,34.56561]],[[133.80679,34.62597],[133.79318,34.6214],[133.79255,34.62113],[133.7916,34.62063],[133.78616,34.61667]],[[133.76458,34.60086],[133.75899,34.5968],[133.75114,34.59318],[133.73963,34.5908],[133.73756,34.59025],[133.73623,34.58976],[133.72916,34.58639]],[[133.58868,34.52771],[133.59262,34.52972],[133.59337,34.53028],[133.5939,34.53077],[133.59428,34.53125],[133.59564,34.53355],[133.59605,34.53403],[133.59725,34.535],[133.59798,34.53537],[133.60012,34.53612],[133.62001,34.54074]],[[133.77323,34.60721],[133.77422,34.60822],[133.77616,34.60963],[133.77703,34.60998]],[[133.62199,34.54125],[133.62662,34.54233],[133.62751,34.54246],[133.62929,34.54246],[133.63982,34.54135],[133.64131,34.54145],[133.64231,34.54175],[133.64341,34.54225],[133.64421,34.54273],[133.67775,34.56421]],[[133.72916,34.58639],[133.72668,34.58519]],[[133.30483,34.47151],[133.29927,34.46835],[133.29233,34.46465],[133.28624,34.46208],[133.27703,34.45882],[133.26659,34.45413],[133.26017,34.45148]],[[133.76653,34.60246],[133.76673,34.60261],[133.76724,34.60279]],[[133.77703,34.60998],[133.77769,34.61018],[133.77797,34.61035],[133.78379,34.61459],[133.78544,34.61585],[133.78616,34.61667]],[[133.55146,34.50819],[133.55594,34.50987],[133.55708,34.51037],[133.57044,34.51874],[133.58672,34.52676]],[[133.37239,34.49158],[133.36356,34.48958]],[[133.76788,34.60328],[133.77323,34.60721]],[[133.76724,34.60279],[133.76788,34.60328]],[[133.44153,34.49809],[133.44044,34.49813],[133.43892,34.49853]],[[133.76662,34.60237],[133.76724,34.60279]],[[133.85562,34.64326],[133.85317,34.64237]],[[133.88554,34.65317],[133.89096,34.65428],[133.89563,34.65602],[133.90206,34.65769],[133.90947,34.66058]],[[133.50543,34.50436],[133.50639,34.50388],[133.50793,34.50296],[133.5085,34.50249],[133.50988,34.50101],[133.51088,34.50047],[133.51125,34.50036],[133.51241,34.50014],[133.51318,34.50008],[133.52195,34.49958],[133.52431,34.49957],[133.52526,34.49969],[133.53046,34.50089],[133.53352,34.50119],[133.53459,34.50148],[133.53562,34.50206],[133.53862,34.50507],[133.53935,34.5055],[133.54032,34.50583],[133.54114,34.50597],[133.54522,34.50579],[133.54631,34.50589],[133.54708,34.50612],[133.54964,34.50733]],[[133.85317,34.64237],[133.848,34.64049],[133.84691,34.63981],[133.84458,34.63802],[133.84392,34.63761],[133.84274,34.63708],[133.83248,34.63431],[133.82811,34.63305],[133.82373,34.63166],[133.8096,34.62694]],[[132.68676,34.44512],[132.68727,34.44502],[132.68795,34.44509],[132.68843,34.44524],[132.68916,34.44557],[132.68962,34.44594],[132.68996,34.4463],[132.69,34.44652]],[[132.59774,34.42198],[132.60219,34.42196],[132.60331,34.42209],[132.60595,34.4226],[132.60982,34.42284],[132.61304,34.42274],[132.61405,34.423],[132.61797,34.42506],[132.61973,34.42607],[132.62025,34.4265],[132.62196,34.42834],[132.62247,34.42872],[132.62326,34.42916],[132.62669,34.43059],[132.62712,34.43085],[132.62919,34.43242],[132.63196,34.43483],[132.63297,34.43549],[132.63406,34.43595],[132.6351,34.43602],[132.63685,34.43599],[132.63801,34.43627],[132.63981,34.43689],[132.64066,34.43693],[132.64146,34.43673],[132.64223,34.43637],[132.64441,34.43472],[132.64533,34.4343],[132.64728,34.43406],[132.64808,34.43406],[132.64942,34.43429],[132.64996,34.43454],[132.6507,34.4352],[132.65099,34.43562],[132.65127,34.43638],[132.65129,34.43732],[132.65051,34.4389],[132.6504,34.43944],[132.65041,34.44036],[132.65123,34.44202],[132.65158,34.44253],[132.65221,34.44315],[132.65316,34.44354],[132.65464,34.44395],[132.6577,34.44389],[132.65808,34.44395],[132.65876,34.44421],[132.6597,34.44497],[132.66082,34.44692],[132.66123,34.44736],[132.66164,34.44765],[132.66274,34.44814],[132.66499,34.44839],[132.66601,34.44868],[132.66647,34.44901],[132.66681,34.44937],[132.66816,34.45103],[132.66876,34.45142],[132.66935,34.45156],[132.67117,34.45159]],[[132.74545,34.43167],[132.74249,34.43111]],[[133.08457,34.40058],[133.08143,34.40061]],[[133.10381,34.39221],[133.10146,34.39308],[133.10019,34.39367],[133.09845,34.39467],[133.09768,34.39525],[133.09702,34.39587],[133.09515,34.3982],[133.09464,34.39872],[133.09194,34.40023],[133.09107,34.40046],[133.09018,34.40056],[133.08457,34.40058]],[[133.19147,34.40438],[133.19305,34.40481],[133.19445,34.40536]],[[132.85052,34.46029],[132.84967,34.45986],[132.84912,34.45942],[132.8487,34.45889],[132.84848,34.45831],[132.84839,34.45775],[132.84851,34.45699],[132.84877,34.45647],[132.84946,34.4557],[132.85005,34.45524],[132.85044,34.45508],[132.85406,34.45435],[132.85493,34.45397],[132.85525,34.45375],[132.85585,34.453],[132.85608,34.45248],[132.85618,34.45179],[132.85597,34.45096],[132.85566,34.45041],[132.85542,34.45015],[132.85489,34.44968],[132.85269,34.44839],[132.85124,34.44719],[132.85057,34.44651],[132.85018,34.44569],[132.84978,34.44452],[132.84906,34.44343],[132.84844,34.44288],[132.84657,34.44188],[132.8449,34.44162],[132.84341,34.44173],[132.84052,34.44268],[132.8396,34.44286],[132.83525,34.44265],[132.83352,34.44275]],[[132.69,34.44652],[132.6914,34.44771],[132.69228,34.44826],[132.69375,34.44874],[132.69472,34.44884],[132.69553,34.44883],[132.71056,34.44701],[132.71155,34.447],[132.71282,34.44716],[132.71433,34.44724],[132.71521,34.44722],[132.71635,34.44685],[132.71748,34.44607],[132.72215,34.44017]],[[132.57898,34.40408],[132.57912,34.40463],[132.5793,34.40495],[132.58081,34.40688],[132.5813,34.40829],[132.58164,34.40893],[132.58536,34.41502],[132.5859,34.41568],[132.58844,34.41707],[132.58888,34.41739],[132.58967,34.41847],[132.59022,34.41991],[132.59084,34.42099],[132.59159,34.42161],[132.59258,34.42199],[132.5937,34.4221],[132.59575,34.42204]],[[133.2334,34.43532],[133.233,34.43474]],[[133.1064,34.39128],[133.10381,34.39221]],[[132.56433,34.39191],[132.56523,34.39273],[132.56596,34.39359],[132.56728,34.3946],[132.57557,34.39824],[132.5767,34.39887],[132.5771,34.3992],[132.57763,34.39989],[132.57802,34.4009],[132.57851,34.40253]],[[132.85289,34.46134],[132.85052,34.46029]],[[132.85289,34.46134],[132.85347,34.46178],[132.85396,34.46229],[132.8543,34.46293],[132.85491,34.46473],[132.85552,34.46561],[132.85609,34.4662],[132.85746,34.46735],[132.86087,34.46962],[132.86126,34.46999],[132.86268,34.47201],[132.86368,34.47309],[132.86467,34.47371],[132.86595,34.47414],[132.86708,34.47425],[132.8683,34.4741],[132.86933,34.4737],[132.8712,34.4728],[132.87223,34.47255],[132.87362,34.47253],[132.87677,34.47288],[132.8782,34.47264],[132.88072,34.47172],[132.88362,34.47171],[132.88473,34.4716],[132.88601,34.47112],[132.88782,34.4702]],[[132.57851,34.40253],[132.57898,34.40408]],[[132.74545,34.43167],[132.74836,34.43226],[132.75104,34.43298],[132.75452,34.43441],[132.7639,34.43853],[132.77403,34.44169],[132.77915,34.44337],[132.78007,34.44381],[132.7806,34.44418],[132.78244,34.44621],[132.78292,34.44655],[132.7835,34.4468],[132.78448,34.44699],[132.78519,34.44698],[132.78693,34.44657]],[[132.67117,34.45159],[132.67199,34.45161],[132.67371,34.45121],[132.67435,34.45091],[132.67512,34.45032]],[[132.83352,34.44275],[132.83235,34.44305],[132.8315,34.44342],[132.83087,34.44383]],[[132.88782,34.4702],[132.89045,34.46891]],[[132.78951,34.44588],[132.78693,34.44657]],[[132.68972,34.44628],[132.69,34.44652]],[[132.68734,34.44516],[132.68676,34.44512]],[[132.9863,34.41003],[132.98337,34.41103],[132.98246,34.41143],[132.98176,34.41205],[132.98143,34.41261],[132.98093,34.41427],[132.98023,34.41789],[132.98022,34.41941],[132.98035,34.42013],[132.98081,34.42134],[132.98091,34.422],[132.98076,34.42289],[132.98029,34.42375],[132.97045,34.43147],[132.96742,34.43375],[132.96664,34.43426],[132.96345,34.43566],[132.96295,34.43599],[132.9626,34.43642],[132.96114,34.43889],[132.96047,34.43973],[132.9595,34.44058],[132.95861,34.44121],[132.95729,34.4417],[132.95642,34.44184],[132.95549,34.4418],[132.95347,34.44137],[132.95258,34.44137],[132.95154,34.44159],[132.95063,34.44214],[132.95005,34.44279],[132.94982,34.4437],[132.94986,34.44429],[132.95025,34.44591],[132.95026,34.44668],[132.95012,34.44731],[132.9499,34.4478],[132.94849,34.45011],[132.94823,34.45045],[132.94775,34.45087],[132.94691,34.45124],[132.9442,34.45219],[132.93975,34.45322],[132.93878,34.45354],[132.93783,34.45391],[132.93683,34.45459],[132.93581,34.45515],[132.93376,34.45588],[132.93153,34.45692],[132.92677,34.45774],[132.92342,34.45845],[132.9211,34.45966],[132.91864,34.4605],[132.91654,34.46155],[132.91582,34.46181],[132.91495,34.46199],[132.91189,34.46201],[132.91029,34.46216],[132.90701,34.46316],[132.90639,34.46344],[132.90601,34.46371],[132.90441,34.46541],[132.90369,34.46605],[132.90308,34.46647],[132.90147,34.46727],[132.90037,34.46753],[132.89764,34.46776],[132.89157,34.46856],[132.89045,34.46891]],[[132.59575,34.42204],[132.59774,34.42198]],[[132.67512,34.45032],[132.67751,34.44835],[132.67933,34.44723],[132.6806,34.4466],[132.68415,34.44523],[132.6854,34.44509],[132.68676,34.44512]],[[132.83087,34.44383],[132.82944,34.44492],[132.82817,34.44577],[132.82727,34.44614],[132.82595,34.44643],[132.82481,34.44653],[132.82323,34.44649],[132.82126,34.44626],[132.81543,34.44578],[132.81447,34.44602],[132.81193,34.44711],[132.80991,34.44731],[132.80832,34.44729],[132.80719,34.44708],[132.80473,34.44595],[132.80084,34.44368],[132.80021,34.44344],[132.79946,34.44333],[132.7984,34.44343],[132.79669,34.44399],[132.78951,34.44588]],[[132.67117,34.45159],[132.67374,34.45085],[132.67512,34.45032]],[[132.68972,34.44628],[132.68868,34.44561],[132.68734,34.44516]],[[133.19445,34.40536],[133.1965,34.40652],[133.19896,34.4076],[133.19985,34.40812],[133.20062,34.40882],[133.20205,34.41078],[133.2025,34.41126],[133.20332,34.41179],[133.20551,34.41268],[133.20653,34.41278],[133.20734,34.41267],[133.20807,34.41245],[133.21008,34.41157],[133.2105,34.41149],[133.21164,34.41148],[133.21431,34.41165],[133.21506,34.41158],[133.21591,34.41132],[133.2177,34.41031],[133.21882,34.4098],[133.21959,34.40959],[133.22026,34.40951],[133.22197,34.4096],[133.22399,34.41008],[133.22563,34.41056],[133.22651,34.4109],[133.22784,34.41168],[133.22897,34.41269],[133.22995,34.41388],[133.23025,34.41435],[133.23053,34.41534],[133.23053,34.41612],[133.22878,34.4273],[133.22886,34.42852],[133.22929,34.42957],[133.233,34.43474]],[[133.07593,34.4006],[133.0588,34.399],[133.05392,34.39842],[133.05235,34.39804],[133.04918,34.39685],[133.043,34.39479],[133.04132,34.3943],[133.03996,34.39409],[133.03867,34.39412],[133.03711,34.39439],[133.03591,34.39477],[133.02943,34.39747],[133.02823,34.39787],[133.0242,34.39889],[133.023,34.39933],[133.01974,34.40214],[133.01903,34.40265],[133.01529,34.4049],[133.01328,34.40705],[133.0106,34.40857],[133.00929,34.40912],[133.0085,34.40921],[133.00134,34.40911],[132.99393,34.40866],[132.99195,34.40861],[132.99,34.40882],[132.98864,34.40918]],[[133.08143,34.40061],[133.07702,34.40066],[133.07593,34.4006]],[[132.98864,34.40918],[132.9863,34.41003]],[[133.1064,34.39128],[133.1104,34.38982],[133.11144,34.38929],[133.11182,34.38902],[133.11416,34.38673],[133.11619,34.38494],[133.1171,34.38388],[133.11807,34.38318],[133.11886,34.38297],[133.11922,34.38297],[133.12687,34.38327],[133.12748,34.38339],[133.12843,34.38372],[133.13311,34.38572],[133.13494,34.38688],[133.1368,34.38785],[133.13855,34.38935],[133.13919,34.3898],[133.14304,34.39204],[133.14451,34.39267],[133.14544,34.39289],[133.1488,34.39339],[133.15166,34.39442],[133.15256,34.39467],[133.15388,34.39488],[133.15829,34.39536],[133.16109,34.396],[133.1643,34.39696],[133.17695,34.40151],[133.17812,34.40187],[133.17949,34.40208],[133.18301,34.40241],[133.18654,34.40341],[133.18829,34.40369],[133.19147,34.40438]],[[132.52948,34.37216],[132.53175,34.37163]],[[132.47397,34.39816],[132.47697,34.39683]],[[132.48732,34.39321],[132.48438,34.3938],[132.48148,34.3946],[132.48047,34.39498],[132.47869,34.39581],[132.47697,34.39683]],[[132.44996,34.4105],[132.45151,34.41055]],[[132.22482,34.16993],[132.22406,34.16808]],[[132.44885,34.41002],[132.45204,34.41027]],[[132.5624,34.39007],[132.54879,34.3774],[132.5479,34.37684],[132.54092,34.37335],[132.53941,34.37264],[132.53817,34.37218],[132.53714,34.37195],[132.53414,34.37168],[132.53234,34.37172]],[[132.3345,34.35711],[132.33637,34.35866]],[[132.20691,34.13614],[132.20516,34.13422]],[[132.42905,34.39884],[132.43175,34.40086],[132.43331,34.40249],[132.43698,34.40668],[132.43789,34.40759],[132.4391,34.40847],[132.44023,34.40899],[132.44129,34.40926],[132.44885,34.41002]],[[132.39193,34.37569],[132.39238,34.37597],[132.39338,34.37692],[132.39436,34.37751],[132.39561,34.37797],[132.39899,34.37882],[132.39997,34.37953],[132.40151,34.38134],[132.40203,34.38173],[132.40638,34.38375],[132.41563,34.38897],[132.41728,34.39011],[132.427,34.39731]],[[132.52953,34.37234],[132.53234,34.37172]],[[132.52804,34.37266],[132.52948,34.37216]],[[132.46172,34.40826],[132.46447,34.40723],[132.46579,34.40657],[132.46679,34.4059],[132.46763,34.40515],[132.46891,34.40383],[132.46955,34.40269],[132.47008,34.40113],[132.47063,34.4003],[132.47188,34.39927],[132.47397,34.39816]],[[132.22867,34.25611],[132.22759,34.25444]],[[132.4966,34.38997],[132.49834,34.38954]],[[132.49834,34.38954],[132.49918,34.38929]],[[132.48732,34.39321],[132.48886,34.39302],[132.49128,34.39242],[132.4942,34.39123],[132.49748,34.39012],[132.49918,34.38929]],[[132.28966,34.30146],[132.28889,34.30077]],[[132.20516,34.13422],[132.20478,34.13387],[132.20363,34.13238],[132.20305,34.13128],[132.20248,34.12922],[132.20157,34.12327],[132.20131,34.12249],[132.2007,34.12133],[132.19863,34.11817],[132.19816,34.11719],[132.19802,34.11656],[132.19804,34.11557],[132.1983,34.11379]],[[132.50663,34.37611],[132.50538,34.37764]],[[132.4966,34.38997],[132.49128,34.39135],[132.48849,34.39176],[132.48692,34.39214],[132.47952,34.39521],[132.47741,34.39629]],[[132.32409,34.34945],[132.32466,34.35158],[132.32485,34.35193],[132.32551,34.35263],[132.32599,34.35294],[132.32668,34.35322],[132.33007,34.35421],[132.33107,34.35465],[132.33278,34.35572],[132.3345,34.35711]],[[132.33637,34.35866],[132.33823,34.36027],[132.34048,34.36309],[132.34104,34.36365],[132.34183,34.36416],[132.34267,34.36447],[132.36193,34.36565],[132.36345,34.36582],[132.3663,34.36651]],[[132.31439,34.32346],[132.31516,34.32536],[132.31622,34.32694],[132.31661,34.32786],[132.31685,34.32873],[132.31751,34.33018],[132.31877,34.3321],[132.31889,34.33314],[132.31877,34.33587],[132.31902,34.33854],[132.31936,34.34016],[132.3199,34.34105],[132.32286,34.34491],[132.32315,34.34556],[132.32376,34.34808]],[[132.26488,34.28231],[132.26193,34.27831],[132.26155,34.27766],[132.26071,34.27563],[132.26008,34.27479],[132.25862,34.27372],[132.25599,34.27149],[132.25457,34.27067],[132.25264,34.26984],[132.24997,34.26738],[132.24825,34.26533],[132.24714,34.26473],[132.24604,34.26428],[132.24167,34.26317],[132.23788,34.26131],[132.23709,34.26108],[132.23348,34.26036],[132.23224,34.25989],[132.23083,34.25861],[132.22867,34.25611]],[[132.32376,34.34808],[132.32409,34.34945]],[[132.427,34.39731],[132.42905,34.39884]],[[132.28889,34.30077],[132.28774,34.29958],[132.28694,34.2984],[132.28519,34.29456],[132.28482,34.29393],[132.28194,34.29027],[132.28157,34.28992],[132.28064,34.28947],[132.27908,34.28912],[132.26931,34.28775],[132.26817,34.28724],[132.26734,34.2866],[132.26678,34.28582],[132.2661,34.28458]],[[132.1983,34.11379],[132.19878,34.11147]],[[132.52804,34.37266],[132.52953,34.37234]],[[132.45204,34.41027],[132.45326,34.41029]],[[132.22632,34.17345],[132.2249,34.17011]],[[132.50538,34.37764],[132.5036,34.37991],[132.50324,34.38063],[132.50303,34.3821],[132.50309,34.38425],[132.50297,34.38564],[132.50276,34.38651],[132.50245,34.38717],[132.50193,34.38774],[132.50109,34.38844],[132.50012,34.38893],[132.49918,34.38929]],[[132.22818,34.20338],[132.23031,34.20019],[132.23071,34.19912],[132.23083,34.19846],[132.23079,34.19723],[132.23057,34.19607],[132.2293,34.1928],[132.22863,34.1897],[132.2286,34.18925],[132.22868,34.18861],[132.22884,34.18812],[132.22968,34.18631],[132.23003,34.18534],[132.23021,34.18413],[132.23024,34.18303],[132.23014,34.18239],[132.22997,34.18191],[132.22632,34.17345]],[[132.30337,34.31317],[132.30445,34.31494],[132.30514,34.31558],[132.31005,34.31841],[132.31115,34.3192],[132.3136,34.32188],[132.31413,34.32283]],[[132.28966,34.30146],[132.29078,34.30239],[132.2933,34.30423],[132.29644,34.30539],[132.29773,34.30614],[132.29862,34.30697],[132.30127,34.31],[132.30206,34.31105]],[[132.30206,34.31105],[132.30337,34.31317]],[[132.39055,34.37484],[132.39193,34.37569]],[[132.2661,34.28458],[132.26488,34.28231]],[[132.22406,34.16808],[132.22358,34.16677],[132.22339,34.16556],[132.22341,34.16439],[132.2239,34.1619],[132.22386,34.16],[132.22363,34.1591],[132.22191,34.1558],[132.22086,34.15389],[132.21952,34.15168],[132.21803,34.14941],[132.21529,34.14549],[132.2138,34.14367],[132.20691,34.13614]],[[132.45151,34.41055],[132.45221,34.41051],[132.45326,34.41029]],[[132.56433,34.39191],[132.5624,34.39007]],[[132.3663,34.36651],[132.36916,34.36717]],[[132.22306,34.21913],[132.2197,34.23144],[132.21954,34.23345],[132.21935,34.23413],[132.21857,34.23605],[132.21843,34.23672],[132.21846,34.23721],[132.21994,34.24208],[132.22004,34.24385],[132.2203,34.24463],[132.22096,34.24547],[132.2229,34.24688],[132.22356,34.24752],[132.22423,34.24853],[132.22759,34.25444]],[[132.31413,34.32283],[132.31439,34.32346]],[[132.22381,34.21637],[132.22306,34.21913]],[[132.2249,34.17011],[132.22482,34.16993]],[[132.47741,34.39629],[132.47397,34.39816]],[[132.50663,34.37611],[132.50774,34.37501],[132.50856,34.37467],[132.50937,34.37449],[132.50996,34.37443],[132.51066,34.37447],[132.51302,34.37503],[132.51481,34.37524],[132.51557,34.37525],[132.51797,34.3749],[132.52245,34.37365],[132.52439,34.37351],[132.52804,34.37266]],[[132.39055,34.37484],[132.38428,34.37103],[132.38352,34.37064],[132.36916,34.36717]],[[131.82985,34.03014],[131.82843,34.03168]],[[131.99546,33.98108],[131.99621,33.97998]],[[131.96152,33.9915],[131.96022,33.98943]],[[132.21339,34.0445],[132.21389,34.04221]],[[131.86864,34.00802],[131.86727,34.00986]],[[131.98081,33.99968],[131.98181,33.99903],[131.98249,33.99847],[131.983,33.9976],[131.9834,33.99629],[131.98426,33.99443],[131.98585,33.99268],[131.98594,33.99247],[131.98623,33.99222]],[[131.77129,34.0692],[131.76827,34.06977]],[[132.21019,33.9997],[132.21251,34.00203],[132.21284,34.0026],[132.21357,34.00462],[132.21754,34.02392],[132.21766,34.02475],[132.21762,34.02555],[132.21698,34.02772],[132.2161,34.02985],[132.21591,34.03078]],[[131.91321,33.97388],[131.91062,33.97356],[131.909,33.97353],[131.90399,33.97405],[131.90292,33.9743],[131.90232,33.97455],[131.90111,33.97534],[131.89916,33.9769],[131.89781,33.97868],[131.89739,33.97912],[131.89486,33.98075],[131.89242,33.98292],[131.89041,33.98434],[131.88897,33.9855],[131.88819,33.98671],[131.88704,33.9894],[131.88641,33.99026],[131.88584,33.99078],[131.8847,33.99146],[131.8831,33.99221],[131.88172,33.99306],[131.8767,33.99759],[131.87564,33.99875],[131.87218,34.00328],[131.87174,34.00373],[131.86864,34.00802]],[[132.1738,33.96325],[132.17655,33.96353],[132.17883,33.96363]],[[131.76827,34.06977],[131.7659,34.07022],[131.76506,34.07031],[131.75884,34.07002],[131.7579,34.07018],[131.75515,34.07099],[131.75443,34.07112],[131.74572,34.0715],[131.74211,34.0723],[131.74105,34.07236],[131.73986,34.07222]],[[131.80159,34.05245],[131.79995,34.05485],[131.79949,34.05592],[131.79777,34.0612],[131.79745,34.06181],[131.797,34.06238],[131.79652,34.06279],[131.7892,34.06695],[131.78799,34.06753],[131.78674,34.06783],[131.78574,34.06777],[131.78326,34.06737],[131.78248,34.06736],[131.78081,34.06757],[131.77677,34.06832],[131.77129,34.0692]],[[132.17955,33.96347],[132.17883,33.96363]],[[131.99435,33.98278],[131.99401,33.98336],[131.99291,33.98462],[131.98734,33.98964],[131.98688,33.9905],[131.98623,33.99222]],[[131.73986,34.07222],[131.73718,34.07194]],[[131.98081,33.99968],[131.9813,33.99949],[131.98238,33.99888],[131.98289,33.99841],[131.98563,33.99344],[131.98623,33.99222]],[[132.21502,34.03712],[132.2157,34.0357],[132.21619,34.03441],[132.21625,34.03302],[132.21591,34.03078]],[[132.20715,34.07534],[132.20762,34.07671],[132.20814,34.07932]],[[132.19878,34.11147],[132.19923,34.10927],[132.20016,34.10726],[132.20037,34.10662],[132.20069,34.10464],[132.20236,34.09973],[132.20495,34.09555],[132.20649,34.09186],[132.20766,34.08973],[132.20971,34.0863],[132.21034,34.08495],[132.21051,34.08371],[132.21042,34.0829],[132.2103,34.08258],[132.20992,34.08185],[132.20814,34.07932]],[[131.86727,34.00986],[131.86581,34.01159],[131.86541,34.012],[131.86483,34.01241],[131.86274,34.01353],[131.85924,34.01519],[131.85743,34.01569],[131.84442,34.01733],[131.84129,34.0184],[131.83865,34.01951],[131.83766,34.02017],[131.83683,34.02089],[131.83194,34.02619],[131.83124,34.02723],[131.82985,34.03014]],[[132.18257,33.96256],[132.17955,33.96347]],[[132.13274,33.95858],[132.13021,33.95902],[132.12891,33.95941],[132.12596,33.96052],[132.11958,33.9631],[132.11515,33.96465],[132.1145,33.96479],[132.11377,33.96484],[132.11018,33.96443],[132.10928,33.96452],[132.10848,33.96471],[132.10769,33.96503]],[[131.82843,34.03168],[131.82723,34.03315],[131.82554,34.03595],[131.8253,34.03627],[131.82439,34.03707],[131.8226,34.03833],[131.82093,34.03927],[131.80898,34.04538],[131.80716,34.04639],[131.80575,34.04751],[131.80337,34.0503]],[[132.21502,34.03712],[132.2153,34.03595],[132.21589,34.03435],[132.21582,34.03208],[132.21591,34.03078]],[[132.20715,34.07534],[132.20725,34.07689],[132.20739,34.0776],[132.20814,34.07932]],[[131.96022,33.98943],[131.95987,33.9888],[131.95897,33.98775],[131.95783,33.98694],[131.95669,33.98648],[131.92926,33.97904],[131.92787,33.97852],[131.92531,33.97735],[131.91993,33.97472],[131.91873,33.97429],[131.91786,33.97413],[131.91655,33.97403]],[[131.99753,33.97869],[131.99621,33.97998]],[[132.13618,33.95798],[132.13274,33.95858]],[[132.04224,33.95875],[132.04558,33.95877]],[[131.80337,34.0503],[131.80159,34.05245]],[[131.91655,33.97403],[131.91321,33.97388]],[[132.1738,33.96325],[132.17514,33.96358],[132.1769,33.96377],[132.17883,33.96363]],[[132.20494,34.06694],[132.20509,34.06429],[132.20545,34.06288],[132.2063,34.06018],[132.20718,34.05846],[132.20847,34.05645],[132.20856,34.05622],[132.20863,34.05529],[132.20884,34.05457],[132.20903,34.05424],[132.2097,34.05335],[132.21156,34.05166],[132.21173,34.05143],[132.21194,34.05091],[132.21339,34.0445]],[[132.20495,34.06926],[132.20494,34.06694]],[[132.21389,34.04221],[132.21502,34.03712]],[[132.10463,33.96642],[132.10769,33.96503]],[[131.99546,33.98108],[131.99435,33.98278]],[[131.99621,33.97998],[131.9967,33.97923],[131.99907,33.97678],[131.99965,33.97637],[132.00084,33.97598],[132.00598,33.97508],[132.00711,33.97474],[132.00879,33.97379],[132.01001,33.97292],[132.01045,33.97237],[132.01153,33.97067],[132.01249,33.96984],[132.01322,33.96945],[132.01418,33.9691],[132.01652,33.96852],[132.01762,33.96801],[132.02188,33.9645],[132.02498,33.96113],[132.02612,33.96025],[132.02685,33.95989],[132.02785,33.95956],[132.02886,33.95938],[132.03658,33.95876],[132.03828,33.9587],[132.04224,33.95875]],[[132.20831,33.99785],[132.20788,33.99741],[132.20637,33.99517],[132.20578,33.99453],[132.20313,33.99239],[132.20228,33.99159],[132.20159,33.99059],[132.20007,33.98805],[132.1995,33.98703],[132.19935,33.98658],[132.19901,33.98215],[132.19882,33.98117],[132.19848,33.98027],[132.19712,33.97788],[132.1959,33.97534],[132.19556,33.97493],[132.19291,33.97243],[132.19194,33.97125],[132.19162,33.97062],[132.19007,33.96676],[132.18959,33.96586],[132.18778,33.96362],[132.18724,33.96322],[132.18612,33.96266],[132.18544,33.9624],[132.18472,33.96231],[132.18349,33.96234],[132.18257,33.96256]],[[131.96152,33.9915],[131.96551,33.9979],[131.96664,33.99918],[131.96798,34.00014],[131.96866,34.00032],[131.97268,34.00062],[131.97536,34.00111],[131.97661,34.00118],[131.97725,34.00112],[131.97857,34.00075],[131.98081,33.99968]],[[132.04558,33.95877],[132.0472,33.95901],[132.04823,33.95931],[132.05081,33.96016],[132.0529,33.961],[132.07071,33.96976],[132.07223,33.97034],[132.07344,33.9706],[132.07797,33.97076],[132.094,33.97088],[132.09493,33.97074],[132.09609,33.9703],[132.10463,33.96642]],[[132.21019,33.9997],[132.20831,33.99785]],[[132.20495,34.06926],[132.20497,34.07017],[132.20508,34.07066],[132.20715,34.07534]],[[132.13618,33.95798],[132.13946,33.95779],[132.14394,33.95792],[132.14725,33.95776],[132.14792,33.95762],[132.15099,33.95666],[132.15179,33.95654],[132.15312,33.9566],[132.15907,33.95742],[132.16011,33.95764],[132.16298,33.95848],[132.16413,33.95901],[132.16652,33.96054],[132.17199,33.96272],[132.1738,33.96325]],[[131.15913,34.05417],[131.16136,34.05325]],[[131.3975,34.09471],[131.39615,34.094],[131.39506,34.09325]],[[131.22325,34.00296],[131.22083,34.00364]],[[131.6811,34.05497],[131.68227,34.05454],[131.6847,34.0531],[131.68586,34.05291],[131.68664,34.05293],[131.68776,34.05316],[131.68905,34.05373],[131.68948,34.05401],[131.69019,34.05468]],[[131.65225,34.04124],[131.6534,34.04057],[131.65501,34.04027],[131.65787,34.04026],[131.65911,34.04037],[131.6602,34.04064],[131.66176,34.04146],[131.66596,34.04422],[131.66708,34.04475],[131.6677,34.04496],[131.67203,34.04578],[131.67318,34.04631],[131.67389,34.04693],[131.67412,34.04725],[131.67529,34.04952]],[[131.60606,34.04354],[131.61324,34.04075]],[[131.37143,34.06741],[131.36965,34.06559]],[[131.44898,34.07922],[131.46186,34.0699],[131.46375,34.06821],[131.46845,34.06341],[131.46966,34.06248],[131.47382,34.06006],[131.4793,34.05815],[131.48717,34.05394]],[[131.17458,34.03131],[131.17497,34.03089],[131.17512,34.03058],[131.17626,34.02709],[131.17643,34.02624],[131.17628,34.02549],[131.17612,34.02514]],[[131.56998,34.05318],[131.57432,34.05304],[131.5838,34.05245],[131.59115,34.05105],[131.59249,34.05062],[131.59378,34.05004],[131.59731,34.04812],[131.60248,34.045],[131.60606,34.04354]],[[131.6811,34.05497],[131.68219,34.05471],[131.68322,34.05429],[131.68496,34.05341],[131.68591,34.05325],[131.68652,34.05324],[131.68787,34.05353],[131.68909,34.05401],[131.69019,34.05468]],[[131.34323,34.03076],[131.34282,34.03011],[131.33943,34.02657],[131.33901,34.02598],[131.33865,34.02509],[131.33813,34.02141],[131.33788,34.02056],[131.33753,34.01986],[131.33698,34.01917],[131.33655,34.01881],[131.33607,34.01853],[131.33523,34.01825],[131.33401,34.01803],[131.32435,34.01739],[131.32064,34.01729],[131.31952,34.01733],[131.31854,34.01745],[131.31766,34.01776],[131.31709,34.01806],[131.31517,34.01943],[131.31424,34.01984],[131.31372,34.01995],[131.31249,34.02004],[131.30885,34.0199],[131.30627,34.01992],[131.30536,34.01975],[131.29879,34.01716],[131.29755,34.0169],[131.2963,34.01695],[131.2931,34.01739],[131.29182,34.01772],[131.29076,34.01832],[131.2901,34.01897],[131.28974,34.01953],[131.28954,34.02004],[131.28909,34.02214],[131.28726,34.02492],[131.2867,34.02625],[131.28663,34.02692],[131.28744,34.02997],[131.28756,34.03123],[131.28749,34.03157],[131.28659,34.03353],[131.28648,34.03393],[131.28651,34.03682],[131.28637,34.03768],[131.28628,34.03793],[131.28585,34.03854],[131.28498,34.03941],[131.28368,34.04036],[131.28222,34.04102],[131.28083,34.04135],[131.27993,34.04135],[131.27837,34.04103],[131.27481,34.03981],[131.26932,34.03891]],[[131.56805,34.05325],[131.56998,34.05318]],[[131.63791,34.04826],[131.63729,34.0481],[131.63602,34.0476],[131.63427,34.04667],[131.63219,34.04542],[131.63121,34.04466],[131.63035,34.04336],[131.62936,34.04264],[131.62256,34.03932],[131.62099,34.03898],[131.61889,34.03884],[131.61835,34.03889],[131.61758,34.03909],[131.61324,34.04075]],[[131.3975,34.09471],[131.40018,34.09542],[131.40202,34.09558],[131.40395,34.0955],[131.40736,34.09506],[131.40853,34.09482],[131.41312,34.09326],[131.42858,34.08768],[131.4318,34.08659],[131.44479,34.08185],[131.44583,34.08143],[131.4467,34.08087]],[[131.64026,34.0488],[131.64168,34.0489],[131.6425,34.04882],[131.64385,34.04831],[131.64491,34.04747],[131.64687,34.04544],[131.64838,34.04402]],[[131.4467,34.08087],[131.44898,34.07922]],[[131.39506,34.09325],[131.3943,34.09239],[131.39046,34.08659],[131.38831,34.08279],[131.3876,34.08181],[131.38619,34.0806],[131.38148,34.07755],[131.37995,34.0763],[131.37143,34.06741]],[[131.679,34.05492],[131.68049,34.05509],[131.6811,34.05497]],[[131.48972,34.05255],[131.49522,34.04944],[131.49643,34.04892],[131.49757,34.04866],[131.51309,34.04631],[131.51419,34.04593],[131.51675,34.0447],[131.51778,34.04432],[131.51851,34.04415],[131.5198,34.04408],[131.52172,34.04428],[131.54923,34.05011],[131.5629,34.05309],[131.56379,34.05323],[131.56522,34.05331],[131.56805,34.05325]],[[131.64026,34.0488],[131.63791,34.04826]],[[131.17458,34.03131],[131.17485,34.03075],[131.17574,34.02762],[131.17612,34.02514]],[[131.60606,34.04354],[131.60722,34.04294],[131.60823,34.04253],[131.61226,34.04099],[131.61324,34.04075]],[[131.64838,34.04402],[131.64908,34.04335],[131.65039,34.04237],[131.65225,34.04124]],[[131.48717,34.05394],[131.48972,34.05255]],[[131.26932,34.03891],[131.26619,34.03845]],[[131.73718,34.07194],[131.73548,34.07177],[131.73499,34.07182],[131.73363,34.0722],[131.73107,34.07313],[131.72953,34.07381],[131.72909,34.0741],[131.72804,34.07502],[131.72734,34.07547],[131.72254,34.07765],[131.71669,34.08009],[131.71605,34.08031],[131.71476,34.08055],[131.71396,34.08057],[131.7131,34.08032],[131.71229,34.07996],[131.70754,34.07693],[131.70644,34.07589],[131.70508,34.07344]],[[131.18703,34.00769],[131.18769,34.00761]],[[131.18769,34.00761],[131.1933,34.00686],[131.19456,34.0066],[131.19629,34.00581],[131.19951,34.00372],[131.20031,34.00338],[131.20159,34.0031],[131.20323,34.00326],[131.20946,34.00524],[131.21078,34.00553],[131.2119,34.00565],[131.21316,34.00563],[131.21443,34.00544],[131.22083,34.00364]],[[131.17466,34.02148],[131.17495,34.02244],[131.17612,34.02514]],[[131.16136,34.05325],[131.1641,34.0519],[131.16608,34.05004],[131.16654,34.04951],[131.16728,34.04843],[131.16829,34.04632],[131.16926,34.04261],[131.17158,34.03979],[131.17205,34.0389],[131.17229,34.03807],[131.17254,34.03421],[131.17266,34.03364],[131.17304,34.03293],[131.17346,34.03241],[131.17458,34.03131]],[[131.67529,34.04952],[131.67597,34.05097],[131.67693,34.0535],[131.67743,34.05404],[131.679,34.05492]],[[131.70508,34.07344],[131.70415,34.07174]],[[131.17466,34.02148],[131.17429,34.01601],[131.17437,34.01508],[131.17455,34.01424],[131.17522,34.01301],[131.17804,34.00989],[131.17906,34.00921],[131.17999,34.00877],[131.1805,34.00863],[131.18288,34.00819],[131.1843,34.00803]],[[131.70415,34.07174],[131.70333,34.07038],[131.7029,34.06986],[131.70228,34.06929],[131.70145,34.06872],[131.69719,34.06643],[131.69621,34.06551],[131.69374,34.06102],[131.69297,34.05938],[131.69265,34.05851],[131.69167,34.05657],[131.69087,34.05534],[131.69011,34.0546]],[[131.3444,34.03285],[131.34323,34.03076]],[[131.36965,34.06559],[131.35369,34.04891],[131.35225,34.04683],[131.3444,34.03285]],[[131.64838,34.04402],[131.65098,34.0423],[131.65215,34.04141],[131.65225,34.04124]],[[131.17466,34.02148],[131.17592,34.02388],[131.17616,34.02467],[131.17612,34.02514]],[[131.1843,34.00803],[131.18703,34.00769]],[[131.26619,34.03845],[131.26173,34.03778],[131.25959,34.03737],[131.25865,34.03711],[131.25781,34.03667],[131.25538,34.03456],[131.25452,34.03365],[131.25283,34.03141],[131.25077,34.02902],[131.25038,34.02832],[131.25012,34.0274],[131.24994,34.02505],[131.24967,34.02419],[131.248,34.02144],[131.24496,34.01691],[131.24262,34.01412],[131.23648,34.00755],[131.23557,34.00678],[131.23337,34.00553],[131.23278,34.00507],[131.23241,34.00468],[131.23158,34.00326],[131.23104,34.00278],[131.23045,34.00238],[131.22946,34.00195],[131.22826,34.00171],[131.22707,34.0018],[131.2262,34.00198],[131.22325,34.00296]],[[131.67529,34.04952],[131.67567,34.05105],[131.67654,34.05335],[131.6771,34.05401],[131.67763,34.05437],[131.6784,34.05476],[131.679,34.05492]],[[131.08774,34.04934],[131.0852,34.0493]],[[130.99851,34.01828],[130.99761,34.01691],[130.99734,34.01636],[130.99671,34.01372],[130.99611,34.01257],[130.99514,34.01159],[130.9924,34.00959],[130.99136,34.00899],[130.99039,34.00867],[130.9879,34.00821],[130.98676,34.00813],[130.98579,34.0082],[130.98498,34.00844],[130.97733,34.01203],[130.97575,34.01252],[130.97495,34.01261],[130.97414,34.01259],[130.97338,34.01244],[130.97241,34.01208],[130.96075,34.00649],[130.9601,34.00635],[130.95888,34.0063],[130.95574,34.00663],[130.954,34.00669],[130.94945,34.00584]],[[131.08774,34.04934],[131.09513,34.04961],[131.09557,34.04969],[131.09621,34.04994],[131.09706,34.05043],[131.09759,34.05084],[131.09902,34.0522],[131.09966,34.0532],[131.09986,34.05375],[131.10057,34.05726],[131.10092,34.05838],[131.10227,34.0618],[131.10263,34.06252],[131.10326,34.06329],[131.10371,34.06364],[131.10468,34.0641],[131.10565,34.0643],[131.1072,34.0643],[131.11161,34.06381],[131.11657,34.06373],[131.11933,34.06396],[131.11992,34.06394],[131.12061,34.0638],[131.12161,34.06341],[131.12283,34.0626],[131.12483,34.06037],[131.12579,34.05958],[131.12679,34.05923],[131.13287,34.05834],[131.1339,34.05833],[131.13561,34.05868],[131.14083,34.0605],[131.14145,34.06057],[131.1428,34.06053],[131.14925,34.05823],[131.15913,34.05417]],[[131.0852,34.0493],[131.08141,34.0492],[131.07998,34.04901],[131.07176,34.04587],[131.07105,34.04566],[131.06914,34.04553],[131.06865,34.04556],[131.06801,34.04579],[131.06714,34.04617],[131.06597,34.0469],[131.06503,34.04768],[131.06457,34.0482],[131.06207,34.0517],[131.06153,34.0527],[131.0609,34.05446],[131.0605,34.05511],[131.05931,34.05615],[131.04805,34.06497],[131.04595,34.0666],[131.04346,34.06839],[131.04266,34.06883],[131.04208,34.06904],[131.04076,34.06933],[131.03972,34.06941],[131.03715,34.06932],[131.03527,34.06889],[131.03391,34.06837]],[[131.00015,34.02021],[130.99851,34.01828]],[[130.92845,33.98302],[130.92671,33.98053]],[[130.94682,34.00538],[130.94151,34.00438],[130.94078,34.00417],[130.93773,34.00286],[130.93731,34.00264],[130.93659,34.00205],[130.93615,34.00144],[130.93563,34.00039],[130.93437,33.99719],[130.93414,33.99642],[130.93415,33.99549],[130.93432,33.9948]],[[130.93432,33.9948],[130.93459,33.99401],[130.93466,33.99321],[130.93447,33.99249],[130.93409,33.99175],[130.93281,33.99022],[130.93129,33.98768],[130.92987,33.98487],[130.92845,33.98302]],[[130.92233,33.95029],[130.92106,33.94829]],[[130.94945,34.00584],[130.94682,34.00538]],[[131.03182,34.06726],[131.0306,34.06633],[131.02946,34.06504],[131.02619,34.05934],[131.02415,34.05651],[131.0071,34.02874],[131.00015,34.02021]],[[130.92671,33.98053],[130.92334,33.97596],[130.92306,33.97538],[130.92267,33.97409],[130.92253,33.97268],[130.92267,33.97099],[130.92354,33.96651],[130.92347,33.96567],[130.92166,33.96186],[130.9215,33.96079],[130.92149,33.95972],[130.92177,33.95889],[130.92278,33.95706],[130.92305,33.95603],[130.9232,33.95383],[130.92319,33.95257],[130.92292,33.95138],[130.92233,33.95029]],[[131.03391,34.06837],[131.03182,34.06726]],[[133.36356,34.48958],[133.35913,34.48898]],[[133.35913,34.48898],[133.35713,34.48879],[133.3541,34.48867]],[[133.40521,34.49502],[133.39045,34.49241],[133.38625,34.49225],[133.38467,34.49229],[133.38327,34.49247]],[[133.38327,34.49247],[133.37981,34.49243],[133.37812,34.49232],[133.37477,34.49198],[133.37239,34.49158]],[[133.85562,34.64326],[133.8735,34.64974],[133.87563,34.65034],[133.87906,34.65088],[133.87975,34.65106],[133.88198,34.65175],[133.8844,34.6527]],[[133.88554,34.65317],[133.89073,34.65535],[133.89961,34.65834],[133.90142,34.65883],[133.90638,34.65976],[133.90947,34.66058]],[[135.13431,34.65113],[135.13067,34.64902],[135.12726,34.64751]],[[135.12726,34.64751],[135.12595,34.64681]],[[134.61337,34.81015],[134.61106,34.81029],[134.60445,34.81125],[134.59579,34.81179],[134.59392,34.8121],[134.58598,34.81396]],[[134.61566,34.81019],[134.61337,34.81015]],[[133.92239,34.67488],[133.92447,34.67667],[133.92527,34.67722],[133.92569,34.67747],[133.92683,34.67793],[133.92775,34.67819],[133.93004,34.67849],[133.9353,34.67851],[133.93636,34.67858],[133.93723,34.67873]],[[133.93723,34.67873],[133.93926,34.67927]],[[132.22381,34.21637],[132.22655,34.20612],[132.22689,34.20535],[132.22737,34.20456]],[[132.22737,34.20456],[132.22818,34.20338]],[[132.45326,34.41029],[132.45456,34.41027],[132.45634,34.4101],[132.45759,34.40976],[132.46052,34.4087]],[[132.46052,34.4087],[132.46172,34.40826]],[[134.71036,34.82446],[134.69286,34.82649]],[[134.71292,34.8243],[134.71036,34.82446]],[[132.72215,34.44017],[132.72315,34.43889]],[[132.72315,34.43889],[132.72511,34.43638],[132.72588,34.43571],[132.73461,34.43116],[132.73638,34.43054],[132.7379,34.4304],[132.74249,34.43111]]]}}