{"type":"Feature","properties":{"id":"西武鉄道_拝島線","name":"拝島線","operator":"西武鉄道","railType":"普通鉄道","operatorType":"民営","category":"rail","attribution":"国土数値情報（鉄道データ）国土交通省"},"geometry":{"type":"MultiLineString","coordinates":[[[139.4762,35.74125],[139.47473,35.74191]],[[139.47745,35.74031],[139.4762,35.74125]],[[139.4181,35.73174],[139.41446,35.73146],[139.39298,35.7289]],[[139.43363,35.73258],[139.42965,35.7306],[139.42836,35.73014],[139.42653,35.7303],[139.42294,35.73081],[139.41945,35.73167]],[[139.43496,35.73323],[139.43625,35.73364],[139.4369,35.73372],[139.43796,35.73371],[139.45679,35.73273],[139.46004,35.73262],[139.46057,35.73269],[139.46129,35.73291],[139.46207,35.73336],[139.46264,35.73395],[139.46286,35.73435],[139.46313,35.73528]],[[139.46313,35.73528],[139.4634,35.73699]],[[139.48745,35.73735],[139.48587,35.73825],[139.48429,35.73956]],[[139.48429,35.73956],[139.4833,35.73997],[139.48265,35.74012],[139.48208,35.74015],[139.48118,35.74007],[139.47937,35.73971],[139.47884,35.73969],[139.47813,35.7399],[139.47745,35.74031]],[[139.48944,35.73648],[139.48745,35.73735]],[[139.4634,35.73699],[139.46359,35.73814]],[[139.43496,35.73323],[139.43363,35.73258]],[[139.37021,35.72625],[139.3691,35.72611]],[[139.39298,35.7289],[139.39171,35.72875]],[[139.39171,35.72875],[139.3856,35.72806],[139.38226,35.72777],[139.37951,35.72715],[139.3784,35.72698],[139.37479,35.72674],[139.37021,35.72625]],[[139.41945,35.73167],[139.4181,35.73174]],[[139.47473,35.74191],[139.47363,35.74206],[139.47174,35.7417],[139.47133,35.74169],[139.4666,35.742],[139.46551,35.74199],[139.46492,35.74177],[139.46446,35.7413],[139.46424,35.74086],[139.46404,35.73987],[139.46385,35.73935]],[[139.46385,35.73935],[139.46359,35.73814]],[[139.34398,35.72133],[139.34442,35.7208]],[[139.3691,35.72611],[139.36184,35.72524],[139.36035,35.72497],[139.35876,35.72448],[139.35689,35.72359],[139.35361,35.72166],[139.35297,35.7212],[139.351,35.71945],[139.35027,35.71898],[139.34951,35.7187],[139.34801,35.71863],[139.34706,35.71889],[139.34604,35.71939],[139.34525,35.71996],[139.34442,35.7208]]]}}