{"type":"Feature","properties":{"id":"西日本鉄道_太宰府線","name":"太宰府線","operator":"西日本鉄道","railType":"普通鉄道","operatorType":"民営","category":"rail","attribution":"国土数値情報（鉄道データ）国土交通省"},"geometry":{"type":"MultiLineString","coordinates":[[[130.51823,33.5016],[130.51754,33.50269]],[[130.51754,33.50269],[130.51706,33.5035]],[[130.52557,33.51084],[130.52338,33.51017],[130.52222,33.50967],[130.52054,33.5087],[130.5196,33.50798],[130.51855,33.5068],[130.51705,33.50473],[130.51693,33.50409],[130.51706,33.5035]],[[130.53106,33.51783],[130.52832,33.51297],[130.52747,33.51202],[130.52654,33.51127]],[[130.52654,33.51127],[130.52557,33.51084]],[[130.53134,33.51885],[130.53106,33.51783]]]}}