{"type":"Feature","properties":{"id":"西日本鉄道_天神大牟田線","name":"天神大牟田線","operator":"西日本鉄道","railType":"普通鉄道","operatorType":"民営","category":"rail","attribution":"国土数値情報（鉄道データ）国土交通省"},"geometry":{"type":"MultiLineString","coordinates":[[[130.40602,33.57404],[130.4066,33.57357]],[[130.40178,33.5825],[130.40184,33.58132]],[[130.40184,33.58132],[130.40188,33.5801],[130.40202,33.57912],[130.40237,33.57813],[130.40268,33.57751],[130.4032,33.57671],[130.40397,33.57583],[130.40602,33.57404]],[[130.39846,33.59111],[130.39914,33.58954],[130.40054,33.5879]],[[130.40054,33.5879],[130.40075,33.5874],[130.40122,33.58681],[130.40159,33.58574],[130.4017,33.58511],[130.40178,33.5825]],[[130.54043,33.35249],[130.54076,33.35343]],[[130.42322,33.19043],[130.42252,33.18946]],[[130.47269,33.53837],[130.47353,33.53753]],[[130.5507,33.37808],[130.55094,33.37969]],[[130.46253,33.24686],[130.4615,33.24575],[130.46089,33.24491],[130.4501,33.22746]],[[130.44948,33.22642],[130.44157,33.21366],[130.43801,33.20943]],[[130.44025,33.12215],[130.4399,33.12286]],[[130.41593,33.17358],[130.41633,33.17209],[130.41713,33.17],[130.41903,33.16564]],[[130.56329,33.43721],[130.56305,33.43614]],[[130.4066,33.57357],[130.41453,33.56727]],[[130.48981,33.28699],[130.48887,33.28609]],[[130.41946,33.16458],[130.41903,33.16564]],[[130.42678,33.15499],[130.42636,33.15589]],[[130.5086,33.5113],[130.50742,33.51198]],[[130.41549,33.56647],[130.42271,33.56136],[130.42569,33.55969]],[[130.55805,33.41115],[130.55819,33.41178]],[[130.48956,33.52214],[130.49041,33.52154],[130.49147,33.52099],[130.49725,33.51849],[130.50047,33.51627],[130.5027,33.51484],[130.50742,33.51198]],[[130.46306,33.5471],[130.46444,33.5465],[130.46566,33.54557],[130.47269,33.53837]],[[130.46169,33.54741],[130.46306,33.5471]],[[130.42569,33.55969],[130.42792,33.55848]],[[130.51027,33.30211],[130.50956,33.30189]],[[130.51706,33.5035],[130.5145,33.50725],[130.51402,33.50782],[130.51213,33.50915],[130.5086,33.5113]],[[130.51754,33.50269],[130.51706,33.5035]],[[130.55354,33.46228],[130.55238,33.46334]],[[130.42636,33.15589],[130.42591,33.15667],[130.42538,33.15728],[130.4229,33.15928],[130.42197,33.1601],[130.42135,33.16079],[130.42085,33.16156],[130.41946,33.16458]],[[130.56547,33.44595],[130.56329,33.43721]],[[130.48881,33.52285],[130.48956,33.52214]],[[130.54203,33.47189],[130.53872,33.47425],[130.53759,33.47549],[130.53293,33.48346]],[[130.55094,33.37969],[130.55205,33.39143],[130.55341,33.3957]],[[130.47353,33.53753],[130.4793,33.53185],[130.48239,33.52895]],[[130.46966,33.25639],[130.46928,33.25566]],[[130.52426,33.31916],[130.52382,33.31627],[130.52345,33.31516],[130.52299,33.31437],[130.52155,33.3128]],[[130.46321,33.24777],[130.46253,33.24686]],[[130.55819,33.41178],[130.55962,33.41858],[130.56026,33.42227]],[[130.50956,33.30189],[130.50339,33.30013],[130.50174,33.29955],[130.50039,33.29889],[130.49953,33.2983],[130.49862,33.29756],[130.4981,33.297]],[[130.56305,33.43614],[130.56114,33.42688],[130.56049,33.42336]],[[130.5428,33.47134],[130.54203,33.47189]],[[130.42252,33.18946],[130.42147,33.1879],[130.42,33.18541],[130.4162,33.17871],[130.416,33.17816],[130.4157,33.17664],[130.41571,33.17515],[130.41582,33.17415]],[[130.53293,33.48346],[130.53228,33.48459]],[[130.48323,33.52818],[130.48881,33.52285]],[[130.51823,33.5016],[130.51754,33.50269]],[[130.48239,33.52895],[130.48323,33.52818]],[[130.44347,33.55196],[130.44767,33.54951],[130.44877,33.5491],[130.44969,33.54889],[130.46169,33.54741]],[[130.43139,33.14348],[130.43097,33.14444]],[[130.4501,33.22746],[130.44948,33.22642]],[[130.46928,33.25566],[130.46862,33.25458],[130.46321,33.24777]],[[130.53135,33.32987],[130.53052,33.32883]],[[130.5244,33.31985],[130.52426,33.31916]],[[130.55388,33.39703],[130.55705,33.40648],[130.55805,33.41115]],[[130.55238,33.46334],[130.54553,33.46943],[130.5428,33.47134]],[[130.53135,33.32987],[130.53204,33.33093],[130.53263,33.33203],[130.53465,33.33665],[130.5377,33.34483],[130.54043,33.35249]],[[130.51548,33.30632],[130.51459,33.3054]],[[130.41453,33.56727],[130.41549,33.56647]],[[130.4399,33.12286],[130.43702,33.12921],[130.43139,33.14348]],[[130.56567,33.44692],[130.56547,33.44595]],[[130.41582,33.17415],[130.41593,33.17358]],[[130.47383,33.26966],[130.47053,33.25895],[130.46966,33.25639]],[[130.53228,33.48459],[130.53087,33.48702],[130.52997,33.48828],[130.52311,33.49547]],[[130.53052,33.32883],[130.52582,33.32286],[130.52505,33.32165],[130.5244,33.31985]],[[130.42792,33.55848],[130.43286,33.55579],[130.44141,33.55295],[130.44255,33.55247]],[[130.56049,33.42336],[130.56026,33.42227]],[[130.54076,33.35343],[130.542,33.35688],[130.54395,33.36073],[130.5507,33.37808]],[[130.44633,33.10947],[130.44443,33.1131],[130.44025,33.12215]],[[130.4981,33.297],[130.49741,33.29606]],[[130.52054,33.31173],[130.51548,33.30632]],[[130.52155,33.3128],[130.52054,33.31173]],[[130.44255,33.55247],[130.44347,33.55196]],[[130.43704,33.20831],[130.43353,33.20424],[130.42322,33.19043]],[[130.49741,33.29606],[130.49392,33.29151],[130.49223,33.28948],[130.48981,33.28699]],[[130.55354,33.46228],[130.56324,33.45369],[130.56453,33.45232],[130.56522,33.45122],[130.56563,33.45015],[130.56588,33.44853],[130.56583,33.44771],[130.56567,33.44692]],[[130.43097,33.14444],[130.42678,33.15499]],[[130.48887,33.28609],[130.48589,33.28333],[130.48368,33.28144],[130.48243,33.28077],[130.47954,33.27955],[130.47775,33.27866],[130.47673,33.27806],[130.47631,33.2777],[130.47581,33.27704],[130.47543,33.27619],[130.47495,33.27352],[130.4743,33.27122]],[[130.4743,33.27122],[130.47383,33.26966]],[[130.43801,33.20943],[130.43704,33.20831]],[[130.55341,33.3957],[130.55388,33.39703]],[[130.51459,33.3054],[130.51286,33.30353],[130.51222,33.30294],[130.51172,33.30261],[130.51123,33.3024],[130.51027,33.30211]],[[130.45284,33.0977],[130.44689,33.1085]],[[130.4586,33.08711],[130.4533,33.09687]],[[130.459,33.08636],[130.4586,33.08711]],[[130.46384,33.07154],[130.46373,33.07221]],[[130.45797,33.05066],[130.45836,33.05125]],[[130.44329,33.02959],[130.44409,33.03071]],[[130.4533,33.09687],[130.45284,33.0977]],[[130.45836,33.05125],[130.46107,33.05576],[130.46406,33.06186]],[[130.4501,33.03872],[130.45797,33.05066]],[[130.44409,33.03071],[130.44481,33.03128],[130.446,33.03278],[130.4497,33.03814]],[[130.4497,33.03814],[130.4501,33.03872]],[[130.44689,33.1085],[130.44633,33.10947]],[[130.46406,33.06186],[130.46442,33.06259]],[[130.46442,33.06259],[130.46551,33.06498],[130.46562,33.06619],[130.46555,33.06686],[130.46535,33.06768],[130.46384,33.07154]],[[130.46373,33.07221],[130.46328,33.07702],[130.46292,33.07851],[130.46064,33.08323],[130.459,33.08636]],[[130.52311,33.49547],[130.52202,33.49659]],[[130.52202,33.49659],[130.52024,33.49851],[130.51823,33.5016]]]}}