{"type":"Feature","properties":{"id":"西日本旅客鉄道_美祢線","name":"美祢線","operator":"西日本旅客鉄道","railType":"普通鉄道(JR)","operatorType":"JR在来線","category":"rail","attribution":"国土数値情報（鉄道データ）国土交通省"},"geometry":{"type":"MultiLineString","coordinates":[[[131.20772,34.23579],[131.20766,34.23378],[131.20772,34.23297],[131.20989,34.22061],[131.21017,34.21833],[131.20995,34.21746],[131.20962,34.21674],[131.20919,34.21615],[131.20868,34.21565],[131.2071,34.21449],[131.20662,34.21384],[131.20626,34.21285],[131.20631,34.21195],[131.20661,34.21078],[131.20696,34.2101],[131.20871,34.20805],[131.20892,34.20766],[131.20905,34.20704],[131.20894,34.20594],[131.20898,34.20505],[131.20954,34.20369],[131.20971,34.2028],[131.20969,34.20203],[131.20945,34.20132],[131.20869,34.19987],[131.20843,34.19915],[131.20838,34.19859],[131.20866,34.19643],[131.20874,34.19547],[131.2087,34.19483]],[[131.16107,34.13819],[131.16121,34.13717]],[[131.18525,34.16191],[131.18515,34.16104]],[[131.20428,34.16932],[131.20378,34.16884]],[[131.17226,34.08466],[131.17203,34.08404],[131.17198,34.08306],[131.17238,34.08052],[131.17269,34.07922],[131.17376,34.07693],[131.17367,34.07491],[131.1743,34.07296],[131.17438,34.07198],[131.17426,34.07134],[131.17284,34.06879],[131.17039,34.06468],[131.16678,34.05499],[131.16583,34.05399],[131.16482,34.05358],[131.16354,34.05328],[131.16291,34.05322],[131.16136,34.05325]],[[131.15913,34.05417],[131.16136,34.05325]],[[131.15447,34.11466],[131.15479,34.11374]],[[131.15479,34.11374],[131.15507,34.11262],[131.15506,34.11192],[131.15473,34.11097],[131.1542,34.1099],[131.154,34.10916],[131.15388,34.10784],[131.15407,34.10647],[131.15436,34.10593],[131.15514,34.10517],[131.15587,34.10476],[131.15666,34.10444],[131.15789,34.10421],[131.15963,34.10451],[131.16273,34.10656],[131.16394,34.10683],[131.16594,34.10711],[131.16675,34.10751],[131.16879,34.10896],[131.16985,34.10931],[131.17083,34.10931],[131.17192,34.10905],[131.17264,34.10859],[131.1736,34.10738],[131.17424,34.10635],[131.17448,34.10579],[131.17457,34.10402],[131.17465,34.10354],[131.17489,34.10302],[131.17527,34.10255],[131.1771,34.10112],[131.17896,34.09867],[131.17969,34.09757],[131.17993,34.09697],[131.17999,34.09616],[131.17986,34.09561],[131.17967,34.09527],[131.17906,34.09454],[131.17839,34.09415],[131.17605,34.0932],[131.17545,34.09278],[131.17496,34.09231],[131.17456,34.09166],[131.17449,34.0914],[131.17436,34.08961],[131.17416,34.08878],[131.17328,34.08659],[131.17284,34.08575]],[[131.20774,34.23686],[131.20772,34.23579]],[[131.17664,34.35367],[131.17662,34.35293]],[[131.20863,34.19377],[131.2086,34.1882],[131.20824,34.18563],[131.20812,34.18178],[131.2074,34.17903],[131.20751,34.17561],[131.20745,34.1748],[131.20558,34.17084],[131.20428,34.16932]],[[131.17662,34.35293],[131.17636,34.34767],[131.1763,34.34701],[131.17608,34.34622],[131.1755,34.34527],[131.17437,34.344],[131.17288,34.34317],[131.17195,34.34255],[131.17135,34.34166],[131.17117,34.34111],[131.17133,34.34016],[131.17261,34.33642],[131.17268,34.33573],[131.17262,34.3348]],[[131.1863,34.37591],[131.18488,34.37485]],[[131.17254,34.33415],[131.17251,34.33365],[131.17229,34.33287],[131.17162,34.33168],[131.17135,34.33093],[131.17127,34.33058],[131.17122,34.32896],[131.17157,34.32796],[131.17273,34.32622],[131.17343,34.3257],[131.17452,34.32532],[131.17601,34.32496],[131.1779,34.32462],[131.17849,34.32442],[131.17893,34.32408],[131.18033,34.32252],[131.18146,34.32173],[131.18234,34.32143],[131.18424,34.32121],[131.18562,34.32071],[131.18642,34.32016],[131.18764,34.31883],[131.18894,34.31656],[131.19017,34.31418],[131.19054,34.3138],[131.1927,34.31241],[131.19379,34.31197],[131.19415,34.31188],[131.19631,34.31172]],[[131.18488,34.37485],[131.18145,34.37239]],[[131.18145,34.37239],[131.1809,34.37179],[131.17963,34.36974],[131.17629,34.36367],[131.17581,34.36251],[131.17566,34.36128],[131.17583,34.36028],[131.17679,34.35782],[131.17664,34.35367]],[[131.19631,34.31172],[131.19709,34.31166]],[[131.18515,34.16104],[131.18465,34.15864],[131.18426,34.15792],[131.18373,34.15734],[131.17777,34.15364],[131.1747,34.15155],[131.1739,34.15085],[131.1695,34.14636],[131.16912,34.1461],[131.16837,34.14579],[131.16475,34.14496],[131.16411,34.14472],[131.16332,34.14424],[131.16238,34.14312],[131.16161,34.14159],[131.16108,34.14033],[131.16095,34.1399],[131.16107,34.13819]],[[131.17262,34.3348],[131.17254,34.33415]],[[131.16121,34.13717],[131.16156,34.13473],[131.16157,34.13373],[131.16138,34.13311],[131.1611,34.13256],[131.15987,34.13055],[131.15948,34.12971],[131.15942,34.1294],[131.15944,34.1286],[131.15961,34.12816],[131.1605,34.12654],[131.1606,34.12622],[131.16064,34.1255],[131.16052,34.12497],[131.16029,34.1245],[131.16005,34.12421],[131.15936,34.1236],[131.1547,34.12051],[131.15372,34.11961],[131.15338,34.11882],[131.15333,34.11826],[131.15341,34.11767],[131.15447,34.11466]],[[131.19709,34.31166],[131.19934,34.31143],[131.2011,34.31111],[131.20166,34.3109],[131.2023,34.31054],[131.20335,34.30983],[131.2038,34.30924],[131.20405,34.30852],[131.20407,34.30757],[131.20391,34.30694],[131.20345,34.30634],[131.20274,34.30571],[131.20244,34.3053],[131.20206,34.30446],[131.20207,34.30372],[131.2024,34.30262],[131.20249,34.30199],[131.20238,34.3013],[131.20218,34.30091],[131.20162,34.3002],[131.20088,34.29947],[131.2004,34.29902],[131.19922,34.2982],[131.1987,34.29764],[131.19839,34.29694],[131.19798,34.29548],[131.19699,34.2936],[131.1963,34.29259],[131.1951,34.29137],[131.19293,34.29032],[131.19233,34.28966],[131.19196,34.28897],[131.19277,34.27515],[131.19232,34.27352],[131.19224,34.27232],[131.19231,34.27159],[131.19296,34.26866],[131.19258,34.26586],[131.1927,34.26521],[131.19341,34.26374],[131.19348,34.26324],[131.19343,34.2627],[131.19303,34.26146],[131.19299,34.26066],[131.19324,34.2599],[131.19355,34.25946],[131.19627,34.25682],[131.19781,34.25503],[131.1986,34.25439],[131.19949,34.25388],[131.20044,34.25353],[131.20142,34.2533],[131.20373,34.25294],[131.20469,34.25266],[131.20513,34.25245],[131.20571,34.25199],[131.20615,34.25143],[131.20636,34.25087],[131.20776,34.24354],[131.20783,34.24236],[131.20774,34.23686]],[[131.2087,34.19483],[131.20863,34.19377]],[[131.20378,34.16884],[131.20257,34.16788],[131.20208,34.16761],[131.20101,34.16717],[131.20011,34.16702],[131.1994,34.16705],[131.19855,34.16726],[131.1968,34.16811],[131.19428,34.16851],[131.18847,34.16852],[131.18771,34.16847],[131.18699,34.16828],[131.1863,34.16793],[131.18583,34.16749],[131.18549,34.16702],[131.18526,34.16645],[131.18516,34.16559],[131.18542,34.16417],[131.18543,34.1636],[131.18525,34.16191]],[[131.17284,34.08575],[131.17226,34.08466]]]}}