{"type":"Feature","properties":{"id":"西日本旅客鉄道_伯備線","name":"伯備線","operator":"西日本旅客鉄道","railType":"普通鉄道(JR)","operatorType":"JR在来線","category":"rail","attribution":"国土数値情報（鉄道データ）国土交通省"},"geometry":{"type":"MultiLineString","coordinates":[[[133.38319,35.42961],[133.38515,35.43063]],[[133.38515,35.43063],[133.38688,35.43155]],[[133.40977,35.38696],[133.40918,35.38782]],[[133.45708,34.98709],[133.45627,34.98732]],[[133.38356,35.0389],[133.38412,35.0379]],[[133.60614,34.76714],[133.60598,34.77312],[133.60618,34.77476],[133.60669,34.77653],[133.60739,34.77813],[133.60823,34.7797],[133.60924,34.7811]],[[133.66001,34.72004],[133.66134,34.7205],[133.66244,34.72099],[133.66294,34.72112],[133.66357,34.72116],[133.66451,34.72098],[133.6663,34.72105],[133.667,34.72116],[133.66947,34.72226]],[[133.32193,35.17143],[133.32165,35.17315],[133.32178,35.17366],[133.32204,35.17413],[133.32242,35.17456],[133.3256,35.17645],[133.32576,35.17662],[133.3282,35.18113],[133.32843,35.18167],[133.32845,35.18196],[133.32822,35.18355],[133.32844,35.18492],[133.32891,35.187],[133.3292,35.18787],[133.32967,35.18861],[133.33069,35.18941],[133.33151,35.18974],[133.33201,35.18983],[133.33443,35.1898],[133.33553,35.19007],[133.33622,35.19048],[133.33843,35.19272],[133.33899,35.19302],[133.34023,35.19344],[133.34064,35.19354],[133.34139,35.19356]],[[133.58929,34.84979],[133.58773,34.85056]],[[133.55711,34.87676],[133.55583,34.87687]],[[133.34139,35.19356],[133.34249,35.19354]],[[133.69065,34.71537],[133.68938,34.71589]],[[133.44254,35.24193],[133.44415,35.24272],[133.44676,35.24328],[133.44808,35.24401],[133.44945,35.245],[133.4503,35.24589],[133.45114,35.24705],[133.45255,35.24987],[133.4531,35.25055],[133.45607,35.25287],[133.45704,35.2539],[133.45875,35.25527],[133.4629,35.25816],[133.46441,35.25953],[133.46575,35.26111],[133.46688,35.26156],[133.46885,35.26187],[133.47497,35.26212],[133.47546,35.26225],[133.47635,35.26266],[133.47718,35.2634],[133.47739,35.26375],[133.47769,35.26467],[133.47774,35.26537],[133.47767,35.26597],[133.477,35.26712]],[[133.42194,34.98803],[133.42133,34.98778],[133.41976,34.98662],[133.4191,34.98637],[133.41836,34.98625],[133.4171,34.9863],[133.41604,34.98671],[133.41529,34.9873],[133.41497,34.98774],[133.41476,34.98836],[133.41472,34.98968],[133.41454,34.99041],[133.41428,34.99086],[133.41391,34.99128],[133.4136,34.99155],[133.413,34.99188],[133.41107,34.9926],[133.41013,34.99274],[133.40957,34.9927],[133.4071,34.99212],[133.40532,34.99204],[133.40451,34.99217],[133.40336,34.99266],[133.4009,34.9944]],[[133.43501,35.3486],[133.4332,35.35092],[133.43291,35.35154],[133.43256,35.35267],[133.43219,35.35441],[133.43195,35.35512],[133.43101,35.35692],[133.43012,35.35831],[133.42941,35.35925],[133.42666,35.36229],[133.42396,35.36553],[133.42253,35.36705],[133.4158,35.3737],[133.41497,35.37475],[133.41388,35.3765],[133.41361,35.37724],[133.41324,35.37781],[133.41221,35.37903],[133.41176,35.37969],[133.41151,35.38072],[133.41166,35.38358],[133.41153,35.38445],[133.41103,35.38538],[133.40977,35.38696]],[[133.64576,34.73693],[133.6464,34.7356],[133.64689,34.73425],[133.64816,34.72866],[133.64817,34.72811],[133.64777,34.72678]],[[133.34249,35.19354],[133.34616,35.1928],[133.35006,35.19235],[133.3514,35.19234],[133.3534,35.19251],[133.35597,35.19291],[133.35687,35.19327],[133.35742,35.19367],[133.35771,35.19397],[133.35838,35.19517],[133.35899,35.19588],[133.35952,35.19625],[133.36028,35.19657],[133.36131,35.19673],[133.36207,35.19671],[133.36306,35.1964],[133.36545,35.19488],[133.36661,35.19464],[133.36766,35.19477],[133.36896,35.19531],[133.3706,35.19684],[133.37111,35.19712],[133.37438,35.19815],[133.37554,35.19868],[133.37614,35.19921],[133.37736,35.20076],[133.378,35.20122],[133.37878,35.20152],[133.38131,35.20203],[133.3821,35.20244],[133.38286,35.20318],[133.38322,35.20385],[133.38333,35.20424],[133.38347,35.20587]],[[133.55583,34.87687],[133.55508,34.877],[133.55398,34.87737],[133.55321,34.87776],[133.55265,34.87819],[133.55231,34.87857],[133.55165,34.87965],[133.55132,34.88045],[133.5512,34.88119],[133.55147,34.88295],[133.55159,34.88437],[133.55161,34.88577],[133.5514,34.88725],[133.5509,34.88842],[133.54979,34.89003],[133.54954,34.89114],[133.5492,34.89163],[133.54788,34.89305],[133.5471,34.89375],[133.54593,34.8944],[133.54341,34.89532],[133.5414,34.89663],[133.54006,34.89738],[133.53816,34.89873],[133.53645,34.90026],[133.53504,34.90181],[133.53468,34.90245],[133.53443,34.90321],[133.53434,34.9038],[133.5345,34.90468],[133.53488,34.90574],[133.53492,34.90626],[133.53486,34.90674],[133.53464,34.90733],[133.53439,34.90774],[133.53389,34.90838],[133.53237,34.9096],[133.53173,34.91028],[133.52661,34.91732],[133.52496,34.91931],[133.5241,34.91986],[133.52295,34.92022],[133.52204,34.92065],[133.52135,34.9211],[133.52081,34.92158],[133.52045,34.92205],[133.52029,34.92245],[133.52017,34.92327],[133.5206,34.9275],[133.52041,34.9295],[133.52016,34.93009],[133.51983,34.93056],[133.51905,34.93118],[133.51771,34.93161],[133.51663,34.93174]],[[133.60689,34.75848],[133.60611,34.75861]],[[133.44254,35.24193],[133.44104,35.24099]],[[133.51585,34.93172],[133.51663,34.93174]],[[133.60689,34.75848],[133.60745,34.7584],[133.60888,34.75845],[133.61134,34.75883],[133.61229,34.7587],[133.61307,34.75848],[133.61398,34.75808],[133.61539,34.75705],[133.61692,34.75619],[133.61866,34.75534],[133.62014,34.75472],[133.62041,34.75454],[133.62117,34.75367],[133.62371,34.75051],[133.62561,34.7488],[133.62756,34.74831],[133.62909,34.74813],[133.63193,34.74714],[133.6332,34.74681],[133.63544,34.74585],[133.63902,34.74288],[133.6397,34.74216],[133.64214,34.74049],[133.64369,34.73924],[133.64497,34.73795],[133.64576,34.73693]],[[133.4794,34.95506],[133.47506,34.96412],[133.47475,34.9646],[133.47434,34.96502],[133.47379,34.96538],[133.47319,34.96562],[133.47036,34.96639],[133.46909,34.96707],[133.46814,34.96792],[133.46746,34.96882],[133.46602,34.97135],[133.46589,34.97172],[133.46583,34.97261],[133.46601,34.97329],[133.4679,34.97607],[133.46816,34.97688],[133.46791,34.9807],[133.46769,34.98149],[133.46745,34.98194],[133.46674,34.9829],[133.46611,34.9836],[133.46509,34.98442],[133.46424,34.98497],[133.45708,34.98709]],[[133.3219,35.16998],[133.32193,35.17143]],[[133.4766,35.26772],[133.47628,35.26821],[133.47612,35.26896],[133.47619,35.26953],[133.47637,35.27],[133.47667,35.2704],[133.47718,35.27087],[133.47847,35.27148],[133.47949,35.27209],[133.47994,35.27253],[133.48049,35.27327],[133.48281,35.27699],[133.48402,35.2794],[133.48474,35.28249]],[[133.72193,34.70608],[133.71883,34.70523],[133.71668,34.7051],[133.71568,34.70524],[133.71125,34.70694],[133.70993,34.70783],[133.70387,34.71253],[133.70305,34.71306],[133.70251,34.71331],[133.70146,34.71366],[133.70031,34.71392],[133.69313,34.71481],[133.69209,34.71499],[133.69065,34.71537]],[[133.65484,34.71985],[133.65956,34.71995],[133.66001,34.72004]],[[133.60924,34.7811],[133.61041,34.78215],[133.61582,34.78787]],[[133.44104,35.24099],[133.43602,35.23788],[133.43534,35.23756],[133.43486,35.23745],[133.434,35.23741],[133.43296,35.23764],[133.43027,35.23912],[133.42917,35.23946],[133.42882,35.23948],[133.42504,35.23946],[133.4239,35.23935],[133.42251,35.23903],[133.42129,35.2386],[133.41917,35.23758],[133.41827,35.23694],[133.41786,35.23648],[133.41748,35.23576],[133.41718,35.23482],[133.41713,35.23433],[133.41718,35.23379],[133.41737,35.23299],[133.41808,35.23082],[133.41814,35.23021],[133.4179,35.22923],[133.41727,35.22837],[133.41625,35.22772],[133.41146,35.22531],[133.40609,35.2234],[133.4054,35.22294],[133.40492,35.22251],[133.40306,35.22039],[133.40235,35.21984],[133.40178,35.21954],[133.38861,35.21558],[133.38771,35.21527],[133.38703,35.21492],[133.38653,35.21443],[133.38603,35.21373],[133.38459,35.21142],[133.38404,35.21029],[133.38382,35.20959],[133.3836,35.2071]],[[133.40918,35.38782],[133.40353,35.39673],[133.40254,35.39864],[133.40045,35.4045],[133.39993,35.40695],[133.39911,35.41691],[133.39899,35.41763],[133.39532,35.42494],[133.39336,35.42913],[133.39264,35.43034],[133.39228,35.43077],[133.3911,35.43151],[133.3899,35.43188],[133.38915,35.43198],[133.38844,35.43194],[133.38688,35.43155]],[[133.47971,34.9544],[133.4794,34.95506]],[[133.48497,35.28357],[133.48544,35.28637],[133.48532,35.28728],[133.48497,35.2881],[133.48464,35.28861],[133.48363,35.28958],[133.48262,35.29023],[133.48196,35.29045],[133.48109,35.29061],[133.47846,35.29086],[133.47749,35.29126],[133.47656,35.29201],[133.47307,35.29836],[133.47124,35.30328],[133.47019,35.30444],[133.46118,35.31148],[133.46042,35.31219],[133.46002,35.31286],[133.45922,35.31653],[133.45897,35.31702],[133.45871,35.31733],[133.45635,35.31833],[133.45346,35.31974],[133.4486,35.32331],[133.447,35.32431],[133.44588,35.32482],[133.44369,35.32558],[133.4421,35.32626],[133.44131,35.32668],[133.44086,35.32708],[133.43908,35.32963],[133.43852,35.33058],[133.43737,35.33418],[133.43728,35.33466],[133.4372,35.33649],[133.43754,35.34139],[133.43769,35.34494],[133.43734,35.34595],[133.43571,35.34784]],[[133.61582,34.78787],[133.61726,34.78937]],[[133.47971,34.9544],[133.48046,34.95278],[133.48084,34.95225],[133.48311,34.9501],[133.48735,34.94634],[133.48962,34.94402],[133.49737,34.93994],[133.49937,34.93859],[133.50359,34.9356],[133.50436,34.93497],[133.50729,34.93186],[133.50779,34.93148],[133.50843,34.93117],[133.5092,34.93093],[133.51075,34.93063],[133.51195,34.93076],[133.51455,34.93155],[133.51585,34.93172]],[[133.43571,35.34784],[133.43501,35.3486]],[[133.35255,35.11238],[133.35534,35.11206],[133.35611,35.1119],[133.35697,35.11153],[133.3576,35.11104],[133.35841,35.11009],[133.36083,35.10672],[133.36256,35.10378],[133.36447,35.0997],[133.36523,35.09769],[133.36572,35.09622],[133.36688,35.09162],[133.367,35.09093],[133.36694,35.09014],[133.36592,35.08859],[133.36575,35.08813],[133.36572,35.08764],[133.36581,35.08705],[133.36618,35.08627],[133.36669,35.0845],[133.36772,35.08251]],[[133.36772,35.08251],[133.36789,35.0817]],[[133.72307,34.70644],[133.72536,34.70717],[133.72598,34.70728]],[[133.48474,35.28249],[133.48497,35.28357]],[[133.42271,34.98813],[133.42194,34.98803]],[[133.60611,34.75861],[133.60517,34.75892],[133.60386,34.75966],[133.60349,34.76008],[133.60332,34.7604],[133.60322,34.76072],[133.60318,34.76142],[133.60324,34.76174],[133.60352,34.76238],[133.60409,34.76316],[133.60515,34.76419],[133.60589,34.76539],[133.60601,34.76581],[133.60614,34.76714]],[[133.45627,34.98732],[133.45332,34.98817],[133.45288,34.98836],[133.44979,34.99062],[133.44889,34.9911],[133.44603,34.99213],[133.44125,34.9935],[133.44051,34.99384],[133.43965,34.99449],[133.43812,34.99586],[133.4373,34.99644],[133.43607,34.99688],[133.43529,34.99693],[133.43437,34.99676],[133.4336,34.99638],[133.43299,34.99593],[133.4326,34.99551],[133.43179,34.9938],[133.43142,34.99334],[133.43018,34.99227],[133.42541,34.98865],[133.42443,34.98829],[133.42271,34.98813]],[[133.61342,34.82598],[133.61248,34.82619],[133.61132,34.82663],[133.61095,34.82688],[133.60934,34.82849],[133.60709,34.82994],[133.60666,34.83034],[133.6038,34.83369],[133.60158,34.83654],[133.60106,34.83696],[133.60036,34.83727],[133.59765,34.83791],[133.5964,34.83843],[133.59546,34.83907],[133.59474,34.83994],[133.59433,34.8412],[133.59441,34.8422],[133.59489,34.84443],[133.59494,34.84531],[133.59481,34.84609],[133.59455,34.84682],[133.59407,34.84774],[133.59372,34.84816],[133.59295,34.84876],[133.59152,34.84927],[133.59012,34.84951],[133.58929,34.84979]],[[133.72596,34.70728],[133.72598,34.70728]],[[133.36789,35.0817],[133.3679,35.08012],[133.368,35.07914],[133.36861,35.07659],[133.36855,35.0747],[133.36901,35.07363],[133.37006,35.07191],[133.37067,35.0712],[133.3717,35.0706],[133.37237,35.07035],[133.3751,35.06969],[133.37568,35.06938],[133.37587,35.06921],[133.37646,35.06823],[133.37701,35.06664],[133.37808,35.06572],[133.38295,35.06293],[133.38343,35.06247],[133.38425,35.06102],[133.38433,35.06052],[133.38399,35.05923],[133.38363,35.05835],[133.38352,35.05619],[133.38246,35.05268],[133.38233,35.05208],[133.38229,35.05126],[133.38232,35.05086],[133.38252,35.05032],[133.3832,35.04933],[133.3841,35.04835],[133.3843,35.04782],[133.38425,35.04677],[133.38303,35.04431],[133.3829,35.04389],[133.38248,35.04147],[133.38257,35.04097],[133.38356,35.0389]],[[133.3836,35.2071],[133.38347,35.20587]],[[133.72193,34.70608],[133.72307,34.70644]],[[133.60614,34.76714],[133.60587,34.76787],[133.60483,34.76964],[133.60368,34.77212],[133.60355,34.77348],[133.60332,34.77446],[133.60276,34.77549],[133.60205,34.77635],[133.60175,34.77686],[133.6015,34.77753],[133.60151,34.77825],[133.60164,34.77856],[133.60202,34.77908],[133.60296,34.77967],[133.60433,34.78005],[133.60851,34.78075],[133.60924,34.7811]],[[133.477,35.26712],[133.4766,35.26772]],[[133.38412,35.0379],[133.3844,35.0375],[133.3856,35.03668],[133.38647,35.03597],[133.38677,35.03555],[133.38724,35.0342],[133.3875,35.03382],[133.38842,35.03284],[133.38946,35.03093],[133.38973,35.03059],[133.3921,35.0288],[133.39253,35.0284],[133.39389,35.02599],[133.39424,35.025],[133.39427,35.02471],[133.39402,35.02343],[133.39402,35.0222],[133.39384,35.02006],[133.39416,35.01908],[133.39481,35.0177],[133.39483,35.01556],[133.39491,35.01517],[133.39514,35.01473],[133.39593,35.01393],[133.39712,35.01343],[133.39797,35.01336],[133.40023,35.01358],[133.40167,35.01319],[133.40261,35.01251],[133.40305,35.01187],[133.40319,35.01142],[133.40339,35.00884],[133.40364,35.00826],[133.40417,35.00742],[133.40443,35.00677],[133.40443,35.00627],[133.40432,35.00568],[133.40394,35.00499],[133.40322,35.00437],[133.40121,35.00343],[133.40084,35.00319],[133.39844,35],[133.39796,34.99923],[133.39768,34.99858],[133.39763,34.99773],[133.39769,34.99732],[133.39795,34.99671],[133.39845,34.99611],[133.40026,34.99481]],[[133.66001,34.72004],[133.66198,34.7212],[133.66326,34.72163],[133.66414,34.72174],[133.66779,34.72188],[133.66947,34.72226]],[[133.61528,34.82545],[133.61342,34.82598]],[[133.64576,34.73693],[133.64654,34.73564],[133.64704,34.7344],[133.64839,34.72877],[133.64837,34.72788],[133.64799,34.72704],[133.64777,34.72678]],[[133.58773,34.85056],[133.58743,34.85072],[133.58656,34.85152],[133.58559,34.85285],[133.58458,34.8547],[133.58411,34.85521],[133.58371,34.8555],[133.58289,34.8559],[133.5815,34.85622],[133.58058,34.85627],[133.5782,34.85603],[133.57705,34.85631],[133.57551,34.85714],[133.57352,34.85905],[133.57247,34.86022],[133.57168,34.86092],[133.57094,34.86137],[133.57014,34.86163],[133.56912,34.86179],[133.56818,34.86234],[133.56766,34.86293],[133.56726,34.86374],[133.56707,34.86466],[133.56704,34.86589],[133.56686,34.86661],[133.56582,34.86868],[133.56471,34.87023],[133.56398,34.87249],[133.56336,34.87382],[133.5619,34.87519],[133.56041,34.8763],[133.56008,34.87647],[133.55928,34.87673],[133.55879,34.87678],[133.55711,34.87676]],[[133.35066,35.11259],[133.35255,35.11238]],[[133.72596,34.70728],[133.72605,34.70729],[133.72598,34.70728]],[[133.68938,34.71589],[133.68087,34.72089],[133.67911,34.72185],[133.6781,34.72251],[133.67695,34.72301],[133.6754,34.72337],[133.67383,34.72338],[133.67149,34.72286],[133.66947,34.72226]],[[133.65484,34.71985],[133.65365,34.71983]],[[133.61726,34.78937],[133.61895,34.79131],[133.61917,34.79177],[133.61937,34.79248],[133.619,34.79456],[133.61751,34.80105],[133.61727,34.80317],[133.61713,34.80878],[133.61695,34.81],[133.61618,34.81246],[133.61572,34.81329],[133.61479,34.81459],[133.61434,34.81553],[133.6143,34.81607],[133.61458,34.81692],[133.61585,34.81824],[133.61675,34.81884],[133.61883,34.81976],[133.6193,34.82008],[133.61955,34.82038],[133.61987,34.82098],[133.62002,34.82192],[133.61997,34.82238],[133.61978,34.82301],[133.61916,34.82383],[133.61879,34.82412],[133.61787,34.82466],[133.61528,34.82545]],[[133.3219,35.16998],[133.32182,35.16931],[133.32153,35.16858],[133.31996,35.16668],[133.31963,35.16607],[133.31949,35.16529],[133.31955,35.16482],[133.31998,35.16436],[133.32361,35.16203],[133.32468,35.16115],[133.32514,35.16039],[133.32546,35.15873],[133.3264,35.15636],[133.32688,35.15598],[133.32872,35.15551],[133.33016,35.15479],[133.33103,35.15392],[133.33132,35.15345],[133.33152,35.15292],[133.33155,35.152],[133.33117,35.1512],[133.33042,35.15043],[133.32857,35.14928],[133.3279,35.14841],[133.32749,35.14759],[133.32732,35.14683],[133.32687,35.1407],[133.32689,35.14005],[133.32731,35.13885],[133.32735,35.13847],[133.32597,35.13414],[133.32591,35.13366],[133.32599,35.1331],[133.32613,35.13279],[133.32682,35.13185],[133.32902,35.13051],[133.32936,35.13009],[133.32962,35.12951],[133.32977,35.12888],[133.32973,35.12846],[133.32948,35.12774],[133.3287,35.12665],[133.32847,35.12576],[133.32854,35.12491],[133.32881,35.12394],[133.33029,35.12205],[133.33071,35.12003],[133.33136,35.11912],[133.33188,35.11877],[133.33456,35.11755],[133.33585,35.11656],[133.33632,35.11629],[133.33832,35.11545],[133.33925,35.11515],[133.34022,35.11501],[133.34058,35.11502],[133.34225,35.11536],[133.34338,35.1153],[133.34386,35.1152],[133.34524,35.11469],[133.3473,35.11332],[133.34806,35.11299],[133.34912,35.11276],[133.35066,35.11259]],[[133.65365,34.71983],[133.65118,34.71976],[133.65002,34.71991],[133.6492,34.72025],[133.6484,34.72099],[133.64797,34.72158],[133.64721,34.72294],[133.64688,34.72406],[133.64685,34.72464],[133.64703,34.7254],[133.64777,34.72678]],[[133.4009,34.9944],[133.40026,34.99481]],[[133.74678,34.62295],[133.74814,34.62191],[133.7509,34.61999],[133.75196,34.61909]],[[133.73836,34.67568],[133.73859,34.67765],[133.73833,34.67946],[133.73791,34.68105],[133.73789,34.68155],[133.73814,34.68256],[133.73854,34.6834],[133.7387,34.68465],[133.73865,34.68488],[133.7379,34.68616],[133.73708,34.68781],[133.73564,34.69087],[133.73527,34.69225],[133.73531,34.69299],[133.73547,34.69353],[133.73669,34.69636]],[[133.73833,34.6754],[133.73836,34.67568]],[[133.72598,34.70728],[133.72674,34.70726],[133.72788,34.70703],[133.72875,34.70658],[133.72955,34.70599],[133.72995,34.70559],[133.73621,34.69828],[133.73661,34.69744],[133.73669,34.69636]],[[133.73364,34.6449],[133.73798,34.67296]],[[133.73337,34.64317],[133.73364,34.6449]],[[133.73243,34.63716],[133.73337,34.64317]],[[133.76788,34.60328],[133.76614,34.6025],[133.76419,34.60104],[133.76361,34.60037]],[[133.75196,34.61909],[133.75482,34.61704],[133.75536,34.61638],[133.75567,34.61563],[133.75582,34.61476],[133.75714,34.60122],[133.75735,34.60046],[133.7581,34.5996],[133.75869,34.59924],[133.75979,34.59892],[133.76067,34.59886],[133.7615,34.59904],[133.76196,34.59925],[133.76361,34.60037]],[[133.73243,34.63716],[133.73211,34.63575],[133.73166,34.63469],[133.73132,34.63422],[133.73,34.63287],[133.72929,34.63186],[133.72905,34.6313],[133.72893,34.63075],[133.729,34.63015],[133.72921,34.62962],[133.72993,34.62864],[133.73047,34.62824],[133.73104,34.62798],[133.73784,34.62645],[133.7409,34.62497],[133.74423,34.62406],[133.74538,34.62367]],[[133.73798,34.67296],[133.73833,34.6754]],[[133.76449,34.60097],[133.76361,34.60037]],[[133.74538,34.62367],[133.74678,34.62295]],[[133.72596,34.70728],[133.72722,34.70739],[133.72806,34.70722],[133.72922,34.7067],[133.72987,34.7063],[133.7308,34.70546],[133.7362,34.69905],[133.73668,34.69807],[133.73682,34.69745],[133.73683,34.69694],[133.73669,34.69636]],[[133.76653,34.60246],[133.76449,34.60097]],[[133.73243,34.63716],[133.73253,34.63576],[133.73298,34.63435],[133.73374,34.63294],[133.73517,34.63112],[133.737,34.62947],[133.7436,34.62454],[133.74405,34.62426],[133.74538,34.62367]],[[133.74678,34.62295],[133.74736,34.62234],[133.74836,34.62073],[133.74883,34.62031],[133.74955,34.61988],[133.75196,34.61909]]]}}