{"type":"Feature","properties":{"id":"西武鉄道_多摩川線","name":"多摩川線","operator":"西武鉄道","railType":"普通鉄道","operatorType":"民営","category":"rail","attribution":"国土数値情報（鉄道データ）国土交通省"},"geometry":{"type":"MultiLineString","coordinates":[[[139.54474,35.70192],[139.54379,35.7019]],[[139.52711,35.69623],[139.52638,35.69561]],[[139.54379,35.7019],[139.53742,35.7018],[139.53608,35.70173],[139.5357,35.70164],[139.53495,35.70133],[139.53338,35.70036],[139.52711,35.69623]],[[139.48921,35.65616],[139.49679,35.65584],[139.49803,35.65587],[139.49904,35.65607]],[[139.49904,35.65607],[139.50028,35.65635]],[[139.51692,35.67634],[139.51384,35.6699],[139.5123,35.66823],[139.5103,35.66682]],[[139.51738,35.67731],[139.51692,35.67634]],[[139.52638,35.69561],[139.52555,35.69453],[139.51738,35.67731]],[[139.50875,35.66579],[139.5103,35.66682]],[[139.50028,35.65635],[139.50174,35.65682],[139.50231,35.6572],[139.50255,35.65748],[139.50296,35.65827],[139.50392,35.66169],[139.50409,35.66206],[139.50465,35.66274],[139.50525,35.66325],[139.50875,35.66579]],[[139.48921,35.65616],[139.48807,35.65621]]]}}