{"type":"Feature","properties":{"id":"西日本旅客鉄道_関西線","name":"関西線","operator":"西日本旅客鉄道","railType":"普通鉄道(JR)","operatorType":"JR在来線","category":"rail","attribution":"国土数値情報（鉄道データ）国土交通省"},"geometry":{"type":"MultiLineString","coordinates":[[[135.7031,34.59749],[135.70445,34.59744]],[[135.70741,34.59696],[135.70792,34.59672],[135.70925,34.59586]],[[135.70445,34.59744],[135.7063,34.59732],[135.70741,34.59696]],[[135.81781,34.67843],[135.81829,34.67937]],[[136.45237,34.84985],[136.44867,34.85032]],[[135.6397,34.57137],[135.64103,34.57128],[135.64218,34.57139],[135.64292,34.57155],[135.644,34.57189],[135.64579,34.57276]],[[135.68785,34.58905],[135.6872,34.58871]],[[135.93487,34.75897],[135.93416,34.75929]],[[135.80981,34.71002],[135.81089,34.71104]],[[135.70741,34.59696],[135.70022,34.59714],[135.69984,34.59707]],[[136.33976,34.84188],[136.34079,34.84325]],[[135.61621,34.59991],[135.61788,34.59754],[135.61929,34.59475],[135.62202,34.58852],[135.62242,34.58793]],[[135.79068,34.64888],[135.79146,34.65137],[135.79306,34.65795],[135.79333,34.65876],[135.79373,34.65938],[135.79466,34.66023],[135.80652,34.66908],[135.80802,34.67039],[135.81162,34.67444],[135.81271,34.67519],[135.81333,34.67551],[135.81574,34.67649],[135.81636,34.67684],[135.81737,34.67773],[135.81781,34.67843]],[[135.86911,34.75203],[135.87008,34.75311]],[[136.206,34.82053],[136.20434,34.81962],[136.1928,34.81435],[136.19195,34.81403],[136.17227,34.80931],[136.17145,34.80883],[136.17019,34.80757],[136.1698,34.80731],[136.16412,34.80465]],[[136.39342,34.84908],[136.39611,34.84909]],[[135.62331,34.58684],[135.62242,34.58793]],[[135.79003,34.64736],[135.78909,34.64555],[135.78781,34.64358],[135.78622,34.64166],[135.78453,34.63991],[135.78362,34.63908],[135.78061,34.63676],[135.77187,34.63059],[135.77003,34.62913],[135.76876,34.62795],[135.76401,34.62282]],[[135.79068,34.64888],[135.79003,34.64736]],[[135.66362,34.57498],[135.66274,34.57377]],[[136.25445,34.84971],[136.25574,34.84749]],[[136.20743,34.82154],[136.2142,34.8271],[136.22363,34.83636],[136.22657,34.83906],[136.22993,34.8409],[136.23654,34.84513],[136.23895,34.84604],[136.23994,34.84652],[136.24073,34.84704],[136.24451,34.85009],[136.24629,34.85142],[136.24712,34.85176],[136.24793,34.85195],[136.24906,34.85195],[136.24969,34.85187],[136.25052,34.85164],[136.25365,34.85024],[136.25445,34.84971]],[[135.73801,34.60104],[135.72754,34.59499],[135.72601,34.59434],[135.72508,34.59412],[135.7211,34.59367],[135.71649,34.59421],[135.71243,34.59455],[135.71092,34.59494],[135.70977,34.59549],[135.70925,34.59586]],[[135.73979,34.60206],[135.73801,34.60104]],[[135.69984,34.59707],[135.70027,34.59731],[135.70094,34.59746],[135.7031,34.59749]],[[135.64579,34.57276],[135.64651,34.573],[135.64718,34.5731],[135.65006,34.57328],[135.65095,34.57326],[135.65175,34.57316],[135.65302,34.57286],[135.65581,34.57195]],[[135.76401,34.62282],[135.76289,34.62157]],[[135.61621,34.59991],[135.61561,34.60075]],[[135.93416,34.75929],[135.93245,34.75997],[135.92969,34.76047],[135.92812,34.76066],[135.92468,34.76152],[135.92314,34.76196],[135.92008,34.76326],[135.91871,34.76366],[135.91373,34.76399],[135.9069,34.76513],[135.90464,34.76543],[135.90364,34.76543],[135.90294,34.76528],[135.90253,34.7651],[135.90081,34.76362],[135.90032,34.76326],[135.89946,34.76282],[135.89398,34.76102],[135.89289,34.76086],[135.89146,34.7609],[135.88915,34.76106],[135.88486,34.76157],[135.88418,34.76157],[135.88289,34.76128],[135.88123,34.76046],[135.88021,34.76006],[135.87684,34.75953],[135.87587,34.7591],[135.87486,34.75827],[135.87096,34.75394],[135.87008,34.75311]],[[136.34079,34.84325],[136.34101,34.84354],[136.34165,34.84399],[136.34231,34.84427],[136.34295,34.84443],[136.34343,34.8445],[136.34625,34.84444],[136.34731,34.84476],[136.34939,34.84486],[136.35282,34.84535],[136.35449,34.84579],[136.35809,34.8477],[136.36086,34.84843],[136.3616,34.84872],[136.36261,34.84933],[136.36417,34.85082],[136.36464,34.8511],[136.36551,34.85135],[136.36855,34.85197],[136.37366,34.85212],[136.37701,34.85249],[136.37958,34.85243],[136.38249,34.85165],[136.38396,34.85163],[136.38498,34.8514],[136.38584,34.851],[136.3878,34.84983],[136.38959,34.84923],[136.39078,34.84909],[136.39342,34.84908]],[[135.68785,34.58905],[135.69468,34.59261],[135.69584,34.59354],[135.69984,34.59707]],[[136.05459,34.76835],[136.05833,34.77352],[136.05942,34.77466],[136.06061,34.77552],[136.0611,34.77571],[136.06171,34.77582],[136.06432,34.77572],[136.06574,34.77583],[136.0666,34.77606],[136.06737,34.77638],[136.06901,34.7773],[136.06989,34.77752],[136.07288,34.77744],[136.07541,34.77755],[136.07643,34.77769],[136.07957,34.77899],[136.08014,34.77931],[136.08381,34.78205],[136.08497,34.78276],[136.08675,34.78352],[136.08997,34.78461],[136.09342,34.78637],[136.09464,34.7869],[136.0961,34.78722],[136.10317,34.78767],[136.10467,34.78767],[136.10712,34.78709],[136.10794,34.78705],[136.10881,34.78716],[136.11259,34.7883],[136.11404,34.78862],[136.12188,34.78906]],[[136.0237,34.76285],[136.01497,34.76563],[136.01031,34.7685],[136.00977,34.76905],[136.00953,34.76941],[136.00846,34.77197],[136.00769,34.77338],[136.00698,34.77406],[136.0061,34.77444],[136.00488,34.77455],[136.00399,34.7744],[135.99971,34.77264],[135.99874,34.77235],[135.99796,34.77224],[135.99595,34.77242],[135.99366,34.77305],[135.99295,34.7732],[135.99244,34.77322],[135.99175,34.77316],[135.99084,34.77291],[135.9886,34.77207]],[[136.25659,34.84601],[136.25574,34.84749]],[[136.12413,34.7892],[136.12631,34.7894],[136.12794,34.78987],[136.13814,34.7939],[136.14547,34.797],[136.14824,34.79809],[136.14975,34.79864],[136.15251,34.79948],[136.15512,34.80049],[136.15779,34.80166],[136.16219,34.80374]],[[136.16219,34.80374],[136.16412,34.80465]],[[135.81941,34.68162],[135.82017,34.68304],[135.82061,34.6842],[135.82057,34.68526],[135.82031,34.686],[135.81946,34.68709],[135.81374,34.69181],[135.81253,34.69291],[135.81224,34.69329],[135.8118,34.69413],[135.81013,34.69968],[135.80987,34.70034],[135.80935,34.70131],[135.80749,34.70382],[135.80696,34.70485],[135.80683,34.70544],[135.80681,34.70648],[135.80714,34.70736],[135.80797,34.70834],[135.80981,34.71002]],[[135.81089,34.71104],[135.81238,34.71247],[135.81292,34.71328],[135.81471,34.71834],[135.81555,34.71977],[135.81945,34.72449],[135.8226,34.72766],[135.82386,34.72922],[135.82429,34.73071],[135.82465,34.73433]],[[136.12188,34.78906],[136.12413,34.7892]],[[136.0237,34.76285],[136.02545,34.76255]],[[136.33976,34.84188],[136.33924,34.84136],[136.33857,34.84089],[136.33777,34.84054],[136.33685,34.84038],[136.33594,34.84045],[136.33532,34.84062],[136.33495,34.84081],[136.33342,34.8422],[136.33282,34.84255],[136.33176,34.84287],[136.33055,34.84306],[136.32965,34.84303],[136.32597,34.84245],[136.32312,34.84161],[136.32219,34.8415],[136.3212,34.84149],[136.32049,34.84158],[136.31953,34.84185],[136.3139,34.84403],[136.31318,34.84415],[136.31224,34.84409],[136.31128,34.84376],[136.31036,34.84317],[136.30983,34.84234],[136.30929,34.84089],[136.30879,34.84022],[136.30848,34.83997],[136.3076,34.83946],[136.30296,34.8374],[136.30143,34.83623],[136.30085,34.8359],[136.30009,34.83564],[136.29919,34.83552],[136.29814,34.83569],[136.29595,34.83643],[136.29487,34.83659],[136.29349,34.8367],[136.28863,34.83673],[136.28007,34.84133],[136.27944,34.84179],[136.2781,34.84327],[136.27751,34.84364],[136.27658,34.84395],[136.27524,34.844],[136.27127,34.84334],[136.27047,34.84313],[136.26937,34.84266],[136.26838,34.84243],[136.26354,34.84214],[136.26257,34.84215],[136.26182,34.84235],[136.26115,34.8427],[136.25767,34.84485],[136.25713,34.84532],[136.25659,34.84601]],[[136.05358,34.76692],[136.05459,34.76835]],[[135.63835,34.57152],[135.63576,34.57179],[135.63409,34.57218],[135.63299,34.57274],[135.63228,34.57331],[135.63184,34.57384],[135.63146,34.57449],[135.62835,34.58053],[135.62331,34.58684]],[[136.44867,34.85032],[136.41984,34.85833],[136.41891,34.85846],[136.41811,34.85847],[136.41706,34.85834],[136.41503,34.85762],[136.40891,34.85391],[136.40802,34.85304],[136.4068,34.85105],[136.40617,34.85027],[136.40563,34.84988],[136.40482,34.84947],[136.40365,34.84915],[136.40289,34.8491],[136.39611,34.84909]],[[135.9886,34.77207],[135.98787,34.77183]],[[136.02545,34.76255],[136.02661,34.76255],[136.02734,34.76271],[136.03801,34.76598],[136.03878,34.76611],[136.04018,34.76598],[136.04123,34.7657],[136.0423,34.76559],[136.04393,34.76567],[136.04582,34.76588],[136.04698,34.76581],[136.04905,34.76547],[136.05079,34.76536],[136.05158,34.76545],[136.05227,34.7657],[136.05301,34.76626],[136.05358,34.76692]],[[135.82465,34.73433],[135.8249,34.73686]],[[135.76289,34.62157],[135.74985,34.60734],[135.74846,34.6064],[135.7445,34.60475],[135.73979,34.60206]],[[135.8249,34.73686],[135.82513,34.73809],[135.82545,34.73902],[135.82568,34.73943],[135.82622,34.74002],[135.82689,34.74041],[135.82825,34.74085],[135.83298,34.7429],[135.83399,34.74313],[135.8353,34.74289],[135.83597,34.74254],[135.84311,34.73608],[135.84401,34.73545],[135.84444,34.73526],[135.84543,34.73513],[135.84689,34.73514],[135.85178,34.73559],[135.85307,34.73586],[135.85603,34.73745],[135.86066,34.73954],[135.86157,34.74011],[135.86223,34.74072],[135.86346,34.74276],[135.86673,34.74938],[135.86911,34.75203]],[[136.20743,34.82154],[136.206,34.82053]],[[135.98787,34.77183],[135.98526,34.77087],[135.98293,34.76943],[135.98221,34.76915],[135.97894,34.76871],[135.9726,34.76752],[135.96895,34.76675],[135.96773,34.76613],[135.96587,34.76472],[135.96505,34.7643],[135.96436,34.76406],[135.96364,34.76396],[135.96262,34.76398],[135.95803,34.76441],[135.95652,34.7643],[135.95548,34.76404],[135.95503,34.76384],[135.95421,34.76323],[135.95388,34.76282],[135.95289,34.76104],[135.95233,34.76053],[135.9509,34.75982],[135.94938,34.75885],[135.94764,34.75817],[135.94635,34.75754],[135.9458,34.75738],[135.94541,34.75731],[135.94462,34.75732],[135.94286,34.75775],[135.94172,34.75793],[135.93663,34.75834],[135.93605,34.75848],[135.93487,34.75897]],[[135.6397,34.57137],[135.63835,34.57152]],[[135.49235,34.65467],[135.4923,34.65481]],[[135.51602,34.64665],[135.51522,34.64685]],[[135.51522,34.64685],[135.51294,34.64742],[135.51208,34.64744]],[[135.51782,34.64615],[135.51602,34.64665]],[[135.49235,34.65467],[135.49301,34.65341]],[[135.50066,34.65019],[135.496,34.65136],[135.49508,34.65168],[135.49401,34.65229],[135.49327,34.65301],[135.49301,34.65341]],[[135.50292,34.64962],[135.50066,34.65019]],[[135.51208,34.64744],[135.50292,34.64962]],[[135.59625,34.61759],[135.59101,34.61939],[135.58616,34.62175],[135.58523,34.62208]],[[135.58523,34.62208],[135.58364,34.62259]],[[135.49506,34.66558],[135.49418,34.66218],[135.49227,34.65665],[135.49217,34.6557],[135.4923,34.65481]],[[135.53834,34.63767],[135.53702,34.63851]],[[135.59777,34.61692],[135.59625,34.61759]],[[135.54974,34.63123],[135.54763,34.63182],[135.5462,34.6324],[135.54484,34.63309],[135.53834,34.63767]],[[135.56621,34.62702],[135.55231,34.63059]],[[135.61561,34.60075],[135.61213,34.60543],[135.61081,34.60693],[135.60897,34.60871],[135.60049,34.61531],[135.59913,34.61622],[135.59777,34.61692]],[[135.51782,34.64615],[135.51899,34.64559]],[[135.56728,34.62674],[135.56621,34.62702]],[[135.51599,34.64646],[135.51516,34.64667]],[[135.53702,34.63851],[135.53575,34.63916],[135.53409,34.63978],[135.5313,34.64065],[135.51899,34.64559]],[[135.51599,34.64646],[135.51899,34.64559]],[[135.49552,34.66715],[135.49506,34.66558]],[[135.51516,34.64667],[135.51208,34.64744]],[[135.55231,34.63059],[135.54974,34.63123]],[[135.58364,34.62259],[135.58027,34.6235],[135.57524,34.62431],[135.57027,34.62591],[135.56728,34.62674]],[[135.81829,34.67937],[135.81941,34.68162]],[[135.66274,34.57377],[135.66142,34.57252],[135.66068,34.57204],[135.65985,34.5717],[135.65893,34.57147],[135.65777,34.57139],[135.65668,34.5716],[135.65581,34.57195]],[[135.65581,34.57195],[135.65338,34.57302],[135.65176,34.57346],[135.65113,34.57355],[135.64996,34.57357],[135.64739,34.57337],[135.6465,34.57312],[135.64579,34.57276]],[[135.68028,34.58122],[135.6838,34.58403],[135.68557,34.58764],[135.68606,34.58809],[135.6872,34.58871]],[[135.67548,34.57873],[135.67679,34.57898],[135.67785,34.57946],[135.67899,34.5802],[135.68028,34.58122]],[[135.66362,34.57498],[135.6643,34.57626],[135.66491,34.57708],[135.66644,34.57829],[135.66762,34.57887],[135.66908,34.57918],[135.67158,34.57923],[135.6726,34.57912],[135.67431,34.57876],[135.67548,34.57873]],[[135.67548,34.57873],[135.67686,34.57919],[135.67787,34.57972],[135.67944,34.58076],[135.68028,34.58122]]]}}