{"type":"Feature","properties":{"id":"西日本旅客鉄道_呉線","name":"呉線","operator":"西日本旅客鉄道","railType":"普通鉄道(JR)","operatorType":"JR在来線","category":"rail","attribution":"国土数値情報（鉄道データ）国土交通省"},"geometry":{"type":"MultiLineString","coordinates":[[[133.08457,34.40058],[133.08143,34.40061]],[[133.08143,34.40061],[133.07702,34.40066],[133.07593,34.4006]],[[132.65668,34.22085],[132.6594,34.21959],[132.65991,34.21941],[132.66068,34.21927],[132.66182,34.21935],[132.66386,34.22004],[132.66436,34.2201],[132.66612,34.21995],[132.66729,34.21973],[132.66891,34.21899],[132.67202,34.21628],[132.67269,34.2159],[132.67322,34.21574],[132.6745,34.21575],[132.67601,34.21588],[132.67971,34.21641],[132.68049,34.21678],[132.68119,34.21738],[132.68278,34.21943],[132.68317,34.22009],[132.68344,34.22125],[132.68365,34.22177],[132.68391,34.22225],[132.68438,34.22285],[132.68503,34.22338],[132.68579,34.22375],[132.68716,34.22406],[132.68849,34.22461],[132.68899,34.22495],[132.68923,34.22521],[132.68956,34.22591],[132.68986,34.2271],[132.69062,34.22933],[132.69099,34.2301],[132.69121,34.23111]],[[133.08324,34.36936],[133.08298,34.36892],[133.08283,34.36847],[133.08275,34.36665],[133.08315,34.36434],[133.08327,34.36285],[133.08324,34.36216],[133.08307,34.36141],[133.08248,34.35968],[133.08204,34.35758],[133.0814,34.35409],[133.08139,34.35285],[133.08125,34.35197],[133.08075,34.35022],[133.08061,34.34992],[133.07958,34.34853],[133.07869,34.34618],[133.0782,34.34556],[133.07736,34.34486],[133.07586,34.34411],[133.07461,34.34365],[133.07326,34.34334],[133.07168,34.34322],[133.07102,34.34327],[133.06707,34.34402],[133.06193,34.34538],[133.06107,34.34547],[133.05934,34.34527],[133.05523,34.34441],[133.05378,34.34403],[133.05243,34.34355],[133.05198,34.34336],[133.04845,34.34103],[133.04642,34.33983],[133.04487,34.33929],[133.04123,34.3384]],[[132.86698,34.321],[132.86578,34.32061],[132.86446,34.32033]],[[132.63236,34.22729],[132.64289,34.22425],[132.64579,34.22389],[132.65071,34.22356],[132.6513,34.22336],[132.65389,34.22217]],[[132.90868,34.33907],[132.91243,34.33963]],[[132.99029,34.33634],[132.99242,34.33706]],[[133.04123,34.3384],[133.03915,34.33791]],[[132.72297,34.25472],[132.72491,34.25728],[132.72655,34.26062],[132.72709,34.26199],[132.72713,34.26232],[132.72706,34.26286],[132.72656,34.2648],[132.72649,34.26572],[132.72692,34.26859],[132.72736,34.26992],[132.72829,34.27182],[132.72873,34.27243],[132.73021,34.27341],[132.73069,34.27388],[132.73223,34.27598],[132.73323,34.27689],[132.73479,34.2785],[132.73559,34.27953],[132.73581,34.28029],[132.73573,34.28244],[132.73625,34.28377],[132.73676,34.28421],[132.7373,34.28452],[132.73807,34.28472],[132.73881,34.28479],[132.73951,34.28475],[132.74322,34.28414]],[[132.59951,34.23571],[132.60159,34.2352]],[[132.61358,34.23224],[132.61531,34.2318]],[[132.63083,34.22773],[132.63236,34.22729]],[[132.69151,34.23309],[132.69198,34.23467],[132.69228,34.23524],[132.69269,34.23572],[132.69359,34.23648],[132.69467,34.23713],[132.7017,34.23995],[132.70253,34.24017],[132.70341,34.24018],[132.70381,34.24012],[132.70581,34.23942],[132.70667,34.23942],[132.70762,34.23957],[132.71005,34.24062],[132.71248,34.24112],[132.71324,34.24139],[132.71481,34.24219],[132.71524,34.24258],[132.71597,34.24367],[132.71727,34.24641],[132.71774,34.24715],[132.72185,34.25327],[132.72235,34.25391]],[[132.62794,34.22858],[132.62713,34.22881]],[[132.62794,34.22858],[132.63083,34.22773]],[[132.86446,34.32033],[132.86349,34.3203],[132.86228,34.32044],[132.85856,34.32168],[132.85748,34.32184],[132.85566,34.32191],[132.8483,34.32177],[132.84694,34.32157],[132.8457,34.32126],[132.8413,34.31901],[132.84026,34.31861],[132.83458,34.3176],[132.83305,34.31752],[132.83123,34.31779],[132.83035,34.31782],[132.82928,34.31758],[132.82698,34.31677],[132.8252,34.31651],[132.82401,34.31657],[132.82282,34.31674],[132.82162,34.3171],[132.82043,34.31762],[132.81933,34.31788]],[[132.79544,34.30202],[132.79581,34.30307],[132.79586,34.30354],[132.79581,34.30423]],[[132.62713,34.22881],[132.62758,34.22845],[132.63123,34.22739],[132.63236,34.22729]],[[133.08409,34.37059],[133.08324,34.36936]],[[132.96297,34.33775],[132.97003,34.33669],[132.97096,34.33645],[132.97237,34.33596],[132.97384,34.33501],[132.9755,34.33424],[132.97649,34.33394],[132.97748,34.33383],[132.98342,34.33465],[132.98654,34.33518],[132.98801,34.33555],[132.99029,34.33634]],[[133.07593,34.4006],[133.07457,34.40023],[133.07394,34.39996],[133.07314,34.3994],[133.07283,34.39906],[133.0724,34.39838],[133.07207,34.39741],[133.0719,34.39618],[133.07185,34.3948],[133.07172,34.3872],[133.07176,34.38556],[133.07223,34.38452],[133.07266,34.38404],[133.07338,34.38337],[133.07473,34.38238],[133.07607,34.38179],[133.07833,34.38112],[133.08277,34.38024],[133.08325,34.38005],[133.08417,34.37951],[133.08545,34.37865],[133.08589,34.37824],[133.08653,34.37727],[133.08673,34.37683],[133.08691,34.37593],[133.08681,34.37516],[133.08582,34.37307],[133.08409,34.37059]],[[132.81933,34.31788],[132.81825,34.31805],[132.81669,34.31804]],[[132.9461,34.34107],[132.94435,34.34018]],[[132.74322,34.28414],[132.74539,34.28376]],[[133.03915,34.33791],[133.03473,34.3368],[133.03295,34.33562],[133.02766,34.3318],[133.02737,34.33167],[133.02588,34.33123],[133.0217,34.33134],[133.0205,34.33116],[133.01931,34.3307],[133.01677,34.32903],[133.01528,34.32869],[133.01405,34.32876],[133.01199,34.3293],[133.00959,34.32937],[133.00761,34.32961],[133.00638,34.32994],[133.00523,34.33053],[133.00453,34.33113],[133.00418,34.33165],[133.00393,34.3322],[133.00377,34.33296],[133.00363,34.33466],[133.00333,34.33565],[133.00294,34.33625],[133.00259,34.33659],[133.00186,34.33709],[133.00109,34.33746],[133.00066,34.33761],[133,34.3377],[132.99912,34.33765],[132.99785,34.33732],[132.99438,34.33747],[132.99352,34.33737],[132.99242,34.33706]],[[132.65389,34.22217],[132.65668,34.22085]],[[132.9461,34.34107],[132.94823,34.34204],[132.9499,34.34255],[132.95117,34.3427],[132.95243,34.3426],[132.95338,34.34234],[132.95451,34.3419],[132.96057,34.33827],[132.9612,34.33803],[132.96218,34.33786]],[[132.96218,34.33786],[132.96297,34.33775]],[[132.72297,34.25472],[132.72235,34.25391]],[[132.61358,34.23224],[132.60159,34.2352]],[[132.79581,34.30423],[132.79556,34.30536],[132.79444,34.30809],[132.79431,34.30873],[132.79431,34.30938],[132.79447,34.31021],[132.79516,34.31186],[132.79588,34.31265],[132.79668,34.31332],[132.79816,34.31405],[132.8039,34.3158],[132.80489,34.31625],[132.80647,34.31721],[132.807,34.31741],[132.80782,34.31756],[132.81669,34.31804]],[[132.91243,34.33963],[132.91614,34.34018],[132.91698,34.34022],[132.92659,34.3401],[132.92924,34.34],[132.92998,34.33981],[132.93084,34.33938],[132.93287,34.33782],[132.9341,34.33714],[132.93517,34.33685],[132.93681,34.33676],[132.93791,34.33694],[132.9387,34.33725],[132.94435,34.34018]],[[132.74539,34.28376],[132.74746,34.28359],[132.74883,34.28338],[132.75142,34.28345],[132.75726,34.28429],[132.76062,34.2849],[132.76156,34.28491],[132.76268,34.28453],[132.76349,34.28405],[132.76623,34.28202],[132.7673,34.28087],[132.76789,34.28035],[132.76885,34.2798],[132.76966,34.27952],[132.77064,34.27942],[132.7714,34.27947],[132.77262,34.27977],[132.77399,34.28059],[132.77679,34.28273],[132.78716,34.29095],[132.79106,34.29341],[132.79211,34.29423],[132.79263,34.29486],[132.79296,34.29557],[132.79359,34.29848],[132.79544,34.30202]],[[132.69121,34.23111],[132.69151,34.23309]],[[132.90868,34.33907],[132.9005,34.33779],[132.89972,34.33755],[132.8989,34.33708],[132.89716,34.33579],[132.89628,34.33524],[132.89537,34.3349],[132.88997,34.33326],[132.8895,34.33305],[132.88891,34.33269],[132.88789,34.33188],[132.88632,34.33032],[132.88555,34.32972],[132.88499,34.32946],[132.88068,34.32795],[132.87952,34.32721],[132.87799,34.32576],[132.87692,34.32506],[132.86698,34.321]],[[132.61531,34.2318],[132.62422,34.22962],[132.62713,34.22881]],[[132.49928,34.32038],[132.49983,34.3225],[132.50013,34.323],[132.50068,34.3235],[132.5043,34.32614],[132.50475,34.32654],[132.50503,34.32693],[132.50527,34.32744],[132.5054,34.32836],[132.50535,34.33184],[132.50545,34.33236],[132.50754,34.33668],[132.50864,34.33745],[132.50981,34.33812]],[[132.51768,34.26373],[132.51665,34.26457]],[[132.55859,34.24389],[132.56238,34.2416],[132.56335,34.24126],[132.56536,34.24124],[132.56728,34.24144],[132.569,34.24143],[132.57219,34.24124],[132.5782,34.24017],[132.59493,34.2368],[132.59951,34.23571]],[[132.51245,34.33959],[132.51517,34.34119],[132.5159,34.34187],[132.51627,34.34239],[132.51658,34.34303],[132.51792,34.34607],[132.51907,34.34749],[132.52047,34.349],[132.52072,34.34917],[132.52169,34.34945],[132.52313,34.34966],[132.52804,34.35008],[132.52868,34.35029],[132.53097,34.35152]],[[132.52658,34.25806],[132.52792,34.25742]],[[132.52792,34.25742],[132.53023,34.25632],[132.53065,34.25597],[132.53101,34.25546],[132.53119,34.25475],[132.53123,34.25326],[132.53107,34.24891],[132.53129,34.24828],[132.53182,34.2478],[132.53291,34.24712],[132.53357,34.24682],[132.53431,34.24665],[132.53478,34.24667],[132.53556,34.24682],[132.53624,34.24712],[132.53794,34.24847],[132.53856,34.24878],[132.53977,34.24901],[132.54015,34.24902],[132.54086,34.24888]],[[132.5196,34.28234],[132.51863,34.2859],[132.5182,34.28692],[132.51747,34.28778],[132.51346,34.29121]],[[132.52658,34.25806],[132.5255,34.25869],[132.52289,34.26058],[132.51768,34.26373]],[[132.53097,34.35152],[132.53328,34.35285]],[[132.50573,34.30283],[132.50346,34.30377],[132.50304,34.30402],[132.50279,34.3043],[132.50233,34.30514],[132.50191,34.30627],[132.50135,34.30727],[132.49899,34.30994],[132.49873,34.31054],[132.49853,34.31213],[132.49827,34.31282],[132.49789,34.31347],[132.49682,34.31472],[132.49661,34.31546],[132.49658,34.3159],[132.49666,34.31643],[132.49718,34.31731],[132.49858,34.3192]],[[132.49858,34.3192],[132.49928,34.32038]],[[132.51959,34.27986],[132.51941,34.27872],[132.51917,34.27816],[132.51749,34.27641],[132.517,34.27575],[132.51688,34.27516],[132.5169,34.27466],[132.51734,34.27269],[132.51738,34.27189],[132.517,34.27097],[132.51525,34.26815],[132.51529,34.26756],[132.516,34.26537],[132.51619,34.26504],[132.51665,34.26457]],[[132.55859,34.24389],[132.5566,34.24532]],[[132.5566,34.24532],[132.55515,34.24632],[132.55391,34.2467],[132.55321,34.24672],[132.55211,34.24659],[132.54991,34.24603],[132.54845,34.24602],[132.54709,34.24656],[132.54382,34.24812],[132.54292,34.24841],[132.54167,34.24868]],[[132.52948,34.37216],[132.53175,34.37163]],[[132.51346,34.29121],[132.51304,34.29172],[132.51259,34.29261]],[[132.53328,34.35285],[132.53452,34.35392],[132.53491,34.35455],[132.53516,34.35539],[132.53513,34.36891],[132.53492,34.36974],[132.53464,34.37019],[132.53429,34.37056],[132.53348,34.37108],[132.53175,34.37163]],[[132.51959,34.27986],[132.51976,34.28127],[132.5196,34.28234]],[[132.51259,34.29261],[132.5122,34.29311],[132.50863,34.29592],[132.50802,34.29661],[132.50781,34.29722],[132.50759,34.30075],[132.50747,34.30125],[132.50716,34.30178]],[[132.50716,34.30178],[132.50663,34.30229],[132.50573,34.30283]],[[132.54167,34.24868],[132.54086,34.24888]],[[132.50981,34.33812],[132.51245,34.33959]]]}}