{"type":"Feature","properties":{"id":"西日本旅客鉄道_和歌山線","name":"和歌山線","operator":"西日本旅客鉄道","railType":"普通鉄道(JR)","operatorType":"JR在来線","category":"rail","attribution":"国土数値情報（鉄道データ）国土交通省"},"geometry":{"type":"MultiLineString","coordinates":[[[135.70331,34.5771],[135.70249,34.57515],[135.70206,34.57325],[135.70195,34.56272]],[[135.74916,34.45837],[135.751,34.45833],[135.75264,34.45812],[135.75523,34.45694],[135.7584,34.45606],[135.75912,34.45578],[135.76031,34.45502],[135.76252,34.45292]],[[135.70196,34.56136],[135.70195,34.55007],[135.70208,34.54896],[135.70236,34.54799],[135.70294,34.54679],[135.70482,34.54439]],[[135.69971,34.35624],[135.70319,34.35789],[135.70472,34.3584],[135.70876,34.35853],[135.70998,34.35878],[135.71072,34.35923],[135.71217,34.36037],[135.71509,34.36289],[135.71557,34.36349],[135.7161,34.36475],[135.71664,34.36997],[135.71653,34.37063],[135.71518,34.3758],[135.7151,34.37715],[135.71523,34.37916],[135.71519,34.3796],[135.71457,34.38191]],[[135.74642,34.51428],[135.74674,34.51343],[135.74677,34.51261],[135.74654,34.51024],[135.74644,34.50975],[135.74612,34.50889],[135.7447,34.50593],[135.74358,34.50394],[135.73639,34.48967]],[[135.74521,34.51568],[135.74642,34.51428]],[[135.76361,34.45205],[135.76503,34.45084],[135.76646,34.44944],[135.7668,34.44897],[135.76711,34.44791],[135.76715,34.44747],[135.76708,34.44664],[135.76694,34.44624],[135.76389,34.44053],[135.76312,34.43924],[135.76216,34.43834],[135.75924,34.43612],[135.75815,34.43498],[135.75747,34.43368],[135.75625,34.43061],[135.75517,34.4283],[135.75435,34.42721],[135.75211,34.42494],[135.75138,34.42405],[135.75069,34.42185]],[[135.70395,34.57842],[135.70331,34.5771]],[[135.70195,34.56272],[135.70196,34.56136]],[[135.73639,34.48967],[135.73566,34.4882]],[[135.73566,34.4882],[135.7345,34.48576],[135.73427,34.48501],[135.73421,34.48445],[135.73375,34.46924],[135.73379,34.4658]],[[135.63541,34.32276],[135.63406,34.32242]],[[135.75027,34.42031],[135.75005,34.41906],[135.74987,34.41853],[135.74942,34.41778],[135.7485,34.41701],[135.74666,34.41577],[135.74426,34.41312],[135.74365,34.4118],[135.74331,34.40914],[135.7431,34.4086],[135.74271,34.40793],[135.74012,34.40376],[135.73813,34.40144],[135.73754,34.40008],[135.73332,34.39516],[135.73259,34.39468],[135.73207,34.39445],[135.73015,34.39382],[135.72943,34.39345],[135.72875,34.39278],[135.72781,34.39128],[135.7272,34.39063],[135.72636,34.39014],[135.7254,34.38986],[135.72462,34.38981],[135.72344,34.39002],[135.72053,34.39089],[135.71896,34.39159],[135.71603,34.39206],[135.71523,34.392],[135.71444,34.39175],[135.71376,34.39135],[135.71348,34.39108],[135.71303,34.39047],[135.71278,34.38986],[135.71268,34.38913],[135.71271,34.38865],[135.71436,34.38267]],[[135.75069,34.42185],[135.75027,34.42031]],[[135.70925,34.59586],[135.70943,34.59561],[135.7098,34.59474],[135.70989,34.59372],[135.70978,34.59297],[135.70901,34.59138],[135.70766,34.5866],[135.70395,34.57842]],[[135.70741,34.59696],[135.70792,34.59672],[135.70925,34.59586]],[[135.70445,34.59744],[135.7063,34.59732],[135.70741,34.59696]],[[135.63406,34.32242],[135.62976,34.32148],[135.62137,34.32004],[135.61973,34.31954],[135.61746,34.31863],[135.61551,34.31828]],[[135.74785,34.45843],[135.74916,34.45837]],[[135.61551,34.31828],[135.61402,34.31803]],[[135.71831,34.52768],[135.71939,34.52692]],[[135.68479,34.34634],[135.68409,34.3459]],[[135.6562,34.32807],[135.65495,34.32811]],[[135.65495,34.32811],[135.65097,34.32824],[135.64964,34.32809],[135.63541,34.32276]],[[135.70582,34.54314],[135.71118,34.53695],[135.7163,34.52953],[135.7175,34.52831],[135.71831,34.52768]],[[135.69766,34.35525],[135.69116,34.35215],[135.69036,34.35167],[135.68865,34.35012],[135.68527,34.34671],[135.68479,34.34634]],[[135.76252,34.45292],[135.76361,34.45205]],[[135.68409,34.3459],[135.67537,34.34142],[135.67379,34.34074],[135.67135,34.34051],[135.67098,34.34039],[135.67018,34.33999],[135.66905,34.33909],[135.66837,34.33824],[135.66783,34.33686],[135.66761,34.33604],[135.66776,34.33526],[135.66806,34.33461],[135.66874,34.3337],[135.66903,34.33309],[135.66918,34.33219],[135.66912,34.33159],[135.66897,34.33106],[135.66842,34.33015],[135.66737,34.3292],[135.6668,34.32883],[135.66533,34.32824],[135.66463,34.32807],[135.66316,34.32788],[135.65934,34.3281],[135.65766,34.32803],[135.6562,34.32807]],[[135.7338,34.46435],[135.73383,34.46315],[135.73406,34.46243],[135.73443,34.46178],[135.73478,34.4614],[135.73558,34.46079],[135.73873,34.45893],[135.74041,34.45864],[135.74785,34.45843]],[[135.70482,34.54439],[135.70582,34.54314]],[[135.73379,34.4658],[135.7338,34.46435]],[[135.71939,34.52692],[135.72597,34.5223],[135.72782,34.52136],[135.72954,34.52082],[135.73106,34.52052],[135.74013,34.51985],[135.7408,34.51971],[135.74165,34.51936],[135.74247,34.51878],[135.74407,34.517]],[[135.74407,34.517],[135.74521,34.51568]],[[135.69971,34.35624],[135.69766,34.35525]],[[135.7031,34.59749],[135.70445,34.59744]],[[135.71436,34.38267],[135.71457,34.38191]],[[135.53281,34.30465],[135.53208,34.30429]],[[135.43437,34.2732],[135.43302,34.27272]],[[135.51701,34.2985],[135.50918,34.29826],[135.50656,34.29834],[135.50373,34.29865],[135.49925,34.29958],[135.498,34.29964],[135.4972,34.29956],[135.49427,34.29872]],[[135.36496,34.26518],[135.36875,34.26535],[135.37525,34.2655],[135.38723,34.26643],[135.3884,34.26674],[135.39103,34.26816]],[[135.53208,34.30429],[135.53118,34.30388],[135.5298,34.30298],[135.52561,34.29998],[135.52478,34.2995],[135.52271,34.29894],[135.52143,34.29875],[135.51779,34.29852]],[[135.43302,34.27272],[135.43217,34.27256],[135.42469,34.27179],[135.41764,34.27189],[135.40791,34.27155],[135.40492,34.27089]],[[135.40492,34.27089],[135.40347,34.27055]],[[135.51779,34.29852],[135.51701,34.2985]],[[135.36337,34.26511],[135.3591,34.26472],[135.35299,34.26398],[135.34274,34.26223],[135.34063,34.26203]],[[135.5844,34.3132],[135.58382,34.31277]],[[135.40347,34.27055],[135.40089,34.26996],[135.39993,34.26964],[135.39808,34.26886],[135.39739,34.26867],[135.39655,34.26855],[135.39219,34.26834]],[[135.55739,34.30756],[135.55646,34.30768]],[[135.34063,34.26203],[135.33976,34.26199]],[[135.55646,34.30768],[135.55051,34.3083],[135.54937,34.30834],[135.54826,34.30827],[135.54653,34.30802],[135.54424,34.30742],[135.54305,34.30724],[135.53867,34.30692],[135.53728,34.30662],[135.53624,34.3063],[135.53503,34.3058],[135.53281,34.30465]],[[135.39219,34.26834],[135.39103,34.26816]],[[135.58382,34.31277],[135.58282,34.31206],[135.58188,34.31156],[135.58048,34.31117],[135.56892,34.30892],[135.56311,34.30771],[135.56145,34.30743],[135.56044,34.30735],[135.55739,34.30756]],[[135.45222,34.28008],[135.45087,34.27997],[135.44895,34.27999],[135.44758,34.27986],[135.44675,34.27965],[135.44592,34.27923],[135.44339,34.27741],[135.43437,34.2732]],[[135.49427,34.29872],[135.49343,34.29848]],[[135.61402,34.31803],[135.61106,34.31772],[135.6046,34.31725],[135.60366,34.3171],[135.59367,34.31503],[135.59171,34.31482],[135.58826,34.31416],[135.58567,34.31379],[135.58483,34.31352],[135.5844,34.3132]],[[135.47937,34.29174],[135.47858,34.2913],[135.4775,34.29089],[135.47603,34.29052],[135.47141,34.28947],[135.4664,34.28851],[135.46212,34.28751],[135.46169,34.28731],[135.46122,34.28696],[135.4604,34.2862],[135.46011,34.28576],[135.45967,34.28486],[135.45917,34.28288],[135.45882,34.28231],[135.45854,34.28204],[135.45737,34.28132],[135.4567,34.28105],[135.45494,34.28047],[135.45305,34.28016]],[[135.45305,34.28016],[135.45222,34.28008]],[[135.48043,34.29239],[135.47937,34.29174]],[[135.49343,34.29848],[135.48859,34.29712],[135.48647,34.29642],[135.48043,34.29239]],[[135.36337,34.26511],[135.36496,34.26518]],[[135.19156,34.23162],[135.19123,34.23334]],[[135.19123,34.23334],[135.1905,34.23714]],[[135.19017,34.23904],[135.1905,34.23714]],[[135.19017,34.23904],[135.19053,34.23987],[135.19086,34.24041],[135.19178,34.24139],[135.19252,34.24184],[135.19411,34.24231],[135.22909,34.24208]],[[135.32142,34.25539],[135.32115,34.25465]],[[135.2298,34.24207],[135.23244,34.24212],[135.23771,34.242],[135.24525,34.24166]],[[135.22909,34.24208],[135.2298,34.24207]],[[135.26251,34.24462],[135.26083,34.24428]],[[135.28701,34.24633],[135.27517,34.2453],[135.26399,34.24483],[135.26251,34.24462]],[[135.33976,34.26199],[135.33025,34.26168],[135.32937,34.26147],[135.32493,34.25967],[135.32343,34.25898],[135.32239,34.25779],[135.32142,34.25539]],[[135.31182,34.24835],[135.31066,34.24826]],[[135.31066,34.24826],[135.28783,34.24641]],[[135.24525,34.24166],[135.24608,34.24164]],[[135.24608,34.24164],[135.24722,34.24164],[135.24906,34.24187],[135.252,34.24265],[135.26083,34.24428]],[[135.32115,34.25465],[135.32068,34.25368],[135.31987,34.25288],[135.31927,34.25256],[135.3173,34.25202],[135.3163,34.25151],[135.31347,34.24893],[135.31276,34.24855],[135.31182,34.24835]],[[135.28783,34.24641],[135.28701,34.24633]]]}}