{"type":"Feature","properties":{"id":"西武鉄道_国分寺線","name":"国分寺線","operator":"西武鉄道","railType":"普通鉄道","operatorType":"民営","category":"rail","attribution":"国土数値情報（鉄道データ）国土交通省"},"geometry":{"type":"MultiLineString","coordinates":[[[139.46581,35.75903],[139.46591,35.7609]],[[139.4634,35.73699],[139.46359,35.73814]],[[139.46313,35.73528],[139.4634,35.73699]],[[139.46385,35.73935],[139.46359,35.73814]],[[139.46099,35.72258],[139.46113,35.72344]],[[139.47936,35.70011],[139.47908,35.70021],[139.47762,35.70025],[139.47411,35.70019],[139.47327,35.70043],[139.47261,35.70076],[139.47216,35.70115],[139.4642,35.71096]],[[139.48235,35.70018],[139.47936,35.70011]],[[139.46113,35.72344],[139.46313,35.73528]],[[139.4642,35.71096],[139.46358,35.71174]],[[139.46385,35.73935],[139.46501,35.7467],[139.46525,35.75288],[139.46564,35.75668]],[[139.46564,35.75668],[139.46581,35.75903]],[[139.46358,35.71174],[139.46075,35.71521],[139.46044,35.7158],[139.46028,35.71632],[139.46014,35.71707],[139.46014,35.71763],[139.46099,35.72258]]]}}