{"type":"Feature","properties":{"id":"西日本旅客鉄道_姫新線","name":"姫新線","operator":"西日本旅客鉄道","railType":"普通鉄道(JR)","operatorType":"JR在来線","category":"rail","attribution":"国土数値情報（鉄道データ）国土交通省"},"geometry":{"type":"MultiLineString","coordinates":[[[134.68835,34.82775],[134.69271,34.8273]],[[134.65916,34.84169],[134.65827,34.84228]],[[134.64266,34.8568],[134.64229,34.85879],[134.64179,34.8597],[134.64097,34.86053],[134.63987,34.86116],[134.63192,34.86399],[134.63128,34.86415],[134.6298,34.86436],[134.62835,34.86432],[134.62452,34.86348],[134.62375,34.86336],[134.62263,34.86337],[134.62092,34.86367],[134.61744,34.86523],[134.61627,34.86547],[134.61533,34.86539],[134.60792,34.86415]],[[134.60631,34.86388],[134.60792,34.86415]],[[134.68835,34.82775],[134.68675,34.82784],[134.68502,34.82773],[134.68256,34.82714],[134.67972,34.82623],[134.6788,34.82607],[134.67683,34.82612],[134.67605,34.82628],[134.67481,34.8267],[134.67339,34.82751],[134.67268,34.82805],[134.67192,34.8288],[134.66401,34.83818],[134.66352,34.83865],[134.662,34.83982],[134.65916,34.84169]],[[134.64285,34.8557],[134.64266,34.8568]],[[134.65827,34.84228],[134.64427,34.85154],[134.64388,34.85193],[134.64336,34.85274],[134.64324,34.85314],[134.64285,34.8557]],[[134.49386,34.94249],[134.49486,34.9425]],[[134.00031,35.0536],[134.00259,35.0542]],[[134.18964,35.01934],[134.18873,35.02002]],[[134.03585,35.0588],[134.03673,35.05867],[134.03848,35.05784],[134.0393,35.05762],[134.04152,35.0577],[134.0454,35.05808],[134.04638,35.05832],[134.04721,35.05878],[134.0476,35.0591],[134.04878,35.06054],[134.04963,35.06112],[134.05023,35.0613],[134.05105,35.06136],[134.05234,35.06108],[134.05321,35.06039],[134.05547,35.05791],[134.05812,35.05587],[134.05964,35.05371],[134.06176,35.05209],[134.06299,35.0505],[134.06403,35.04819],[134.06447,35.04747],[134.06492,35.04695],[134.06573,35.04625],[134.06698,35.04553]],[[134.03254,35.05873],[134.03585,35.0588]],[[134.35584,35.0033],[134.35747,35.00406]],[[134.08991,35.04332],[134.09045,35.04308],[134.09088,35.04276],[134.09235,35.04118],[134.0934,35.0404],[134.09424,35.03997],[134.09696,35.03888],[134.09748,35.03874],[134.09804,35.03863],[134.09885,35.03866],[134.10252,35.03945],[134.10365,35.03923],[134.1051,35.03869],[134.10573,35.03854],[134.10658,35.03856],[134.10954,35.03903],[134.11085,35.03902],[134.1125,35.03853],[134.11821,35.03614]],[[134.2204,35.01345],[134.22161,35.01402],[134.22233,35.01479],[134.22329,35.01716],[134.22414,35.01778],[134.22437,35.01786],[134.22531,35.01807],[134.22589,35.01806],[134.22632,35.01797],[134.22885,35.01706],[134.22973,35.01647],[134.23012,35.01594],[134.23047,35.0145],[134.23064,35.01412],[134.23116,35.01356],[134.23171,35.01326],[134.23246,35.01304],[134.23329,35.01299],[134.23495,35.01342],[134.23608,35.01341],[134.23663,35.0133],[134.23733,35.01295],[134.23898,35.01177],[134.23945,35.01154],[134.24003,35.01138],[134.2425,35.01108],[134.24364,35.01075],[134.24459,35.01036],[134.24776,35.00866],[134.24839,35.00818],[134.24886,35.00764],[134.24907,35.00701],[134.24914,35.00594],[134.24918,35.0032],[134.24911,35.00142],[134.24917,35.00099],[134.24936,35.00048],[134.24972,34.99994],[134.25016,34.99963],[134.25211,34.99874],[134.25377,34.99748],[134.25699,34.99638],[134.2589,34.99557]],[[134.03109,35.05866],[134.03254,35.05873]],[[134.32175,34.98377],[134.32329,34.98318]],[[134.2589,34.99557],[134.261,34.99478]],[[134.38517,34.99039],[134.38619,34.99051]],[[134.47038,34.95279],[134.47081,34.95208]],[[134.43585,34.9845],[134.43705,34.98369],[134.43801,34.98281],[134.43829,34.98227],[134.43868,34.98084],[134.43924,34.98001],[134.43959,34.97969],[134.4424,34.97795],[134.44331,34.97725],[134.44413,34.97642],[134.44456,34.97573],[134.44522,34.97423],[134.44696,34.9689],[134.44695,34.96809],[134.4463,34.96649],[134.4462,34.96589],[134.44629,34.96507],[134.44677,34.96432],[134.44759,34.96375],[134.44834,34.96345],[134.44911,34.96325],[134.45495,34.96321],[134.45611,34.96298],[134.45754,34.96247],[134.46205,34.96059],[134.46297,34.9603],[134.46463,34.96004],[134.46568,34.95972],[134.46609,34.95944],[134.46672,34.95875],[134.47038,34.95279]],[[134.06698,35.04553],[134.06795,35.04519]],[[134.18873,35.02002],[134.18746,35.02071],[134.18164,35.02211],[134.17556,35.02234],[134.17468,35.02227],[134.17382,35.02205],[134.173,35.02169],[134.17077,35.02],[134.16919,35.01893],[134.16822,35.0185],[134.16738,35.01828],[134.16615,35.01829],[134.16166,35.01903],[134.16077,35.019],[134.15961,35.01872],[134.15908,35.01847],[134.15453,35.01518],[134.15347,35.01453],[134.15242,35.01411]],[[134.55571,34.86181],[134.55639,34.86021],[134.55677,34.85967],[134.55726,34.85925],[134.55781,34.85896],[134.55857,34.85875],[134.56008,34.85872],[134.5685,34.85945],[134.57312,34.86047],[134.57971,34.8606],[134.58033,34.86075],[134.58268,34.86177],[134.58608,34.86243],[134.58675,34.86277],[134.5881,34.86367],[134.58874,34.8639],[134.58934,34.86401],[134.60082,34.86375],[134.60379,34.86357],[134.60479,34.86362],[134.60631,34.86388]],[[134.261,34.99478],[134.2648,34.99319],[134.26547,34.99285],[134.26598,34.99243],[134.26723,34.99093],[134.26731,34.99057],[134.26729,34.98833],[134.26749,34.98793],[134.26814,34.9873],[134.2696,34.98652],[134.27539,34.98389],[134.27568,34.98382],[134.27617,34.98383],[134.27845,34.98421],[134.28116,34.98414],[134.28484,34.98465],[134.28533,34.98463],[134.28633,34.98435],[134.28893,34.98339],[134.29045,34.98337],[134.29192,34.98397],[134.29262,34.98406],[134.29559,34.98372],[134.29993,34.98394],[134.30058,34.98415],[134.30193,34.98516],[134.30232,34.98536],[134.30277,34.98547],[134.30503,34.98571],[134.30608,34.98637],[134.30697,34.98715],[134.30806,34.98769],[134.30912,34.98795],[134.311,34.98808],[134.31203,34.98791],[134.31302,34.98744],[134.31393,34.9866],[134.31509,34.98518],[134.31574,34.98468],[134.3162,34.98445],[134.31712,34.98418],[134.31965,34.98393],[134.32088,34.98392],[134.32175,34.98377]],[[134.0077,35.05507],[134.01281,35.0558],[134.0155,35.05651],[134.01933,35.05788],[134.02092,35.05822],[134.03109,35.05866]],[[134.00038,35.05334],[134.00344,35.05413],[134.00585,35.05462]],[[134.55783,34.88821],[134.55754,34.88697]],[[134.06795,35.04519],[134.06971,35.04491],[134.07716,35.0445],[134.08265,35.04341],[134.08424,35.04344],[134.08641,35.04392],[134.08762,35.04384],[134.08912,35.04357]],[[134.00445,35.05464],[134.0077,35.05507]],[[133.95825,35.05911],[133.96105,35.05954],[133.96632,35.05961],[133.97411,35.06079],[133.97532,35.06084],[133.9765,35.06051],[133.9772,35.06009],[133.97778,35.05943],[133.97827,35.05856],[133.97881,35.0578],[133.97937,35.0573],[133.98047,35.05671],[133.98145,35.05642],[133.98209,35.05634],[133.98524,35.05641],[133.98647,35.05614],[133.98918,35.05534]],[[134.00131,35.05403],[134.00259,35.0542]],[[133.95679,35.05886],[133.95825,35.05911]],[[134.00585,35.05462],[134.00694,35.05478],[134.0077,35.05507]],[[134.21884,35.01299],[134.21648,35.01229],[134.21395,35.01167],[134.20809,35.01074],[134.20728,35.01071],[134.20672,35.01078],[134.20517,35.01136],[134.20362,35.01211],[134.20284,35.01234],[134.20204,35.01241],[134.20102,35.01228],[134.19922,35.01132],[134.1985,35.01102],[134.19772,35.01083],[134.19707,35.01083],[134.1965,35.01093],[134.19537,35.01136],[134.19479,35.01179],[134.19428,35.01256],[134.19328,35.01587],[134.19296,35.01628],[134.19123,35.01772],[134.19037,35.0187],[134.18964,35.01934]],[[134.49486,34.9425],[134.50457,34.94208],[134.50521,34.94198],[134.50566,34.94182],[134.50628,34.94149],[134.50821,34.94014],[134.50907,34.93971],[134.51726,34.93674],[134.51925,34.93584],[134.51988,34.93543],[134.52204,34.93359],[134.52512,34.93203],[134.53162,34.92743],[134.53328,34.92643],[134.5347,34.92583],[134.54301,34.92276],[134.54506,34.92179]],[[134.2204,35.01345],[134.21884,35.01299]],[[134.08912,35.04357],[134.08991,35.04332]],[[134.35747,35.00406],[134.36026,35.00532],[134.36192,35.0054],[134.36309,35.00523]],[[134.36309,35.00523],[134.36395,35.00499],[134.36488,35.00461],[134.36814,35.00281],[134.37195,35.001],[134.37288,35.00036],[134.37942,34.99134],[134.37981,34.99087],[134.38034,34.99045],[134.38123,34.99004],[134.38214,34.98989],[134.38281,34.98992],[134.38517,34.99039]],[[134.43485,34.98517],[134.43585,34.9845]],[[134.00259,35.0542],[134.00585,35.05462]],[[134.38619,34.99051],[134.38693,34.99047],[134.38797,34.99022],[134.38881,34.9898],[134.38946,34.98925],[134.39013,34.9882],[134.39225,34.98398],[134.39277,34.98341],[134.40183,34.97742],[134.4028,34.97686],[134.40372,34.97663],[134.40454,34.97659],[134.40525,34.97668],[134.4059,34.97688],[134.40643,34.97718],[134.40687,34.97755],[134.40721,34.97801],[134.40795,34.97979],[134.40816,34.98007],[134.40855,34.98039],[134.40949,34.98091],[134.41136,34.98163],[134.4124,34.98184],[134.42315,34.98189],[134.42434,34.98203],[134.42499,34.98228],[134.42551,34.98259],[134.42625,34.98323],[134.42665,34.98378],[134.42738,34.9851],[134.42809,34.98589],[134.42901,34.9864],[134.42999,34.98665],[134.43138,34.98673],[134.43216,34.98662],[134.43363,34.98592],[134.43485,34.98517]],[[134.00244,35.05437],[134.00445,35.05464]],[[134.47081,34.95208],[134.47213,34.9499],[134.47255,34.94894],[134.47264,34.94842],[134.47248,34.94701],[134.47257,34.94591],[134.47278,34.9454],[134.47378,34.94398],[134.47422,34.94319],[134.47546,34.93849],[134.47562,34.93811],[134.476,34.93755],[134.47634,34.93725],[134.47684,34.93699],[134.47752,34.93676],[134.47833,34.93661],[134.47907,34.9366],[134.47954,34.9367],[134.48091,34.93727],[134.48794,34.94094],[134.49233,34.94222],[134.49386,34.94249]],[[134.11944,35.03552],[134.11821,35.03614]],[[134.54668,34.92099],[134.54506,34.92179]],[[134.15073,35.01376],[134.1495,35.01372],[134.14885,35.01384],[134.14571,35.01534],[134.14261,35.01812],[134.14231,35.01831],[134.13324,35.02316],[134.13237,35.02392],[134.1302,35.02712],[134.12231,35.03334],[134.12165,35.03393],[134.11944,35.03552]],[[134.15242,35.01411],[134.15178,35.01391],[134.15073,35.01376]],[[134.54668,34.92099],[134.54992,34.91914],[134.55033,34.91884],[134.55098,34.9181],[134.55127,34.91718],[134.55122,34.91631],[134.55018,34.91398],[134.55005,34.91318],[134.55035,34.91107],[134.55009,34.90094],[134.55021,34.89977],[134.55117,34.89581],[134.55138,34.89535],[134.55165,34.89499],[134.55241,34.89437],[134.55652,34.89284],[134.55716,34.89249],[134.55775,34.89194],[134.55805,34.89143],[134.55827,34.89063],[134.55822,34.88987],[134.55783,34.88821]],[[134.55754,34.88697],[134.55654,34.88269],[134.55412,34.86749],[134.55406,34.86664],[134.55412,34.86579],[134.55433,34.86507],[134.55497,34.86356]],[[134.55497,34.86356],[134.55571,34.86181]],[[133.98918,35.05534],[133.99689,35.05387],[133.99769,35.05383],[133.99927,35.05395],[134.00244,35.05437]],[[133.45708,34.98709],[133.45627,34.98732]],[[133.5124,35.02198],[133.51063,35.01839],[133.5106,35.01728],[133.51102,35.01656],[133.51245,35.0149],[133.51396,35.01288],[133.51414,35.01236],[133.51422,35.01165],[133.51395,35.01075],[133.51332,35.00988],[133.51108,35.00746],[133.51056,35.00708],[133.50942,35.0067],[133.50832,35.00663],[133.50741,35.00679],[133.50585,35.00739],[133.50501,35.00758],[133.49915,35.0073],[133.49737,35.00731],[133.49533,35.00748],[133.49327,35.00712],[133.49193,35.00705],[133.4913,35.0069],[133.49049,35.00643],[133.48903,35.00522],[133.48852,35.00498],[133.48771,35.00478],[133.48689,35.00476],[133.48428,35.00525],[133.48206,35.00629],[133.48141,35.00642],[133.47845,35.00651],[133.47753,35.0064],[133.47672,35.00611],[133.47621,35.0058],[133.47505,35.00461],[133.4736,35.00281],[133.47101,34.99792],[133.47071,34.9961],[133.47036,34.99539],[133.46946,34.99452],[133.46833,34.99383],[133.46769,34.99316],[133.46717,34.99199],[133.46375,34.98753],[133.4631,34.98697],[133.4625,34.98659],[133.46189,34.98634],[133.46134,34.98623],[133.46067,34.98624],[133.45708,34.98709]],[[133.56632,35.07695],[133.56573,35.07558]],[[133.90662,35.05835],[133.9119,35.05708],[133.91775,35.05555],[133.92088,35.05508],[133.92415,35.05471],[133.93553,35.05499],[133.93811,35.05514],[133.9408,35.05609],[133.95679,35.05886]],[[133.61198,35.05535],[133.61127,35.05625],[133.61048,35.05854],[133.61031,35.05938],[133.61031,35.05983],[133.61065,35.06179],[133.61094,35.06441],[133.61049,35.06706],[133.61049,35.06817],[133.6106,35.06903],[133.61057,35.06978],[133.61031,35.07049],[133.61004,35.07091],[133.60931,35.07154],[133.60863,35.07185],[133.60614,35.07213],[133.60455,35.07216],[133.60286,35.07241],[133.60219,35.07272],[133.60158,35.07319],[133.60134,35.07351],[133.60064,35.07513],[133.60039,35.07547],[133.59816,35.07695],[133.5971,35.07815],[133.59613,35.07876],[133.59508,35.07901],[133.59415,35.07902],[133.58613,35.07861],[133.58285,35.07933],[133.58153,35.0794],[133.58009,35.0793],[133.57637,35.07865],[133.57465,35.07862],[133.57063,35.07984],[133.57017,35.07995],[133.5695,35.07995],[133.56893,35.07983],[133.56841,35.07962],[133.56744,35.07898],[133.56701,35.07853],[133.56682,35.0782],[133.56632,35.07695]],[[133.8194,35.05829],[133.82078,35.05921]],[[133.55339,35.0459],[133.55219,35.04437],[133.55149,35.04374],[133.54671,35.04083],[133.54393,35.03896],[133.53932,35.03702],[133.53678,35.03583],[133.53573,35.03543],[133.53335,35.03471],[133.53158,35.03392],[133.53049,35.03311],[133.52728,35.03019],[133.52525,35.02912],[133.52253,35.02708],[133.52183,35.02685],[133.5209,35.02679],[133.51975,35.02696],[133.51796,35.02742],[133.51733,35.02749],[133.5165,35.02744],[133.51565,35.02719],[133.51506,35.0268],[133.51441,35.02619],[133.51307,35.02341]],[[133.90545,35.05863],[133.90662,35.05835]],[[133.76108,35.02372],[133.76372,35.02484],[133.77298,35.0303],[133.7769,35.03272],[133.77792,35.03325],[133.77909,35.03369],[133.78036,35.03398],[133.78548,35.03446],[133.78599,35.03461],[133.78753,35.03545],[133.79026,35.03714],[133.79291,35.03982],[133.79368,35.04049],[133.79669,35.04258],[133.79713,35.04304],[133.79836,35.04508],[133.79911,35.046],[133.80167,35.04751],[133.80312,35.04887],[133.80489,35.05005],[133.80537,35.05065],[133.80586,35.05202],[133.80628,35.05255],[133.80698,35.05319],[133.80765,35.05357],[133.81015,35.0544],[133.81106,35.0548],[133.81239,35.05575],[133.81319,35.05614],[133.81619,35.05731],[133.81882,35.05804],[133.8194,35.05829]],[[133.74446,35.08117],[133.7365,35.08338],[133.73472,35.0836],[133.73265,35.08358],[133.72778,35.08305],[133.72475,35.08343],[133.72244,35.0834],[133.72175,35.08348],[133.72036,35.08386],[133.71918,35.08395],[133.7146,35.08337],[133.71163,35.08338],[133.71106,35.08343],[133.70916,35.08395],[133.70509,35.08461],[133.70285,35.08491],[133.70151,35.08495],[133.70009,35.08469],[133.69896,35.08427],[133.69821,35.08384],[133.69745,35.08329],[133.69514,35.08099]],[[133.69514,35.08099],[133.69438,35.08023]],[[133.66689,35.04854],[133.66649,35.04739]],[[133.7457,35.08083],[133.74446,35.08117]],[[133.87832,35.06221],[133.88024,35.06249],[133.88319,35.06329],[133.88462,35.06327],[133.88744,35.06226],[133.89509,35.06108],[133.90545,35.05863]],[[133.76077,35.04967],[133.76068,35.04875]],[[133.87622,35.06208],[133.87832,35.06221]],[[133.75941,35.023],[133.76108,35.02372]],[[133.51307,35.02341],[133.5124,35.02198]],[[133.69438,35.08023],[133.69103,35.07687],[133.69022,35.07618],[133.68854,35.07502],[133.68749,35.0747],[133.68457,35.07465],[133.68345,35.07454],[133.68258,35.07418],[133.68218,35.07392],[133.68177,35.07351],[133.68145,35.07298],[133.6812,35.07212],[133.68104,35.07111],[133.68083,35.07051],[133.68037,35.06979],[133.67998,35.06941],[133.67756,35.06779],[133.6759,35.06686],[133.6755,35.06611],[133.67532,35.06595],[133.67073,35.06313],[133.66954,35.06227],[133.66927,35.06177],[133.66864,35.05949],[133.66786,35.05814],[133.66766,35.05735],[133.66756,35.05664],[133.66813,35.0554],[133.66827,35.0549],[133.66831,35.05342],[133.66816,35.05223],[133.66689,35.04854]],[[133.6128,35.05449],[133.61198,35.05535]],[[133.55402,35.04678],[133.55339,35.0459]],[[133.7457,35.08083],[133.7518,35.07909],[133.75442,35.0779],[133.75606,35.07672],[133.7573,35.07553],[133.75829,35.07413],[133.75915,35.07265],[133.7603,35.06967],[133.76226,35.0659],[133.76246,35.0653],[133.76242,35.06437],[133.76172,35.06083],[133.76077,35.04967]],[[133.66649,35.04739],[133.66563,35.04506],[133.66499,35.04376],[133.66384,35.0426],[133.66288,35.04181],[133.66233,35.04149],[133.66165,35.04124],[133.66054,35.04111],[133.65819,35.04143],[133.65748,35.04145],[133.65458,35.04083],[133.65328,35.04074],[133.65272,35.04079],[133.652,35.04091],[133.65155,35.04107],[133.64925,35.04249],[133.64789,35.04295],[133.64422,35.04314],[133.64006,35.04306],[133.63919,35.04325],[133.63743,35.04389],[133.63675,35.04398],[133.63523,35.04396],[133.63443,35.04403],[133.63188,35.04472],[133.62917,35.04507],[133.62601,35.04565],[133.62546,35.04589],[133.62482,35.04636],[133.6217,35.05],[133.62121,35.05051],[133.62068,35.05089],[133.62018,35.0511],[133.61875,35.05144],[133.61686,35.05154],[133.61563,35.05184],[133.61476,35.05251],[133.6128,35.05449]],[[133.56573,35.07558],[133.56504,35.07392],[133.56359,35.07178],[133.56317,35.07072],[133.56304,35.06991],[133.56297,35.06881],[133.56302,35.06807],[133.56428,35.06386],[133.56448,35.0628],[133.56449,35.06225],[133.56425,35.06136],[133.56381,35.06071],[133.56324,35.06018],[133.55879,35.05793],[133.55813,35.05739],[133.5579,35.05711],[133.55771,35.05678],[133.55748,35.05599],[133.5573,35.05448],[133.55714,35.05378],[133.55634,35.05133],[133.55529,35.04864],[133.55402,35.04678]],[[133.82078,35.05921],[133.82173,35.05998],[133.82306,35.06148],[133.82347,35.06183],[133.82377,35.06201],[133.82459,35.06229],[133.82576,35.06234],[133.82866,35.06177],[133.82976,35.06165],[133.83201,35.06161],[133.83611,35.06172],[133.83772,35.06199],[133.84298,35.06367],[133.84408,35.06386],[133.85635,35.06329],[133.85855,35.06358],[133.86263,35.06532],[133.86372,35.06547],[133.86472,35.06536],[133.86763,35.06431],[133.87142,35.06188],[133.87233,35.06181],[133.87622,35.06208]],[[133.76068,35.04875],[133.76047,35.04623],[133.76047,35.04536],[133.76108,35.04117],[133.76108,35.04065],[133.76096,35.03998],[133.75791,35.03351],[133.75325,35.02574],[133.75304,35.02507],[133.75307,35.02444],[133.75322,35.02384],[133.75353,35.02322],[133.7542,35.02261],[133.7554,35.02205],[133.75606,35.02191],[133.75686,35.02196],[133.75941,35.023]],[[134.32329,34.98318],[134.32487,34.98244],[134.32614,34.98209],[134.32729,34.98212],[134.3327,34.98281],[134.33507,34.98291],[134.33638,34.98271],[134.33873,34.98186],[134.34012,34.98149],[134.34269,34.98148],[134.344,34.98169],[134.3448,34.98211],[134.34521,34.98247],[134.3481,34.98705],[134.34878,34.988],[134.34987,34.98923],[134.35351,34.99278],[134.35397,34.99348],[134.3541,34.99396]],[[134.3541,34.99396],[134.35408,34.9985],[134.35416,35.00162],[134.35454,35.00231],[134.3551,35.0028],[134.35584,35.0033]]]}}