{"type":"Feature","properties":{"id":"西武鉄道_多摩湖線","name":"多摩湖線","operator":"西武鉄道","railType":"普通鉄道","operatorType":"民営","category":"rail","attribution":"国土数値情報（鉄道データ）国土交通省"},"geometry":{"type":"MultiLineString","coordinates":[[[139.46844,35.74459],[139.46706,35.74519]],[[139.4766,35.73134],[139.47698,35.73598],[139.4777,35.73801],[139.47793,35.73899],[139.47788,35.73951],[139.47745,35.74031]],[[139.47654,35.73064],[139.4766,35.73134]],[[139.4762,35.74125],[139.47473,35.74191]],[[139.47473,35.74191],[139.46844,35.74459]],[[139.47942,35.70085],[139.47913,35.70135]],[[139.4801,35.7217],[139.48003,35.72251]],[[139.48003,35.72251],[139.47986,35.72346],[139.4797,35.72388],[139.47874,35.7251],[139.47769,35.72615],[139.47742,35.72655],[139.47674,35.72929],[139.47654,35.73064]],[[139.46706,35.74519],[139.45122,35.752],[139.44849,35.75335],[139.44544,35.75473],[139.44482,35.75514],[139.44427,35.75607]],[[139.47745,35.74031],[139.4762,35.74125]],[[139.44288,35.76511],[139.44255,35.76646]],[[139.44381,35.7568],[139.4435,35.75789],[139.44381,35.75932],[139.4438,35.76022],[139.4431,35.76297],[139.44311,35.76423],[139.44288,35.76511]],[[139.44427,35.75607],[139.44381,35.7568]],[[139.47913,35.70135],[139.47756,35.70468],[139.47742,35.70537],[139.47863,35.70985],[139.48038,35.71696],[139.4801,35.7217]]]}}