{"type":"Feature","properties":{"id":"西日本旅客鉄道_桜井線","name":"桜井線","operator":"西日本旅客鉄道","railType":"普通鉄道(JR)","operatorType":"JR在来線","category":"rail","attribution":"国土数値情報（鉄道データ）国土交通省"},"geometry":{"type":"MultiLineString","coordinates":[[[135.74521,34.51568],[135.74642,34.51428]],[[135.74407,34.517],[135.74521,34.51568]],[[135.81781,34.67843],[135.81829,34.67937]],[[135.82815,34.67028],[135.81995,34.67447],[135.81848,34.67541],[135.81808,34.67579],[135.81769,34.67655],[135.81761,34.67689],[135.81761,34.67766],[135.81781,34.67843]],[[135.8487,34.52651],[135.84809,34.52799]],[[135.83503,34.57478],[135.83464,34.57986],[135.83469,34.5846],[135.83457,34.58622],[135.83339,34.59102],[135.83074,34.5989]],[[135.829,34.66965],[135.82983,34.66822],[135.83011,34.66728],[135.8302,34.6666],[135.83013,34.6647],[135.82975,34.66171],[135.8261,34.64706],[135.82622,34.64388]],[[135.82622,34.64388],[135.82618,34.64255]],[[135.8385,34.55982],[135.83786,34.56381],[135.83558,34.57074],[135.83522,34.57211],[135.83511,34.57347]],[[135.76503,34.50967],[135.76567,34.50965]],[[135.82815,34.67028],[135.829,34.66965]],[[135.82618,34.64255],[135.82576,34.63076],[135.82581,34.62702],[135.82602,34.62174]],[[135.82432,34.51049],[135.82588,34.5109]],[[135.84467,34.51281],[135.84691,34.51317]],[[135.79349,34.50825],[135.79569,34.50809]],[[135.82588,34.5109],[135.82854,34.51158],[135.83042,34.51188],[135.8327,34.51207],[135.84211,34.51249],[135.84467,34.51281]],[[135.82628,34.62048],[135.82685,34.61806],[135.82946,34.60996],[135.8298,34.60444],[135.8301,34.60185]],[[135.83074,34.5989],[135.8301,34.60185]],[[135.84075,34.54597],[135.83871,34.55857]],[[135.82602,34.62174],[135.82628,34.62048]],[[135.83511,34.57347],[135.83503,34.57478]],[[135.81829,34.67937],[135.81941,34.68162]],[[135.79569,34.50809],[135.81037,34.50741],[135.81198,34.50746],[135.81405,34.50772],[135.82432,34.51049]],[[135.74642,34.51428],[135.74804,34.51336],[135.74955,34.51273],[135.75355,34.51144],[135.75824,34.51011],[135.75922,34.50993],[135.76503,34.50967]],[[135.84809,34.52799],[135.84102,34.54485]],[[135.76567,34.50965],[135.77671,34.50909],[135.78455,34.50903],[135.79349,34.50825]],[[135.84691,34.51317],[135.84732,34.51329],[135.84805,34.51367],[135.84876,34.51424],[135.84924,34.51468],[135.84948,34.51531],[135.85019,34.52274],[135.85,34.52349],[135.8487,34.52651]],[[135.84102,34.54485],[135.84075,34.54597]],[[135.83871,34.55857],[135.8385,34.55982]]]}}