{"type":"Feature","properties":{"id":"西日本旅客鉄道_吉備線","name":"吉備線","operator":"西日本旅客鉄道","railType":"普通鉄道(JR)","operatorType":"JR在来線","category":"rail","attribution":"国土数値情報（鉄道データ）国土交通省"},"geometry":{"type":"MultiLineString","coordinates":[[[133.90088,34.66776],[133.90007,34.66775]],[[133.91788,34.66735],[133.91712,34.6663]],[[133.91712,34.6663],[133.91639,34.66497],[133.91585,34.66429],[133.91548,34.66399],[133.91516,34.6638],[133.91454,34.66361],[133.91321,34.66354],[133.91228,34.66372],[133.9115,34.66408],[133.90629,34.66709],[133.90519,34.66755],[133.90391,34.66778],[133.90088,34.66776]],[[133.73798,34.67296],[133.73833,34.6754]],[[133.73833,34.6754],[133.73836,34.67568]],[[133.88871,34.66294],[133.88704,34.6629]],[[133.82311,34.68595],[133.83162,34.68022],[133.83451,34.67778],[133.83504,34.67746],[133.8433,34.67456],[133.84427,34.67438],[133.84557,34.67434]],[[133.73836,34.67568],[133.73892,34.67664],[133.7395,34.67728],[133.73983,34.67752],[133.7404,34.67777],[133.74273,34.67839],[133.74342,34.67838],[133.74952,34.67756],[133.75091,34.67762]],[[133.88704,34.6629],[133.88471,34.66279],[133.88201,34.66232],[133.88054,34.66221],[133.8759,34.6627],[133.87508,34.66294],[133.87414,34.66346],[133.87346,34.66405],[133.8731,34.66456],[133.86911,34.67238],[133.86877,34.67339],[133.86847,34.67487],[133.86821,34.6754],[133.86778,34.67588],[133.86443,34.67851]],[[133.75091,34.67762],[133.75184,34.67781]],[[133.77492,34.69084],[133.7759,34.69143]],[[133.84695,34.67451],[133.84781,34.67473],[133.84841,34.67498],[133.85754,34.68005],[133.85875,34.68052],[133.85967,34.68066],[133.86021,34.68066],[133.86121,34.68051],[133.86216,34.68017],[133.86365,34.67915]],[[133.90007,34.66775],[133.89762,34.66771],[133.89648,34.66741],[133.89489,34.6665],[133.89037,34.66353],[133.88968,34.66319],[133.88871,34.66294]],[[133.8032,34.69819],[133.80232,34.69781]],[[133.80232,34.69781],[133.79745,34.69579],[133.79611,34.69557],[133.79557,34.69558],[133.78984,34.69658],[133.78837,34.69677],[133.7867,34.69681],[133.78503,34.69657],[133.78361,34.69605],[133.78246,34.69543],[133.7759,34.69143]],[[133.8032,34.69819],[133.80505,34.69889],[133.80597,34.69901],[133.80671,34.69896],[133.80776,34.69869],[133.80872,34.69826],[133.8119,34.69637],[133.81326,34.69534],[133.82123,34.68725],[133.82205,34.68666]],[[133.86365,34.67915],[133.86443,34.67851]],[[133.75184,34.67781],[133.75569,34.67935],[133.75714,34.6801],[133.77492,34.69084]],[[133.84557,34.67434],[133.84695,34.67451]],[[133.82205,34.68666],[133.82311,34.68595]]]}}