{"type":"Feature","properties":{"id":"西日本旅客鉄道_湖西線","name":"湖西線","operator":"西日本旅客鉄道","railType":"普通鉄道(JR)","operatorType":"JR在来線","category":"rail","attribution":"国土数値情報（鉄道データ）国土交通省"},"geometry":{"type":"MultiLineString","coordinates":[[[136.12342,35.49953],[136.1296,35.50357],[136.13204,35.505],[136.14979,35.5161],[136.15156,35.51739],[136.15232,35.51818],[136.1528,35.51896],[136.15324,35.51994],[136.15378,35.52149],[136.15403,35.52248],[136.15438,35.5246],[136.15466,35.52954],[136.15456,35.53135],[136.15432,35.53227],[136.1526,35.53597],[136.15234,35.53692]],[[136.06081,35.46175],[136.05828,35.46057]],[[136.12113,35.49805],[136.1182,35.49595],[136.10739,35.4888],[136.10531,35.48747],[136.10404,35.48681],[136.08359,35.47839],[136.0816,35.47755],[136.0796,35.4765],[136.0781,35.47543],[136.07657,35.47401],[136.07232,35.46853],[136.07123,35.4674],[136.07019,35.46654],[136.06905,35.46572],[136.06774,35.46496],[136.06081,35.46175]],[[136.12113,35.49805],[136.12342,35.49953]],[[136.15185,35.53837],[136.15092,35.54105]],[[136.15185,35.53837],[136.15234,35.53692]],[[136.02023,35.32916],[136.02151,35.33332],[136.02215,35.33458],[136.03362,35.35089],[136.03464,35.35268],[136.03538,35.35474]],[[136.00951,35.29389],[136.0108,35.29168]],[[136.02023,35.32916],[136.01953,35.32674]],[[135.96925,35.25248],[135.97092,35.2542]],[[136.0108,35.29168],[136.0126,35.28854],[136.01286,35.28791],[136.01342,35.28578],[136.01358,35.28395],[136.01352,35.28316],[136.01308,35.28058],[136.01265,35.2794],[136.0123,35.27868],[136.01146,35.27751],[136.01023,35.27624],[136.00885,35.27515],[136.00769,35.27442],[136.00393,35.27275],[136.00254,35.27234],[135.99897,35.27172],[135.99673,35.27113],[135.99469,35.27042],[135.99338,35.26977],[135.98795,35.26648],[135.98532,35.26435],[135.98135,35.26088],[135.98045,35.26038],[135.97567,35.25813],[135.97418,35.25724],[135.97329,35.25655],[135.97092,35.2542]],[[136.05828,35.46057],[136.04943,35.45647],[136.04569,35.45465],[136.04401,35.45358],[136.04279,35.4526],[136.04198,35.45176],[136.04107,35.4506],[136.04036,35.44946],[136.03961,35.44773],[136.03907,35.44571],[136.03865,35.44143]],[[136.03188,35.39683],[136.03277,35.39958]],[[136.01953,35.32674],[136.01798,35.32155],[136.01571,35.31344],[136.01475,35.31039],[136.01372,35.30747],[136.01295,35.30586],[136.00926,35.29972],[136.00878,35.29857],[136.00863,35.29733],[136.0087,35.29644],[136.00894,35.2953],[136.00951,35.29389]],[[136.03576,35.35623],[136.03626,35.35892],[136.03625,35.36106],[136.03606,35.36244],[136.03472,35.36848],[136.03435,35.37046],[136.03433,35.37754],[136.03419,35.37886],[136.0337,35.38072],[136.03072,35.38929],[136.03048,35.39048],[136.03047,35.39162],[136.03055,35.39223],[136.03188,35.39683]],[[136.03865,35.44143],[136.03847,35.43978]],[[136.03847,35.43978],[136.0361,35.4191],[136.03471,35.40559],[136.03454,35.40483],[136.03277,35.39958]],[[136.03538,35.35474],[136.03576,35.35623]],[[135.8181,34.99264],[135.81506,34.99256]],[[135.82233,34.99268],[135.82,34.99271],[135.8181,34.99264]],[[135.95998,35.23721],[135.96128,35.23949],[135.9631,35.24428],[135.96396,35.2462],[135.96489,35.24761],[135.96634,35.24943],[135.96925,35.25248]],[[135.86767,35.05029],[135.87103,35.05275],[135.87215,35.05394],[135.8733,35.05556],[135.87396,35.05694],[135.8745,35.05869],[135.87526,35.06266],[135.87562,35.06414],[135.87794,35.06972]],[[135.95877,35.2355],[135.95998,35.23721]],[[135.92415,35.20137],[135.92569,35.20331]],[[135.85612,35.0235],[135.85293,35.02095],[135.85089,35.01895],[135.85041,35.01831],[135.84083,35.00323],[135.8399,35.00214],[135.83892,35.00115],[135.83566,34.99864],[135.83181,34.99653],[135.82938,34.99453],[135.82807,34.99381],[135.82603,34.99311],[135.82502,34.99287],[135.82363,34.99267],[135.82233,34.99268]],[[135.87885,35.07185],[135.88257,35.08044],[135.88387,35.08295],[135.88536,35.08534],[135.88601,35.08655],[135.88837,35.09003],[135.89018,35.0924],[135.89368,35.09598]],[[135.91501,35.18171],[135.91525,35.18339]],[[135.89551,35.09788],[135.90508,35.10771],[135.90722,35.11035],[135.91436,35.11999]],[[135.94316,35.21915],[135.94497,35.22077]],[[135.92168,35.16264],[135.91774,35.1677],[135.91642,35.1696],[135.91595,35.17042],[135.91501,35.17278],[135.91469,35.17476],[135.91464,35.17702],[135.91501,35.18171]],[[135.91436,35.11999],[135.91584,35.12204]],[[135.92569,35.20331],[135.92625,35.20387],[135.92757,35.20496],[135.93226,35.20784],[135.93447,35.2094],[135.93562,35.21056],[135.93641,35.21149],[135.93881,35.21495],[135.93937,35.21564],[135.94125,35.21747],[135.94316,35.21915]],[[135.87794,35.06972],[135.87885,35.07185]],[[135.94497,35.22077],[135.95362,35.2285],[135.95417,35.2291],[135.95548,35.23084],[135.95877,35.2355]],[[135.91525,35.18339],[135.9155,35.18444],[135.9166,35.18805],[135.91743,35.19003],[135.91817,35.19119],[135.92061,35.19426],[135.9213,35.19529],[135.92189,35.19638],[135.9232,35.19941],[135.92415,35.20137]],[[135.8584,35.02532],[135.85612,35.0235]],[[135.89368,35.09598],[135.89551,35.09788]],[[135.86626,35.04931],[135.86543,35.04873],[135.86438,35.04783],[135.86332,35.04659],[135.86237,35.04508],[135.86155,35.04323],[135.86131,35.04245],[135.86109,35.04123],[135.86104,35.03972],[135.86116,35.03859],[135.86194,35.03457],[135.86199,35.0327],[135.86181,35.03145],[135.86143,35.03008],[135.86078,35.02858],[135.85936,35.02641],[135.8584,35.02532]],[[135.92256,35.13815],[135.92281,35.13954]],[[135.91584,35.12204],[135.91897,35.12627],[135.91946,35.12702],[135.92008,35.12821],[135.9205,35.12941],[135.92171,35.13387],[135.92256,35.13815]],[[135.92281,35.13954],[135.92299,35.14082],[135.92301,35.14188],[135.92286,35.14459],[135.92291,35.1452],[135.92328,35.14725],[135.92455,35.15163],[135.92477,35.15318],[135.92473,35.15483],[135.9244,35.15687],[135.92385,35.15864],[135.92305,35.16042]],[[135.86767,35.05029],[135.86626,35.04931]],[[135.92305,35.16042],[135.92168,35.16264]]]}}