{"type":"Feature","properties":{"id":"西日本鉄道_甘木線","name":"甘木線","operator":"西日本鉄道","railType":"普通鉄道","operatorType":"民営","category":"rail","attribution":"国土数値情報（鉄道データ）国土交通省"},"geometry":{"type":"MultiLineString","coordinates":[[[130.62865,33.38459],[130.62471,33.37899],[130.62451,33.37857],[130.62414,33.37251]],[[130.54719,33.33606],[130.54024,33.3307]],[[130.62414,33.37251],[130.62398,33.37193]],[[130.60743,33.35101],[130.60289,33.35124],[130.59989,33.35112],[130.58796,33.34859],[130.58692,33.34825],[130.58307,33.34544]],[[130.56739,33.34363],[130.5666,33.34356]],[[130.64051,33.40728],[130.63942,33.40519],[130.63754,33.40105],[130.63731,33.40027],[130.63718,33.39906]],[[130.62282,33.35307],[130.61985,33.35133],[130.61876,33.35088],[130.61791,33.35066],[130.61674,33.35055],[130.6082,33.35097]],[[130.64084,33.4078],[130.64051,33.40728]],[[130.54779,33.33654],[130.54719,33.33606]],[[130.63718,33.39906],[130.63712,33.39836]],[[130.5666,33.34356],[130.56281,33.34274],[130.56121,33.34308],[130.55978,33.34307],[130.55404,33.34203],[130.55355,33.34172],[130.54779,33.33654]],[[130.58307,33.34544],[130.58239,33.34531]],[[130.6082,33.35097],[130.60743,33.35101]],[[130.62398,33.37193],[130.62337,33.36945],[130.62318,33.36092],[130.62416,33.35485],[130.62399,33.35412],[130.62375,33.35372],[130.62337,33.35341]],[[130.65513,33.41837],[130.65444,33.41815]],[[130.65444,33.41815],[130.65232,33.41754],[130.65151,33.41738],[130.65082,33.41737],[130.6499,33.41751],[130.64898,33.41747],[130.64741,33.41706],[130.64698,33.41681],[130.64619,33.41601],[130.64084,33.4078]],[[130.62337,33.35341],[130.62282,33.35307]],[[130.62901,33.3851],[130.62865,33.38459]],[[130.63712,33.39836],[130.63691,33.39634],[130.63666,33.3956],[130.62901,33.3851]],[[130.58239,33.34531],[130.57748,33.34457],[130.5754,33.34414],[130.57382,33.34424],[130.57089,33.34387],[130.56739,33.34363]],[[130.54024,33.3307],[130.53963,33.33024]],[[130.53963,33.33024],[130.53891,33.32984],[130.53816,33.32961],[130.531,33.32907]],[[130.531,33.32907],[130.53052,33.32883]]]}}