{"type":"Feature","properties":{"id":"西日本旅客鉄道_桜島線","name":"桜島線","operator":"西日本旅客鉄道","railType":"普通鉄道(JR)","operatorType":"JR在来線","category":"rail","attribution":"国土数値情報（鉄道データ）国土交通省"},"geometry":{"type":"MultiLineString","coordinates":[[[135.46765,34.68342],[135.46625,34.68215]],[[135.46625,34.68215],[135.46476,34.68072]],[[135.4442,34.67369],[135.44354,34.67308]],[[135.46476,34.68072],[135.46296,34.67957],[135.46219,34.6793],[135.46159,34.67921],[135.46049,34.67937],[135.45822,34.68012],[135.45676,34.68024],[135.4558,34.68011],[135.4471,34.67609],[135.44626,34.67555],[135.4442,34.67369]],[[135.43209,34.66188],[135.43199,34.66208],[135.43306,34.66247]],[[135.43911,34.66843],[135.44054,34.66992],[135.44064,34.67044],[135.44354,34.67308]],[[135.43306,34.66247],[135.43394,34.66283],[135.43525,34.66357],[135.43702,34.66632],[135.43802,34.66725]],[[135.43802,34.66725],[135.43911,34.66843]]]}}