{"type":"Feature","properties":{"id":"西日本旅客鉄道_阪和線","name":"阪和線","operator":"西日本旅客鉄道","railType":"普通鉄道(JR)","operatorType":"JR在来線","category":"rail","attribution":"国土数値情報（鉄道データ）国土交通省"},"geometry":{"type":"MultiLineString","coordinates":[[[135.33087,34.38997],[135.3317,34.39149]],[[135.3851,34.44884],[135.37364,34.4405]],[[135.46879,34.54268],[135.46771,34.54188]],[[135.44195,34.51116],[135.44092,34.50992]],[[135.42441,34.48873],[135.42333,34.48724]],[[135.47893,34.55003],[135.47712,34.54875]],[[135.39648,34.45698],[135.39449,34.45511],[135.39393,34.45469],[135.38655,34.44981]],[[135.35911,34.42768],[135.35854,34.42692]],[[135.34966,34.41619],[135.35042,34.41708]],[[135.45883,34.53233],[135.45971,34.53319],[135.46014,34.53342]],[[135.51217,34.60996],[135.51286,34.61108]],[[135.52106,34.62601],[135.52361,34.63193],[135.5237,34.63252],[135.52378,34.63804]],[[135.50255,34.58581],[135.50241,34.58478]],[[135.37364,34.4405],[135.37243,34.4396]],[[135.39739,34.45788],[135.39648,34.45698]],[[135.49902,34.57827],[135.50202,34.58369],[135.50241,34.58478]],[[135.37243,34.4396],[135.3651,34.43428],[135.36265,34.43236],[135.36112,34.43058],[135.35911,34.42768]],[[135.40502,34.46523],[135.39739,34.45788]],[[135.44311,34.53482],[135.44515,34.53381],[135.44611,34.53344],[135.45503,34.53095],[135.4557,34.53087],[135.45672,34.53091],[135.45738,34.53109],[135.45794,34.53139],[135.4583,34.53169]],[[135.49902,34.57827],[135.49832,34.57697]],[[135.3317,34.39149],[135.33451,34.39691],[135.33635,34.40025],[135.33696,34.40112],[135.34063,34.40558]],[[135.45954,34.5327],[135.46014,34.53342]],[[135.43346,34.50089],[135.43247,34.49963]],[[135.49299,34.56667],[135.49255,34.56573]],[[135.51286,34.61108],[135.51675,34.6174]],[[135.48875,34.55787],[135.48843,34.55737],[135.48757,34.5565],[135.47893,34.55003]],[[135.45078,34.52198],[135.44195,34.51116]],[[135.50654,34.60168],[135.50753,34.6029]],[[135.45954,34.5327],[135.45817,34.53101]],[[135.51745,34.61865],[135.51787,34.61935],[135.52069,34.62511]],[[135.5161,34.64707],[135.5145,34.64756]],[[135.52378,34.63804],[135.52378,34.63922]],[[135.43247,34.49963],[135.43007,34.49652],[135.42441,34.48873]],[[135.52069,34.62511],[135.52106,34.62601]],[[135.50297,34.59238],[135.50307,34.59364]],[[135.48953,34.55921],[135.48875,34.55787]],[[135.47712,34.54875],[135.46879,34.54268]],[[135.46771,34.54188],[135.46622,34.54059],[135.46533,34.53968],[135.46014,34.53342]],[[135.32854,34.38756],[135.32935,34.38826],[135.33087,34.38997]],[[135.50255,34.58581],[135.50297,34.59238]],[[135.44249,34.53519],[135.44311,34.53482]],[[135.3418,34.407],[135.34966,34.41619]],[[135.42333,34.48724],[135.41318,34.47322],[135.40597,34.46614]],[[135.45817,34.53101],[135.45166,34.52306]],[[135.40597,34.46614],[135.40502,34.46523]],[[135.50307,34.59364],[135.50328,34.59559],[135.50352,34.59673],[135.50392,34.5979],[135.5046,34.59921],[135.50654,34.60168]],[[135.44092,34.50992],[135.43673,34.50473],[135.43346,34.50089]],[[135.4583,34.53169],[135.45883,34.53233]],[[135.52378,34.63922],[135.52367,34.64049],[135.52335,34.64154],[135.52085,34.64493],[135.5203,34.64539],[135.51932,34.64595],[135.5161,34.64707]],[[135.45166,34.52306],[135.45078,34.52198]],[[135.51675,34.6174],[135.51745,34.61865]],[[135.38655,34.44981],[135.3851,34.44884]],[[135.34063,34.40558],[135.3418,34.407]],[[135.50753,34.6029],[135.50913,34.60513],[135.51217,34.60996]],[[135.49832,34.57697],[135.49652,34.5739],[135.49299,34.56667]],[[135.49255,34.56573],[135.48953,34.55921]],[[135.35042,34.41708],[135.35235,34.41931],[135.35444,34.4215],[135.35598,34.42327],[135.35854,34.42692]],[[135.20716,34.26223],[135.20613,34.26025],[135.20579,34.25917],[135.20544,34.25678],[135.20506,34.25328],[135.20471,34.25155],[135.20439,34.25068],[135.20357,34.24936],[135.20301,34.24881],[135.20228,34.24828],[135.20155,34.24787],[135.19233,34.24464],[135.19166,34.24427],[135.19105,34.24376],[135.19048,34.24315]],[[135.1905,34.23714],[135.18965,34.23889],[135.1893,34.24015],[135.18926,34.24068],[135.18938,34.24153],[135.18964,34.24219],[135.1899,34.24255]],[[135.19123,34.23334],[135.1905,34.23714]],[[135.26334,34.3431],[135.26359,34.34364],[135.26395,34.34409],[135.27523,34.35445],[135.28043,34.35951]],[[135.24678,34.26929],[135.24961,34.26966],[135.25233,34.27043],[135.25387,34.27098],[135.25443,34.27132],[135.25522,34.27195],[135.25894,34.27546],[135.25967,34.27593],[135.26069,34.27639],[135.26252,34.27675],[135.26525,34.27694],[135.2673,34.27726],[135.26908,34.27761],[135.26974,34.27779],[135.27052,34.27813],[135.27132,34.27862],[135.27194,34.27929],[135.27364,34.28182],[135.27421,34.28305],[135.27432,34.28425],[135.2741,34.28531],[135.27293,34.28896],[135.2695,34.30246],[135.26917,34.304],[135.26915,34.30488],[135.26933,34.30771],[135.26994,34.3142],[135.27,34.3159],[135.26986,34.31823],[135.26889,34.32312],[135.26895,34.32411],[135.26919,34.32476],[135.26944,34.32516]],[[135.28196,34.36096],[135.28546,34.36431],[135.28639,34.36502],[135.29847,34.37199]],[[135.1899,34.24255],[135.19048,34.24315]],[[135.28043,34.35951],[135.28196,34.36096]],[[135.24678,34.26929],[135.24575,34.26922]],[[135.19156,34.23162],[135.19123,34.23334]],[[135.20761,34.26307],[135.20864,34.26448],[135.20919,34.265],[135.21005,34.26563],[135.21199,34.2666],[135.21299,34.26691],[135.21385,34.26706],[135.24575,34.26922]],[[135.31948,34.38156],[135.32065,34.3823]],[[135.32065,34.3823],[135.32741,34.38674],[135.32854,34.38756]],[[135.26315,34.34183],[135.26318,34.34245],[135.26334,34.3431]],[[135.26991,34.32591],[135.27053,34.32679],[135.2708,34.32751],[135.27091,34.32801],[135.27092,34.32863],[135.27071,34.32936],[135.26569,34.33662],[135.26504,34.3378],[135.2634,34.34043],[135.26319,34.34111],[135.26315,34.34183]],[[135.29847,34.37199],[135.29977,34.37272]],[[135.20761,34.26307],[135.20716,34.26223]],[[135.26991,34.32591],[135.26944,34.32516]],[[135.29977,34.37272],[135.302,34.37399],[135.30385,34.37473],[135.30535,34.37515],[135.30791,34.37563],[135.31018,34.37621],[135.31215,34.37688],[135.31319,34.3774],[135.31529,34.37869],[135.31948,34.38156]]]}}