{"type":"Feature","properties":{"id":"西日本旅客鉄道_山口線","name":"山口線","operator":"西日本旅客鉄道","railType":"普通鉄道(JR)","operatorType":"JR在来線","category":"rail","attribution":"国土数値情報（鉄道データ）国土交通省"},"geometry":{"type":"MultiLineString","coordinates":[[[131.8395,34.67804],[131.8384,34.67851]],[[131.8384,34.67851],[131.83448,34.68027]],[[131.73425,34.42178],[131.73419,34.42279],[131.734,34.42332],[131.73368,34.42385],[131.72351,34.43672],[131.72252,34.43811],[131.72233,34.43857],[131.72236,34.43948],[131.72253,34.43999],[131.72299,34.44073],[131.72663,34.44348],[131.72757,34.44375],[131.72826,34.44382],[131.72923,34.4436],[131.73158,34.44277],[131.73783,34.43912],[131.73834,34.43895],[131.73898,34.43886],[131.74027,34.43895],[131.74099,34.43917],[131.74138,34.4394],[131.74474,34.44244],[131.74578,34.44295],[131.74754,34.44348],[131.75048,34.44478],[131.75139,34.44576],[131.75219,34.44771],[131.75274,34.44865],[131.75313,34.44906],[131.75414,34.44973],[131.75476,34.44996],[131.75559,34.45011],[131.75632,34.45011],[131.75724,34.44999],[131.76045,34.44879],[131.7615,34.44862],[131.76489,34.44902],[131.76584,34.44941],[131.76667,34.4499],[131.76813,34.45088],[131.76943,34.45214],[131.77145,34.45557],[131.77184,34.45643],[131.77198,34.45701],[131.77198,34.45739],[131.77167,34.45925],[131.77164,34.46],[131.77185,34.46057],[131.77277,34.46212],[131.77289,34.4627],[131.77281,34.46373],[131.77225,34.46559],[131.77215,34.46615],[131.77214,34.46753],[131.7723,34.46837],[131.77353,34.4719]],[[131.83188,34.53213],[131.83198,34.53046],[131.83195,34.52963],[131.83178,34.52896],[131.82784,34.52082],[131.82712,34.51948],[131.82638,34.51783],[131.82579,34.51685],[131.82421,34.51526],[131.82128,34.51055],[131.81933,34.50801],[131.81753,34.50289],[131.8168,34.50103],[131.81589,34.50017],[131.81524,34.49935],[131.81286,34.49515],[131.8127,34.49441],[131.81265,34.49303],[131.81242,34.49253],[131.81193,34.4918],[131.81074,34.49066],[131.81021,34.48979],[131.80864,34.4862],[131.80842,34.48516],[131.8083,34.48292],[131.80796,34.48203],[131.80735,34.48129],[131.80684,34.48096],[131.80606,34.48071],[131.80477,34.48059],[131.80361,34.48083]],[[131.73401,34.42097],[131.73425,34.42178]],[[131.82663,34.65302],[131.82591,34.65409],[131.82429,34.65697],[131.82167,34.66503],[131.82085,34.66775],[131.82086,34.66805],[131.82134,34.66997],[131.82192,34.67104],[131.82398,34.67364],[131.83024,34.6796],[131.83114,34.68022],[131.83189,34.68046],[131.83312,34.68054],[131.83448,34.68027]],[[131.80284,34.48104],[131.80361,34.48083]],[[131.79702,34.58477],[131.79656,34.58441],[131.79619,34.58395],[131.79594,34.58316],[131.79599,34.58205],[131.79622,34.58158],[131.79728,34.58032],[131.79803,34.57905],[131.79819,34.57855],[131.79835,34.5775],[131.79829,34.57634],[131.79819,34.57589],[131.79792,34.57544],[131.79684,34.57404],[131.79629,34.57299],[131.79475,34.57097],[131.79456,34.57025],[131.79456,34.56952],[131.79474,34.56895],[131.79513,34.56839],[131.79706,34.56697],[131.79828,34.56579],[131.79862,34.56535],[131.79901,34.56473],[131.79942,34.56386],[131.80047,34.56101]],[[131.80505,34.61853],[131.80406,34.61756]],[[131.72053,34.40029],[131.71987,34.39913]],[[131.82663,34.65302],[131.82721,34.65222]],[[131.77353,34.4719],[131.77399,34.47318]],[[131.79788,34.58532],[131.799,34.58596],[131.79978,34.58654],[131.80149,34.58811],[131.80256,34.58931],[131.80311,34.59049],[131.80483,34.59703],[131.80486,34.59781],[131.80473,34.59845],[131.8043,34.59927],[131.80376,34.60006],[131.80342,34.60089],[131.8034,34.60217],[131.80319,34.6029],[131.80292,34.60336],[131.80142,34.60507],[131.80036,34.60703],[131.79999,34.60822],[131.79984,34.60983],[131.79992,34.61037],[131.8011,34.61399],[131.80247,34.61588],[131.80322,34.61675],[131.80406,34.61756]],[[131.77399,34.47318],[131.77475,34.47522],[131.77517,34.476],[131.7754,34.47627],[131.77647,34.4771],[131.77732,34.47752],[131.77797,34.47771],[131.78702,34.47884],[131.78795,34.47884],[131.7886,34.47868],[131.79092,34.47759],[131.792,34.47717],[131.79368,34.47685],[131.79504,34.47686],[131.79587,34.47705],[131.79656,34.47741],[131.79798,34.47861],[131.79931,34.48023],[131.8002,34.48091],[131.80152,34.48121],[131.80229,34.48118],[131.80284,34.48104]],[[131.83184,34.5332],[131.8318,34.53432],[131.83266,34.53711],[131.83267,34.53741],[131.83224,34.53925],[131.83196,34.54016],[131.83162,34.54078],[131.82962,34.54322],[131.82862,34.54422],[131.82773,34.5449],[131.82346,34.54709],[131.8228,34.54723],[131.81967,34.54733],[131.81878,34.54757],[131.81792,34.548],[131.81736,34.54846],[131.8149,34.55194],[131.81449,34.55248],[131.81384,34.55311],[131.8131,34.5535],[131.80877,34.55465],[131.80747,34.55475],[131.80262,34.55685],[131.80186,34.55737],[131.80171,34.55755],[131.80139,34.55823],[131.80083,34.55989]],[[131.72053,34.40029],[131.72153,34.40194],[131.72178,34.40271],[131.72165,34.40375],[131.72105,34.40568],[131.72095,34.40635],[131.72097,34.40754],[131.72126,34.40858],[131.72162,34.4093],[131.72253,34.41037],[131.73336,34.41989],[131.7339,34.42068],[131.73401,34.42097]],[[131.80505,34.61853],[131.81401,34.62735],[131.81504,34.62821],[131.81562,34.62853],[131.8164,34.62879],[131.81818,34.62907],[131.81925,34.62933],[131.82001,34.6296],[131.82056,34.62992],[131.82093,34.63031],[131.82187,34.6326],[131.82227,34.63331],[131.82262,34.63373],[131.82434,34.63489],[131.82493,34.63549],[131.82735,34.63971],[131.82833,34.64187],[131.82975,34.64379],[131.83008,34.64444],[131.83017,34.64481],[131.83015,34.64549],[131.82992,34.64675],[131.82956,34.64858],[131.82933,34.64926],[131.82721,34.65222]],[[131.79702,34.58477],[131.79788,34.58532]],[[131.80083,34.55989],[131.80047,34.56101]],[[131.83184,34.5332],[131.83188,34.53213]],[[131.3975,34.09471],[131.39615,34.094],[131.39506,34.09325]],[[131.65156,34.35382],[131.65256,34.35437],[131.65433,34.35575],[131.6549,34.35607],[131.6565,34.35634],[131.65921,34.35615],[131.66001,34.35625],[131.66624,34.35785],[131.66733,34.35821],[131.66865,34.35893],[131.67359,34.36237]],[[131.5784,34.30422],[131.57909,34.30482]],[[131.40185,34.10153],[131.40173,34.10075]],[[131.48513,34.18283],[131.48461,34.18233]],[[131.49843,34.19117],[131.49788,34.1907],[131.4965,34.1898],[131.48824,34.18526],[131.48669,34.18421],[131.48513,34.18283]],[[131.56196,34.27874],[131.5625,34.27952]],[[131.53622,34.21661],[131.53628,34.21595]],[[131.6248,34.34186],[131.62388,34.34122]],[[131.60442,34.32309],[131.60664,34.32426],[131.60757,34.32508],[131.60801,34.32582],[131.60814,34.32631],[131.60817,34.32692],[131.60812,34.32734],[131.60757,34.3292],[131.60756,34.32973],[131.60793,34.33082],[131.60857,34.33175],[131.60959,34.3325],[131.61353,34.33411],[131.61463,34.33473],[131.61916,34.33824],[131.62255,34.3403],[131.62388,34.34122]],[[131.60372,34.32278],[131.60442,34.32309]],[[131.57909,34.30482],[131.58187,34.30768],[131.58267,34.30834],[131.5877,34.31195],[131.58889,34.31269],[131.59157,34.31395],[131.5977,34.31778],[131.59807,34.31806],[131.59906,34.31908],[131.60076,34.32115],[131.60156,34.32169],[131.60372,34.32278]],[[131.49906,34.19172],[131.49843,34.19117]],[[131.40189,34.11651],[131.40195,34.11536]],[[131.53628,34.21595],[131.53626,34.21552],[131.53617,34.21531],[131.53587,34.21479],[131.5354,34.21432],[131.53462,34.21394],[131.53207,34.21299],[131.53042,34.2119],[131.52856,34.21106],[131.5269,34.20967],[131.52558,34.20869],[131.5245,34.20764],[131.52117,34.20631],[131.52017,34.20572],[131.51989,34.2054],[131.51949,34.20469],[131.5192,34.20297],[131.51896,34.2022],[131.51868,34.20172],[131.51807,34.20122],[131.51619,34.20012],[131.51574,34.19978],[131.51488,34.19892],[131.51408,34.19834],[131.51295,34.19793],[131.50474,34.19562],[131.50379,34.19528],[131.50284,34.19478],[131.50193,34.19416],[131.49906,34.19172]],[[131.43297,34.14724],[131.43233,34.1467]],[[131.48156,34.17333],[131.48056,34.17227]],[[131.43233,34.1467],[131.42812,34.14312],[131.42718,34.14217],[131.42658,34.141],[131.42532,34.13746],[131.4246,34.13642],[131.42199,34.13375],[131.41593,34.12922]],[[131.53622,34.21661],[131.53541,34.22065],[131.53523,34.22237],[131.53537,34.22278],[131.53608,34.22338],[131.53697,34.22375],[131.53756,34.22384],[131.53855,34.22389],[131.5399,34.22381],[131.54107,34.22397],[131.54263,34.22446],[131.54413,34.22512],[131.54456,34.22541],[131.54629,34.22738],[131.54729,34.22793],[131.5491,34.22851],[131.55289,34.23017],[131.55372,34.23082],[131.55471,34.23217],[131.55563,34.23276],[131.55603,34.23295],[131.55655,34.23305],[131.55907,34.23311],[131.55955,34.23318],[131.56018,34.23341],[131.56158,34.23407],[131.56382,34.23529],[131.56456,34.23619],[131.56474,34.23681],[131.56458,34.238],[131.56197,34.24317],[131.56105,34.24554],[131.56033,34.24821],[131.56001,34.25158],[131.56026,34.25534],[131.56007,34.25653],[131.55958,34.25831],[131.55933,34.25966],[131.55937,34.2604],[131.55975,34.26276],[131.55982,34.26451],[131.55969,34.2676],[131.5593,34.26961],[131.55922,34.27062],[131.56032,34.27337],[131.56088,34.2768],[131.56196,34.27874]],[[131.41593,34.12922],[131.4153,34.12876]],[[131.69445,34.37838],[131.69369,34.37811]],[[131.67482,34.36314],[131.67359,34.36237]],[[131.65081,34.35356],[131.64798,34.35259],[131.64695,34.35216],[131.64422,34.35047],[131.64263,34.34963],[131.64103,34.34926],[131.63413,34.3485],[131.63345,34.34834],[131.6328,34.34808],[131.63211,34.34763],[131.63043,34.34605],[131.6292,34.34505],[131.6248,34.34186]],[[131.40173,34.10075],[131.40137,34.09908],[131.40097,34.09791],[131.40069,34.09737],[131.3995,34.09606],[131.39896,34.09562],[131.3975,34.09471]],[[131.48056,34.17227],[131.47853,34.16992],[131.47824,34.16963],[131.47768,34.16926],[131.47722,34.169],[131.4725,34.16744],[131.47103,34.16679],[131.46094,34.16008]],[[131.65156,34.35382],[131.65081,34.35356]],[[131.71987,34.39913],[131.71801,34.39605],[131.71703,34.3949],[131.71621,34.39433],[131.71028,34.3909],[131.70944,34.39029],[131.69939,34.38033],[131.69908,34.3801],[131.69781,34.37955],[131.69445,34.37838]],[[131.48461,34.18233],[131.4836,34.1811],[131.48305,34.18017],[131.48284,34.17963],[131.48268,34.17879],[131.48245,34.1753],[131.48218,34.17435],[131.48186,34.1737],[131.48156,34.17333]],[[131.44587,34.15055],[131.44541,34.15046],[131.44434,34.15045],[131.43972,34.15098],[131.43853,34.151],[131.43785,34.1509],[131.43658,34.15033],[131.43297,34.14724]],[[131.44665,34.15078],[131.44587,34.15055]],[[131.46029,34.15965],[131.44706,34.15098],[131.44665,34.15078]],[[131.69369,34.37811],[131.69093,34.37711],[131.68988,34.37645],[131.68899,34.37554],[131.68182,34.36719],[131.68085,34.36623],[131.68053,34.36601],[131.67648,34.36411],[131.67482,34.36314]],[[131.5625,34.27952],[131.56428,34.28223],[131.56514,34.28392],[131.56534,34.28501],[131.56496,34.28701],[131.56498,34.28796],[131.56512,34.28835],[131.56566,34.28928],[131.56707,34.29059],[131.56791,34.29159],[131.56847,34.29274],[131.56906,34.29457],[131.56935,34.29518],[131.56985,34.2958],[131.57056,34.29643],[131.57118,34.29682],[131.57302,34.2977],[131.57408,34.29849],[131.57436,34.29878],[131.57473,34.29937],[131.57527,34.30091],[131.5756,34.30167],[131.57589,34.30207],[131.5784,34.30422]],[[131.40195,34.11536],[131.40283,34.10764],[131.40273,34.10652],[131.40185,34.10153]],[[131.4153,34.12876],[131.40835,34.12361],[131.40444,34.12041],[131.40346,34.11951],[131.40262,34.11845],[131.40205,34.11714],[131.40189,34.11651]],[[131.46094,34.16008],[131.46029,34.15965]]]}}