{"type":"Feature","properties":{"id":"西日本旅客鉄道_宇部線","name":"宇部線","operator":"西日本旅客鉄道","railType":"普通鉄道(JR)","operatorType":"JR在来線","category":"rail","attribution":"国土数値情報（鉄道データ）国土交通省"},"geometry":{"type":"MultiLineString","coordinates":[[[131.22784,33.96726],[131.22741,33.96852]],[[131.22826,33.96602],[131.22784,33.96726]],[[131.22325,34.00296],[131.22083,34.00364]],[[131.36338,34.03438],[131.36301,34.03344],[131.362,34.02886],[131.36149,34.02715],[131.3602,34.02368]],[[131.37123,34.04666],[131.3639,34.03524]],[[131.26246,33.93462],[131.26173,33.93528]],[[131.25679,33.94881],[131.25624,33.9496],[131.25483,33.95101],[131.25284,33.95236]],[[131.37923,34.07413],[131.37886,34.07354]],[[131.29296,33.94103],[131.29224,33.94073]],[[131.27452,33.93675],[131.27391,33.93629]],[[131.22552,33.97853],[131.22629,33.97782],[131.22648,33.97755],[131.22743,33.97549],[131.22744,33.97483],[131.22695,33.97058],[131.22709,33.96946],[131.22741,33.96852]],[[131.29224,33.94073],[131.29086,33.94022],[131.29026,33.94009],[131.28741,33.93972],[131.28317,33.93937],[131.28186,33.93915],[131.27586,33.93754],[131.27541,33.93736],[131.27452,33.93675]],[[131.35689,34.01123],[131.35663,34.01002]],[[131.24162,33.95905],[131.23999,33.95999],[131.23852,33.96059],[131.23622,33.96136],[131.23428,33.96183],[131.23184,33.96196],[131.23018,33.96243],[131.22973,33.96282],[131.22928,33.96336],[131.22891,33.96415],[131.22826,33.96602]],[[131.25734,33.94803],[131.25679,33.94881]],[[131.3602,34.02368],[131.35996,34.02303]],[[131.35663,34.01002],[131.35466,34.00326],[131.35405,34.00182],[131.35332,34.00103],[131.35044,33.99907],[131.34966,33.99822],[131.34933,33.99763],[131.34914,33.99709],[131.34899,33.99615],[131.34902,33.9955],[131.34935,33.99392],[131.34927,33.99294],[131.34891,33.99181],[131.34804,33.99022]],[[131.30517,33.95222],[131.30216,33.94814],[131.30059,33.94489],[131.30016,33.94432],[131.2997,33.9439],[131.29844,33.94324],[131.29296,33.94103]],[[131.27391,33.93629],[131.27264,33.93543],[131.27222,33.93525],[131.26655,33.93396],[131.26509,33.93383],[131.26458,33.93388],[131.26321,33.93424],[131.26246,33.93462]],[[131.39506,34.09325],[131.39078,34.08659],[131.38922,34.08364],[131.38785,34.08162],[131.38708,34.08092],[131.38572,34.07988],[131.38373,34.07873],[131.38268,34.07794],[131.38174,34.07706],[131.38006,34.07527],[131.37923,34.07413]],[[131.26173,33.93528],[131.26142,33.93568],[131.26113,33.93631],[131.25939,33.94202],[131.2583,33.94594],[131.25807,33.94661],[131.25734,33.94803]],[[131.37886,34.07354],[131.37699,34.0707],[131.37667,34.06993],[131.37651,34.06911],[131.37648,34.06342],[131.37661,34.05618],[131.37655,34.05512],[131.37643,34.05453],[131.37619,34.05395],[131.37585,34.05342],[131.37162,34.04723]],[[131.25284,33.95236],[131.25193,33.95291]],[[131.34759,33.98926],[131.34658,33.98724],[131.34387,33.98236],[131.33699,33.97026]],[[131.37162,34.04723],[131.37123,34.04666]],[[131.24304,33.95816],[131.24162,33.95905]],[[131.25193,33.95291],[131.24304,33.95816]],[[131.30568,33.9529],[131.30517,33.95222]],[[131.3975,34.09471],[131.39615,34.094],[131.39506,34.09325]],[[131.35996,34.02303],[131.35722,34.01595],[131.35693,34.0149],[131.35685,34.01407],[131.35689,34.01123]],[[131.33699,33.97026],[131.33655,33.96952]],[[131.3639,34.03524],[131.36338,34.03438]],[[131.34804,33.99022],[131.34759,33.98926]],[[131.33655,33.96952],[131.33478,33.96654],[131.3338,33.96544],[131.33335,33.96505],[131.33231,33.96441],[131.33023,33.96347],[131.32177,33.9619],[131.31988,33.96151],[131.31923,33.96129],[131.31075,33.95748],[131.30876,33.95632],[131.30784,33.9556],[131.30568,33.9529]],[[131.2245,33.97955],[131.22552,33.97853]],[[131.22325,34.00296],[131.22457,34.00188],[131.22485,34.00137],[131.22494,34.00066],[131.22464,33.99992],[131.22383,33.99904],[131.22351,33.99855],[131.22193,33.99277],[131.22029,33.98812],[131.22019,33.98774],[131.22017,33.98688],[131.2203,33.98632],[131.2205,33.98592],[131.2223,33.98394],[131.22288,33.98316],[131.22319,33.9825],[131.22388,33.9805],[131.2245,33.97955]]]}}