{"type":"Feature","properties":{"id":"西武鉄道_西武秩父線","name":"西武秩父線","operator":"西武鉄道","railType":"普通鉄道","operatorType":"民営","category":"rail","attribution":"国土数値情報（鉄道データ）国土交通省"},"geometry":{"type":"MultiLineString","coordinates":[[[139.09876,35.98387],[139.09779,35.98513]],[[139.08262,35.98896],[139.08337,35.99106]],[[139.08233,35.98829],[139.08262,35.98896]],[[139.08233,35.98829],[139.08237,35.9889]],[[139.09779,35.98513],[139.09582,35.9878],[139.0953,35.98829],[139.09433,35.98872],[139.09349,35.98885],[139.0928,35.98886],[139.09194,35.98868],[139.09119,35.98842],[139.09073,35.98822],[139.09034,35.98794],[139.09002,35.9876],[139.08908,35.98616],[139.08862,35.9856],[139.08779,35.98506],[139.08683,35.98465],[139.08513,35.98419],[139.08451,35.98413],[139.08388,35.98421],[139.0832,35.98444],[139.08267,35.98474],[139.08223,35.98514],[139.0819,35.98576],[139.08181,35.98618],[139.08184,35.98675],[139.08233,35.98829]],[[139.13498,35.97628],[139.13702,35.97653]],[[139.13702,35.97653],[139.13878,35.97668],[139.14098,35.97669],[139.14161,35.97661],[139.14286,35.97625],[139.14562,35.97524],[139.1466,35.97466],[139.15474,35.96581],[139.16253,35.95756],[139.17345,35.94581],[139.1758,35.94339],[139.17943,35.93942],[139.17974,35.93917],[139.18085,35.9386]],[[139.20252,35.92757],[139.20231,35.92642]],[[139.09876,35.98387],[139.10122,35.98058],[139.10191,35.97979],[139.1028,35.97898],[139.10417,35.97808],[139.11128,35.97497],[139.11546,35.97357],[139.11943,35.97246],[139.12011,35.9724],[139.121,35.97261],[139.12269,35.97382],[139.12424,35.97445],[139.12509,35.97469],[139.13129,35.97576],[139.13315,35.97597],[139.13498,35.97628]],[[139.22536,35.90834],[139.22329,35.9089],[139.2223,35.90944],[139.22191,35.90981],[139.22159,35.91025],[139.22115,35.91157],[139.22069,35.91241],[139.22027,35.91281],[139.21828,35.91404],[139.21787,35.9144],[139.21739,35.91528],[139.21705,35.91671],[139.21689,35.9171],[139.21659,35.9175],[139.21566,35.91817],[139.2136,35.91907],[139.21306,35.91918],[139.212,35.91921],[139.20864,35.91905],[139.207,35.91919],[139.20518,35.92004],[139.2033,35.92109],[139.20227,35.92212],[139.20167,35.9229],[139.20148,35.92329],[139.20144,35.92391],[139.20169,35.92481],[139.20223,35.92604],[139.20231,35.92642]],[[139.18085,35.9386],[139.18212,35.938]],[[139.18212,35.938],[139.18481,35.93676],[139.18559,35.93652],[139.1907,35.93624],[139.19283,35.93592],[139.19504,35.93527],[139.19725,35.93539],[139.19812,35.93518],[139.19964,35.93421],[139.2015,35.9332],[139.20181,35.93294],[139.20288,35.93143],[139.20306,35.93104],[139.20312,35.93024],[139.20252,35.92757]],[[139.22645,35.90831],[139.22536,35.90834]]]}}