{"type":"Feature","properties":{"id":"西日本旅客鉄道_山陰線","name":"山陰線","operator":"西日本旅客鉄道","railType":"普通鉄道(JR)","operatorType":"JR在来線","category":"rail","attribution":"国土数値情報（鉄道データ）国土交通省"},"geometry":{"type":"MultiLineString","coordinates":[[[135.67871,35.019],[135.67775,35.01898],[135.67636,35.01875],[135.67238,35.01757]],[[135.25326,35.30202],[135.25612,35.30166]],[[135.25061,35.30227],[135.25326,35.30202]],[[135.11982,35.29626],[135.12358,35.29544]],[[134.85612,35.34045],[134.85557,35.34066],[134.85279,35.34118]],[[134.85279,35.34118],[134.84993,35.34161]],[[135.07407,35.32946],[135.07229,35.32947]],[[135.31963,35.2944],[135.32192,35.29567],[135.32274,35.29589],[135.32358,35.29593],[135.32449,35.29583],[135.32661,35.29532],[135.32745,35.29476],[135.32768,35.29449],[135.32827,35.29353],[135.32905,35.29153],[135.32962,35.29067],[135.33082,35.28918],[135.33167,35.28776],[135.33221,35.28634],[135.33244,35.28549],[135.33243,35.2843],[135.33213,35.2822],[135.3316,35.28076],[135.33109,35.27972],[135.33095,35.27916],[135.33102,35.27831],[135.33125,35.27756],[135.33169,35.277],[135.33279,35.2759],[135.33379,35.27515],[135.33446,35.27485],[135.33638,35.27444]],[[135.17921,35.30059],[135.17728,35.30003],[135.17175,35.29886],[135.16978,35.29855],[135.16838,35.29842],[135.13782,35.29601],[135.12863,35.29517],[135.12695,35.29506],[135.12602,35.29508],[135.12358,35.29544]],[[134.78231,35.4152],[134.78395,35.41694],[134.78446,35.41734],[134.7851,35.41768],[134.78718,35.41855],[134.78799,35.41906],[134.78888,35.41983],[134.78949,35.42065],[134.79008,35.42196],[134.79013,35.42276],[134.79003,35.42368],[134.78965,35.42462],[134.78796,35.42689],[134.78745,35.42779],[134.78729,35.42825],[134.78723,35.4295],[134.78747,35.43106],[134.7878,35.43241],[134.78792,35.43333],[134.7879,35.43412],[134.78764,35.43487],[134.786,35.43708],[134.78547,35.43766],[134.78461,35.43835],[134.78412,35.43866],[134.78333,35.439],[134.77622,35.44026],[134.77517,35.44057],[134.77393,35.4412],[134.77293,35.44195],[134.77216,35.44293],[134.7718,35.44357],[134.77024,35.44733],[134.7695,35.45013],[134.76947,35.45148],[134.77021,35.45323],[134.77056,35.45441],[134.77168,35.45989],[134.77351,35.46625],[134.77428,35.46757],[134.77531,35.46899]],[[134.62166,35.63591],[134.62485,35.63514]],[[134.81148,35.37136],[134.81018,35.37357],[134.8099,35.37464],[134.8099,35.37543],[134.81019,35.37655],[134.81081,35.37786],[134.8134,35.381],[134.81367,35.38149],[134.81397,35.38242],[134.81405,35.38311],[134.81395,35.38399],[134.81357,35.38509],[134.81296,35.38583],[134.8122,35.38649],[134.81106,35.38715],[134.81051,35.38736],[134.81008,35.38749],[134.807,35.38797],[134.80245,35.38821],[134.80084,35.38859],[134.79739,35.38951],[134.79592,35.38999],[134.78859,35.39269],[134.78785,35.39301],[134.78741,35.39332],[134.78672,35.39408],[134.78505,35.39652],[134.7829,35.39944],[134.78196,35.40027],[134.78011,35.40141],[134.77907,35.40253],[134.77852,35.40345],[134.77774,35.40505],[134.77746,35.40655],[134.77821,35.41037],[134.77847,35.41089],[134.77898,35.4116],[134.78071,35.41348]],[[134.79988,35.49606],[134.80023,35.49669]],[[134.81235,35.3699],[134.81148,35.37136]],[[135.48282,35.10289],[135.4817,35.10434],[135.48144,35.10497],[135.48143,35.10556],[135.48183,35.10739],[135.48186,35.10794],[135.47878,35.11602],[135.4787,35.11663],[135.47884,35.11745],[135.47989,35.12026],[135.48023,35.12092],[135.48713,35.12953],[135.4875,35.12993],[135.49109,35.13289]],[[135.33638,35.27444],[135.33812,35.27412]],[[134.79957,35.58776],[134.79915,35.58945]],[[135.42318,35.21167],[135.42384,35.21098],[135.42622,35.20944],[135.42831,35.2082],[135.42927,35.20785],[135.43222,35.2071],[135.43331,35.20692],[135.44205,35.20665],[135.44269,35.20656],[135.44334,35.20636],[135.44443,35.2058],[135.44483,35.20544],[135.44541,35.2047],[135.44661,35.20277],[135.44736,35.20186],[135.44807,35.20139],[135.44952,35.20073],[135.45321,35.19917],[135.45398,35.19896],[135.45772,35.19848],[135.45889,35.19825],[135.46781,35.19555]],[[135.71689,35.01843],[135.7189,35.01876]],[[135.64161,35.02311],[135.64658,35.02313],[135.65114,35.02305],[135.65282,35.02293],[135.65631,35.02245],[135.65702,35.02232],[135.65781,35.02206],[135.66336,35.01918],[135.66494,35.01848],[135.66706,35.01768],[135.66874,35.01725],[135.66996,35.01711],[135.6712,35.01726],[135.67238,35.01757]],[[135.39854,35.26151],[135.39814,35.26198],[135.39788,35.26249],[135.39732,35.26448],[135.39728,35.26551],[135.39763,35.26642],[135.39766,35.26672],[135.3976,35.26734],[135.39741,35.26799],[135.39683,35.26885],[135.39582,35.26942],[135.39461,35.26976],[135.3932,35.26977],[135.3928,35.26967],[135.39137,35.26901],[135.38791,35.26707],[135.38626,35.26648]],[[134.68508,35.65329],[134.68658,35.65286]],[[134.88183,35.32174],[134.88066,35.32273]],[[135.48903,35.18005],[135.49004,35.17897]],[[135.74173,35.01004],[135.74162,35.00204],[135.74219,34.99723]],[[135.58117,35.01707],[135.5781,35.01778],[135.57665,35.01826],[135.57585,35.0188],[135.57445,35.02009],[135.57352,35.02068],[135.55807,35.02766],[135.55713,35.02834],[135.55645,35.02912],[135.55602,35.02994],[135.55534,35.03159]],[[135.6799,35.01893],[135.68272,35.01864]],[[135.46942,35.19504],[135.47148,35.19453],[135.47705,35.19376],[135.47806,35.1934],[135.47872,35.19296],[135.47923,35.1925],[135.48017,35.19144],[135.48633,35.18296],[135.48903,35.18005]],[[134.81321,35.62262],[134.81378,35.62499]],[[135.60346,35.01092],[135.605,35.01152],[135.60554,35.01179],[135.60626,35.01231],[135.6095,35.01564],[135.61138,35.01706],[135.61225,35.01761],[135.61505,35.0189],[135.62314,35.02197],[135.62502,35.02245],[135.62599,35.02255],[135.63906,35.02307]],[[135.20594,35.30481],[135.20817,35.30503]],[[135.69961,35.01705],[135.70164,35.01686]],[[134.81273,35.54576],[134.8044,35.56265],[134.80364,35.56442],[134.80344,35.56557],[134.80348,35.56605],[134.80507,35.57325],[134.80503,35.57402],[134.80486,35.57458],[134.80412,35.57556],[134.8015,35.57775],[134.80065,35.57876],[134.80014,35.57963],[134.79964,35.58073],[134.79944,35.58146],[134.79941,35.58331],[134.79973,35.58492],[134.79987,35.58648],[134.79985,35.58697],[134.79957,35.58776]],[[135.49913,35.09148],[135.49796,35.09263]],[[135.20594,35.30481],[135.19959,35.30416],[135.19722,35.30407],[135.19048,35.30401],[135.18859,35.30371],[135.18737,35.3034],[135.18112,35.30118]],[[135.55534,35.03159],[135.55476,35.033]],[[135.67871,35.019],[135.6799,35.01893]],[[135.39968,35.26057],[135.40307,35.25882],[135.40372,35.2586],[135.40625,35.25807],[135.41155,35.25578],[135.41209,35.2553],[135.4138,35.25281],[135.41585,35.25027],[135.41614,35.2498],[135.4165,35.2487],[135.41647,35.24814],[135.41618,35.24749],[135.41458,35.24574],[135.41296,35.24417],[135.41241,35.24332],[135.41112,35.23624],[135.41114,35.23551],[135.41188,35.23277],[135.41212,35.23212],[135.41337,35.22995],[135.41485,35.22601],[135.41499,35.22504],[135.41503,35.2223],[135.41542,35.22029],[135.41578,35.21928],[135.41777,35.21622],[135.41822,35.21565],[135.41905,35.21504],[135.42137,35.21371],[135.42232,35.21269]],[[135.49109,35.13289],[135.49252,35.13409]],[[135.60346,35.01092],[135.60145,35.01042]],[[134.99973,35.31987],[134.9979,35.31994]],[[135.31746,35.2931],[135.31963,35.2944]],[[135.54876,35.04762],[135.54808,35.04926]],[[135.38626,35.26648],[135.3845,35.26598]],[[134.77531,35.46899],[134.77606,35.46985]],[[134.88066,35.32273],[134.87941,35.32383],[134.87608,35.32611],[134.87542,35.3264],[134.87146,35.3276],[134.87049,35.32805],[134.87017,35.32828],[134.86938,35.32898],[134.86661,35.33228],[134.86535,35.33331],[134.86386,35.33503],[134.86356,35.33562],[134.86304,35.33635],[134.86119,35.33773],[134.85725,35.33993],[134.85612,35.34045]],[[135.11982,35.29626],[135.11731,35.29688]],[[135.33812,35.27412],[135.3448,35.27269],[135.3471,35.2716],[135.34832,35.27111],[135.3491,35.27087],[135.34974,35.27077],[135.35062,35.27087],[135.35139,35.27121],[135.35306,35.27238],[135.35432,35.27301],[135.35688,35.27345],[135.35749,35.2735],[135.35825,35.27345],[135.35892,35.27325],[135.35974,35.27284],[135.36094,35.27174],[135.36226,35.2707],[135.36292,35.27028],[135.36399,35.26985],[135.36651,35.26917],[135.36749,35.26901],[135.36881,35.26895],[135.37179,35.26901],[135.37507,35.26891],[135.37597,35.26876],[135.37628,35.26866],[135.37717,35.26812],[135.3796,35.26575],[135.38006,35.26548],[135.38067,35.26531],[135.38149,35.26524],[135.38206,35.26529],[135.3845,35.26598]],[[135.49252,35.13409],[135.49375,35.13515],[135.49415,35.13566],[135.49453,35.13629],[135.49598,35.13961],[135.4974,35.14108],[135.49784,35.14168],[135.49815,35.14457],[135.4984,35.14521],[135.49883,35.14588],[135.49956,35.14667],[135.50037,35.14735],[135.50307,35.15019],[135.50338,35.15062],[135.50595,35.15652],[135.50621,35.15727],[135.50616,35.15779],[135.5039,35.16147]],[[135.48409,35.10145],[135.48282,35.10289]],[[134.81436,35.54238],[134.81273,35.54576]],[[135.72981,35.01828],[135.73158,35.01801]],[[134.81378,35.62499],[134.81384,35.62517],[134.81381,35.62613],[134.81361,35.62684],[134.81323,35.62742],[134.8127,35.62796],[134.81194,35.62856],[134.80993,35.62976],[134.80892,35.63023],[134.80763,35.63052],[134.80701,35.63054],[134.80609,35.63045],[134.801,35.62949],[134.80027,35.6294],[134.7995,35.62941],[134.79868,35.62955],[134.79827,35.6297],[134.7974,35.63012],[134.79545,35.63143],[134.79499,35.63164],[134.79414,35.63182],[134.79277,35.63179],[134.78825,35.63111],[134.76991,35.62867],[134.76815,35.62863],[134.76488,35.62903],[134.76147,35.62861],[134.76078,35.62867],[134.76001,35.62888],[134.75907,35.62942],[134.75844,35.63008],[134.75703,35.63205],[134.75673,35.63268],[134.75657,35.63331],[134.75659,35.63428],[134.75836,35.64171],[134.75856,35.64533],[134.75843,35.64648],[134.75819,35.6472],[134.75699,35.64907]],[[135.49004,35.17897],[135.49112,35.17776],[135.49172,35.17644],[135.49213,35.17575],[135.49284,35.17507],[135.49388,35.17437],[135.49448,35.17383],[135.4962,35.17118],[135.49688,35.1703],[135.49708,35.16987],[135.49743,35.16661],[135.49749,35.16633],[135.49787,35.16564],[135.49849,35.16506],[135.50194,35.16352],[135.50299,35.16266]],[[135.18112,35.30118],[135.17921,35.30059]],[[134.663,35.6466],[134.66378,35.64652],[134.66492,35.64659]],[[135.54808,35.04926],[135.54728,35.05125],[135.54662,35.05341],[135.54517,35.0604],[135.54482,35.06115],[135.54438,35.06179],[135.54127,35.06483],[135.54025,35.06576],[135.53971,35.06612],[135.53814,35.06678],[135.53305,35.06847]],[[135.7418,35.01229],[135.74173,35.01004]],[[134.75699,35.64907],[134.75593,35.65063]],[[135.60145,35.01042],[135.60006,35.01018],[135.59882,35.01014],[135.59165,35.01097],[135.59082,35.01116],[135.59029,35.01136],[135.58939,35.01193],[135.58509,35.01575],[135.58436,35.0162],[135.58347,35.01654]],[[135.07229,35.32947],[135.06948,35.32943],[135.0682,35.3292],[135.06735,35.32886],[135.06482,35.32747],[135.06116,35.32589],[135.05908,35.32478],[135.05842,35.32455],[135.05591,35.32439],[135.05397,35.32395],[135.05249,35.32405],[135.05171,35.32402],[135.04625,35.32283],[135.04515,35.32285],[135.04419,35.32301],[135.04186,35.32399],[135.03945,35.32399],[135.0367,35.32451],[135.03582,35.32453],[135.03532,35.32445],[135.03444,35.32416],[135.03408,35.32395],[135.0322,35.32212],[135.03141,35.32172],[135.03059,35.32154],[135.02821,35.32156],[135.02753,35.32146],[135.02644,35.32106],[135.02538,35.32043],[135.02443,35.31998],[135.02368,35.31983],[135.02323,35.3198],[135.02218,35.31995],[135.02038,35.32056],[135.01905,35.3208],[135.01792,35.32089],[135.01678,35.32072],[135.012,35.31951],[135.01091,35.31938],[135.00844,35.31942],[135.00511,35.31999],[135.00084,35.31984],[134.99973,35.31987]],[[135.48409,35.10145],[135.48508,35.10089],[135.48611,35.10058],[135.48862,35.10029],[135.4894,35.10001],[135.4945,35.0962],[135.49796,35.09263]],[[134.78071,35.41348],[134.78231,35.4152]],[[135.74235,34.99587],[135.74306,34.98977]],[[135.75146,34.98538],[135.75412,34.98546]],[[135.75412,34.98546],[135.75601,34.98557]],[[135.68272,35.01864],[135.69961,35.01705]],[[135.63906,35.02307],[135.64161,35.02311]],[[135.42232,35.21269],[135.42318,35.21167]],[[135.55476,35.033],[135.54876,35.04762]],[[135.76104,34.98568],[135.75869,34.98574],[135.75601,34.98557]],[[134.84993,35.34161],[134.84619,35.34231],[134.84499,35.34277],[134.84381,35.3435],[134.84015,35.34646],[134.83576,35.35119],[134.83412,35.35362],[134.83341,35.35434],[134.8319,35.35525],[134.82947,35.35692],[134.82587,35.35844],[134.82387,35.35955],[134.81675,35.36452],[134.81569,35.36535],[134.81499,35.36606],[134.8132,35.36847],[134.81235,35.3699]],[[134.88183,35.32174],[134.88287,35.32086],[134.88582,35.31873],[134.88648,35.31841],[134.88826,35.31788],[134.88976,35.31776],[134.89182,35.31792],[134.89653,35.3194],[134.89922,35.32091],[134.90296,35.32318],[134.90813,35.32715],[134.90877,35.3278],[134.91337,35.33349],[134.91399,35.33418],[134.91442,35.33452],[134.91638,35.33549],[134.91899,35.33664],[134.92532,35.34083],[134.92636,35.34143],[134.92727,35.34173],[134.92774,35.34179],[134.93076,35.34184]],[[134.66492,35.64659],[134.66588,35.64687],[134.66678,35.6473],[134.67826,35.65374],[134.67917,35.65411],[134.68083,35.65432],[134.68149,35.65424],[134.68508,35.65329]],[[135.5039,35.16147],[135.50299,35.16266]],[[135.25612,35.30166],[135.2574,35.30128],[135.25842,35.30069],[135.25892,35.30029],[135.26277,35.29603],[135.26315,35.29526],[135.26345,35.29417],[135.26354,35.29219],[135.26411,35.29116],[135.26454,35.29066],[135.26519,35.2902],[135.26636,35.2899],[135.26767,35.28992],[135.26858,35.28979],[135.271,35.28911],[135.27754,35.28882],[135.2863,35.2866],[135.28948,35.28601],[135.29026,35.28591],[135.29225,35.28598],[135.29722,35.28798],[135.30498,35.28962],[135.31244,35.29059],[135.31337,35.29079],[135.3143,35.2912],[135.31746,35.2931]],[[134.80023,35.49669],[134.80229,35.50045],[134.80278,35.50108],[134.8038,35.50181],[134.80679,35.50308],[134.80881,35.50453],[134.81039,35.50586],[134.81615,35.51151],[134.81697,35.51245],[134.81723,35.51299],[134.81895,35.51928],[134.8191,35.52032],[134.81877,35.52606],[134.81819,35.53343],[134.8181,35.53434],[134.81785,35.53522],[134.81436,35.54238]],[[134.93269,35.34183],[134.93459,35.34176],[134.93522,35.34153],[134.93608,35.341],[134.9365,35.34056],[134.93741,35.33819],[134.938,35.33737],[134.93895,35.33673],[134.93945,35.3366],[134.9416,35.33633],[134.94204,35.33618],[134.94382,35.33453],[134.94419,35.3341],[134.94455,35.33336],[134.94461,35.33257],[134.94431,35.33115],[134.94436,35.33044],[134.94485,35.32954],[134.94522,35.32917],[134.94613,35.32863],[134.94667,35.32843],[134.94895,35.32804],[134.95009,35.32764],[134.95176,35.32671],[134.9528,35.326],[134.95467,35.32427],[134.9555,35.32391],[134.95901,35.32336],[134.95995,35.32332],[134.9607,35.3235],[134.96342,35.32451],[134.96429,35.32461],[134.96518,35.32453],[134.96604,35.32424],[134.96784,35.32318],[134.96868,35.32281],[134.97093,35.32233],[134.97388,35.32182],[134.97621,35.32186],[134.98261,35.3198],[134.98616,35.3199],[134.98709,35.32016],[134.98926,35.32099],[134.99024,35.32126],[134.99083,35.3213],[134.99196,35.3212],[134.9979,35.31994]],[[135.53305,35.06847],[135.53184,35.06902],[135.53098,35.06955]],[[135.70164,35.01686],[135.70421,35.01674],[135.70636,35.01688],[135.71689,35.01843]],[[135.53098,35.06955],[135.51658,35.08033],[135.51547,35.08103],[135.5147,35.08136],[135.51401,35.08154],[135.50619,35.0826],[135.50544,35.08278],[135.50483,35.08304],[135.50431,35.08345],[135.50388,35.08399],[135.501,35.08961],[135.49913,35.09148]],[[135.20817,35.30503],[135.21264,35.30552],[135.21338,35.30553],[135.25061,35.30227]],[[135.58347,35.01654],[135.58117,35.01707]],[[135.73158,35.01801],[135.73869,35.01707],[135.73992,35.01683],[135.74075,35.01646],[135.74119,35.01609],[135.7415,35.01567],[135.74185,35.01475],[135.7418,35.01229]],[[135.7189,35.01876],[135.72152,35.01911],[135.72237,35.01914],[135.72467,35.01895],[135.72981,35.01828]],[[134.79915,35.58945],[134.79919,35.59032],[134.79967,35.59167],[134.80076,35.59412],[134.80118,35.5953],[134.80172,35.59764],[134.80177,35.59845],[134.8014,35.60598],[134.80147,35.6068],[134.80159,35.60708],[134.80236,35.60812],[134.80575,35.61141],[134.80778,35.61396],[134.81019,35.61679],[134.81077,35.61773],[134.81231,35.62062],[134.81312,35.62229],[134.81321,35.62262]],[[134.77606,35.46985],[134.78336,35.4786],[134.79727,35.49145],[134.7981,35.4927],[134.79988,35.49606]],[[134.68658,35.65286],[134.68984,35.65195],[134.69065,35.65179],[134.6936,35.65155],[134.70069,35.64937],[134.70193,35.64929],[134.70298,35.64957],[134.70719,35.65134],[134.70858,35.65149],[134.71532,35.65185],[134.71599,35.65197],[134.72079,35.65511],[134.7228,35.65718],[134.72336,35.65761],[134.7238,35.65784],[134.72496,35.65817],[134.726,35.65825],[134.72717,35.65813],[134.73194,35.6565],[134.73286,35.65633],[134.73366,35.65628],[134.73438,35.6564],[134.73752,35.65732],[134.74317,35.65802],[134.74556,35.65887],[134.74666,35.659],[134.74776,35.65879],[134.74851,35.65847],[134.75043,35.65741],[134.75161,35.65669],[134.75188,35.65645],[134.75321,35.65468],[134.75593,35.65063]],[[135.39968,35.26057],[135.39901,35.26105],[135.39854,35.26151]],[[135.11731,35.29688],[135.11353,35.29781],[135.11254,35.29818],[135.11145,35.29889],[135.11085,35.29951],[135.11058,35.29993],[135.10551,35.31516],[135.10535,35.31615],[135.10556,35.31955],[135.10554,35.32035],[135.10542,35.32099],[135.10526,35.32136],[135.10458,35.3221],[135.10344,35.32265],[135.10098,35.32293],[135.09978,35.32325],[135.09437,35.32774],[135.09271,35.3289],[135.0918,35.32923],[135.08579,35.331],[135.085,35.33113],[135.08396,35.33108],[135.0798,35.32991],[135.07836,35.32961],[135.07693,35.32948],[135.07407,35.32946]],[[134.62485,35.63514],[134.62631,35.63478],[134.6275,35.63475],[134.62832,35.6349],[134.62881,35.63508],[134.62991,35.63573],[134.63057,35.63641],[134.63275,35.64019],[134.6337,35.64142],[134.63451,35.64215],[134.63802,35.64496],[134.63853,35.6453],[134.63941,35.64572],[134.64063,35.64601],[134.64212,35.64602],[134.65342,35.64547],[134.65494,35.64548],[134.65541,35.64552],[134.65649,35.64579],[134.6589,35.64687],[134.6601,35.64713],[134.66127,35.64701],[134.663,35.6466]],[[135.46781,35.19555],[135.46942,35.19504]],[[134.93076,35.34184],[134.93269,35.34183]],[[134.57433,35.65225],[134.57258,35.65332],[134.57186,35.65365],[134.57072,35.65376],[134.56979,35.65366],[134.56943,35.65357],[134.56859,35.65314],[134.56689,35.65179],[134.55772,35.64896]],[[134.05195,35.50946],[134.04951,35.50928]],[[134.39317,35.60649],[134.39244,35.60579],[134.39173,35.60496],[134.38897,35.6012],[134.38834,35.60055],[134.38676,35.59939],[134.38566,35.59878],[134.38308,35.59763],[134.38106,35.59691],[134.38004,35.59683],[134.37902,35.59701],[134.37818,35.59729],[134.3752,35.59856],[134.37413,35.5989],[134.37249,35.59925],[134.3703,35.59937],[134.36316,35.59952]],[[134.62166,35.63591],[134.61674,35.63713],[134.61486,35.63791],[134.61268,35.63912],[134.61207,35.63954],[134.61089,35.64047],[134.60936,35.64189],[134.60854,35.64234],[134.60759,35.64258],[134.60496,35.64283],[134.60437,35.64303],[134.60389,35.6433],[134.6006,35.64669],[134.5999,35.64767],[134.59867,35.65087],[134.59705,35.65359],[134.59645,35.65415],[134.59547,35.65461],[134.59437,35.65478],[134.59276,35.65448],[134.57913,35.65069],[134.57839,35.65059],[134.57732,35.65069],[134.57669,35.65089],[134.57615,35.65118]],[[134.30978,35.56692],[134.31688,35.56683],[134.33076,35.5689],[134.33212,35.56937],[134.33281,35.56974],[134.33366,35.5704],[134.33455,35.57149],[134.33522,35.57328]],[[134.45135,35.62109],[134.44297,35.62388],[134.44218,35.62406],[134.44089,35.62413],[134.44007,35.62401],[134.43948,35.62381],[134.4386,35.62333],[134.43763,35.62255],[134.43613,35.62093],[134.43477,35.61989]],[[134.57615,35.65118],[134.57433,35.65225]],[[134.08151,35.51384],[134.07631,35.51255],[134.06935,35.51225],[134.06771,35.51206],[134.06154,35.50991],[134.05816,35.50995],[134.05195,35.50946]],[[134.1732,35.51837],[134.16169,35.52195],[134.15707,35.52283],[134.14012,35.52458],[134.1392,35.52453],[134.13661,35.52414]],[[134.13661,35.52414],[134.1348,35.52381]],[[134.08339,35.51432],[134.08151,35.51384]],[[133.99488,35.51623],[133.99246,35.5166],[133.98705,35.51875],[133.98237,35.51998],[133.98124,35.52015],[133.98012,35.52014],[133.97937,35.51998],[133.97692,35.51898],[133.97513,35.51835],[133.97454,35.51827],[133.97344,35.51842],[133.97241,35.51885],[133.97011,35.52059],[133.96958,35.52084],[133.96728,35.52138],[133.96637,35.52147],[133.96556,35.52142],[133.96447,35.5212],[133.96298,35.52063],[133.96219,35.52003],[133.96023,35.51808],[133.95308,35.51449],[133.95144,35.51411],[133.94596,35.51338],[133.94059,35.51324],[133.93908,35.51297],[133.93836,35.51261],[133.9378,35.51202],[133.93719,35.51102],[133.93673,35.50985]],[[134.22724,35.49374],[134.22493,35.4947]],[[134.36155,35.5995],[134.36316,35.59952]],[[133.93673,35.50985],[133.93612,35.50807]],[[134.28798,35.54485],[134.28664,35.54631]],[[134.51644,35.62747],[134.51391,35.62716],[134.51298,35.62697],[134.51237,35.62677],[134.51029,35.62569],[134.50896,35.62518],[134.50756,35.62478],[134.50572,35.62453],[134.50411,35.62454],[134.49831,35.6255],[134.49726,35.62552],[134.49483,35.6254],[134.49158,35.62473],[134.49076,35.62471],[134.48909,35.62496],[134.4886,35.62496],[134.48579,35.62464],[134.4848,35.62438],[134.48382,35.6239],[134.48091,35.62144],[134.47951,35.62075],[134.47859,35.62043],[134.47312,35.6195],[134.45812,35.61918],[134.457,35.61927],[134.45641,35.61941],[134.4542,35.62014]],[[134.18724,35.51299],[134.18527,35.51404]],[[134.4542,35.62014],[134.45135,35.62109]],[[134.55607,35.64845],[134.55446,35.64777],[134.55319,35.64702],[134.55251,35.64608],[134.55102,35.64366],[134.54887,35.64235],[134.54546,35.64058],[134.54468,35.64035],[134.54201,35.64],[134.54068,35.63964],[134.535,35.63734],[134.5328,35.63634],[134.53185,35.63574],[134.52263,35.62908],[134.52163,35.62845],[134.52044,35.62793],[134.51836,35.62768]],[[134.3359,35.57506],[134.33973,35.58533],[134.34092,35.59086],[134.34151,35.59304],[134.34199,35.59392],[134.34236,35.59429],[134.34327,35.59489],[134.3457,35.59625],[134.34791,35.59887],[134.34884,35.59938],[134.34955,35.59959],[134.35019,35.59961],[134.35417,35.59891],[134.3557,35.59903],[134.35753,35.59948],[134.35828,35.59957],[134.36155,35.5995]],[[134.55772,35.64896],[134.55607,35.64845]],[[133.99649,35.516],[133.99488,35.51623]],[[134.51836,35.62768],[134.51644,35.62747]],[[134.04951,35.50928],[134.04231,35.50876],[134.04062,35.50889],[134.0392,35.50925],[134.03803,35.50971],[134.03341,35.51266],[134.0327,35.51301],[134.03171,35.51336],[134.03026,35.51377],[134.01995,35.51566],[134.01946,35.5157],[134.00391,35.51508],[133.99649,35.516]],[[134.43399,35.61932],[134.43317,35.61847],[134.43289,35.61807],[134.43268,35.61765],[134.43233,35.61631],[134.43199,35.61536],[134.4316,35.61478],[134.43114,35.61436],[134.43028,35.61389],[134.423,35.6112],[134.42194,35.61108],[134.42082,35.61113],[134.41795,35.61152],[134.41629,35.61198],[134.41226,35.61337],[134.41112,35.61352],[134.40993,35.61346],[134.39984,35.61076],[134.39751,35.60964],[134.39454,35.60753]],[[134.18527,35.51404],[134.18374,35.51484],[134.18256,35.51534],[134.17451,35.51795]],[[134.30735,35.56678],[134.30978,35.56692]],[[134.28664,35.54631],[134.28393,35.54938],[134.28364,35.54983],[134.28331,35.55058],[134.28324,35.55129],[134.28333,35.55209],[134.28391,35.55373],[134.28401,35.55451],[134.28372,35.55666],[134.2838,35.55823],[134.28411,35.55897],[134.28451,35.55951],[134.2907,35.56604],[134.29108,35.56639],[134.29227,35.56713],[134.29284,35.56734],[134.29414,35.56759],[134.2973,35.56755],[134.30088,35.56666],[134.30218,35.56646],[134.30735,35.56678]],[[134.22493,35.4947],[134.21857,35.4973],[134.21264,35.49961],[134.20985,35.50089],[134.20775,35.50198],[134.20572,35.50315],[134.20128,35.50541],[134.19417,35.50919],[134.18724,35.51299]],[[134.33522,35.57328],[134.3359,35.57506]],[[134.43477,35.61989],[134.43399,35.61932]],[[134.39454,35.60753],[134.39317,35.60649]],[[134.22724,35.49374],[134.23263,35.49159]],[[134.23263,35.49159],[134.2417,35.48793],[134.24276,35.48767],[134.24387,35.48753],[134.24537,35.48762],[134.24643,35.48788],[134.25626,35.49113],[134.25913,35.4916],[134.25982,35.49181],[134.26074,35.49233],[134.26421,35.49514],[134.26527,35.49563],[134.26587,35.49574],[134.27022,35.49583],[134.27096,35.49605],[134.27178,35.49662],[134.2722,35.49711],[134.27281,35.4984],[134.27327,35.49909],[134.27388,35.49968],[134.27739,35.50247],[134.27781,35.50302],[134.27827,35.50407],[134.27839,35.50468],[134.2783,35.50522],[134.27685,35.50859],[134.27674,35.50919],[134.27683,35.50979],[134.27709,35.51052],[134.27769,35.51142],[134.27823,35.51185],[134.27936,35.51251],[134.2856,35.51577],[134.28624,35.51594],[134.28693,35.51601],[134.28889,35.51597],[134.28985,35.51623],[134.29083,35.51689],[134.29137,35.51757],[134.29161,35.51811],[134.29167,35.51849],[134.29151,35.51927],[134.29058,35.5216],[134.28994,35.52269],[134.28797,35.52546],[134.28771,35.52659],[134.28769,35.52701],[134.28782,35.52797],[134.28834,35.52927],[134.28853,35.53021],[134.28858,35.53113],[134.28849,35.53295],[134.28861,35.53399],[134.29056,35.53931],[134.29064,35.54002],[134.29055,35.54121],[134.29012,35.54237],[134.28798,35.54485]],[[134.1348,35.52381],[134.12481,35.52223],[134.12388,35.52239],[134.12177,35.52309],[134.12056,35.52339],[134.1195,35.5234],[134.1184,35.5233],[134.11741,35.52302],[134.11161,35.52019],[134.11066,35.51997],[134.10235,35.52059],[134.09943,35.51976],[134.09879,35.51944],[134.09786,35.51848],[134.09626,35.51569],[134.09539,35.515],[134.09408,35.51447],[134.09293,35.51432],[134.0883,35.51503],[134.08731,35.51512],[134.08637,35.51505],[134.08339,35.51432]],[[134.17451,35.51795],[134.1732,35.51837]],[[133.33593,35.4224],[133.33408,35.42014],[133.33266,35.41826],[133.32954,35.41493],[133.32828,35.41387],[133.32663,35.4127],[133.32361,35.41132],[133.3157,35.40901],[133.30874,35.40795],[133.30769,35.40786],[133.29932,35.40788],[133.29836,35.40809],[133.29775,35.40834],[133.29697,35.40885],[133.29635,35.40971],[133.29532,35.41199],[133.29484,35.41271],[133.29438,35.41322],[133.29257,35.41444],[133.29072,35.41495],[133.28241,35.41621],[133.28135,35.41666],[133.2803,35.41731],[133.27915,35.41828],[133.27879,35.41868],[133.27814,35.4195],[133.27779,35.42017],[133.27754,35.42313],[133.27728,35.42405],[133.27701,35.42451],[133.27495,35.42648],[133.27397,35.4272],[133.27255,35.42762],[133.26975,35.42786],[133.26373,35.42825],[133.26069,35.4281]],[[133.63524,35.51235],[133.63377,35.51228]],[[133.85117,35.45413],[133.8478,35.45548]],[[133.33743,35.42427],[133.33593,35.4224]],[[133.80988,35.48181],[133.80824,35.48211]],[[133.90342,35.46966],[133.90635,35.47182],[133.90752,35.47308],[133.90926,35.47534],[133.91006,35.47626],[133.91085,35.47701],[133.9119,35.47751],[133.91528,35.47843],[133.91592,35.47869],[133.91689,35.47939],[133.91739,35.47983],[133.92161,35.48471],[133.92285,35.48657],[133.92467,35.49014],[133.92515,35.49155],[133.92567,35.49526],[133.92638,35.49668],[133.92868,35.49936],[133.92943,35.5004],[133.93004,35.50154],[133.93059,35.50293],[133.93085,35.5034],[133.93199,35.50414],[133.93421,35.50517],[133.93458,35.50542],[133.93487,35.5057],[133.9354,35.50645],[133.93593,35.50748],[133.93612,35.50807]],[[133.63377,35.51228],[133.6253,35.5119],[133.62401,35.51193],[133.62262,35.51208],[133.60667,35.51631],[133.59108,35.52057]],[[133.69416,35.4995],[133.69233,35.49982]],[[133.49227,35.50748],[133.49167,35.50709]],[[133.56723,35.51898],[133.56552,35.51864]],[[133.45606,35.48465],[133.45731,35.48536]],[[133.75555,35.49009],[133.75346,35.49038]],[[133.35252,35.43065],[133.35112,35.43089]],[[133.43057,35.45754],[133.43297,35.45906],[133.434,35.45985],[133.43483,35.46061],[133.4386,35.46517],[133.45361,35.48265],[133.45606,35.48465]],[[133.50226,35.51208],[133.49961,35.51171],[133.498,35.51122],[133.49227,35.50748]],[[133.69233,35.49982],[133.67594,35.50251],[133.67425,35.50291]],[[133.50384,35.51227],[133.50226,35.51208]],[[133.26069,35.4281],[133.25778,35.42793]],[[133.49167,35.50709],[133.48557,35.50314],[133.45731,35.48536]],[[133.35252,35.43065],[133.37236,35.42716],[133.37363,35.42702],[133.37653,35.42715],[133.37768,35.42727],[133.37911,35.42759],[133.38038,35.4281],[133.38319,35.42961]],[[133.8478,35.45548],[133.84381,35.45685],[133.83818,35.45788],[133.83756,35.45805],[133.83568,35.4589],[133.8348,35.45969],[133.83424,35.46038],[133.83364,35.4613],[133.83154,35.46504],[133.82857,35.47007],[133.82813,35.47073],[133.82734,35.47155],[133.82619,35.47236],[133.81331,35.48062],[133.81247,35.48104],[133.81151,35.48138],[133.80988,35.48181]],[[133.58942,35.52102],[133.58653,35.52165],[133.58475,35.52181],[133.58335,35.52181],[133.58063,35.5214],[133.56723,35.51898]],[[133.38688,35.43155],[133.39056,35.43347],[133.40357,35.44063],[133.40606,35.44218],[133.40706,35.44313],[133.40776,35.44425],[133.40807,35.44497],[133.40864,35.44813],[133.40901,35.44882],[133.40964,35.44948],[133.41003,35.44972],[133.41112,35.45007],[133.41975,35.45123],[133.42092,35.45155],[133.42154,35.45178],[133.42334,35.45279],[133.42904,35.45653]],[[133.38515,35.43063],[133.38688,35.43155]],[[133.38319,35.42961],[133.38515,35.43063]],[[133.56552,35.51864],[133.54079,35.51398],[133.53805,35.5135],[133.53691,35.51338],[133.53454,35.51328],[133.51693,35.51389],[133.51526,35.51376],[133.50384,35.51227]],[[133.34016,35.42759],[133.33743,35.42427]],[[133.35112,35.43089],[133.34919,35.43125],[133.34814,35.43136],[133.34659,35.43127],[133.34494,35.43094],[133.34329,35.43031],[133.34217,35.42971],[133.34145,35.4291],[133.34016,35.42759]],[[133.59108,35.52057],[133.58942,35.52102]],[[133.90342,35.46966],[133.90045,35.46759]],[[133.67425,35.50291],[133.67306,35.50324]],[[133.42904,35.45653],[133.43057,35.45754]],[[133.67306,35.50324],[133.64235,35.51208],[133.64061,35.51245],[133.63987,35.51253],[133.63524,35.51235]],[[133.80824,35.48211],[133.75555,35.49009]],[[133.85117,35.45413],[133.85306,35.45341],[133.85415,35.4531],[133.85608,35.45306],[133.86203,35.45349],[133.86536,35.45273],[133.86622,35.45267],[133.86728,35.45282],[133.86798,35.45302],[133.86833,35.4532],[133.86891,35.45356],[133.86967,35.45423],[133.87014,35.45492],[133.87095,35.45715],[133.87146,35.4579],[133.87183,35.45826],[133.87289,35.45897],[133.87552,35.45964],[133.89219,35.46295],[133.89379,35.46334],[133.89476,35.4637],[133.89586,35.46431],[133.90045,35.46759]],[[133.75346,35.49038],[133.71817,35.49583],[133.70788,35.49726],[133.69416,35.4995]],[[132.90863,35.40642],[132.90668,35.40485]],[[132.68269,35.31467],[132.68377,35.31588]],[[132.63111,35.28533],[132.63252,35.28624],[132.63323,35.28686],[132.63389,35.28776],[132.63482,35.2895],[132.63566,35.29053],[132.63632,35.29096],[132.63787,35.29158],[132.64071,35.29304],[132.64214,35.29355],[132.64309,35.2937],[132.65468,35.29403],[132.65633,35.29422],[132.65782,35.2948],[132.65835,35.29516],[132.66191,35.29849],[132.66281,35.2991],[132.6638,35.29938],[132.66452,35.29939],[132.66716,35.29896],[132.66776,35.29895],[132.66846,35.29911],[132.66889,35.29931],[132.66947,35.29968],[132.67396,35.30314],[132.67595,35.30471],[132.67639,35.30515],[132.67711,35.30617],[132.67924,35.31078],[132.67968,35.31139],[132.68269,35.31467]],[[132.7034,35.32561],[132.72128,35.33459]],[[132.86926,35.39385],[132.86726,35.3934]],[[132.72128,35.33459],[132.72256,35.33523]],[[133.04897,35.44618],[133.04846,35.44571]],[[132.68377,35.31588],[132.68784,35.3201],[132.68865,35.32082],[132.68919,35.32116],[132.68998,35.32149],[132.69119,35.32181],[132.69704,35.32262],[132.69847,35.32317],[132.70202,35.32492]],[[133.01085,35.43029],[133.00896,35.42971],[133.00711,35.42946],[133.00565,35.42958],[133.00292,35.42996],[133.00208,35.42991],[132.99902,35.42941],[132.9985,35.42941],[132.99116,35.43016],[132.98918,35.43013],[132.98812,35.43002]],[[133.06275,35.4639],[133.05997,35.46341],[133.05924,35.46316],[133.05879,35.46291],[133.05371,35.45901],[133.05249,35.45798],[133.05161,35.45708],[133.0512,35.45632],[133.05142,35.45275],[133.05122,35.44938],[133.05088,35.44846],[133.0504,35.44756],[133.04897,35.44618]],[[133.06518,35.46428],[133.06275,35.4639]],[[133.12813,35.44614],[133.12717,35.4478],[133.12663,35.44838],[133.12543,35.44916],[133.12477,35.44937],[133.12388,35.44941],[133.12287,35.44928],[133.12032,35.4487],[133.11814,35.4483],[133.11615,35.44812],[133.11282,35.44806],[133.11211,35.4482],[133.10981,35.44891],[133.10592,35.44957],[133.1048,35.45004],[133.10432,35.45034],[133.10276,35.45177],[133.10171,35.45245],[133.09516,35.45459],[133.0877,35.4572],[133.08246,35.46032],[133.0811,35.46089],[133.07124,35.4643],[133.06986,35.46468],[133.06861,35.46477],[133.06518,35.46428]],[[133.14817,35.42758],[133.14646,35.42711],[133.14572,35.42699],[133.14503,35.42697],[133.14404,35.42711],[133.14357,35.42723],[133.1401,35.42869],[133.13966,35.42892],[133.13857,35.42973],[133.13681,35.43193],[133.13337,35.43658],[133.12884,35.44483]],[[132.86926,35.39385],[132.87332,35.39474],[132.87645,35.39615],[132.87995,35.39795],[132.88147,35.39822],[132.88701,35.39878],[132.88856,35.39934],[132.89225,35.40141],[132.89375,35.402],[132.89482,35.40226],[132.89639,35.40243],[132.89942,35.40312],[132.90342,35.40383],[132.90545,35.40429],[132.90668,35.40485]],[[132.80821,35.38428],[132.80704,35.38314]],[[133.04846,35.44571],[133.04734,35.44458],[133.04567,35.44324],[133.04203,35.44141],[133.03923,35.43988],[133.03894,35.43963],[133.03739,35.4377],[133.0369,35.43723],[133.03649,35.43694],[133.03516,35.43628],[133.03253,35.43528],[133.0313,35.43508],[133.03036,35.43528],[133.02937,35.43578],[133.02873,35.43598],[133.02774,35.43604],[133.02654,35.43595],[133.02348,35.43472],[133.02094,35.43388],[133.01588,35.43186],[133.01352,35.43114]],[[132.75797,35.36086],[132.75403,35.36046]],[[132.59115,35.27543],[132.59231,35.27575],[132.59304,35.27583],[132.594,35.27577],[132.59611,35.27536],[132.59689,35.27535],[132.59761,35.27547],[132.60239,35.27705],[132.60434,35.27733],[132.60513,35.27754],[132.60693,35.27826],[132.60851,35.27853],[132.60984,35.27861],[132.61063,35.2788],[132.61172,35.27926],[132.61309,35.28003],[132.61389,35.28024],[132.61557,35.2804],[132.61633,35.28056],[132.61732,35.28089],[132.61851,35.28141],[132.61915,35.28158],[132.62162,35.28207],[132.62515,35.28243],[132.62648,35.28266],[132.62774,35.28319],[132.62936,35.28421]],[[132.72256,35.33523],[132.73012,35.33905],[132.73094,35.33963],[132.73221,35.34097],[132.73284,35.34195],[132.7333,35.34296],[132.73736,35.35467],[132.73773,35.35545],[132.7385,35.35634],[132.74032,35.35767],[132.74199,35.35872],[132.74289,35.35913],[132.74386,35.35946],[132.74927,35.36014],[132.75403,35.36046]],[[132.80821,35.38428],[132.80964,35.3857]],[[132.80704,35.38314],[132.79502,35.37118],[132.79386,35.37025],[132.79259,35.36946],[132.79116,35.36887],[132.79008,35.36855],[132.77604,35.36607],[132.77311,35.36546],[132.77236,35.3652],[132.7694,35.36385],[132.76598,35.36265],[132.76204,35.36157],[132.75797,35.36086]],[[132.62936,35.28421],[132.63111,35.28533]],[[133.12884,35.44483],[133.12813,35.44614]],[[132.59115,35.27543],[132.58929,35.27502]],[[132.9509,35.42052],[132.95256,35.42081]],[[132.95256,35.42081],[132.95374,35.421],[132.9548,35.42128],[132.95554,35.42155],[132.95692,35.42226],[132.958,35.42271],[132.95883,35.42297],[132.95983,35.42314],[132.96083,35.42313],[132.96691,35.42241]],[[132.70202,35.32492],[132.7034,35.32561]],[[133.2081,35.43174],[133.20675,35.43187]],[[132.86726,35.3934],[132.8522,35.39003],[132.84992,35.38943],[132.84685,35.38845],[132.83619,35.38454],[132.83366,35.3837],[132.83243,35.3834],[132.83163,35.38333],[132.83088,35.38337],[132.82921,35.38381],[132.82827,35.38433],[132.82517,35.38718],[132.82455,35.38761],[132.82347,35.38808],[132.82231,35.38827],[132.81736,35.38866],[132.8157,35.38857],[132.81167,35.3872],[132.81073,35.38662],[132.80964,35.3857]],[[133.25778,35.42793],[133.24755,35.42753],[133.23087,35.42749],[133.21148,35.43128],[133.2081,35.43174]],[[132.80717,35.38376],[132.80964,35.3857]],[[132.90982,35.40732],[132.91143,35.40858],[132.91234,35.40969],[132.91353,35.4114],[132.91394,35.41184],[132.91431,35.41212],[132.91516,35.4125],[132.91591,35.41264],[132.91688,35.41259],[132.9174,35.41248],[132.91882,35.41193],[132.92017,35.41166],[132.92106,35.41161],[132.92247,35.41177],[132.92365,35.41221],[132.92869,35.41469],[132.93152,35.41535],[132.93231,35.41565],[132.93332,35.41622],[132.93537,35.41772],[132.93593,35.41798],[132.93703,35.41821],[132.94145,35.41876],[132.94756,35.41998],[132.9509,35.42052]],[[133.14995,35.4281],[133.14817,35.42758]],[[133.20675,35.43187],[133.20037,35.43243],[133.19557,35.43163],[133.19408,35.43169],[133.19098,35.43209],[133.18983,35.4321],[133.18901,35.43189],[133.18654,35.43087],[133.18559,35.43068],[133.18471,35.43066],[133.1833,35.43094],[133.17849,35.43274],[133.17449,35.43326],[133.16719,35.43402],[133.166,35.43379],[133.16503,35.43335],[133.16322,35.43168],[133.16211,35.43112],[133.16062,35.43081],[133.1582,35.43072],[133.15648,35.43042],[133.15565,35.43014],[133.15307,35.42903],[133.14995,35.4281]],[[133.01352,35.43114],[133.01085,35.43029]],[[132.90863,35.40642],[132.90982,35.40732]],[[132.96691,35.42241],[132.9682,35.42222],[132.97275,35.4221],[132.97533,35.42246],[132.97819,35.42321],[132.97976,35.4238],[132.9809,35.42443],[132.98183,35.42529],[132.98378,35.42784],[132.98466,35.42867],[132.98515,35.429],[132.98637,35.42961],[132.98707,35.42984],[132.98812,35.43002]],[[132.96691,35.42241],[132.96787,35.4224],[132.96923,35.4226],[132.96988,35.42262],[132.97067,35.42257],[132.97191,35.42234],[132.97316,35.42232],[132.97412,35.42245],[132.97633,35.42296],[132.97821,35.4234],[132.97911,35.4237],[132.98037,35.42432],[132.98106,35.42503],[132.9814,35.42557],[132.98207,35.42764],[132.98245,35.42828],[132.98304,35.4289],[132.98392,35.42942],[132.98528,35.42987],[132.98812,35.43002]],[[132.31364,35.05795],[132.31316,35.0561]],[[132.17363,34.97763],[132.17249,34.97706],[132.17079,34.97648],[132.16375,34.97478],[132.15574,34.97187],[132.15415,34.97107],[132.15224,34.96966],[132.15187,34.96924],[132.15148,34.96862],[132.15107,34.96638],[132.1512,34.96463]],[[132.37545,35.10612],[132.37524,35.10534],[132.37362,35.10253],[132.3727,35.10044],[132.37218,35.0995],[132.37136,35.09823],[132.37076,35.09747],[132.36963,35.09637],[132.36908,35.09606],[132.36713,35.09524],[132.35756,35.09163],[132.35587,35.09106],[132.35496,35.09091],[132.35129,35.09123]],[[131.86547,34.72285],[131.8681,34.72348],[131.8686,34.7237],[131.8695,34.72429],[131.87082,34.72577],[131.87221,34.72764],[131.87252,34.72819],[131.8726,34.72851],[131.87287,34.73198],[131.87288,34.73245],[131.87279,34.73285],[131.87252,34.7334],[131.87075,34.73547],[131.87042,34.73621],[131.87038,34.73688],[131.87064,34.7377],[131.87128,34.73853],[131.87196,34.73901],[131.87428,34.74019],[131.87524,34.74094],[131.87571,34.74177],[131.87576,34.74254],[131.87557,34.74356],[131.87526,34.74401],[131.87475,34.74443],[131.87331,34.74516],[131.87229,34.74592],[131.87199,34.74633],[131.8717,34.74701],[131.87164,34.74766],[131.87175,34.74899],[131.8719,34.74948],[131.8722,34.74997],[131.87277,34.75055],[131.87364,34.75104],[131.87447,34.7512],[131.87578,34.75122],[131.87757,34.75143]],[[132.44026,35.19256],[132.44161,35.19306]],[[132.50884,35.23047],[132.50819,35.22918]],[[132.40368,35.15158],[132.40334,35.15043]],[[131.95593,34.79524],[131.9562,34.79598]],[[132.58929,35.27502],[132.58835,35.27485],[132.58732,35.27434],[132.58657,35.27373],[132.5854,35.27248],[132.58486,35.27207],[132.58006,35.26926],[132.5787,35.26865],[132.57756,35.26831],[132.57665,35.26817],[132.57551,35.26824],[132.57381,35.26858],[132.5727,35.26863],[132.57097,35.26848],[132.56974,35.26819],[132.56888,35.26783],[132.56253,35.26422],[132.56126,35.26384],[132.55854,35.2638],[132.55754,35.26365],[132.55684,35.26338],[132.55352,35.26144],[132.55289,35.26086],[132.55224,35.26004],[132.55141,35.25946],[132.55009,35.25907],[132.54724,35.25869],[132.54538,35.2582],[132.54058,35.25618],[132.53811,35.25505],[132.53507,35.25307],[132.53278,35.25185],[132.5322,35.25146],[132.53132,35.25064],[132.53071,35.24963],[132.53039,35.24854],[132.53026,35.24744],[132.53009,35.24416],[132.52988,35.24334],[132.52949,35.2427],[132.52895,35.24212],[132.52841,35.24167],[132.5269,35.24068]],[[131.98745,34.82664],[131.98828,34.82705],[131.98937,34.82776],[131.99024,34.82846],[131.99061,34.82893],[131.99113,34.82998],[131.99148,34.83138],[131.99194,34.83279],[131.9922,34.83329],[131.99255,34.83371],[131.99307,34.83416],[131.99509,34.83548],[131.99631,34.83652],[131.99686,34.83681],[131.99701,34.83701],[131.99718,34.8374],[131.99716,34.84056],[131.99726,34.84093],[131.99751,34.84136],[131.99807,34.84207],[131.99915,34.84287],[132.00156,34.84409],[132.00256,34.84469],[132.0074,34.84647],[132.00838,34.847],[132.00893,34.84755],[132.00975,34.84867],[132.01144,34.85196],[132.01188,34.85245],[132.01475,34.85499],[132.01551,34.85583],[132.01684,34.85756]],[[132.52528,35.23962],[132.52337,35.23846],[132.52238,35.23822],[132.52079,35.2382],[132.51781,35.23892],[132.51687,35.23901],[132.51554,35.23888],[132.51462,35.23851],[132.51388,35.23797],[132.51323,35.23729],[132.5109,35.23437],[132.50884,35.23047]],[[132.15133,34.96354],[132.15189,34.95919],[132.15186,34.95857],[132.15161,34.95789],[132.14891,34.95378],[132.14757,34.95272],[132.1462,34.95228],[132.14437,34.95191],[132.14018,34.9499],[132.13956,34.9497]],[[132.11043,34.928],[132.11002,34.9293],[132.10985,34.93025],[132.11014,34.93296],[132.11054,34.93466],[132.11077,34.93525],[132.11116,34.93584],[132.11224,34.93681],[132.11302,34.9373],[132.11398,34.93767],[132.11489,34.93783],[132.11795,34.93799],[132.11937,34.93823],[132.12015,34.9385],[132.12097,34.93894],[132.12155,34.93939],[132.12198,34.93981],[132.12325,34.94162],[132.12433,34.94253],[132.12509,34.94288],[132.12671,34.94343],[132.12732,34.94376],[132.12897,34.94508],[132.12967,34.94552],[132.13054,34.94587],[132.13185,34.94621],[132.13259,34.94656],[132.1348,34.94821],[132.13529,34.94841],[132.13782,34.94907],[132.1388,34.94943]],[[132.08908,34.90315],[132.08775,34.90214]],[[132.2749,35.037],[132.27322,35.03701]],[[132.49831,35.20009],[132.49682,35.19902],[132.49549,35.19831],[132.49432,35.19787],[132.49314,35.19759],[132.48438,35.19709],[132.46873,35.19548]],[[132.18716,34.98922],[132.18357,34.98446],[132.18283,34.98358],[132.18151,34.9823],[132.17812,34.97987],[132.17442,34.97801]],[[132.32871,35.07613],[132.3281,35.07512],[132.32726,35.07439],[132.32637,35.07394],[132.32411,35.07315],[132.32299,35.07251],[132.32226,35.07187],[132.32165,35.07076],[132.32121,35.06898],[132.32067,35.06794],[132.31924,35.06673],[132.31824,35.06546],[132.31757,35.06495],[132.31599,35.06397],[132.31568,35.06373],[132.31518,35.06314],[132.31469,35.06216],[132.31364,35.05795]],[[132.1512,34.96463],[132.15133,34.96354]],[[132.5004,35.20167],[132.49831,35.20009]],[[132.50819,35.22918],[132.50446,35.22186],[132.50124,35.21424],[132.50113,35.2136],[132.50119,35.21257],[132.50146,35.21174],[132.50255,35.20962],[132.50297,35.20672],[132.50311,35.20494],[132.50295,35.2041],[132.50255,35.20342],[132.50218,35.20302],[132.5004,35.20167]],[[132.01771,34.85871],[132.01684,34.85756]],[[131.87891,34.75193],[131.88148,34.75349],[131.88335,34.75529],[131.88448,34.75579],[131.88594,34.75592],[131.88664,34.75587],[131.88879,34.75541],[131.89164,34.75549],[131.89236,34.75567],[131.89309,34.75598],[131.89401,34.75655],[131.89424,34.75678],[131.89467,34.75739],[131.89501,34.7587],[131.895,34.75895],[131.89447,34.7608],[131.89468,34.7645],[131.89528,34.76592],[131.89539,34.76651],[131.89526,34.76738],[131.89485,34.76847],[131.89489,34.76916],[131.89533,34.7702],[131.89634,34.77144],[131.89663,34.77212],[131.89701,34.77268],[131.89763,34.77324],[131.89804,34.77347],[131.89869,34.77368],[131.90132,34.77379],[131.90199,34.77396],[131.90357,34.77455],[131.90447,34.77476],[131.90469,34.77474],[131.90533,34.77463],[131.90629,34.77433],[131.9103,34.77236],[131.91148,34.77192],[131.91221,34.7718]],[[132.04983,34.86943],[132.04477,34.86979],[132.04337,34.87005],[132.04214,34.87062],[132.04144,34.87117],[132.04103,34.8716],[132.03976,34.87335],[132.03876,34.8742],[132.03815,34.87451],[132.03728,34.87472],[132.03591,34.87473],[132.0351,34.87457],[132.03447,34.8743],[132.03322,34.87354],[132.03241,34.87325],[132.03144,34.87303],[132.03081,34.87273],[132.02937,34.87174],[132.02726,34.87008],[132.02317,34.8659],[132.01883,34.86038],[132.01771,34.85871]],[[132.08775,34.90214],[132.08515,34.90007],[132.08315,34.89862],[132.07795,34.89533],[132.07602,34.89362],[132.07514,34.89307],[132.07388,34.89249],[132.07223,34.89101],[132.07098,34.89026],[132.06874,34.88835],[132.06811,34.88804],[132.06714,34.8877],[132.06553,34.88734],[132.0648,34.88698],[132.06378,34.88626],[132.06245,34.88364],[132.06068,34.88099],[132.06044,34.88019],[132.06034,34.87947],[132.0606,34.8782],[132.06054,34.87713],[132.0604,34.87669],[132.05973,34.87559],[132.05784,34.87384],[132.05741,34.87319],[132.05693,34.87222],[132.05663,34.87183],[132.0554,34.87073],[132.05444,34.87015],[132.0536,34.86983],[132.05218,34.86946],[132.05095,34.86934]],[[131.98619,34.82613],[131.98745,34.82664]],[[131.73873,34.67299],[131.73697,34.67308]],[[131.8395,34.67804],[131.8384,34.67851]],[[132.32909,35.07704],[132.32936,35.07784],[132.32979,35.07864],[132.33011,35.07903],[132.3309,35.07966],[132.33137,35.07992],[132.33266,35.08041],[132.33647,35.08141],[132.33795,35.08194],[132.34028,35.08301],[132.34134,35.0837],[132.34187,35.08414],[132.3425,35.08483],[132.3428,35.08529],[132.34329,35.08639],[132.34359,35.08897],[132.34376,35.08937],[132.34436,35.09025],[132.34503,35.09081],[132.3459,35.09125],[132.34717,35.09151],[132.34831,35.09151],[132.35024,35.09131]],[[131.86405,34.7226],[131.85863,34.72158],[131.85765,34.72111],[131.85707,34.72062],[131.85676,34.72021],[131.85548,34.71754],[131.85527,34.71727],[131.85366,34.71594],[131.85333,34.71554],[131.85287,34.71434],[131.8523,34.71349],[131.85133,34.71274],[131.85037,34.71159],[131.84982,34.71111],[131.84696,34.70928],[131.84403,34.70767],[131.84338,34.70696],[131.843,34.70631],[131.84198,34.70348],[131.84131,34.70112],[131.84127,34.70003],[131.84168,34.69822],[131.8426,34.69559],[131.84306,34.69468],[131.84698,34.68943],[131.8472,34.68884],[131.84744,34.68849],[131.84852,34.68757],[131.84948,34.687],[131.84986,34.68661],[131.85023,34.6858],[131.85028,34.68514],[131.85009,34.68429],[131.84929,34.683],[131.84917,34.68269],[131.84906,34.68218],[131.84883,34.67884],[131.84869,34.67825],[131.84823,34.67751],[131.84731,34.67673],[131.84692,34.67652],[131.8461,34.67628],[131.84515,34.67614],[131.84452,34.67617],[131.84308,34.67657],[131.8395,34.67804]],[[132.46735,35.19535],[132.46873,35.19548]],[[131.91302,34.77182],[131.91349,34.7719],[131.91525,34.77261],[131.91857,34.77374],[131.92579,34.77591],[131.92725,34.7765],[131.92879,34.77765],[131.92988,34.77872],[131.93037,34.77941],[131.93166,34.78204],[131.93249,34.78335],[131.93336,34.78442],[131.93385,34.7848],[131.93719,34.78621],[131.93948,34.7879],[131.94043,34.7885],[131.94538,34.79055],[131.9472,34.791],[131.95139,34.79087],[131.95193,34.79093],[131.95302,34.79125],[131.9542,34.79202],[131.95507,34.79288],[131.95528,34.79329],[131.95593,34.79524]],[[132.22235,35.01251],[132.22409,35.01308]],[[132.17442,34.97801],[132.17363,34.97763]],[[132.32909,35.07704],[132.32871,35.07613]],[[132.40334,35.15043],[132.40116,35.14277],[132.40006,35.13727],[132.3996,35.13616],[132.39914,35.13558],[132.39866,35.13515],[132.39623,35.13341],[132.3934,35.13158],[132.39035,35.13016],[132.38813,35.12855]],[[132.37562,35.107],[132.37545,35.10612]],[[132.35024,35.09131],[132.35129,35.09123]],[[132.22409,35.01308],[132.22569,35.01365]],[[132.22569,35.01365],[132.23163,35.01565],[132.23269,35.01615],[132.23347,35.01682],[132.23397,35.01747],[132.23418,35.01794],[132.2344,35.01903],[132.23428,35.01974],[132.23314,35.02226],[132.23293,35.02297],[132.23301,35.02399],[132.23345,35.02494],[132.23424,35.02586],[132.23647,35.02796],[132.2379,35.02903],[132.23957,35.03004],[132.24028,35.03056],[132.24432,35.03448],[132.24492,35.03498],[132.2455,35.03531],[132.24723,35.03594],[132.25107,35.03704],[132.25451,35.03771],[132.25651,35.038],[132.25865,35.03806],[132.26204,35.03736],[132.26417,35.03706],[132.2665,35.03694],[132.27322,35.03701]],[[132.18764,34.98987],[132.1939,34.9981],[132.19473,34.99927],[132.1954,35.00046],[132.19658,35.00163],[132.197,35.00188],[132.19775,35.00217],[132.20221,35.00317],[132.20412,35.00389],[132.2055,35.00458],[132.21478,35.00975],[132.21625,35.01048],[132.22235,35.01251]],[[131.8384,34.67851],[131.83448,34.68027]],[[131.83448,34.68027],[131.83266,34.68178],[131.8313,34.68249],[131.82951,34.68313],[131.82225,34.6851],[131.8216,34.68547],[131.82007,34.68673],[131.81906,34.68714],[131.81061,34.68729],[131.80628,34.68804],[131.80473,34.68811],[131.80308,34.68789],[131.80111,34.68741],[131.79772,34.68714],[131.7965,34.68669],[131.7947,34.68621],[131.79169,34.68612],[131.78706,34.68559],[131.78382,34.68433],[131.78166,34.68376],[131.77879,34.68279],[131.7759,34.68225],[131.77363,34.68159],[131.77056,34.68102],[131.76664,34.67957],[131.76404,34.67874],[131.76186,34.6777],[131.7603,34.67714],[131.75773,34.67642],[131.75332,34.67548],[131.74954,34.67361],[131.74607,34.67316],[131.74298,34.67287],[131.73873,34.67299]],[[131.86547,34.72285],[131.86405,34.7226]],[[132.13956,34.9497],[132.1388,34.94943]],[[131.9562,34.79598],[131.9567,34.79765],[131.95736,34.79867],[131.95785,34.79909],[131.96061,34.80055],[131.96151,34.80153],[131.96189,34.80223],[131.96253,34.80411],[131.96262,34.80461],[131.96344,34.81181],[131.96373,34.81559],[131.96405,34.81657],[131.96468,34.81738],[131.96535,34.81792],[131.96769,34.81941],[131.9698,34.82053],[131.97079,34.82095],[131.97152,34.82111],[131.97434,34.82074],[131.975,34.82073],[131.97578,34.82086],[131.97677,34.82127],[131.9799,34.8234],[131.98312,34.82541],[131.98391,34.82566],[131.98514,34.82586],[131.98619,34.82613]],[[132.31316,35.0561],[132.31243,35.0534],[132.31218,35.0528],[132.31176,35.05213],[132.31101,35.05153],[132.31049,35.05122],[132.30713,35.04941],[132.30654,35.04885],[132.30589,35.04794],[132.30536,35.04735],[132.30467,35.04679],[132.30422,35.04654],[132.30347,35.04625],[132.30292,35.04615],[132.29756,35.04581],[132.29695,35.0457],[132.29544,35.0452],[132.28892,35.04192],[132.28359,35.03833],[132.28216,35.03757],[132.28167,35.0374],[132.28031,35.03704],[132.27931,35.03693],[132.2749,35.037]],[[132.38668,35.12753],[132.38462,35.12611],[132.38254,35.12516],[132.38184,35.12465],[132.38144,35.12422],[132.3794,35.12109],[132.37916,35.12042],[132.37907,35.11954],[132.37974,35.11576],[132.37981,35.1146],[132.37942,35.11181],[132.3792,35.11143],[132.37859,35.11086],[132.37729,35.1099],[132.37642,35.10904],[132.3759,35.1081],[132.37562,35.107]],[[132.38813,35.12855],[132.38668,35.12753]],[[131.91221,34.7718],[131.91302,34.77182]],[[132.05095,34.86934],[132.04983,34.86943]],[[132.11074,34.92683],[132.11043,34.928]],[[132.5269,35.24068],[132.52528,35.23962]],[[131.87757,34.75143],[131.87844,34.75168],[131.87891,34.75193]],[[132.08908,34.90315],[132.09035,34.90378],[132.09174,34.90423],[132.09298,34.90452],[132.09512,34.90487],[132.0958,34.90507],[132.09654,34.90539],[132.09699,34.90571],[132.0982,34.90719],[132.09877,34.90822],[132.099,34.90882],[132.09908,34.90933],[132.09908,34.91128],[132.09916,34.91215],[132.09942,34.91293],[132.09979,34.91351],[132.10645,34.91952],[132.10697,34.91985],[132.11027,34.92276],[132.11092,34.92354],[132.11117,34.92411],[132.11124,34.92503],[132.11115,34.92557],[132.11074,34.92683]],[[132.18764,34.98987],[132.18716,34.98922]],[[132.44161,35.19306],[132.44596,35.19468],[132.44728,35.19501],[132.45497,35.19548],[132.46439,35.19519],[132.46735,35.19535]],[[132.40368,35.15158],[132.40615,35.16035],[132.40648,35.16111],[132.40962,35.1649],[132.41221,35.1669],[132.41532,35.16982],[132.41888,35.17301],[132.41986,35.1741],[132.42239,35.17851],[132.42262,35.17904],[132.42281,35.1797],[132.4231,35.18213],[132.42347,35.18387],[132.4239,35.18496],[132.42469,35.1861],[132.4255,35.18679],[132.42882,35.18847],[132.43082,35.18961],[132.43185,35.18995],[132.43403,35.1903],[132.44026,35.19256]],[[131.1863,34.37591],[131.18488,34.37485]],[[131.18488,34.37485],[131.18145,34.37239]],[[131.19811,34.38781],[131.19713,34.38784],[131.19613,34.38771],[131.19511,34.38734],[131.19437,34.38677],[131.19352,34.3855],[131.18975,34.37898],[131.18921,34.37818],[131.18858,34.37751]],[[131.33028,34.39776],[131.33029,34.39822],[131.33008,34.39995],[131.3302,34.40066],[131.33055,34.40133],[131.33137,34.40199],[131.33289,34.40264],[131.33487,34.40327],[131.33593,34.40342],[131.33806,34.4035],[131.3392,34.4038],[131.33987,34.40421],[131.34332,34.40725],[131.34395,34.40743],[131.3468,34.40792],[131.34844,34.40839],[131.3495,34.40894],[131.35076,34.40997],[131.35131,34.41032],[131.3519,34.41058],[131.35249,34.41072],[131.35376,34.41061],[131.35558,34.41012],[131.35629,34.41011],[131.35833,34.41056],[131.36073,34.41074],[131.36193,34.41095],[131.36269,34.41124],[131.36496,34.41236],[131.36647,34.41245],[131.36786,34.41226],[131.37004,34.41159],[131.3741,34.41118],[131.37519,34.41088],[131.37587,34.41051],[131.37628,34.41017],[131.37694,34.40928],[131.37794,34.40711],[131.37873,34.40613],[131.37942,34.40552]],[[131.6054,34.62179],[131.6043,34.62115],[131.60192,34.61909],[131.60086,34.61871],[131.60002,34.6186],[131.59852,34.6188],[131.59485,34.61953],[131.59423,34.61951],[131.59049,34.61876],[131.5899,34.61871],[131.5888,34.619],[131.58727,34.61972],[131.58635,34.61997],[131.58524,34.61991],[131.58417,34.61957],[131.58321,34.61874],[131.58206,34.61691],[131.58095,34.61592],[131.55999,34.60196],[131.55956,34.60152],[131.55913,34.60084],[131.55617,34.59318],[131.55606,34.59266],[131.55596,34.59097],[131.55605,34.58793],[131.55583,34.58676],[131.55563,34.58654],[131.55485,34.5845],[131.55472,34.58384],[131.55544,34.58125],[131.55546,34.58054],[131.55533,34.58003],[131.555,34.57926],[131.55352,34.57684],[131.55243,34.57534],[131.55067,34.57339],[131.54937,34.57229]],[[131.73697,34.67308],[131.73321,34.67322],[131.73037,34.67306],[131.72699,34.67313],[131.72534,34.67298],[131.72462,34.67301],[131.72393,34.67317],[131.7236,34.67335],[131.72176,34.67461],[131.72139,34.67478],[131.72081,34.67496],[131.71999,34.67506],[131.71914,34.67492],[131.71847,34.67468],[131.71779,34.67429],[131.71672,34.67332],[131.71596,34.67279],[131.7152,34.67245],[131.71458,34.67229],[131.7133,34.67222],[131.7061,34.6723],[131.70527,34.67218],[131.7044,34.67171],[131.70396,34.67134],[131.70249,34.66924]],[[131.4225,34.43877],[131.42072,34.4346],[131.42062,34.43284],[131.42066,34.43179],[131.42055,34.43125],[131.42027,34.43069],[131.41614,34.42465],[131.41587,34.42439],[131.41505,34.42395],[131.41146,34.42258],[131.41071,34.42196],[131.41025,34.42129],[131.41006,34.42067],[131.41006,34.41989],[131.41047,34.41809]],[[131.2952,34.37914],[131.29445,34.37906]],[[131.47236,34.50268],[131.47096,34.50163],[131.47014,34.50088],[131.46968,34.49995],[131.46924,34.49764],[131.46896,34.49708],[131.46826,34.49631],[131.46646,34.49465],[131.46484,34.49202],[131.4635,34.4906],[131.46338,34.49019],[131.46306,34.48743],[131.46281,34.48671],[131.46255,34.48627],[131.46185,34.48556],[131.45992,34.48439],[131.45844,34.48294],[131.45539,34.48048],[131.45208,34.47808],[131.45145,34.47745],[131.44985,34.47518],[131.44961,34.47473],[131.4496,34.47386],[131.44977,34.47156]],[[131.33028,34.39776],[131.33008,34.39667]],[[131.29445,34.37906],[131.29356,34.37906],[131.29239,34.3794],[131.29067,34.38064],[131.28966,34.38121],[131.28832,34.38184],[131.28679,34.38237],[131.28481,34.38273],[131.28267,34.38288],[131.28139,34.38305],[131.28068,34.38329],[131.27936,34.38393],[131.27889,34.38405],[131.27809,34.3841],[131.27715,34.384],[131.27616,34.38364],[131.27483,34.38284],[131.27232,34.38192],[131.26943,34.38064],[131.26856,34.38014],[131.26789,34.3796],[131.26731,34.37889],[131.26673,34.37764],[131.26605,34.37587],[131.26474,34.37436],[131.26342,34.37304],[131.26217,34.37208],[131.26109,34.37143],[131.25856,34.37043],[131.25769,34.36996],[131.25536,34.36808],[131.25436,34.36753],[131.25312,34.36727],[131.25054,34.36729],[131.24984,34.36721],[131.24874,34.36681],[131.24689,34.36564],[131.24585,34.36513],[131.24493,34.36487],[131.24358,34.36471],[131.243,34.36468],[131.24204,34.36478],[131.23726,34.36596]],[[131.40078,34.39384],[131.40236,34.39356]],[[131.66205,34.63913],[131.66201,34.63728]],[[131.50397,34.53309],[131.50493,34.53383],[131.5055,34.53438],[131.50611,34.53514],[131.50645,34.53588],[131.50694,34.53787],[131.50764,34.53941],[131.50825,34.5404],[131.51019,34.54275],[131.51113,34.54427],[131.51208,34.54553],[131.51404,34.54714],[131.51506,34.54821],[131.5155,34.54904],[131.51556,34.55008],[131.51585,34.55178],[131.51615,34.55231],[131.51657,34.55274],[131.5172,34.55319],[131.51789,34.55339],[131.52051,34.55362],[131.52227,34.5541],[131.5262,34.5558],[131.53068,34.55799],[131.53451,34.55952],[131.53533,34.55994],[131.53922,34.56279],[131.53964,34.56317],[131.54005,34.56369],[131.54055,34.56472],[131.54231,34.56654],[131.54468,34.56953],[131.54589,34.57025],[131.54821,34.57144]],[[131.40236,34.39356],[131.40773,34.3926],[131.40826,34.39254],[131.40959,34.39266],[131.41004,34.39279],[131.4105,34.39304],[131.41341,34.39498],[131.41397,34.39557],[131.41432,34.39622],[131.4144,34.39648],[131.41437,34.39728],[131.41301,34.40436],[131.413,34.40537],[131.41335,34.40829],[131.41329,34.40903],[131.41279,34.41073],[131.41113,34.41511],[131.41071,34.41656]],[[131.44977,34.47156],[131.44989,34.47026]],[[131.5029,34.53252],[131.50397,34.53309]],[[131.33008,34.39667],[131.32949,34.39563],[131.32877,34.39461],[131.32836,34.39418],[131.32608,34.39286],[131.32491,34.39208],[131.32395,34.39163],[131.32255,34.39111],[131.32078,34.38979],[131.32019,34.38947],[131.31552,34.38777],[131.31361,34.3868],[131.31122,34.38604],[131.30948,34.38505],[131.30785,34.38381],[131.30762,34.38345],[131.30651,34.38082],[131.30588,34.37992],[131.30525,34.37949],[131.30202,34.37847],[131.30089,34.37827],[131.30019,34.37829],[131.29616,34.37915],[131.2952,34.37914]],[[131.54821,34.57144],[131.54937,34.57229]],[[131.70179,34.66826],[131.7008,34.66722],[131.7,34.66663],[131.69913,34.66616],[131.69685,34.66515],[131.69612,34.66453],[131.69272,34.66112],[131.69204,34.66064],[131.69073,34.66013],[131.68988,34.65993],[131.68862,34.65985],[131.68706,34.66007],[131.68623,34.66042],[131.68442,34.66159],[131.68378,34.66185],[131.68301,34.66198],[131.68241,34.66199],[131.68147,34.66183],[131.6803,34.66132],[131.67895,34.66057],[131.67833,34.66003],[131.67802,34.6596],[131.67689,34.65688],[131.67651,34.65632],[131.67611,34.65593],[131.67524,34.65544],[131.67333,34.65477],[131.66926,34.65252],[131.66851,34.65193],[131.66706,34.65021],[131.66663,34.64959],[131.66619,34.64868],[131.66602,34.64575],[131.66561,34.64516],[131.66266,34.6422],[131.66229,34.64131],[131.66205,34.63913]],[[131.70249,34.66924],[131.70179,34.66826]],[[131.23557,34.36638],[131.22447,34.36918],[131.22254,34.36936],[131.21564,34.36974],[131.21466,34.36982],[131.21373,34.37003],[131.2126,34.37043],[131.20968,34.37225],[131.20747,34.37276],[131.20591,34.37337],[131.20549,34.37366],[131.20382,34.37516],[131.20326,34.37552],[131.20159,34.3762],[131.19896,34.37644],[131.19079,34.37799],[131.18982,34.37797],[131.18858,34.37751]],[[131.44989,34.47026],[131.45009,34.46713],[131.45,34.46643],[131.44946,34.46546],[131.44771,34.46356],[131.44722,34.4627],[131.44606,34.46002],[131.44561,34.45937],[131.4448,34.45869],[131.4395,34.45661],[131.4377,34.45578],[131.43648,34.45508],[131.43552,34.45432],[131.42931,34.44845],[131.42895,34.44807],[131.42817,34.44691],[131.42768,34.44634],[131.42673,34.44562],[131.42445,34.4444],[131.42372,34.44391],[131.42329,34.44332],[131.42293,34.44235],[131.4231,34.44045],[131.42286,34.4396]],[[131.41071,34.41656],[131.41047,34.41809]],[[131.60618,34.62206],[131.6054,34.62179]],[[131.38031,34.40498],[131.38928,34.39919],[131.38998,34.39852],[131.39059,34.39766],[131.39266,34.396],[131.39369,34.3953],[131.39484,34.39484],[131.40078,34.39384]],[[131.1863,34.37591],[131.18858,34.37751]],[[131.47236,34.50268],[131.47342,34.50342]],[[131.66201,34.63728],[131.66186,34.63271],[131.66173,34.63204],[131.66147,34.63151],[131.65472,34.62431],[131.65386,34.6236],[131.65299,34.62318],[131.65113,34.62294],[131.64644,34.62274],[131.64438,34.62207],[131.64204,34.62157],[131.63953,34.62115],[131.63838,34.62119],[131.63785,34.62131],[131.63726,34.62159],[131.63688,34.62186],[131.63554,34.62325],[131.63502,34.62361],[131.63447,34.62384],[131.63346,34.62398],[131.62937,34.62421],[131.62821,34.62444],[131.62663,34.62512],[131.62533,34.62547],[131.62386,34.62567],[131.62254,34.62575],[131.6216,34.62564],[131.62069,34.62566],[131.61867,34.62617],[131.61743,34.62634],[131.61618,34.62621],[131.61542,34.62597],[131.61424,34.62512],[131.61223,34.62313],[131.61135,34.62261],[131.61008,34.6224],[131.60849,34.62245],[131.60729,34.62235],[131.60618,34.62206]],[[131.42286,34.4396],[131.4225,34.43877]],[[131.47342,34.50342],[131.47905,34.50749],[131.48252,34.51124],[131.48366,34.51258],[131.48388,34.513],[131.48402,34.5137],[131.48394,34.51469],[131.48366,34.51602],[131.48386,34.51706],[131.48608,34.52213],[131.48675,34.52313],[131.48846,34.52516],[131.4891,34.52565],[131.49775,34.53089],[131.4987,34.53129],[131.50176,34.53208],[131.5029,34.53252]],[[131.23726,34.36596],[131.23557,34.36638]],[[131.19992,34.38775],[131.19811,34.38781]],[[131.37942,34.40552],[131.38031,34.40498]],[[130.94621,34.28335],[130.94702,34.28454]],[[130.92244,34.14667],[130.92108,34.14508]],[[130.94702,34.28454],[130.94812,34.28611],[130.94836,34.28651],[130.9485,34.28696],[130.9485,34.28737],[130.94822,34.28833],[130.94788,34.2888],[130.94739,34.28925],[130.94685,34.28963],[130.94139,34.29279],[130.9384,34.29497],[130.93795,34.29516],[130.93639,34.29556],[130.93389,34.29604],[130.93195,34.29679],[130.93071,34.2974],[130.92505,34.30081],[130.9244,34.30107],[130.92337,34.30134],[130.92261,34.30176],[130.92213,34.30212],[130.91935,34.30533]],[[131.05796,34.37441],[131.05662,34.37401]],[[130.92647,34.33675],[130.92763,34.3383],[130.92829,34.33889],[130.92872,34.33912],[130.92933,34.3393],[130.93104,34.33955],[130.93194,34.34004],[130.93273,34.34068],[130.93293,34.34093],[130.93319,34.34152],[130.93325,34.34217],[130.93315,34.3435],[130.93326,34.34411],[130.93362,34.34507],[130.93385,34.34528],[130.93702,34.34729],[130.93996,34.34989],[130.94056,34.35029],[130.94121,34.35051],[130.94192,34.35058],[130.94397,34.35038],[130.94534,34.35039],[130.94671,34.3506],[130.94773,34.35086],[130.94901,34.35144],[130.94946,34.35189],[130.95035,34.35305],[130.95074,34.35334],[130.95364,34.3545],[130.95467,34.35481],[130.95676,34.35521],[130.95816,34.35529],[130.95918,34.35513],[130.96183,34.35429],[130.96236,34.35421],[130.96309,34.35424],[130.96442,34.35459],[130.96686,34.35555],[130.96931,34.35687]],[[130.91582,34.04772],[130.91569,34.04682]],[[130.9327,34.20824],[130.93163,34.20347],[130.93204,34.20017],[130.93262,34.19854],[130.93251,34.19685],[130.93282,34.19491],[130.93256,34.19383],[130.93255,34.19308],[130.93321,34.19038],[130.93389,34.18907],[130.93404,34.18842],[130.93318,34.18568],[130.93317,34.18523],[130.93357,34.18317],[130.93332,34.18071],[130.93291,34.17768],[130.93263,34.17669],[130.93237,34.17626],[130.93099,34.17492],[130.93001,34.17371],[130.92947,34.1727],[130.92862,34.17059]],[[130.92737,34.22763],[130.92776,34.22703]],[[130.96931,34.35687],[130.97086,34.3579]],[[130.93269,34.20983],[130.9327,34.20824]],[[130.9122,34.12747],[130.91264,34.12607],[130.91268,34.1252],[130.91201,34.12365],[130.91029,34.12128],[130.90961,34.11876],[130.9094,34.11832],[130.90917,34.11806],[130.90842,34.11753],[130.90542,34.11589],[130.90264,34.1138],[130.90216,34.11322],[130.902,34.11185],[130.90216,34.1112],[130.9026,34.11026],[130.90288,34.10931],[130.90287,34.10838],[130.90254,34.10617],[130.90227,34.10542],[130.90062,34.10319],[130.90013,34.10224],[130.90009,34.10199]],[[131.01061,34.3703],[131.00678,34.37013],[131.0058,34.37016],[131.00443,34.37038],[131.00209,34.37103],[131.00073,34.37116],[130.99855,34.37099],[130.99697,34.37076],[130.99609,34.37054],[130.9956,34.37034],[130.99496,34.36982],[130.99449,34.36903],[130.99411,34.36808],[130.99369,34.36738],[130.99322,34.3669],[130.99252,34.36645],[130.99219,34.36635],[130.98966,34.36614],[130.98915,34.366],[130.98839,34.36559],[130.98704,34.36448],[130.98624,34.36413],[130.98287,34.36367],[130.97973,34.36308],[130.97303,34.35942],[130.97086,34.3579]],[[130.90316,34.07042],[130.90349,34.07023],[130.90415,34.06959]],[[130.9118,34.12861],[130.9122,34.12747]],[[131.10238,34.38864],[131.11032,34.39014],[131.11228,34.39099],[131.1203,34.39507],[131.12139,34.39526],[131.12342,34.39523],[131.12487,34.39482],[131.1269,34.39397],[131.12924,34.39269],[131.13065,34.39174],[131.13094,34.39162],[131.13419,34.39083],[131.13525,34.39039],[131.13577,34.39],[131.13686,34.38837],[131.13849,34.38706],[131.13914,34.38629],[131.13945,34.38579]],[[130.91935,34.30533],[130.91851,34.30633]],[[130.92696,34.00311],[130.92754,34.0016],[130.92814,34.00085],[130.92961,33.99953],[130.93314,33.99609],[130.93432,33.9948]],[[130.91645,34.02586],[130.91667,34.02497],[130.91701,34.02414]],[[131.13945,34.38579],[131.14,34.38466]],[[130.90009,34.10199],[130.90022,34.10105]],[[130.91562,34.25214],[130.91632,34.25286],[130.91665,34.2534],[130.91737,34.25407],[130.92058,34.2562],[130.92119,34.25721],[130.92156,34.25869],[130.92174,34.25903],[130.92255,34.25992],[130.92429,34.26105],[130.92458,34.26163],[130.92512,34.26348],[130.92525,34.26374],[130.92595,34.26456],[130.92635,34.26541],[130.92638,34.26727],[130.92655,34.26763],[130.92908,34.27119],[130.92945,34.27216],[130.92969,34.27351],[130.9299,34.27401],[130.93045,34.27472],[130.93136,34.27535],[130.93435,34.27619],[130.93656,34.27792],[130.93771,34.2786],[130.93846,34.27886],[130.94199,34.27976],[130.94364,34.28032],[130.944,34.28052],[130.94468,34.28118],[130.94621,34.28335]],[[130.92108,34.14508],[130.91919,34.14274],[130.91491,34.13706],[130.91365,34.13532],[130.91211,34.1329],[130.91155,34.1317],[130.91134,34.13085],[130.91145,34.12972],[130.9118,34.12861]],[[130.92862,34.17059],[130.92797,34.16946]],[[131.10238,34.38864],[131.10092,34.38836]],[[130.90415,34.06959],[130.90592,34.06756],[130.90861,34.06383],[130.90958,34.06321],[130.91153,34.06177],[130.91227,34.06101],[130.91244,34.06051],[130.91254,34.05859],[130.91266,34.05803],[130.91309,34.05715],[130.9139,34.0561],[130.91437,34.05533],[130.91455,34.05472],[130.91461,34.05262],[130.9148,34.05215],[130.91579,34.05071],[130.916,34.05022],[130.91609,34.0495],[130.91606,34.04905],[130.91582,34.04772]],[[130.91851,34.30633],[130.91809,34.30691],[130.91751,34.30854],[130.91582,34.31075],[130.91549,34.31132],[130.91546,34.31183],[130.91555,34.3126],[130.91527,34.31411],[130.91537,34.31555],[130.91526,34.317],[130.91567,34.31835],[130.91564,34.32057],[130.91613,34.32207],[130.91639,34.32257],[130.91845,34.32428],[130.91877,34.32482],[130.91982,34.32755],[130.9198,34.32883],[130.91996,34.32979],[130.9202,34.33034],[130.92062,34.331],[130.92127,34.33161],[130.92339,34.33262],[130.92383,34.33298],[130.92424,34.33339],[130.92547,34.33518]],[[130.92547,34.33518],[130.92647,34.33675]],[[131.01205,34.37038],[131.01061,34.3703]],[[130.92644,34.00467],[130.92696,34.00311]],[[130.92797,34.16946],[130.92671,34.16698],[130.92658,34.16611],[130.9267,34.16459],[130.92662,34.16428],[130.92461,34.16025],[130.92441,34.15956],[130.92451,34.15875],[130.92533,34.15572],[130.92549,34.15485],[130.92554,34.15415],[130.92549,34.15336],[130.92529,34.15184],[130.92511,34.15117],[130.92425,34.14886],[130.92402,34.1485],[130.92244,34.14667]],[[130.91389,34.25119],[130.91206,34.25051],[130.91143,34.24995],[130.91103,34.24933],[130.91087,34.24876],[130.91084,34.2479],[130.91113,34.24724],[130.91163,34.24649],[130.91214,34.24605],[130.91278,34.24576],[130.91443,34.24522],[130.91542,34.24478],[130.9162,34.24422],[130.91727,34.24313],[130.91947,34.2422],[130.92038,34.24153],[130.92154,34.24045],[130.92188,34.24001],[130.92225,34.23929],[130.92273,34.2375],[130.92365,34.23512],[130.92407,34.23441],[130.92536,34.2329],[130.92567,34.23127],[130.92627,34.22953],[130.92737,34.22763]],[[130.91562,34.25214],[130.91487,34.25162],[130.91389,34.25119]],[[130.90022,34.10105],[130.90044,34.09972],[130.90045,34.09885],[130.8999,34.09801],[130.89884,34.09684],[130.8979,34.095],[130.89721,34.09385],[130.89705,34.09347],[130.89648,34.09097],[130.89557,34.08968],[130.89538,34.08925],[130.89498,34.08202],[130.89502,34.08128],[130.89583,34.07876],[130.89699,34.07566],[130.89789,34.07358],[130.89847,34.07261],[130.89911,34.07211],[130.90044,34.07162],[130.90316,34.07042]],[[131.14,34.38466],[131.14172,34.38049],[131.14259,34.37698],[131.14336,34.37595],[131.14386,34.37563],[131.14459,34.37538],[131.14601,34.37506],[131.14731,34.37513],[131.14782,34.37506],[131.1539,34.37256],[131.15549,34.37214],[131.15686,34.37193],[131.16411,34.37164],[131.16549,34.37176],[131.16983,34.37237],[131.1704,34.37242],[131.17128,34.37237],[131.17247,34.372],[131.17487,34.37066],[131.1755,34.37038],[131.17619,34.37014],[131.17702,34.37008],[131.1785,34.37021],[131.17951,34.3706],[131.18145,34.37239]],[[130.91701,34.02414],[130.92159,34.01802],[130.92307,34.01638],[130.92337,34.0159],[130.92354,34.01543],[130.92361,34.01439]],[[131.10092,34.38836],[131.09485,34.38719],[131.09409,34.38684],[131.0927,34.38583],[131.09203,34.38549],[131.09143,34.3853],[131.0904,34.38516],[131.08202,34.38474],[131.07708,34.38366],[131.07509,34.38273],[131.06172,34.37568],[131.06046,34.37517],[131.05796,34.37441]],[[130.92776,34.22703],[130.93035,34.22295],[130.93076,34.22193],[130.93081,34.22133],[130.93074,34.22092],[130.92957,34.2184],[130.9295,34.21786],[130.92954,34.21738],[130.92996,34.21588],[130.93255,34.21042],[130.93269,34.20983]],[[130.91569,34.04682],[130.91391,34.03611],[130.914,34.03535],[130.91645,34.02586]],[[131.05662,34.37401],[131.05363,34.37313],[131.03746,34.37021],[131.03358,34.3692],[131.03242,34.36901],[131.0266,34.36895],[131.02547,34.36914],[131.02158,34.37031],[131.01813,34.37072],[131.01586,34.37066],[131.01205,34.37038]],[[130.92845,33.98302],[130.92671,33.98053]],[[130.93432,33.9948],[130.93459,33.99401],[130.93466,33.99321],[130.93447,33.99249],[130.93409,33.99175],[130.93281,33.99022],[130.93129,33.98768],[130.92987,33.98487],[130.92845,33.98302]],[[135.74219,34.99723],[135.74235,34.99587]],[[130.92361,34.01439],[130.92373,34.01333]],[[130.92373,34.01333],[130.92407,34.01167],[130.92458,34.01018],[130.92505,34.00941],[130.9259,34.00852],[130.92626,34.00776],[130.92636,34.00717],[130.92632,34.00545],[130.92644,34.00467]],[[135.74306,34.98977],[135.74324,34.98828]],[[135.74324,34.98828],[135.74338,34.98767],[135.74379,34.98696],[135.74428,34.98648],[135.74521,34.98595],[135.74651,34.98571],[135.74888,34.98561],[135.75146,34.98538]]]}}