{"type":"Feature","properties":{"id":"西日本旅客鉄道_城端線","name":"城端線","operator":"西日本旅客鉄道","railType":"普通鉄道(JR)","operatorType":"JR在来線","category":"rail","attribution":"国土数値情報（鉄道データ）国土交通省"},"geometry":{"type":"MultiLineString","coordinates":[[[137.00628,36.71465],[137.00597,36.71399]],[[137.00597,36.71399],[137.00282,36.70765],[137.00252,36.70725],[136.99969,36.70477]],[[137.01427,36.74082],[137.01384,36.74084],[137.01329,36.74074],[137.01254,36.74041],[137.0122,36.74015],[137.01173,36.73957],[137.00988,36.7362],[137.00978,36.73578],[137.00977,36.73498],[137.01059,36.73209],[137.0107,36.73147],[137.01037,36.72696]],[[136.99969,36.70477],[136.99914,36.7043]],[[136.99914,36.7043],[136.99787,36.70324],[136.99521,36.70215],[136.99429,36.7015],[136.99386,36.70106],[136.99001,36.69561],[136.98912,36.69415],[136.98566,36.68755],[136.98435,36.68482]],[[137.01574,36.74074],[137.01427,36.74082]],[[136.94372,36.61894],[136.9433,36.61834]],[[136.98386,36.68387],[136.98435,36.68482]],[[136.9532,36.63603],[136.9516,36.63435],[136.95077,36.63318],[136.94457,36.62013],[136.94372,36.61894]],[[136.95393,36.63679],[136.9532,36.63603]],[[136.97064,36.65565],[136.97013,36.65476]],[[136.89908,36.57647],[136.898,36.57594]],[[136.92371,36.58864],[136.92278,36.5882]],[[136.88708,36.53888],[136.88802,36.53822]],[[136.90093,36.52274],[136.90233,36.52173]],[[136.97013,36.65476],[136.96878,36.6524],[136.96838,36.65187],[136.96344,36.64711],[136.95887,36.64341],[136.95832,36.6427],[136.95698,36.64046],[136.95588,36.63886],[136.95393,36.63679]],[[136.97064,36.65565],[136.97155,36.65713],[136.97437,36.66062],[136.97637,36.66409],[136.97661,36.6648],[136.97683,36.66638],[136.97803,36.66972],[136.97965,36.67366],[136.98185,36.67958],[136.98311,36.68251],[136.98386,36.68387]],[[136.9433,36.61834],[136.93757,36.60988],[136.93686,36.6085],[136.93622,36.60689]],[[136.898,36.57594],[136.89309,36.57355],[136.89206,36.57282],[136.89099,36.5717],[136.88352,36.56225],[136.88237,36.56089],[136.88166,36.56027],[136.87943,36.55884]],[[136.93622,36.60689],[136.93598,36.60628]],[[136.87796,36.55792],[136.87727,36.5575],[136.87608,36.55657],[136.87577,36.55612],[136.87544,36.55542],[136.87531,36.5549],[136.87528,36.554],[136.87533,36.55364],[136.87844,36.54375],[136.87905,36.54293],[136.88047,36.5419],[136.88148,36.54148],[136.88406,36.54083],[136.88493,36.54035],[136.88708,36.53888]],[[136.92278,36.5882],[136.91695,36.58554],[136.9104,36.58299],[136.90957,36.5826],[136.9089,36.58218],[136.90652,36.5802],[136.90589,36.5798],[136.89908,36.57647]],[[136.87943,36.55884],[136.87796,36.55792]],[[136.93598,36.60628],[136.93436,36.60227],[136.93354,36.60067],[136.92692,36.59087],[136.92623,36.59006],[136.92521,36.5894],[136.92371,36.58864]],[[136.88802,36.53822],[136.8924,36.53521],[136.89314,36.53449],[136.89364,36.53383],[136.89442,36.53246],[136.89819,36.52477],[136.89877,36.52425],[136.90093,36.52274]],[[137.01037,36.72696],[137.0103,36.72613]],[[137.0103,36.72613],[137.00998,36.72251],[137.0097,36.7216],[137.00628,36.71465]]]}}