{"type":"Feature","properties":{"id":"西日本旅客鉄道_山陽新幹線","name":"山陽新幹線","operator":"西日本旅客鉄道","railType":"普通鉄道(JR)","operatorType":"JR新幹線","category":"shinkansen","attribution":"国土数値情報（鉄道データ）国土交通省"},"geometry":{"type":"MultiLineString","coordinates":[[[135.49446,34.73191],[135.49791,34.73268]],[[135.49446,34.73191],[135.49782,34.73293]],[[135.49791,34.73268],[135.50238,34.73412]],[[135.49782,34.73293],[135.50225,34.73443]],[[135.19866,34.7083],[135.19655,34.70699],[135.19501,34.70618]],[[134.96204,34.66688],[134.95833,34.66724]],[[134.69284,34.82619],[134.68858,34.82667]],[[135.19866,34.7083],[135.20038,34.70955],[135.20407,34.71269],[135.2191,34.7269],[135.2228,34.73011],[135.22792,34.73378],[135.23028,34.73536],[135.23409,34.73749],[135.23842,34.73952],[135.24005,34.74017],[135.24721,34.74251],[135.28183,34.75324],[135.3138,34.76359],[135.31704,34.76449],[135.3207,34.76526],[135.3237,34.76578],[135.32842,34.76628],[135.33085,34.76635],[135.34083,34.76593],[135.35021,34.76491],[135.35508,34.76454],[135.35636,34.76454],[135.35907,34.76462],[135.36412,34.76502],[135.39584,34.76814],[135.40178,34.76863],[135.40582,34.7687],[135.40841,34.76862],[135.41238,34.76823],[135.41591,34.76757],[135.41887,34.7668],[135.42255,34.7656],[135.42594,34.76424],[135.42791,34.76329],[135.43044,34.76187],[135.4333,34.75996],[135.43568,34.75817],[135.43834,34.75577],[135.44123,34.75261],[135.44314,34.74987],[135.45521,34.72848],[135.45631,34.72704],[135.45773,34.72561],[135.45899,34.72473],[135.46057,34.72393],[135.46206,34.72337],[135.46275,34.72321],[135.46443,34.723],[135.46601,34.72306],[135.46771,34.72329],[135.49017,34.7306],[135.49446,34.73191]],[[135.19501,34.70618],[135.19229,34.70496],[135.19098,34.70453],[135.18731,34.70356],[135.18577,34.70325],[135.15851,34.69876],[135.14619,34.69688],[135.14467,34.69657],[135.13981,34.69549],[135.12869,34.69274],[135.12222,34.69104],[135.08047,34.68096],[135.03946,34.67258],[135.02839,34.67041],[135.02247,34.66911],[135.00312,34.66527],[134.99911,34.66481],[134.99503,34.66471],[134.9916,34.6648],[134.96204,34.66688]],[[134.95833,34.66724],[134.95292,34.66787],[134.94946,34.6684],[134.9444,34.66933],[134.94257,34.66979],[134.94089,34.67033],[134.93836,34.67137],[134.9363,34.6724],[134.9341,34.67372],[134.93242,34.67486],[134.92619,34.67956],[134.90815,34.69375],[134.903,34.69749],[134.90008,34.69931],[134.89338,34.70272],[134.88651,34.70609],[134.88463,34.70711],[134.88223,34.70857],[134.87224,34.7159],[134.86252,34.72324],[134.85603,34.72724],[134.84704,34.73297],[134.81813,34.75331],[134.80976,34.75895],[134.80303,34.76391],[134.79942,34.76673],[134.79171,34.77297],[134.78893,34.77508],[134.78579,34.77729],[134.78381,34.77862],[134.77334,34.78496],[134.77088,34.78661],[134.76925,34.7878],[134.76625,34.79034],[134.74502,34.81016],[134.74356,34.81124],[134.74095,34.81296],[134.73363,34.81765],[134.73048,34.81938],[134.72755,34.82068],[134.72501,34.82164],[134.72071,34.82277],[134.71866,34.82319],[134.69284,34.82619]],[[134.47661,34.81813],[134.47211,34.81841]],[[134.68858,34.82667],[134.67171,34.82861],[134.63709,34.83107],[134.63172,34.83098],[134.60318,34.82816],[134.60119,34.82802],[134.59786,34.82792],[134.5945,34.82802],[134.56384,34.83013],[134.56107,34.83019],[134.55696,34.82997],[134.55521,34.82977],[134.5531,34.82942],[134.54908,34.82857],[134.54741,34.82813],[134.52562,34.82129],[134.52363,34.82076],[134.52042,34.82008],[134.51773,34.81968],[134.51392,34.81924],[134.5008,34.81823],[134.48961,34.81755],[134.48542,34.81759],[134.47661,34.81813]],[[134.47211,34.81841],[134.45982,34.81898],[134.45714,34.81896],[134.4552,34.81883],[134.45049,34.81824],[134.44688,34.81757],[134.44391,34.81682],[134.43994,34.81561],[134.43737,34.81462],[134.43436,34.81316],[134.38724,34.78798],[134.38322,34.78617],[134.37961,34.7848],[134.37549,34.78345],[134.3723,34.78254],[134.36604,34.78113],[134.36209,34.78034],[134.35915,34.77988],[134.35574,34.77947],[134.35296,34.77924],[134.33537,34.7786],[134.31292,34.77761],[134.309,34.7773],[134.30587,34.77687],[134.30409,34.77653],[134.29767,34.77483],[134.24731,34.75852],[134.23476,34.75475],[134.23245,34.75422],[134.22875,34.75362],[134.22338,34.75306],[134.1871,34.75104],[134.18433,34.75074],[134.17962,34.74992],[134.17567,34.7488],[134.17048,34.74708],[134.15849,34.74238],[134.13912,34.73493],[134.13297,34.73278],[134.1271,34.73097],[134.12282,34.72979],[134.12065,34.72927],[134.06731,34.71706],[134.06398,34.71617],[134.04171,34.7095],[134.03957,34.7088],[134.03507,34.70704],[134.03224,34.70572],[134.00377,34.6908],[134.00031,34.68925],[133.9962,34.6878],[133.9921,34.68674],[133.98916,34.68616],[133.98665,34.68584],[133.93158,34.68093],[133.93003,34.68064],[133.92906,34.68037],[133.92795,34.67996],[133.92669,34.67931]],[[133.91917,34.66742],[133.91791,34.66545],[133.91692,34.66427]],[[133.92669,34.67931],[133.9256,34.67858],[133.92445,34.67753],[133.92337,34.67616],[133.92294,34.67539],[133.91917,34.66742]],[[133.37239,34.49158],[133.36357,34.48957]],[[133.91692,34.66427],[133.91549,34.66304],[133.91461,34.66249],[133.9105,34.66049],[133.90913,34.66002],[133.90681,34.65959],[133.90578,34.6595],[133.8971,34.6593],[133.89443,34.65908],[133.87551,34.65657],[133.8436,34.65387],[133.8405,34.65351],[133.83773,34.65301],[133.83484,34.65234],[133.83174,34.65149],[133.80989,34.64517],[133.79331,34.64056],[133.78472,34.63836],[133.7696,34.63463],[133.76649,34.63376],[133.76391,34.63294],[133.76028,34.63163],[133.75783,34.6306],[133.75323,34.62848],[133.75066,34.62712],[133.74736,34.62514],[133.71263,34.59963],[133.70995,34.59759],[133.70739,34.59518],[133.70472,34.59201],[133.70284,34.58946],[133.69669,34.58024],[133.69489,34.57784],[133.69385,34.57667],[133.69101,34.57386],[133.68819,34.57154],[133.68615,34.57006],[133.68009,34.56619]],[[133.68009,34.56619],[133.67663,34.56397]],[[133.36357,34.48957],[133.35913,34.48897]],[[133.18824,34.42934],[133.19219,34.43082]],[[133.18824,34.42934],[133.1671,34.42137],[133.16266,34.41959],[133.1325,34.40825],[133.12081,34.40391],[133.11885,34.40331],[133.11643,34.4027],[133.1121,34.40195],[133.10762,34.4014],[133.10336,34.40105],[133.09858,34.40075],[133.0962,34.40069],[133.08543,34.4008]],[[133.35913,34.48897],[133.3571,34.48878],[133.34492,34.48828],[133.34153,34.48793],[133.32107,34.48376],[133.31784,34.48295],[133.30938,34.48023],[133.24435,34.45864],[133.24116,34.45743],[133.23813,34.45603],[133.23449,34.45428],[133.22916,34.45137],[133.2272,34.45009],[133.22099,34.44538],[133.21516,34.44161],[133.21234,34.43994],[133.20801,34.43755],[133.202,34.43462],[133.19643,34.43233],[133.19219,34.43082]],[[132.76159,34.39054],[132.75783,34.38816]],[[133.08115,34.40085],[133.07733,34.40085],[133.05487,34.39877],[133.05207,34.3986],[133.04702,34.39863],[133.0437,34.39884],[133.04113,34.39917],[133.03789,34.3998],[133.03559,34.40035],[133.03158,34.40155],[133.02948,34.40226],[133.00369,34.41318],[132.99743,34.41539],[132.99295,34.41652],[132.98983,34.41707],[132.98633,34.41754],[132.98044,34.4181],[132.97814,34.41821],[132.97343,34.41816],[132.96886,34.41784],[132.89172,34.40888],[132.88453,34.40869],[132.85434,34.40898],[132.83119,34.4095],[132.81143,34.40984],[132.80691,34.40954],[132.80281,34.40916],[132.79911,34.40857],[132.79657,34.40803],[132.79304,34.40715],[132.78912,34.40589],[132.78451,34.40393],[132.78021,34.40182],[132.7757,34.39942],[132.77047,34.39619],[132.76159,34.39054]],[[133.08543,34.4008],[133.08115,34.40085]],[[132.47351,34.39948],[132.47161,34.40072],[132.47011,34.40192],[132.4692,34.40281],[132.46745,34.40489],[132.46639,34.40581],[132.46558,34.40635],[132.4645,34.40692],[132.46274,34.40763],[132.45772,34.40947],[132.45589,34.4099],[132.45394,34.41005],[132.44751,34.40965],[132.42689,34.40769],[132.42183,34.40713],[132.41203,34.40625],[132.39946,34.40496],[132.3902,34.40365],[132.3853,34.40274],[132.36441,34.39841],[132.36111,34.39765],[132.35808,34.39678],[132.35417,34.39534],[132.34727,34.39203],[132.34559,34.39111],[132.34321,34.38957],[132.34104,34.388],[132.33637,34.38412],[132.33517,34.38292],[132.33367,34.38119],[132.33136,34.37813],[132.3294,34.37513],[132.31787,34.35487],[132.31564,34.35121],[132.31436,34.3493],[132.30792,34.3404],[132.30526,34.33658],[132.29244,34.31632],[132.28837,34.31063],[132.28708,34.309],[132.28527,34.30695],[132.28339,34.3051],[132.28169,34.30362],[132.27798,34.30067],[132.27068,34.29558],[132.25324,34.28384],[132.25002,34.28145],[132.19571,34.23772],[132.19279,34.2351],[132.19092,34.23321],[132.1892,34.231],[132.18662,34.22679],[132.1725,34.20297],[132.16765,34.195],[132.16396,34.18874],[132.16179,34.18525],[132.1507,34.16656]],[[132.47692,34.39738],[132.47351,34.39948]],[[132.48586,34.39405],[132.48889,34.39377],[132.49261,34.39321]],[[132.75783,34.38816],[132.75337,34.38535],[132.74746,34.38137],[132.74127,34.37655],[132.73839,34.37416],[132.72947,34.36703],[132.72829,34.36613],[132.72469,34.3637],[132.72278,34.36257],[132.70264,34.35162],[132.70024,34.35044],[132.69751,34.34927],[132.69332,34.34775],[132.6892,34.34663],[132.6827,34.34559],[132.67966,34.34519],[132.6725,34.34458],[132.64896,34.34281],[132.64514,34.34271],[132.64301,34.34279],[132.64099,34.34297],[132.63867,34.34324],[132.63471,34.34386],[132.63352,34.34412],[132.63054,34.34497],[132.62879,34.34557],[132.62612,34.34669],[132.62435,34.34757],[132.61993,34.35022],[132.60144,34.36056],[132.60041,34.36104],[132.5969,34.36295],[132.58769,34.3682],[132.57527,34.3751],[132.56709,34.3794],[132.56466,34.38056],[132.56239,34.38143],[132.5601,34.38204],[132.55826,34.38242],[132.55348,34.38311],[132.54192,34.384],[132.52415,34.38506],[132.52111,34.38537],[132.51894,34.38571],[132.51749,34.38599],[132.51173,34.38738],[132.50618,34.38882],[132.50459,34.3893],[132.49509,34.39259],[132.49368,34.39303],[132.49261,34.39321]],[[132.48586,34.39405],[132.4877,34.39361],[132.49071,34.39327],[132.49261,34.39321]],[[132.1507,34.16656],[132.14869,34.16314]],[[132.47692,34.39738],[132.48002,34.39536],[132.48104,34.39493],[132.48226,34.39464],[132.48586,34.39405]],[[132.14869,34.16314],[132.14319,34.15404],[132.14122,34.1506],[132.13474,34.14009],[132.1317,34.13533],[132.12803,34.12984],[132.12539,34.12621],[132.12252,34.12284],[132.11939,34.11991],[132.11761,34.11838],[132.11577,34.1169],[132.11288,34.11486],[132.11009,34.11308],[132.10768,34.11166],[132.10564,34.11053],[132.10322,34.1094],[132.09996,34.10807],[132.09408,34.10603],[132.08961,34.10478],[132.08751,34.10429],[132.06393,34.09978],[132.03224,34.09393],[132.03011,34.09344],[132.02762,34.0927],[132.02499,34.09181],[132.02002,34.08985],[132.01505,34.08774],[132.01269,34.0866],[132.01164,34.086],[132.00682,34.08292],[131.98741,34.07006],[131.9834,34.06759],[131.98036,34.06598],[131.97401,34.06297],[131.96376,34.05851],[131.9602,34.05649],[131.95849,34.05543],[131.94578,34.04591],[131.94325,34.04428],[131.94114,34.04304],[131.93686,34.04099],[131.93526,34.04049],[131.93291,34.03995],[131.92859,34.03903],[131.92618,34.03863],[131.92353,34.03843],[131.91882,34.03835],[131.91776,34.03827],[131.91194,34.0384],[131.90765,34.03818],[131.90456,34.03789],[131.90222,34.03757],[131.896,34.03668],[131.8876,34.03528],[131.88425,34.03494],[131.88193,34.03482],[131.88026,34.03483],[131.86941,34.03544],[131.86008,34.0357],[131.85809,34.03555],[131.85471,34.03511],[131.85096,34.03445],[131.8471,34.03394],[131.84169,34.03371],[131.83893,34.03378],[131.83769,34.03388],[131.83479,34.03431],[131.83118,34.03505],[131.82833,34.03584],[131.82706,34.03627],[131.82289,34.03791],[131.80738,34.04595],[131.80598,34.04691],[131.80401,34.04899]],[[131.80401,34.04899],[131.80173,34.05148],[131.80082,34.05277]],[[131.3954,34.09226],[131.39269,34.09061],[131.38698,34.08659],[131.38394,34.08471],[131.38029,34.08229],[131.37487,34.07862],[131.37323,34.07737],[131.37085,34.07527],[131.36213,34.06582],[131.35853,34.06224],[131.35516,34.05955],[131.35139,34.0571],[131.34911,34.05578],[131.34586,34.05426],[131.34079,34.05246],[131.33786,34.05167],[131.3343,34.05098],[131.33034,34.05072],[131.32129,34.05055],[131.31856,34.0507],[131.31308,34.05079],[131.30965,34.05056],[131.30374,34.04963],[131.30024,34.04881],[131.29248,34.0462],[131.27667,34.04111],[131.27201,34.03988],[131.26871,34.03919],[131.26136,34.03805],[131.25769,34.03756],[131.25422,34.03723],[131.24459,34.03704],[131.24191,34.0371],[131.23863,34.03736],[131.22778,34.03893],[131.20411,34.04271],[131.19228,34.04445],[131.18364,34.04589],[131.18097,34.04642],[131.17582,34.04761],[131.17285,34.0484],[131.1675,34.05017],[131.16473,34.0512],[131.16218,34.05227]],[[131.80082,34.05277],[131.79999,34.05413],[131.79922,34.05588],[131.79458,34.06991],[131.79183,34.07523],[131.79065,34.07724],[131.78922,34.07926],[131.78833,34.08031],[131.78649,34.08194],[131.78117,34.08578],[131.77872,34.08738],[131.77622,34.08858],[131.77449,34.08925],[131.76962,34.09065],[131.76698,34.09112],[131.76319,34.09165],[131.75811,34.09199],[131.75512,34.0919],[131.75338,34.0917],[131.74438,34.0901],[131.7325,34.08727],[131.72795,34.08627],[131.70466,34.08187],[131.7011,34.08129],[131.69762,34.08096],[131.6951,34.08089],[131.68171,34.08093],[131.67957,34.08087],[131.67288,34.08037],[131.66736,34.07969],[131.65976,34.0786],[131.63647,34.07548],[131.61325,34.07248],[131.61049,34.0723],[131.60154,34.07203],[131.59831,34.07217],[131.57792,34.07391],[131.53748,34.07769],[131.50514,34.08177],[131.49377,34.08333],[131.49151,34.08387],[131.48941,34.0847],[131.48187,34.08706],[131.47458,34.08951],[131.44291,34.10076],[131.43557,34.10255],[131.43076,34.10333],[131.42738,34.10351],[131.42466,34.10333],[131.42317,34.10315],[131.41849,34.10238],[131.41411,34.10128],[131.40978,34.09955],[131.40283,34.09624],[131.39907,34.09434]],[[131.39907,34.09434],[131.3954,34.09226]],[[131.16218,34.05227],[131.15811,34.05396]],[[131.15811,34.05396],[131.13944,34.06168],[131.13458,34.06356],[131.12846,34.06549],[131.12494,34.06645],[131.1226,34.06692],[131.10576,34.069],[131.05965,34.07431],[131.05337,34.07499],[131.04828,34.07543],[131.04555,34.07561],[131.04344,34.07561],[131.03919,34.07546],[131.0368,34.07527],[131.03258,34.07478],[131.02676,34.0737],[131.02064,34.07211],[131.01645,34.07085],[130.99964,34.06531],[130.9881,34.06134],[130.98594,34.06049],[130.98359,34.05944],[130.98123,34.05816],[130.9782,34.05624],[130.97502,34.05373],[130.97331,34.05215],[130.97204,34.05084],[130.97099,34.04962],[130.96867,34.0466],[130.96391,34.03969],[130.9549,34.0262],[130.95384,34.0241],[130.95259,34.02101],[130.95135,34.01679],[130.94955,34.00889]],[[130.88528,33.88655],[130.88441,33.88694],[130.8831,33.88731],[130.88103,33.88768]],[[130.94955,34.00889],[130.94868,34.00525]],[[130.88103,33.88768],[130.87262,33.88929],[130.86815,33.88995],[130.8649,33.89017],[130.86284,33.89004],[130.86147,33.88981],[130.85973,33.88939],[130.85678,33.88852],[130.85077,33.88596],[130.84859,33.88479],[130.82872,33.8693],[130.82491,33.86666],[130.82144,33.86443],[130.78918,33.84543],[130.78465,33.84249],[130.77564,33.83591],[130.77124,33.83228],[130.76789,33.82933],[130.76495,33.82643],[130.76028,33.82163],[130.74674,33.80628],[130.74023,33.79759],[130.73639,33.79311],[130.73475,33.79146],[130.73332,33.79037],[130.73165,33.78926],[130.72808,33.78712],[130.72575,33.78601],[130.72354,33.78519],[130.72209,33.78469],[130.71813,33.78357],[130.7095,33.78166],[130.70439,33.78038],[130.7009,33.77916],[130.69823,33.77801],[130.69648,33.77711],[130.68788,33.77224],[130.68582,33.7709],[130.68316,33.76897],[130.67853,33.76503],[130.66723,33.75487],[130.66431,33.75234],[130.66056,33.7494],[130.65798,33.74764],[130.65507,33.74581],[130.65163,33.744],[130.6464,33.74165],[130.64326,33.74051],[130.63935,33.73917],[130.61921,33.73388],[130.61575,33.73285],[130.61191,33.73145],[130.60948,33.73047],[130.60477,33.72828],[130.60024,33.72562],[130.59758,33.72381],[130.59264,33.71993],[130.58716,33.71529],[130.5851,33.71367],[130.58256,33.71192],[130.52221,33.67851],[130.51614,33.67509],[130.51205,33.67266],[130.5076,33.66967],[130.50559,33.66822],[130.48189,33.64947],[130.48019,33.64802],[130.47352,33.64194],[130.46347,33.63296],[130.46032,33.63021],[130.45879,33.62904],[130.45715,33.62795],[130.45502,33.62669],[130.43169,33.61336],[130.42974,33.6121],[130.42728,33.61017],[130.42587,33.60872],[130.42513,33.60781],[130.4236,33.6056],[130.4228,33.6041],[130.42237,33.6031],[130.42202,33.60201],[130.42178,33.60095],[130.42164,33.59978],[130.42129,33.5933],[130.42127,33.59139]],[[130.42127,33.59139],[130.42108,33.58776]],[[133.67663,34.56397],[133.6637,34.55569],[133.66042,34.55384],[133.65887,34.55311],[133.6547,34.5515],[133.65141,34.55049],[133.64797,34.54971],[133.64325,34.54903],[133.64007,34.54881],[133.63678,34.5488],[133.63196,34.54914],[133.62431,34.55025],[133.61982,34.55082],[133.61444,34.55135],[133.60461,34.55169],[133.5997,34.55152],[133.59804,34.55133],[133.59526,34.55089],[133.59267,34.55033],[133.59041,34.54976],[133.58665,34.54864],[133.55272,34.53605],[133.55036,34.53537],[133.54494,34.53405],[133.54233,34.53348],[133.53812,34.53272],[133.53501,34.53222],[133.53035,34.53163],[133.5182,34.53064],[133.51172,34.53001],[133.50611,34.52926],[133.49738,34.52848],[133.49527,34.52821],[133.48782,34.52685],[133.48452,34.5261],[133.48179,34.52539],[133.47715,34.52402],[133.46237,34.5188],[133.46012,34.51788],[133.45596,34.51589],[133.4441,34.50968],[133.43788,34.50633],[133.43242,34.50351],[133.43179,34.50325],[133.42943,34.50196],[133.4262,34.50044],[133.42293,34.49924],[133.42066,34.49855],[133.41625,34.49753],[133.40276,34.49491],[133.39224,34.49297],[133.3893,34.49258],[133.38327,34.49247]],[[133.38327,34.49247],[133.37981,34.49243],[133.37812,34.49232],[133.37477,34.49198],[133.37239,34.49158]],[[130.94868,34.00525],[130.9478,34.00143],[130.94737,33.9992],[130.94718,33.99727],[130.94716,33.99508],[130.94725,33.99369],[130.94752,33.99124],[130.94801,33.98893],[130.94866,33.98681],[130.95024,33.98313],[130.9512,33.98148],[130.9523,33.9798],[130.96824,33.95947],[130.97363,33.95245],[130.97583,33.94899],[130.97718,33.94599],[130.97809,33.94287],[130.97841,33.94118],[130.97869,33.93865],[130.97866,33.93501],[130.97842,33.93288],[130.978,33.93075],[130.97727,33.92829],[130.97639,33.92598],[130.97543,33.92394],[130.97434,33.92205],[130.97288,33.91993],[130.97232,33.91915],[130.97107,33.91768],[130.94628,33.89358],[130.94441,33.89195],[130.94141,33.88979],[130.93853,33.88808],[130.93627,33.88693],[130.93324,33.88566],[130.93083,33.88488],[130.92661,33.8838],[130.92407,33.88337],[130.92176,33.88311],[130.91992,33.88298],[130.9029,33.88273],[130.90012,33.88276],[130.89849,33.88288],[130.89661,33.88316],[130.88929,33.88511],[130.88745,33.88569],[130.88528,33.88655]]]}}