{"type":"Feature","properties":{"id":"西日本旅客鉄道_宇野線","name":"宇野線","operator":"西日本旅客鉄道","railType":"普通鉄道(JR)","operatorType":"JR在来線","category":"rail","attribution":"国土数値情報（鉄道データ）国土交通省"},"geometry":{"type":"MultiLineString","coordinates":[[[133.91902,34.66843],[133.91703,34.66552]],[[133.91808,34.53204],[133.92095,34.53213]],[[133.89247,34.53159],[133.89364,34.53117]],[[133.92095,34.53213],[133.9236,34.53223],[133.93234,34.5343],[133.93276,34.53431],[133.93345,34.53419],[133.93436,34.5338],[133.9348,34.53351],[133.93538,34.5329],[133.93564,34.53242],[133.93642,34.52838],[133.9382,34.52406],[133.93943,34.52072],[133.93987,34.51983],[133.9406,34.51869],[133.94108,34.5181],[133.94256,34.51661]],[[133.95388,34.49449],[133.95374,34.49565]],[[133.91703,34.66552],[133.91616,34.66435],[133.91527,34.66354],[133.91424,34.66291],[133.91241,34.66222],[133.9118,34.66189],[133.91137,34.66158],[133.9109,34.6611],[133.91037,34.66027],[133.91014,34.65933],[133.91013,34.65866],[133.91077,34.64769]],[[133.91082,34.64683],[133.91092,34.64472],[133.91087,34.6436],[133.91076,34.64302],[133.91049,34.64228],[133.91007,34.64159],[133.90909,34.64047],[133.90018,34.63174]],[[133.94256,34.51661],[133.94367,34.5155]],[[133.94367,34.5155],[133.94542,34.51363],[133.9461,34.51261],[133.95032,34.50366],[133.95243,34.49955],[133.95306,34.49794],[133.95374,34.49565]],[[133.91082,34.64683],[133.91077,34.64769]],[[133.89364,34.53117],[133.89617,34.53027],[133.89807,34.52982],[133.89917,34.52971],[133.90362,34.52962],[133.90444,34.52971],[133.90561,34.52999],[133.90859,34.53127],[133.91038,34.53169],[133.91206,34.53186],[133.91808,34.53204]],[[133.90018,34.63174],[133.89945,34.63102]],[[133.82794,34.59174],[133.82593,34.57818]],[[133.83653,34.55151],[133.83866,34.55086],[133.83978,34.55078],[133.84084,34.55097],[133.84588,34.55247],[133.84689,34.55254],[133.84762,34.55245],[133.84855,34.55221],[133.84905,34.55196],[133.86063,34.54463]],[[133.83228,34.60141],[133.83105,34.60063],[133.83011,34.59988],[133.82947,34.59909],[133.82917,34.59854],[133.82891,34.59784],[133.82874,34.59698],[133.82812,34.59297]],[[133.88101,34.53589],[133.89247,34.53159]],[[133.83377,34.55246],[133.83653,34.55151]],[[133.8503,34.60558],[133.83992,34.60472],[133.8381,34.60448],[133.83732,34.6043],[133.83647,34.60399],[133.83445,34.60281]],[[133.82593,34.57818],[133.8256,34.57578]],[[133.89945,34.63102],[133.88399,34.61583],[133.88107,34.61308],[133.88008,34.61236],[133.87873,34.61158],[133.87293,34.60892]],[[133.86063,34.54463],[133.86183,34.54386]],[[133.86183,34.54386],[133.86449,34.54224],[133.86522,34.5419],[133.87282,34.53893],[133.87782,34.53708]],[[133.85182,34.6057],[133.8503,34.60558]],[[133.82812,34.59297],[133.82794,34.59174]],[[133.87782,34.53708],[133.88101,34.53589]],[[133.83445,34.60281],[133.83228,34.60141]],[[133.87015,34.60768],[133.86835,34.60713],[133.86707,34.60696],[133.85182,34.6057]],[[133.87293,34.60892],[133.87015,34.60768]],[[133.8256,34.57578],[133.8249,34.5715],[133.82414,34.56613],[133.82404,34.56458],[133.82408,34.56373],[133.82441,34.56227],[133.82498,34.56106],[133.82644,34.55861],[133.82689,34.5577]],[[133.82689,34.5577],[133.82857,34.5553],[133.82933,34.55457],[133.83058,34.55369],[133.83157,34.55317],[133.83377,34.55246]]]}}