{"type":"Feature","properties":{"id":"西日本旅客鉄道_氷見線","name":"氷見線","operator":"西日本旅客鉄道","railType":"普通鉄道(JR)","operatorType":"JR在来線","category":"rail","attribution":"国土数値情報（鉄道データ）国土交通省"},"geometry":{"type":"MultiLineString","coordinates":[[[137.05835,36.79194],[137.05854,36.79232],[137.05859,36.79262]],[[137.05859,36.79262],[137.05864,36.79329],[137.05856,36.79372],[137.05843,36.79412],[137.05807,36.79469],[137.05203,36.80104],[137.05111,36.80221],[137.05092,36.80264],[137.0507,36.80369],[137.05071,36.8049]],[[137.02795,36.75028],[137.02844,36.75287],[137.02905,36.75396],[137.03026,36.75557],[137.03389,36.75955],[137.03491,36.76089],[137.03597,36.76234],[137.03944,36.76764]],[[137.03663,36.8168],[137.03444,36.8176],[137.02006,36.82563],[137.0186,36.82622],[137.01501,36.827],[137.0145,36.82719],[137.01348,36.82779]],[[137.03944,36.76764],[137.0402,36.76879]],[[137.01348,36.82779],[137.01215,36.82864]],[[137.0402,36.76879],[137.04144,36.77067],[137.04228,36.77214],[137.04333,36.77446],[137.04484,36.78143],[137.04516,36.78226],[137.04545,36.78264],[137.04573,36.78289],[137.04968,36.78544],[137.05712,36.79072],[137.05761,36.79112],[137.05835,36.79194]],[[137.02784,36.74943],[137.02765,36.74836],[137.02738,36.74779],[137.02672,36.74684],[137.02341,36.74262],[137.02264,36.74197],[137.02191,36.7415],[137.02136,36.74127],[137.01995,36.74099],[137.01809,36.74075],[137.01574,36.74074]],[[137.02795,36.75028],[137.02784,36.74943]],[[136.99113,36.84873],[136.99031,36.85048]],[[137.05071,36.8049],[137.05079,36.80581]],[[137.03815,36.81634],[137.03663,36.8168]],[[137.01215,36.82864],[137.00757,36.8318],[137.00727,36.83211],[137.00388,36.83677],[137.00246,36.83853],[136.99609,36.84475],[136.99329,36.84698],[136.99154,36.84824],[136.99113,36.84873]],[[137.05079,36.80581],[137.0509,36.80754],[137.05074,36.8081],[137.0501,36.80885],[137.04969,36.80918],[137.04757,36.81051],[137.04727,36.8108],[137.04702,36.81117],[137.0467,36.8119],[137.04623,36.81245],[137.04475,36.81347],[137.04181,36.81474],[137.04006,36.81566],[137.03815,36.81634]],[[137.01574,36.74074],[137.01427,36.74082]]]}}