{"type":"Feature","properties":{"id":"西日本旅客鉄道_福知山線","name":"福知山線","operator":"西日本旅客鉄道","railType":"普通鉄道(JR)","operatorType":"JR在来線","category":"rail","attribution":"国土数値情報（鉄道データ）国土交通省"},"geometry":{"type":"MultiLineString","coordinates":[[[135.11982,35.29626],[135.12358,35.29544]],[[135.11982,35.29626],[135.11731,35.29688]],[[135.09477,35.08775],[135.09357,35.08799]],[[135.19169,34.92937],[135.19117,34.92773]],[[135.1746,35.03715],[135.17317,35.03358],[135.17254,35.03282],[135.1716,35.03206],[135.16182,35.02531],[135.16075,35.02482],[135.15692,35.02377],[135.15639,35.02341],[135.1557,35.02251]],[[135.09555,35.16878],[135.08541,35.17024],[135.08402,35.17036],[135.08325,35.17034],[135.08078,35.16987],[135.07102,35.16747],[135.06997,35.16707],[135.0692,35.16647],[135.0685,35.16571],[135.06633,35.16199],[135.06558,35.16048],[135.064,35.15393]],[[135.04825,35.08366],[135.04907,35.08323]],[[135.07829,35.12649],[135.0825,35.12393],[135.08373,35.12302],[135.08414,35.12249],[135.08436,35.1219],[135.08446,35.12134],[135.08465,35.11627],[135.08457,35.11565],[135.08434,35.1151],[135.08394,35.11447],[135.08358,35.11411],[135.07925,35.11194],[135.07719,35.11023],[135.07642,35.10973],[135.07528,35.10928],[135.07458,35.1091],[135.0711,35.10853],[135.06953,35.10817],[135.06747,35.10751],[135.06502,35.10646],[135.06323,35.10536],[135.06085,35.10372],[135.0599,35.10285],[135.05864,35.10122],[135.05491,35.09543],[135.04824,35.09021],[135.04756,35.08959],[135.04723,35.08914],[135.0471,35.08866],[135.04708,35.0882],[135.04743,35.08487],[135.04766,35.08433],[135.04825,35.08366]],[[135.15331,34.99109],[135.15365,34.9879],[135.15374,34.98621]],[[135.2089,34.90961],[135.20833,34.91067]],[[135.16875,35.07211],[135.16983,35.0709],[135.17028,35.07057],[135.17159,35.07018],[135.1741,35.06983],[135.17501,35.06959],[135.17602,35.0689],[135.17657,35.06816],[135.17733,35.06655],[135.17743,35.06598],[135.17737,35.06448],[135.17678,35.05938],[135.17688,35.05819],[135.17711,35.05712]],[[135.1348,35.24414],[135.13339,35.24333]],[[135.13339,35.24333],[135.13236,35.24259],[135.13147,35.24166],[135.1309,35.24056],[135.13069,35.23946],[135.13139,35.22391],[135.13357,35.21592],[135.13386,35.21475],[135.13391,35.21386],[135.13379,35.21324],[135.13321,35.21196],[135.13051,35.20847]],[[135.15534,34.9778],[135.15572,34.97612]],[[135.17501,35.03813],[135.1746,35.03715]],[[135.07596,35.1279],[135.07829,35.12649]],[[135.0635,35.15157],[135.0633,35.15069],[135.06322,35.1496],[135.06339,35.14898],[135.06407,35.14737],[135.07435,35.12945],[135.0746,35.12907],[135.07512,35.12853],[135.07596,35.1279]],[[135.12358,35.29544],[135.12487,35.29498],[135.12607,35.29435],[135.12743,35.29306],[135.12798,35.29215],[135.12949,35.28858],[135.12976,35.28816],[135.13021,35.28772],[135.13112,35.28716],[135.13155,35.28699],[135.13467,35.28603],[135.13549,35.28571],[135.13654,35.28518],[135.13742,35.2845],[135.13777,35.28411],[135.13813,35.28343],[135.13824,35.28243],[135.13812,35.28186],[135.13792,35.28138],[135.13679,35.2794],[135.13646,35.27842],[135.13643,35.27785],[135.1368,35.277],[135.13742,35.27628],[135.13877,35.27524],[135.14156,35.27369],[135.14285,35.27281],[135.14489,35.27207],[135.1455,35.27181],[135.14615,35.27141],[135.14675,35.27073],[135.14717,35.26961],[135.14711,35.26775],[135.1486,35.26013],[135.14856,35.25971],[135.1484,35.25931],[135.14771,35.25797],[135.14758,35.25728],[135.1476,35.25684],[135.14776,35.25643],[135.14826,35.25569],[135.14971,35.25403],[135.15004,35.25354],[135.15017,35.25319],[135.15021,35.25274],[135.14996,35.2517],[135.14967,35.25122],[135.14909,35.25074],[135.14593,35.24908],[135.14458,35.2485],[135.1392,35.24666],[135.1348,35.24414]],[[135.15239,34.99749],[135.15235,34.99637]],[[135.15374,34.98621],[135.15321,34.98388],[135.15317,34.98296],[135.15339,34.9823],[135.1546,34.98021],[135.15492,34.97944],[135.15534,34.9778]],[[135.15235,34.99637],[135.1523,34.99486],[135.15243,34.9937],[135.15296,34.99229],[135.15331,34.99109]],[[135.15572,34.97612],[135.15589,34.97518],[135.15586,34.9743],[135.1556,34.97354],[135.15465,34.97178],[135.15369,34.97085],[135.14761,34.96682],[135.14637,34.9659],[135.14584,34.96523],[135.14437,34.96296],[135.1441,34.96242],[135.14399,34.96196],[135.14406,34.96108],[135.14526,34.95649],[135.1455,34.95582],[135.14847,34.95121],[135.14907,34.95052],[135.14967,34.95002],[135.15072,34.9494],[135.15222,34.94882],[135.15491,34.94795]],[[135.19117,34.92773],[135.19051,34.92529],[135.19049,34.92444],[135.19069,34.92369],[135.19087,34.92333],[135.19138,34.92267],[135.19201,34.92214],[135.19326,34.92148],[135.20326,34.91746],[135.20447,34.91688],[135.20505,34.91642],[135.20564,34.9157],[135.20833,34.91067]],[[135.15699,34.94732],[135.1608,34.94602],[135.1614,34.94557],[135.16403,34.94299],[135.16477,34.94246],[135.16805,34.94072],[135.17277,34.93836],[135.17471,34.93747],[135.17604,34.93706],[135.17832,34.93652],[135.1891,34.93433],[135.18999,34.93407],[135.19059,34.93379],[135.19136,34.93321],[135.19172,34.93279],[135.19193,34.93247],[135.19217,34.9317],[135.1921,34.93078],[135.19169,34.92937]],[[135.15491,34.94795],[135.15699,34.94732]],[[135.15331,34.99109],[135.15351,34.99076],[135.15371,34.98999],[135.15403,34.98745],[135.15404,34.98726],[135.15374,34.98621]],[[135.05072,35.08235],[135.04907,35.08323]],[[135.1542,35.02141],[135.15184,35.02014],[135.15092,35.01944],[135.15046,35.01904],[135.14993,35.01841],[135.14979,35.01819],[135.14959,35.0175],[135.14965,35.01667],[135.14987,35.01605],[135.15118,35.01463],[135.15169,35.01388],[135.15189,35.0133],[135.15226,35.01098],[135.15285,35.00601],[135.15276,35.00322],[135.15239,34.99749]],[[135.16838,35.07269],[135.16875,35.07211]],[[135.12961,35.20751],[135.12825,35.206],[135.12552,35.20327],[135.12493,35.20253],[135.11866,35.19324],[135.11806,35.19212],[135.11794,35.19127],[135.11812,35.19029],[135.11838,35.1898],[135.1203,35.187],[135.12046,35.18652],[135.12058,35.18566],[135.11808,35.17498],[135.11678,35.16987],[135.11635,35.16915],[135.1161,35.16883],[135.11549,35.16832],[135.114,35.16747],[135.11254,35.1669],[135.1112,35.16662],[135.10845,35.16685],[135.0991,35.16826]],[[135.17711,35.05712],[135.17787,35.05527]],[[135.1557,35.02251],[135.1542,35.02141]],[[135.17787,35.05527],[135.1788,35.05397],[135.17942,35.05345],[135.18037,35.05284],[135.18076,35.05241],[135.18114,35.0516],[135.18122,35.05111],[135.18118,35.05065],[135.18064,35.04937],[135.17719,35.04298],[135.17568,35.03977],[135.17501,35.03813]],[[135.0991,35.16826],[135.09555,35.16878]],[[135.13051,35.20847],[135.12961,35.20751]],[[135.064,35.15393],[135.0635,35.15157]],[[135.09477,35.08775],[135.10178,35.08625],[135.10237,35.08604],[135.10327,35.08532],[135.10744,35.08071],[135.10832,35.07983],[135.11048,35.0784],[135.11241,35.07723],[135.11282,35.0771],[135.11363,35.07702],[135.11456,35.07707],[135.11613,35.07755],[135.11673,35.07788],[135.11799,35.07898],[135.1186,35.07929],[135.11909,35.07941],[135.12026,35.07952],[135.12275,35.07964],[135.1232,35.07985],[135.12519,35.08131],[135.12554,35.08147],[135.12593,35.08153],[135.1321,35.0815],[135.13307,35.08133],[135.13401,35.08087],[135.13483,35.08029],[135.13538,35.07979],[135.13667,35.07828],[135.13709,35.07797],[135.13803,35.07751],[135.13938,35.07731],[135.14004,35.07733],[135.14076,35.07747],[135.14461,35.07899],[135.14928,35.08013],[135.15204,35.08011],[135.15459,35.08072],[135.15566,35.08072],[135.15664,35.08043],[135.16149,35.07817],[135.162,35.07779],[135.16302,35.07653],[135.16376,35.07608],[135.16595,35.07539],[135.16659,35.0751],[135.16727,35.07455],[135.16838,35.07269]],[[135.09357,35.08799],[135.09098,35.08846],[135.08973,35.08853],[135.08881,35.08843],[135.08796,35.08822],[135.08443,35.08694],[135.07852,35.08604],[135.0752,35.08441],[135.07478,35.08434],[135.07298,35.08451],[135.07098,35.08481],[135.06602,35.08568],[135.06508,35.08564],[135.06434,35.08541],[135.06355,35.08499],[135.06166,35.08335],[135.06066,35.08283],[135.06012,35.08268],[135.05899,35.08262],[135.05635,35.08286],[135.05537,35.08265],[135.05343,35.08187],[135.05312,35.08184],[135.05243,35.08185],[135.05169,35.08199],[135.05119,35.08211],[135.05072,35.08235]],[[135.43066,34.73204],[135.4329,34.73167]],[[135.42846,34.73245],[135.43066,34.73204]],[[135.42497,34.75173],[135.42527,34.74993]],[[135.41042,34.8247],[135.4092,34.82508]],[[135.42497,34.75173],[135.42276,34.7632]],[[135.42527,34.74993],[135.42674,34.74225]],[[135.34013,34.81168],[135.34156,34.81103]],[[135.42247,34.7648],[135.42163,34.76944],[135.42188,34.77835],[135.4218,34.78009]],[[135.4218,34.78009],[135.42175,34.78114]],[[135.42846,34.73245],[135.4273,34.73291],[135.42661,34.73333],[135.42605,34.73398],[135.42579,34.73442],[135.42567,34.73484],[135.42564,34.73575],[135.42662,34.74054],[135.42674,34.74128],[135.42674,34.74225]],[[135.42674,34.74225],[135.42644,34.74133],[135.42587,34.74045],[135.42326,34.73765],[135.42236,34.73652],[135.422,34.73571],[135.4219,34.73481],[135.42223,34.73399],[135.42255,34.73362],[135.423,34.73333],[135.42398,34.73307],[135.42577,34.73274],[135.42767,34.73248],[135.42846,34.73245]],[[135.37318,34.81665],[135.37147,34.81678],[135.37008,34.81678],[135.36929,34.81663],[135.36784,34.81615],[135.36262,34.81422],[135.35429,34.80993],[135.3534,34.80959],[135.35264,34.80954],[135.35191,34.8096],[135.34496,34.81031],[135.34253,34.81069],[135.34156,34.81103]],[[135.4092,34.82508],[135.40739,34.8256],[135.4059,34.82562],[135.40383,34.82503],[135.40238,34.82472],[135.39741,34.82392],[135.39532,34.82272],[135.38984,34.81908],[135.38853,34.81829],[135.38738,34.81784],[135.38216,34.81626],[135.38171,34.81617],[135.38066,34.81618],[135.37483,34.81655]],[[135.37483,34.81655],[135.37318,34.81665]],[[135.42175,34.78114],[135.4213,34.7891],[135.41971,34.79976]],[[135.41971,34.79976],[135.41937,34.80188]],[[135.42276,34.7632],[135.42247,34.7648]],[[135.41937,34.80188],[135.41916,34.8033],[135.41873,34.80524],[135.41845,34.80605],[135.41497,34.81395],[135.41484,34.81501],[135.41468,34.82043],[135.41442,34.82128],[135.41363,34.82272],[135.41313,34.82337],[135.41198,34.82408],[135.41042,34.8247]],[[135.3061,34.85499],[135.30534,34.856]],[[135.3061,34.85499],[135.30676,34.85388],[135.30715,34.85259],[135.30858,34.83662],[135.30888,34.82771]],[[135.32611,34.81966],[135.32734,34.82014],[135.32869,34.82033],[135.33113,34.82001],[135.33191,34.81978],[135.33256,34.81947],[135.33336,34.81893],[135.33399,34.81826],[135.33785,34.81305],[135.33893,34.81226],[135.34013,34.81168]],[[135.25662,34.86728],[135.25499,34.86727]],[[135.2312,34.88829],[135.22863,34.88909]],[[135.30534,34.856],[135.30344,34.85827],[135.30214,34.85935],[135.29986,34.86062],[135.29893,34.861],[135.29639,34.86173],[135.29414,34.86209],[135.27798,34.86369],[135.26431,34.86749],[135.26327,34.86756],[135.25922,34.86731],[135.25662,34.86728]],[[135.32454,34.81902],[135.32611,34.81966]],[[135.30888,34.82771],[135.30889,34.82675]],[[135.22863,34.88909],[135.22744,34.88945],[135.22696,34.88972],[135.2159,34.89789],[135.21482,34.89879],[135.21397,34.90005],[135.2089,34.90961]],[[135.25499,34.86727],[135.254,34.86738],[135.25281,34.86783],[135.25217,34.8682],[135.2518,34.86851],[135.25135,34.86905],[135.25081,34.86998],[135.25048,34.87091],[135.2499,34.87304],[135.2492,34.87467],[135.24893,34.87565],[135.24871,34.87784],[135.24849,34.87846],[135.24785,34.87933],[135.24714,34.88007],[135.24244,34.88439],[135.24137,34.88516],[135.2405,34.88557],[135.2312,34.88829]],[[135.30889,34.82675],[135.30884,34.82546],[135.30904,34.82432],[135.30946,34.82306],[135.3101,34.82188],[135.31105,34.82068],[135.31171,34.82004],[135.31314,34.81893],[135.31387,34.81851],[135.31532,34.81786],[135.31657,34.81747],[135.31722,34.81732],[135.3182,34.81723],[135.3193,34.81724],[135.32052,34.81739],[135.3213,34.81764],[135.32454,34.81902]]]}}