{"type":"Feature","properties":{"id":"西日本旅客鉄道_おおさか東線","name":"おおさか東線","operator":"西日本旅客鉄道","railType":"普通鉄道(JR)","operatorType":"JR在来線","category":"rail","attribution":"国土数値情報（鉄道データ）国土交通省"},"geometry":{"type":"MultiLineString","coordinates":[[[135.564,34.68798],[135.56968,34.68792],[135.5705,34.68775],[135.57145,34.68735],[135.57217,34.68684],[135.57265,34.68624],[135.57304,34.68549],[135.5732,34.68477],[135.57319,34.68389],[135.57244,34.67968]],[[135.56721,34.62803],[135.56817,34.62717],[135.56907,34.62663]],[[135.56907,34.62663],[135.5699,34.62614],[135.57535,34.62435],[135.58121,34.6234],[135.58288,34.6229],[135.58364,34.62259]],[[135.5705,34.65056],[135.57017,34.64937]],[[135.57017,34.64937],[135.5673,34.63908]],[[135.57246,34.65942],[135.57249,34.6583],[135.57243,34.65789]],[[135.57243,34.65789],[135.57229,34.65692],[135.5705,34.65056]],[[135.57229,34.66507],[135.57234,34.66359]],[[135.57234,34.66359],[135.57246,34.65942]],[[135.57244,34.67968],[135.57219,34.67802]],[[135.57219,34.67802],[135.57197,34.67628],[135.57197,34.67493],[135.57229,34.66507]],[[135.56694,34.63778],[135.56527,34.63161],[135.56523,34.63097],[135.5654,34.63022],[135.5659,34.62935],[135.56721,34.62803]],[[135.5673,34.63908],[135.56694,34.63778]],[[135.50129,34.73261],[135.50137,34.73378],[135.50153,34.73444],[135.50196,34.7354]],[[135.50196,34.7354],[135.5047,34.74099],[135.50567,34.74343],[135.50668,34.74561],[135.50702,34.74659],[135.50758,34.7478],[135.50801,34.74827],[135.50849,34.7486],[135.5099,34.74923],[135.51037,34.74933]],[[135.51037,34.74933],[135.51103,34.74944],[135.51222,34.74943]],[[135.51222,34.74943],[135.51263,34.74938],[135.51359,34.74908],[135.51415,34.74871],[135.51491,34.74784],[135.5153,34.7474],[135.51739,34.74364],[135.51931,34.74139]],[[135.51931,34.74139],[135.52032,34.74022]],[[135.52032,34.74022],[135.52337,34.73682],[135.52398,34.73593],[135.53024,34.72436]],[[135.53024,34.72436],[135.53096,34.72305]],[[135.53096,34.72305],[135.53185,34.72185],[135.54095,34.71083],[135.54122,34.71037],[135.54151,34.70943],[135.54143,34.70757]],[[135.54143,34.70757],[135.54135,34.70611]],[[135.54135,34.70611],[135.54095,34.70062],[135.54104,34.69986],[135.54187,34.69781],[135.54297,34.69638],[135.54326,34.69589],[135.54436,34.69338]],[[135.54436,34.69338],[135.54492,34.69283],[135.5459,34.6922]],[[135.56227,34.68802],[135.564,34.68798]],[[135.58364,34.62259],[135.58523,34.62208]]]}}