{"type":"Feature","properties":{"id":"西武鉄道_西武園線","name":"西武園線","operator":"西武鉄道","railType":"普通鉄道","operatorType":"民営","category":"rail","attribution":"国土数値情報（鉄道データ）国土交通省"},"geometry":{"type":"MultiLineString","coordinates":[[[139.44845,35.76791],[139.44934,35.76756]],[[139.44934,35.76756],[139.45175,35.76665],[139.45249,35.76645],[139.45334,35.76637],[139.45434,35.76648],[139.459,35.76736],[139.46322,35.76804],[139.46453,35.76804],[139.46509,35.76793],[139.46568,35.76766],[139.46634,35.76719],[139.46669,35.76684],[139.46694,35.76636],[139.46713,35.76575],[139.46708,35.76464]],[[139.46708,35.76464],[139.46604,35.76249],[139.46591,35.7609]],[[139.46581,35.75903],[139.46591,35.7609]]]}}