{"type":"Feature","properties":{"id":"西日本旅客鉄道_小浜線","name":"小浜線","operator":"西日本旅客鉄道","railType":"普通鉄道(JR)","operatorType":"JR在来線","category":"rail","attribution":"国土数値情報（鉄道データ）国土交通省"},"geometry":{"type":"MultiLineString","coordinates":[[[136.0674,35.61759],[136.06571,35.61601],[136.06476,35.61539],[136.06398,35.61501],[136.06271,35.61457],[136.05677,35.61334],[136.05617,35.61314],[136.05537,35.61265],[136.05157,35.60944],[136.05091,35.60898],[136.05029,35.6087],[136.04932,35.60851],[136.04854,35.60845],[136.04779,35.60849],[136.04733,35.6086],[136.04176,35.61058],[136.04088,35.61075],[136.03852,35.61087],[136.03763,35.61103],[136.03656,35.61152],[136.03142,35.61562],[136.02838,35.61682]],[[136.07511,35.6307],[136.07516,35.62943],[136.07508,35.62891],[136.0749,35.62844],[136.07151,35.62182],[136.07125,35.62145],[136.06811,35.61833]],[[136.02597,35.61777],[136.02463,35.61837],[136.0227,35.61955],[136.02155,35.62009],[136.01618,35.62151],[136.01566,35.62171],[136.01367,35.6229],[136.00914,35.62432],[136.00504,35.626],[136.00255,35.62672],[136.00068,35.62768],[135.99997,35.62796],[135.99896,35.62819],[135.99813,35.62817],[135.99714,35.62799],[135.99599,35.62743],[135.99509,35.62666],[135.99459,35.62584],[135.99452,35.62552],[135.99455,35.62497],[135.99527,35.62274],[135.99522,35.6216],[135.99497,35.62091],[135.99251,35.61737],[135.99197,35.61682],[135.99122,35.61622],[135.99,35.6155],[135.98631,35.61428]],[[136.06811,35.61833],[136.0674,35.61759]],[[135.98631,35.61428],[135.98503,35.61386]],[[136.02838,35.61682],[136.02597,35.61777]],[[136.07518,35.64361],[136.07681,35.64516],[136.07788,35.64582]],[[136.07518,35.64361],[136.07454,35.64262],[136.07334,35.63968],[136.07313,35.63851],[136.07313,35.63788],[136.07356,35.63458],[136.07511,35.6307]],[[135.8667,35.50543],[135.86636,35.50657],[135.86627,35.50728],[135.86714,35.51178],[135.86754,35.51256],[135.86785,35.51289],[135.86871,35.51364],[135.86926,35.51396],[135.87215,35.51489],[135.87817,35.51663],[135.87875,35.51678],[135.87982,35.51691],[135.88078,35.5169],[135.88212,35.51657],[135.88888,35.51377],[135.89074,35.51323],[135.89203,35.51321],[135.89309,35.51348],[135.89441,35.5142],[135.89608,35.51559]],[[135.4513,35.48604],[135.44925,35.4859]],[[135.90978,35.58532],[135.9101,35.5865],[135.91151,35.58954],[135.91213,35.59056],[135.9178,35.59653],[135.91898,35.59761],[135.92011,35.59842],[135.92443,35.60094],[135.92652,35.60212],[135.92785,35.60277],[135.92958,35.60332],[135.93572,35.60498]],[[135.61984,35.48265],[135.61825,35.48276]],[[135.86719,35.50428],[135.8691,35.49943],[135.86987,35.49723],[135.86988,35.49596],[135.86968,35.49151],[135.8685,35.48612]],[[135.90955,35.5845],[135.90978,35.58532]],[[135.90643,35.53263],[135.907,35.53474],[135.90706,35.53531],[135.90693,35.53785],[135.90707,35.53924],[135.90748,35.54054],[135.90891,35.54359],[135.90923,35.54481],[135.90976,35.5528],[135.9095,35.5548]],[[135.74665,35.49149],[135.75665,35.48959],[135.78033,35.48536]],[[135.50047,35.4818],[135.4993,35.48137]],[[135.98503,35.61386],[135.97816,35.6116],[135.97742,35.61152],[135.97655,35.61156],[135.97184,35.61232],[135.971,35.61271],[135.97047,35.61305],[135.9698,35.61371],[135.96914,35.61458],[135.96813,35.61532],[135.96682,35.61592],[135.96329,35.61708],[135.96257,35.61714],[135.96184,35.61704],[135.96095,35.61673],[135.95921,35.61562],[135.95884,35.61531],[135.95847,35.61479],[135.95755,35.61305],[135.95708,35.61248],[135.95601,35.61175],[135.95533,35.61147],[135.95412,35.61125],[135.95119,35.61141],[135.95018,35.61129],[135.9496,35.61113],[135.94881,35.61079],[135.94738,35.60995],[135.9446,35.60767],[135.94389,35.60728],[135.94244,35.60681],[135.93751,35.60549]],[[135.54887,35.4861],[135.54723,35.48627]],[[135.9062,35.53171],[135.90643,35.53263]],[[135.86823,35.48502],[135.8685,35.48612]],[[135.74464,35.4918],[135.74665,35.49149]],[[135.90933,35.55605],[135.90777,35.56689],[135.90771,35.57128],[135.90794,35.57895],[135.90955,35.5845]],[[135.52004,35.48859],[135.51706,35.48806],[135.51591,35.48775],[135.51203,35.48496],[135.51078,35.48441],[135.50961,35.48421],[135.50715,35.48434],[135.50578,35.48414],[135.50524,35.48395],[135.50297,35.48274],[135.50047,35.4818]],[[135.4993,35.48137],[135.49716,35.48071],[135.49634,35.48067],[135.49574,35.48082],[135.49551,35.48096],[135.49298,35.4828],[135.4925,35.48301],[135.49184,35.48316],[135.49091,35.48319],[135.48308,35.48282],[135.48196,35.4824],[135.47984,35.48113],[135.47856,35.48074],[135.47743,35.48067],[135.47659,35.48082],[135.476,35.48102],[135.46553,35.48622],[135.46395,35.48662],[135.46233,35.48686],[135.46078,35.48689],[135.4513,35.48604]],[[135.80645,35.47322],[135.80805,35.47298]],[[135.58251,35.48863],[135.5805,35.48863]],[[135.89608,35.51559],[135.89726,35.5165]],[[135.85659,35.4635],[135.86075,35.46271],[135.86195,35.4628],[135.86316,35.46318],[135.8647,35.46448],[135.86596,35.46575],[135.86681,35.46668],[135.86743,35.46765],[135.86829,35.46952],[135.86872,35.47099],[135.86969,35.47689],[135.86957,35.4777],[135.86803,35.48243],[135.86799,35.48341],[135.86823,35.48502]],[[135.93751,35.60549],[135.93572,35.60498]],[[135.66705,35.48079],[135.67213,35.48137],[135.67361,35.48137],[135.6749,35.48116],[135.6774,35.4803],[135.67807,35.48011],[135.67866,35.48004],[135.67959,35.48011],[135.68038,35.48027],[135.68323,35.48125],[135.68602,35.48121],[135.69145,35.48089],[135.69548,35.48076],[135.69636,35.48105],[135.69894,35.48236],[135.6996,35.48254],[135.70019,35.48259],[135.70135,35.48253],[135.70327,35.48219],[135.70762,35.48127]],[[135.66531,35.48062],[135.66705,35.48079]],[[135.9095,35.5548],[135.90933,35.55605]],[[135.70762,35.48127],[135.70847,35.48113]],[[135.52095,35.48873],[135.52004,35.48859]],[[135.78208,35.48503],[135.78908,35.48369],[135.79153,35.48298],[135.7926,35.48242],[135.79365,35.48159],[135.79865,35.47699],[135.80085,35.47507],[135.80135,35.47472],[135.80225,35.47426],[135.80353,35.47377],[135.80645,35.47322]],[[135.44925,35.4859],[135.44667,35.48589],[135.44385,35.48599],[135.44237,35.48574],[135.4399,35.48512],[135.43708,35.48465],[135.4363,35.48461],[135.43506,35.48474],[135.43185,35.48578],[135.43095,35.48594],[135.43061,35.48593],[135.42962,35.48574],[135.42777,35.48473],[135.42699,35.4844],[135.42614,35.48422],[135.42454,35.4841],[135.41883,35.48466],[135.41526,35.48531],[135.41386,35.48529],[135.41254,35.48499],[135.41192,35.48474],[135.41104,35.4842],[135.41011,35.48326],[135.4078,35.47885],[135.40747,35.47835],[135.40688,35.47773],[135.40634,35.47736],[135.40478,35.47663],[135.4031,35.4756],[135.39926,35.47295],[135.39726,35.47112],[135.39545,35.46918]],[[135.61825,35.48276],[135.61577,35.4829],[135.61471,35.48282],[135.61376,35.48246],[135.61153,35.48075],[135.61107,35.4805],[135.61013,35.48026],[135.6086,35.48027],[135.60525,35.48179],[135.60289,35.48233],[135.60058,35.48299],[135.59983,35.48355],[135.59926,35.48419],[135.599,35.48469],[135.59847,35.48624],[135.59789,35.48691],[135.59723,35.48738],[135.59435,35.48848],[135.59346,35.48861],[135.58251,35.48863]],[[135.61984,35.48265],[135.62217,35.48255],[135.62346,35.48225],[135.62927,35.47869],[135.63029,35.47825],[135.63124,35.47811],[135.63205,35.4781],[135.63487,35.47862],[135.63589,35.47863],[135.63671,35.47847],[135.63834,35.4778],[135.63982,35.47745],[135.64033,35.47742],[135.64184,35.47763],[135.64438,35.47838],[135.6453,35.4784],[135.64634,35.47826],[135.65042,35.4774],[135.65121,35.47731],[135.65201,35.47733],[135.65322,35.47763],[135.65422,35.47811],[135.65482,35.47854],[135.65627,35.47991],[135.65678,35.4803],[135.65739,35.48068],[135.65783,35.48084],[135.65941,35.48115],[135.66052,35.48108],[135.66333,35.48051],[135.66531,35.48062]],[[135.78033,35.48536],[135.78208,35.48503]],[[135.89726,35.5165],[135.90074,35.51942],[135.90108,35.51983],[135.90507,35.52781],[135.9062,35.53171]],[[135.54723,35.48627],[135.52628,35.48887],[135.52403,35.48903],[135.52317,35.48901],[135.52095,35.48873]],[[135.85508,35.4638],[135.85659,35.4635]],[[135.70847,35.48113],[135.70939,35.4811],[135.7109,35.48129],[135.72172,35.48462],[135.72439,35.48522],[135.72924,35.48604],[135.73016,35.48658],[135.73257,35.489],[135.73346,35.48964],[135.73443,35.49007],[135.73842,35.49089],[135.74024,35.49175],[135.74104,35.49203],[135.74213,35.49214],[135.74464,35.4918]],[[135.5805,35.48863],[135.57307,35.48862],[135.57159,35.48853],[135.56425,35.48533],[135.56288,35.4849],[135.56165,35.48468],[135.56031,35.48466],[135.54887,35.4861]],[[135.80805,35.47298],[135.81209,35.4723],[135.821,35.47152],[135.82284,35.47098],[135.82608,35.46978],[135.8292,35.46874],[135.83147,35.46814],[135.83314,35.46787],[135.84105,35.46689],[135.85508,35.4638]],[[135.39545,35.46918],[135.39413,35.46801]],[[135.8667,35.50543],[135.86719,35.50428]]]}}