{"type":"Feature","properties":{"id":"西日本旅客鉄道_木次線","name":"木次線","operator":"西日本旅客鉄道","railType":"普通鉄道(JR)","operatorType":"JR在来線","category":"rail","attribution":"国土数値情報（鉄道データ）国土交通省"},"geometry":{"type":"MultiLineString","coordinates":[[[132.90863,35.40642],[132.90982,35.40732]],[[133.14619,35.0005],[133.14792,35.00099]],[[133.14792,35.00099],[133.14871,35.00128]],[[133.00934,35.19699],[133.01044,35.19639]],[[132.99301,35.26507],[132.99652,35.26623],[132.9974,35.26633],[132.99777,35.26629],[133.00584,35.26486],[133.00639,35.26461],[133.00701,35.26413],[133.00731,35.26381],[133.00771,35.26301],[133.00777,35.26196],[133.00739,35.26047],[133.0073,35.2593],[133.00636,35.23858],[133.00596,35.23745],[133.00527,35.23659],[133.00413,35.23569],[133.00017,35.23288],[132.99974,35.2325],[132.99942,35.23205],[132.9991,35.23104],[132.99916,35.23005],[132.99969,35.22924],[133.00116,35.22762]],[[133.11928,35.04493],[133.12067,35.04894],[133.12079,35.04934],[133.1208,35.04974],[133.12043,35.05077],[133.12025,35.05222],[133.12009,35.05259],[133.11911,35.05402],[133.1184,35.05611],[133.11847,35.05689],[133.11902,35.05797],[133.11904,35.05853],[133.11839,35.05997],[133.1176,35.061],[133.11723,35.06175],[133.1162,35.06263],[133.11558,35.06355],[133.11479,35.06442],[133.11469,35.06468],[133.1146,35.06525],[133.11468,35.06557],[133.1154,35.06698],[133.1154,35.06742],[133.11531,35.06786],[133.11502,35.06847],[133.11461,35.06984],[133.11419,35.07032],[133.11397,35.07074],[133.11392,35.07168],[133.11375,35.07257],[133.11382,35.07331],[133.11446,35.07442],[133.1145,35.07514],[133.11434,35.07575],[133.11362,35.07707],[133.11258,35.07774],[133.11229,35.07813],[133.11213,35.07864],[133.11221,35.07937],[133.11248,35.08009],[133.1125,35.08035],[133.11249,35.08076],[133.11218,35.08215],[133.11224,35.08279],[133.11249,35.08334],[133.1133,35.08432],[133.11368,35.08521],[133.11367,35.08651],[133.11337,35.08818],[133.11343,35.08872],[133.11357,35.08905],[133.11388,35.08938],[133.11517,35.09016],[133.11614,35.09092]],[[133.11926,35.04427],[133.11928,35.04382],[133.11949,35.04317],[133.12093,35.04133],[133.12106,35.04064],[133.12093,35.0402],[133.12058,35.03968],[133.11867,35.03769],[133.11741,35.03666],[133.11708,35.0363],[133.11681,35.03574],[133.11674,35.03539],[133.1168,35.03471],[133.1176,35.03305],[133.11765,35.0305],[133.11789,35.02999],[133.11866,35.02882],[133.11891,35.02798],[133.11971,35.02667],[133.1201,35.02566],[133.12045,35.02502],[133.12112,35.02423],[133.12276,35.02291],[133.12362,35.02057],[133.12451,35.01937],[133.12492,35.01862],[133.1253,35.01631],[133.12554,35.01582],[133.12703,35.01444],[133.1286,35.01356],[133.12882,35.01327],[133.12921,35.01221],[133.12948,35.01174],[133.12976,35.01146],[133.13148,35.01034],[133.13203,35.00973],[133.1326,35.00866],[133.13293,35.00769],[133.13298,35.00721],[133.13266,35.00593],[133.13267,35.00549],[133.13289,35.00495],[133.13336,35.0045],[133.13557,35.00347],[133.13634,35.0033],[133.13773,35.00254],[133.13876,35.00187],[133.14012,35.00055],[133.14079,35.00017],[133.1412,35.00007],[133.14193,35.00011],[133.14434,35.00067],[133.14489,35.00067],[133.14619,35.0005]],[[132.99193,35.26467],[132.99301,35.26507]],[[132.91076,35.34413],[132.91073,35.3436],[132.91089,35.3429],[132.91136,35.3421],[132.91173,35.34185],[132.92004,35.33853],[132.92858,35.33492],[132.9297,35.33463],[132.93393,35.33408],[132.93677,35.33427],[132.93894,35.33462]],[[133.0018,35.22697],[133.00116,35.22762]],[[133.09207,35.17753],[133.0895,35.17768],[133.08907,35.17781],[133.08862,35.1781],[133.08807,35.17862],[133.08774,35.17921],[133.08756,35.18079],[133.08719,35.18159],[133.08658,35.1822],[133.08554,35.18267],[133.08387,35.18324],[133.08294,35.18347],[133.0824,35.18351],[133.0818,35.18341],[133.07978,35.18234],[133.07886,35.18232],[133.07741,35.18261],[133.07506,35.1833],[133.07367,35.18378],[133.07238,35.18435],[133.06863,35.18754],[133.0653,35.18974],[133.06497,35.19003],[133.06466,35.19046],[133.06448,35.1911],[133.06449,35.19184],[133.06466,35.19223],[133.06498,35.19266],[133.06857,35.19571],[133.06916,35.19643],[133.06941,35.19724],[133.06943,35.19775],[133.06926,35.1985],[133.06893,35.199],[133.06017,35.20724],[133.05931,35.20801],[133.05863,35.20847],[133.05815,35.20864],[133.05773,35.20867],[133.05708,35.20862],[133.05638,35.20843],[133.0555,35.20797],[133.05331,35.20655]],[[132.90187,35.29433],[132.90157,35.29357],[132.90098,35.29244],[132.90084,35.29189],[132.90084,35.29136],[132.90104,35.29062],[132.90137,35.29011],[132.90231,35.28942],[132.90836,35.28587],[132.90999,35.28512],[132.91152,35.28454],[132.91345,35.28404],[132.92144,35.28255],[132.92362,35.2819],[132.92547,35.28095],[132.92772,35.27925],[132.93084,35.27671]],[[132.91784,35.38005],[132.91863,35.37999]],[[133.05243,35.20598],[133.05061,35.20479],[133.04958,35.20387],[133.0489,35.20338],[133.04555,35.20164],[133.0436,35.20026],[133.04071,35.19871],[133.03998,35.19838],[133.03842,35.19798],[133.03691,35.19697],[133.03642,35.19677],[133.02946,35.1947],[133.02875,35.19467],[133.0277,35.19491],[133.02718,35.19524],[133.0262,35.19644],[133.02592,35.19668],[133.02552,35.19685],[133.0247,35.19701],[133.02322,35.19677],[133.01871,35.19573],[133.01644,35.19543],[133.01393,35.19585],[133.01163,35.19605],[133.01044,35.19639]],[[133.11828,35.10327],[133.11911,35.10308],[133.12034,35.1026]],[[132.92748,35.30807],[132.92502,35.30898],[132.92456,35.30905],[132.9138,35.30866],[132.91301,35.30845],[132.9083,35.30614],[132.90413,35.30556],[132.9035,35.30537],[132.90315,35.30514],[132.90284,35.3048],[132.90212,35.3033],[132.90192,35.30265],[132.9014,35.29768],[132.90145,35.29717],[132.90188,35.29535]],[[132.91124,35.34506],[132.91276,35.34628],[132.91387,35.34684],[132.91451,35.3469],[132.91619,35.34651],[132.91754,35.34656],[132.91848,35.34681],[132.91949,35.34736],[132.92095,35.34872],[132.92259,35.35062],[132.92421,35.35289],[132.9261,35.3562],[132.92611,35.35665],[132.92592,35.35814],[132.92657,35.35999],[132.92657,35.36034],[132.9264,35.36076],[132.92521,35.36193],[132.92509,35.36234],[132.92504,35.36332],[132.92507,35.36417],[132.92594,35.36657],[132.92589,35.36706],[132.92572,35.3674],[132.9246,35.36852],[132.92453,35.36875],[132.92448,35.37032],[132.92428,35.37099],[132.92399,35.37154],[132.92367,35.37189],[132.92332,35.37213],[132.92182,35.37281],[132.92107,35.37348],[132.92043,35.37439],[132.92008,35.37509],[132.91976,35.37611],[132.91984,35.3766],[132.92048,35.37844],[132.92046,35.37884],[132.92026,35.37924],[132.91982,35.37963],[132.91929,35.37985],[132.91863,35.37999]],[[133.11333,35.10687],[133.11382,35.10559],[133.11442,35.10504],[133.11527,35.10458],[133.11828,35.10327]],[[133.09207,35.17753],[133.09304,35.1773]],[[132.90188,35.29535],[132.90187,35.29433]],[[133.11315,35.10831],[133.11333,35.10687]],[[132.93969,35.33474],[132.94044,35.33477],[132.94067,35.33471],[132.94154,35.33433],[132.94265,35.33366],[132.94293,35.33358],[132.94335,35.3335],[132.94703,35.33329],[132.94757,35.33319],[132.95117,35.3319],[132.95275,35.33087],[132.95536,35.32895],[132.95698,35.32823],[132.95763,35.32744],[132.95787,35.32694],[132.95803,35.32624]],[[133.11384,35.1059],[133.11435,35.10539],[133.11489,35.10503],[133.11592,35.10454],[133.11823,35.10392],[133.12076,35.10365],[133.12199,35.1038],[133.12276,35.10379],[133.12368,35.10357],[133.12429,35.10353],[133.12508,35.10362],[133.12667,35.10357],[133.12843,35.10374],[133.12885,35.10364],[133.12933,35.10333],[133.12996,35.10226],[133.13134,35.09958],[133.132,35.09791],[133.13203,35.09748],[133.13192,35.09711],[133.13155,35.09635],[133.13087,35.09532],[133.13069,35.09461],[133.13073,35.0941],[133.13118,35.09323],[133.13173,35.09178],[133.13212,35.09043],[133.13224,35.08974],[133.13226,35.08891],[133.13218,35.08841],[133.13185,35.08776],[133.13135,35.0875],[133.13055,35.08739],[133.12933,35.08756],[133.12831,35.08813],[133.12714,35.08901],[133.12674,35.08939],[133.12599,35.09034],[133.12578,35.09073],[133.12563,35.09122],[133.1256,35.09242],[133.12539,35.09281],[133.12508,35.09319],[133.12431,35.09381],[133.12377,35.09415],[133.12298,35.09445],[133.1224,35.09459],[133.12136,35.09462],[133.12051,35.09448],[133.11999,35.09426],[133.11958,35.09402],[133.11895,35.09349],[133.11681,35.09154]],[[133.05331,35.20655],[133.05243,35.20598]],[[132.95794,35.32522],[132.95787,35.32463],[132.95758,35.3238],[132.95633,35.32122],[132.95576,35.3208],[132.95326,35.32018],[132.95254,35.31992],[132.95229,35.31971],[132.95032,35.3173],[132.94884,35.31624],[132.94808,35.31599],[132.94604,35.31582],[132.94177,35.31425],[132.94049,35.31355],[132.93714,35.31127],[132.93603,35.31071],[132.93368,35.30987],[132.93336,35.30968],[132.93121,35.30786],[132.93035,35.30756],[132.92987,35.3075],[132.9285,35.30772]],[[133.08991,35.14914],[133.09124,35.14835],[133.093,35.14666],[133.09326,35.14617],[133.09353,35.14495],[133.09391,35.14449],[133.09792,35.1424],[133.09871,35.14209],[133.09958,35.14195],[133.10222,35.14192],[133.1025,35.14183],[133.10404,35.14077],[133.10464,35.14056],[133.10748,35.14047],[133.10789,35.1402],[133.10868,35.13884],[133.10901,35.13848],[133.1102,35.13798],[133.11073,35.13744],[133.11232,35.13385],[133.11247,35.13334],[133.11263,35.13181],[133.11276,35.13136],[133.11299,35.131],[133.11404,35.1298],[133.11443,35.1289],[133.1145,35.1284],[133.11416,35.12651],[133.11396,35.12599],[133.11325,35.12487],[133.11312,35.12444],[133.11312,35.1227],[133.11263,35.12148],[133.11253,35.12024],[133.11244,35.11995],[133.11113,35.11844],[133.111,35.11803],[133.11104,35.11746],[133.11118,35.11713],[133.11236,35.11566],[133.11268,35.11479],[133.11265,35.11396],[133.11188,35.11247],[133.11169,35.11193],[133.1117,35.11161],[133.11225,35.10953],[133.11242,35.10856],[133.11251,35.1066],[133.113,35.10555],[133.11334,35.10506],[133.1137,35.10473],[133.11667,35.10359],[133.11771,35.10333],[133.11828,35.10327]],[[132.91076,35.34413],[132.91124,35.34506]],[[132.9285,35.30772],[132.92748,35.30807]],[[133.11681,35.09154],[133.11614,35.09092]],[[133.11333,35.10687],[133.11384,35.1059]],[[132.93894,35.33462],[132.93969,35.33474]],[[133.12034,35.1026],[133.12101,35.10216]],[[133.11383,35.10592],[133.11384,35.1059]],[[133.00934,35.19699],[133.00852,35.19769],[133.0082,35.19826],[133.00804,35.19897],[133.00799,35.20091],[133.00781,35.20131],[133.00737,35.2018],[133.00713,35.20194],[133.00512,35.20233],[133.00474,35.20249],[133.00446,35.20271],[133.00329,35.20401],[133.00306,35.20445],[133.00302,35.20501],[133.00323,35.20697],[133.00303,35.20742],[133.00163,35.20853],[133.00009,35.2091],[132.99973,35.20931],[132.99903,35.21008],[132.99854,35.21104],[132.9985,35.2121],[132.99876,35.2177],[132.99884,35.21803],[133.00096,35.22159],[133.00149,35.22227],[133.00242,35.22315],[133.00288,35.22398],[133.00291,35.22497],[133.00277,35.22557],[133.00235,35.22638],[133.0018,35.22697]],[[133.08898,35.14964],[133.08732,35.15059],[133.08651,35.15142],[133.08513,35.15358],[133.085,35.154],[133.085,35.15466],[133.08553,35.15618],[133.08589,35.15848],[133.08631,35.15928],[133.08684,35.1599],[133.08741,35.16032],[133.08792,35.16053],[133.09032,35.16096],[133.091,35.16141],[133.09152,35.16225],[133.0932,35.16591],[133.09371,35.16654],[133.09565,35.16844],[133.09592,35.1689],[133.09598,35.16983],[133.09585,35.17072],[133.09586,35.17119],[133.09637,35.17352],[133.09644,35.17429],[133.09634,35.1749],[133.096,35.17546],[133.09541,35.17611],[133.09388,35.177],[133.09304,35.1773]],[[132.95803,35.32624],[132.95794,35.32522]],[[133.12101,35.10216],[133.12177,35.10133]],[[132.93084,35.27671],[132.93142,35.27624]],[[132.93142,35.27624],[132.93436,35.27386],[132.93544,35.27285],[132.93596,35.2718],[132.93603,35.27076],[132.93621,35.27002],[132.9366,35.26935],[132.93819,35.2673],[132.93852,35.26702],[132.9393,35.26666],[132.94057,35.26646],[132.94195,35.26644],[132.9427,35.26625],[132.94323,35.266],[132.94404,35.26539],[132.94449,35.2648],[132.94484,35.26377],[132.94524,35.26312],[132.9461,35.26254],[132.94715,35.26222],[132.94852,35.26214],[132.9513,35.26252],[132.95245,35.26249],[132.95304,35.26238],[132.95394,35.26215],[132.95564,35.26152],[132.95774,35.26061],[132.96061,35.26009],[132.96238,35.2594],[132.96346,35.25914],[132.9648,35.25921],[132.96646,35.26002],[132.96725,35.26032],[132.97052,35.26113],[132.97123,35.26117],[132.97176,35.26111],[132.97842,35.2596],[132.97881,35.25959],[132.97978,35.25981],[132.98189,35.26077],[132.98272,35.26103],[132.98305,35.26108],[132.98537,35.26098],[132.98607,35.26107],[132.98641,35.2612],[132.98726,35.26166],[132.98763,35.26197],[132.98829,35.26287],[132.98881,35.26338],[132.98922,35.26365],[132.98972,35.26391],[132.99193,35.26467]],[[133.08898,35.14964],[133.08991,35.14914]],[[132.90863,35.40642],[132.90668,35.40485]],[[132.90668,35.40485],[132.90629,35.4041],[132.90587,35.40234],[132.90587,35.40075],[132.90607,35.39904],[132.9058,35.39626],[132.90615,35.3948],[132.90823,35.38873],[132.90863,35.38824],[132.90937,35.38793],[132.91173,35.38798],[132.91239,35.38762],[132.91296,35.38693],[132.91363,35.38589],[132.91381,35.38472],[132.91397,35.38427],[132.91486,35.38307],[132.91526,35.38198],[132.91557,35.38138],[132.91599,35.38087],[132.91643,35.38053],[132.91704,35.38022],[132.91784,35.38005]],[[133.11926,35.04427],[133.11928,35.04493]]]}}