{"type":"Feature","properties":{"id":"西日本旅客鉄道_津山線","name":"津山線","operator":"西日本旅客鉄道","railType":"普通鉄道(JR)","operatorType":"JR在来線","category":"rail","attribution":"国土数値情報（鉄道データ）国土交通省"},"geometry":{"type":"MultiLineString","coordinates":[[[133.95829,34.92613],[133.95909,34.92694],[133.9596,34.92764],[133.96007,34.92872],[133.96272,34.93919],[133.96316,34.94198],[133.96313,34.94275],[133.96288,34.94341],[133.96156,34.94496],[133.9613,34.94543],[133.96067,34.94819],[133.96014,34.94967],[133.95945,34.95117]],[[133.95878,34.999],[133.95961,34.99836]],[[133.93367,34.7926],[133.9337,34.79147]],[[133.94538,34.70534],[133.95007,34.71171],[133.95114,34.71282],[133.95201,34.71346],[133.95343,34.71417],[133.95477,34.71461],[133.96111,34.71584],[133.96377,34.7167]],[[133.96045,35.03166],[133.95787,35.02875],[133.9574,35.02796],[133.95732,35.02754],[133.95732,35.0271],[133.95746,35.02643],[133.9577,35.02587],[133.96042,35.02164],[133.96066,35.02109],[133.96079,35.02022],[133.96077,35.01958],[133.96005,35.01689],[133.95976,35.01617],[133.95918,35.01527],[133.95809,35.01444],[133.9541,35.01205],[133.95343,35.01127],[133.9532,35.01082],[133.95313,35.01047],[133.95314,35.00985],[133.95327,35.00935],[133.95532,35.00635],[133.95587,35.00524],[133.95612,35.00405],[133.95637,35.00151],[133.95652,35.0011],[133.95674,35.0007],[133.95705,35.00037],[133.95878,34.999]],[[133.98357,35.05469],[133.98193,35.05426]],[[133.93596,34.89676],[133.93678,34.89771],[133.93718,34.8983],[133.93752,34.89922],[133.93846,34.90253],[133.93905,34.90362],[133.93982,34.90451],[133.94038,34.90495],[133.9421,34.90581],[133.9431,34.90649],[133.94483,34.90831],[133.94578,34.90917],[133.94633,34.90943],[133.94838,34.90983],[133.94895,34.91002],[133.94965,34.91047],[133.94993,34.9108],[133.95019,34.91124],[133.95085,34.91308],[133.95135,34.91408],[133.95424,34.91912],[133.95454,34.91987],[133.95488,34.92194],[133.9554,34.92318],[133.95576,34.92366],[133.95729,34.92516]],[[133.95729,34.92516],[133.95829,34.92613]],[[133.9445,34.70452],[133.94538,34.70534]],[[133.93596,34.89676],[133.93557,34.89635],[133.93482,34.8958]],[[133.96014,34.74174],[133.95929,34.74316],[133.95897,34.74415],[133.95871,34.74698],[133.95874,34.74747],[133.95952,34.75153],[133.95994,34.75322],[133.95997,34.75404],[133.95976,34.75478],[133.95914,34.75593],[133.95855,34.75676],[133.95733,34.75815],[133.95695,34.7589],[133.95688,34.75932],[133.95699,34.76012],[133.95762,34.7612],[133.95789,34.76197],[133.9579,34.76241],[133.95774,34.76309],[133.95719,34.76396],[133.95644,34.76446],[133.95559,34.76475],[133.95514,34.76482],[133.95422,34.76479],[133.9533,34.76465],[133.95113,34.76405],[133.95025,34.76389],[133.94894,34.76402],[133.94809,34.76432],[133.94568,34.76541],[133.94018,34.76824],[133.939,34.76849],[133.93545,34.7688],[133.93425,34.76918],[133.93363,34.76958],[133.93342,34.76981],[133.9328,34.7708]],[[133.98357,35.05469],[133.98607,35.05531],[133.98755,35.05544],[133.98918,35.05534]],[[133.98918,35.05534],[133.99689,35.05387],[133.99769,35.05383],[133.99927,35.05395],[134.00244,35.05437]],[[133.96126,35.0324],[133.96252,35.03305],[133.96428,35.03362],[133.96527,35.03417],[133.96636,35.03537],[133.9682,35.03768],[133.96864,35.03845],[133.96889,35.03909],[133.97096,35.046],[133.9715,35.04709],[133.97375,35.04902],[133.97571,35.05133],[133.97639,35.05196],[133.97807,35.05303],[133.97895,35.05347],[133.98193,35.05426]],[[133.96377,34.7167],[133.96527,34.71722]],[[133.96204,34.96857],[133.96207,34.96788]],[[133.96076,34.74078],[133.96014,34.74174]],[[133.95903,34.95211],[133.95945,34.95117]],[[133.9324,34.77141],[133.9328,34.7708]],[[133.96207,34.96788],[133.962,34.96725],[133.96182,34.96673],[133.96094,34.96523],[133.96056,34.96443],[133.95923,34.96028],[133.9589,34.95976],[133.95755,34.95852],[133.95722,34.95804],[133.95703,34.95742],[133.95707,34.95663],[133.95725,34.95604],[133.95903,34.95211]],[[133.96126,35.0324],[133.96045,35.03166]],[[133.96527,34.71722],[133.9674,34.71792],[133.96804,34.71822],[133.96897,34.71905],[133.96928,34.71967],[133.96942,34.72045],[133.96924,34.72129],[133.9689,34.72188],[133.96864,34.72216],[133.96751,34.72294],[133.96626,34.72341],[133.9651,34.72372],[133.96105,34.72465],[133.95876,34.72486],[133.9576,34.72508],[133.95701,34.72536],[133.95664,34.7257],[133.95637,34.72605],[133.9561,34.72661],[133.95603,34.72711],[133.95606,34.72764],[133.95626,34.7282],[133.9567,34.72897],[133.95731,34.72964],[133.95951,34.73151],[133.96,34.73208],[133.96095,34.73376],[133.96156,34.73525],[133.96185,34.73683],[133.96188,34.73815],[133.96181,34.73891],[133.96148,34.7397],[133.96076,34.74078]],[[133.95961,34.99836],[133.96146,34.99682],[133.96194,34.99607],[133.96208,34.99548],[133.96159,34.99076],[133.96134,34.99007],[133.96033,34.98855],[133.96006,34.98775],[133.95979,34.98378],[133.95985,34.9829],[133.96057,34.98095],[133.96061,34.98063],[133.96041,34.97928],[133.96042,34.97864],[133.96117,34.97639],[133.96142,34.97531],[133.96204,34.96857]],[[134.00244,35.05437],[134.00445,35.05464]],[[133.9038,34.87077],[133.90429,34.86983]],[[133.89897,34.84176],[133.8967,34.83688],[133.89643,34.83618],[133.89628,34.83549],[133.89628,34.83497],[133.8964,34.83439],[133.89743,34.83137],[133.89773,34.83025],[133.89777,34.82968],[133.89769,34.82889],[133.89713,34.8263],[133.89716,34.82586],[133.89731,34.82548],[133.89754,34.8252],[133.8981,34.82479],[133.90481,34.82143],[133.90685,34.81997],[133.90834,34.81853],[133.9092,34.81733],[133.90976,34.81604],[133.90996,34.81465],[133.90975,34.81275],[133.90978,34.81215],[133.91012,34.81128],[133.91038,34.8109],[133.91077,34.81054],[133.91224,34.80962],[133.91722,34.80681],[133.9191,34.80618],[133.92605,34.80413],[133.92642,34.80397],[133.92687,34.80362],[133.9273,34.80306],[133.92747,34.80269],[133.92784,34.80105],[133.92799,34.80071],[133.93005,34.79854],[133.93071,34.79695],[133.93112,34.79626],[133.93249,34.79528],[133.9329,34.79488],[133.93341,34.79413],[133.93361,34.79361],[133.93367,34.7926]],[[133.9337,34.79147],[133.93372,34.79075],[133.93364,34.79039],[133.93344,34.78991],[133.93311,34.78943],[133.93242,34.78887],[133.92448,34.7833],[133.92388,34.78256],[133.92361,34.78173],[133.92364,34.78085],[133.92388,34.78],[133.92429,34.77915],[133.92504,34.77809],[133.92613,34.7772],[133.92757,34.77565],[133.92966,34.77468],[133.93073,34.77387],[133.9324,34.77141]],[[133.89944,34.84276],[133.89897,34.84176]],[[133.93482,34.8958],[133.93203,34.89437],[133.92878,34.89314],[133.92803,34.89258],[133.92768,34.89208],[133.92747,34.89161],[133.92533,34.88537],[133.92492,34.88458],[133.92454,34.88412],[133.92363,34.88341],[133.92264,34.88279],[133.92173,34.88241],[133.91998,34.88212],[133.9188,34.88207],[133.9177,34.88224],[133.91695,34.88256],[133.91641,34.88302],[133.9159,34.88376],[133.91529,34.88556],[133.91479,34.88677],[133.91435,34.8873],[133.91397,34.88759],[133.91292,34.88808],[133.91229,34.88819],[133.91018,34.88825],[133.90658,34.88832],[133.90564,34.88826],[133.90473,34.88805],[133.90406,34.88772],[133.9034,34.88728],[133.90281,34.88678],[133.90242,34.8863],[133.90212,34.88577],[133.90196,34.88512],[133.90203,34.88443],[133.90228,34.8838],[133.90313,34.88219],[133.90481,34.87968],[133.90506,34.87855],[133.905,34.87792],[133.90396,34.87599],[133.90342,34.87431],[133.90333,34.87355],[133.90337,34.8719],[133.9038,34.87077]],[[133.90429,34.86983],[133.90531,34.86781],[133.90547,34.86713],[133.90549,34.86641],[133.90523,34.86549],[133.90421,34.86367],[133.90394,34.86295],[133.90372,34.86086],[133.9031,34.85238],[133.90288,34.85047],[133.90251,34.84939],[133.89944,34.84276]],[[133.91978,34.66939],[133.91902,34.66843]],[[133.92775,34.68513],[133.9297,34.68879],[133.93013,34.68933],[133.93144,34.69044],[133.93463,34.69243],[133.93549,34.69326],[133.93568,34.69367],[133.93575,34.6941],[133.93576,34.69588],[133.93592,34.69702],[133.93607,34.69743],[133.93643,34.69792],[133.93714,34.6986],[133.94076,34.70129],[133.9445,34.70452]],[[133.92239,34.67488],[133.91978,34.66939]],[[133.92705,34.68384],[133.92345,34.67709],[133.92239,34.67488]],[[133.92775,34.68513],[133.92705,34.68384]],[[133.91902,34.66843],[133.91703,34.66552]]]}}