{"type":"Feature","properties":{"id":"西日本旅客鉄道_大糸線","name":"大糸線","operator":"西日本旅客鉄道","railType":"普通鉄道(JR)","operatorType":"JR在来線","category":"rail","attribution":"国土数値情報（鉄道データ）国土交通省"},"geometry":{"type":"MultiLineString","coordinates":[[[137.85986,36.93803],[137.85915,36.93832]],[[137.86702,36.96633],[137.86722,36.96698]],[[137.90815,36.80538],[137.90764,36.80586]],[[137.86539,36.88722],[137.86586,36.88653]],[[137.90894,36.77527],[137.90996,36.77654],[137.91077,36.7778],[137.91115,36.77821],[137.91318,36.77977],[137.91507,36.78221],[137.91537,36.78267],[137.91581,36.78362],[137.91592,36.7855],[137.91584,36.78594],[137.91511,36.78757],[137.91513,36.78823],[137.9156,36.79006],[137.91563,36.79056],[137.91512,36.79338],[137.91495,36.79591],[137.91488,36.79619],[137.91463,36.7966],[137.91361,36.79762],[137.9131,36.79822],[137.91298,36.79848],[137.9129,36.79905],[137.91315,36.80035],[137.91313,36.80074],[137.91296,36.80139],[137.91258,36.80206],[137.91188,36.80276],[137.90896,36.80461],[137.90815,36.80538]],[[137.85677,37.04219],[137.85602,37.04176],[137.85519,37.04104],[137.85456,37.04004],[137.85441,37.03929],[137.85436,37.03854],[137.85473,37.02575],[137.85489,37.02517],[137.85541,37.02454],[137.86067,37.02065]],[[137.86586,36.88653],[137.86603,36.88619],[137.86604,36.88597],[137.86577,36.88424],[137.86577,36.88345],[137.86686,36.88183],[137.86705,36.88079],[137.86733,36.88007],[137.86758,36.87965],[137.86804,36.87919],[137.86861,36.87884],[137.87067,36.87797],[137.87563,36.87623],[137.8767,36.87572],[137.88969,36.86459],[137.89438,36.86028],[137.89485,36.86],[137.89685,36.85913],[137.89805,36.85835],[137.89853,36.85794],[137.89885,36.85737],[137.89957,36.85497],[137.89978,36.85461],[137.90044,36.85384],[137.90101,36.85283],[137.90113,36.85231],[137.90107,36.85034],[137.90134,36.84945],[137.90222,36.84821],[137.90579,36.84423],[137.90635,36.84336],[137.90645,36.84288]],[[137.86128,37.02019],[137.86662,37.01619],[137.8675,37.01534],[137.86825,37.01445],[137.86909,37.01323],[137.86973,37.01205],[137.87232,37.00651]],[[137.86722,36.96698],[137.86872,36.97086],[137.86883,36.97104],[137.87037,36.97249],[137.87079,36.97309],[137.87172,36.97525],[137.87197,36.97646],[137.87223,36.97713],[137.87354,36.97981],[137.87377,36.98015],[137.87451,36.98091],[137.87728,36.98364],[137.87842,36.98468],[137.87945,36.98545],[137.8798,36.98583],[137.8801,36.98623],[137.88044,36.98701],[137.88055,36.9877],[137.8805,36.98884],[137.88015,36.99001],[137.87944,36.99138],[137.87847,36.99267],[137.87826,36.99391],[137.87266,37.00581]],[[137.86067,37.02065],[137.86128,37.02019]],[[137.85915,36.93832],[137.85821,36.93872],[137.85776,36.93915],[137.85753,36.93966],[137.85714,36.94133],[137.8568,36.9421],[137.85581,36.94388],[137.85578,36.94442],[137.85613,36.9458],[137.85608,36.94637],[137.85576,36.94717],[137.85582,36.9477],[137.85798,36.9506],[137.85945,36.95169],[137.85973,36.95199],[137.85996,36.95248],[137.85994,36.95291],[137.85962,36.95437],[137.85962,36.95477],[137.85975,36.95532],[137.85996,36.95566],[137.8624,36.9585],[137.86491,36.96199],[137.86599,36.96381],[137.86702,36.96633]],[[137.90894,36.77527],[137.90782,36.774]],[[137.86539,36.88722],[137.86329,36.88913],[137.86306,36.88978],[137.863,36.89032],[137.86308,36.89118],[137.86321,36.89148],[137.86394,36.89218],[137.86422,36.89255],[137.86452,36.89329],[137.86496,36.89492],[137.86522,36.89539],[137.8658,36.89594],[137.86611,36.8961],[137.86787,36.89639],[137.86831,36.89655],[137.86998,36.89758],[137.87233,36.89888],[137.87312,36.89948],[137.87379,36.90043],[137.87528,36.91714],[137.87572,36.91862],[137.87575,36.91938],[137.87528,36.92015],[137.87461,36.92098],[137.87402,36.9216],[137.87298,36.92245],[137.87285,36.92265],[137.87253,36.92369],[137.87231,36.92512],[137.87215,36.92538],[137.87168,36.92572],[137.86923,36.92694],[137.8688,36.92733],[137.86845,36.92808],[137.86845,36.92936],[137.86828,36.92985],[137.86804,36.93024],[137.86688,36.93119],[137.86339,36.93349],[137.86247,36.93424],[137.86211,36.93469],[137.86178,36.93532],[137.86132,36.9368],[137.86114,36.93711],[137.86058,36.93766],[137.85986,36.93803]],[[137.87266,37.00581],[137.87232,37.00651]],[[137.90645,36.84288],[137.90644,36.84225]],[[137.86409,37.04423],[137.86107,37.04338]],[[137.86107,37.04338],[137.85677,37.04219]],[[137.90764,36.80586],[137.90702,36.80676],[137.90691,36.80722],[137.90844,36.81069],[137.90847,36.81122],[137.90829,36.81211],[137.90812,36.81255],[137.90671,36.81413],[137.90473,36.81657],[137.90388,36.81805],[137.90404,36.8193],[137.90421,36.81982],[137.90489,36.82138],[137.90573,36.82279],[137.90652,36.82444],[137.90659,36.82505],[137.90652,36.82596],[137.90621,36.82735],[137.90559,36.82896],[137.90451,36.83294],[137.90352,36.83577],[137.90352,36.83665],[137.90381,36.83777],[137.90507,36.83994],[137.90625,36.84153],[137.9064,36.84189],[137.90644,36.84225]]]}}