{"type":"Feature","properties":{"id":"西日本旅客鉄道_因美線","name":"因美線","operator":"西日本旅客鉄道","railType":"普通鉄道(JR)","operatorType":"JR在来線","category":"rail","attribution":"国土数値情報（鉄道データ）国土交通省"},"geometry":{"type":"MultiLineString","coordinates":[[[134.19704,35.31202],[134.19608,35.31276]],[[134.24854,35.46061],[134.24866,35.46169]],[[134.20614,35.3539],[134.20693,35.35474]],[[134.10626,35.20533],[134.10532,35.20538],[134.1046,35.20551],[134.1019,35.20636],[134.1012,35.2065],[134.09983,35.20658],[134.0989,35.20654],[134.098,35.20642],[134.09316,35.20533],[134.09154,35.20484],[134.09059,35.20445],[134.09011,35.20419],[134.08951,35.20366],[134.08893,35.20251],[134.0885,35.20188],[134.08628,35.19953],[134.08549,35.19891],[134.08296,35.19764],[134.08234,35.19719],[134.08195,35.19634],[134.08142,35.19456],[134.0809,35.19395],[134.07992,35.19332],[134.07783,35.19281]],[[134.22569,35.26454],[134.2267,35.25818],[134.22731,35.25613]],[[134.22731,35.25613],[134.22907,35.25169],[134.22926,35.2508],[134.22923,35.25012],[134.22918,35.2496],[134.22903,35.24914],[134.22773,35.24569],[134.22816,35.24092],[134.22811,35.24007],[134.22785,35.23946],[134.22742,35.23876],[134.22583,35.23746],[134.22537,35.2368],[134.22525,35.23647],[134.22524,35.236],[134.22564,35.23353]],[[134.22234,35.39764],[134.22385,35.39744]],[[134.22581,35.23247],[134.22644,35.22803],[134.22625,35.22705],[134.22541,35.22553],[134.22479,35.22482],[134.22269,35.22296],[134.22185,35.22175],[134.22037,35.22065],[134.21622,35.21685],[134.21589,35.21619],[134.21584,35.21585],[134.21545,35.21496],[134.21498,35.21438],[134.21397,35.21387],[134.21322,35.21363],[134.21262,35.2136],[134.2107,35.21376]],[[134.20426,35.34279],[134.20494,35.34349]],[[134.0624,35.16919],[134.06421,35.16676],[134.06582,35.16483],[134.06912,35.16154],[134.07214,35.15907],[134.07303,35.15815],[134.07415,35.15667],[134.07452,35.15534],[134.07466,35.15327],[134.07455,35.15253],[134.07397,35.15031],[134.07403,35.14949],[134.07438,35.14864],[134.07649,35.14505],[134.0779,35.14245]],[[134.22547,35.26567],[134.22569,35.26454]],[[134.20494,35.34349],[134.20573,35.34445],[134.20611,35.34533],[134.20626,35.34687],[134.20623,35.34745],[134.20612,35.34794],[134.20572,35.34876],[134.20448,35.3504],[134.20433,35.3511],[134.20436,35.35147],[134.20458,35.35213],[134.20614,35.3539]],[[134.10768,35.20547],[134.10626,35.20533]],[[134.07138,35.12397],[134.07143,35.1232]],[[134.07632,35.19248],[134.07152,35.1914],[134.06429,35.19014],[134.06371,35.18997],[134.06316,35.18968],[134.06238,35.18898],[134.0618,35.18786],[134.06019,35.18379],[134.05745,35.17617],[134.05757,35.17545],[134.05789,35.17488],[134.06182,35.16988],[134.06199,35.16975]],[[134.25131,35.41347],[134.25255,35.41509],[134.26035,35.4209],[134.2611,35.42155],[134.26161,35.4222],[134.26211,35.42353],[134.26197,35.42439],[134.26161,35.42541],[134.25998,35.42882]],[[134.19608,35.31276],[134.19442,35.31419],[134.19401,35.31472],[134.19365,35.31539],[134.19344,35.31592],[134.19329,35.31668],[134.19325,35.31793],[134.1934,35.31875],[134.19382,35.31968],[134.19673,35.32472],[134.19704,35.32545],[134.19821,35.32916],[134.19841,35.33397],[134.19872,35.335],[134.19987,35.3365],[134.2003,35.33694],[134.20092,35.33873],[134.20117,35.33925],[134.20426,35.34279]],[[134.2107,35.21376],[134.20905,35.21372]],[[134.25967,35.42949],[134.25845,35.43215],[134.25753,35.43359],[134.25706,35.43463],[134.25643,35.43811],[134.25615,35.43906],[134.25539,35.44093],[134.25535,35.44455],[134.25524,35.44552],[134.25498,35.44625],[134.25364,35.44853],[134.25278,35.44963],[134.25202,35.4503],[134.24907,35.45247],[134.24885,35.45273],[134.24853,35.4534],[134.24828,35.45426],[134.24811,35.45529],[134.24807,35.45614],[134.24854,35.46061]],[[134.20905,35.21372],[134.20828,35.21343],[134.20652,35.21244],[134.20315,35.21178],[134.20192,35.21193],[134.20138,35.21212],[134.19825,35.21354],[134.19763,35.21373],[134.19689,35.21386],[134.19315,35.21379],[134.19222,35.21414],[134.19099,35.21479],[134.1903,35.21503],[134.1863,35.21567],[134.18532,35.21564],[134.1841,35.21533],[134.18359,35.21509],[134.18312,35.21471],[134.18241,35.21387],[134.18121,35.21188],[134.18081,35.21145],[134.18027,35.21103],[134.17906,35.21048],[134.17783,35.21023],[134.17728,35.21021],[134.1415,35.21163],[134.13598,35.21179],[134.13445,35.21143],[134.13189,35.21051],[134.12676,35.20971],[134.12501,35.20898],[134.12433,35.20883],[134.12231,35.20884],[134.12115,35.20853],[134.12089,35.20853],[134.12047,35.20861],[134.11801,35.20949],[134.11737,35.20953],[134.11661,35.20943],[134.11562,35.20909],[134.11389,35.20811],[134.10971,35.20613],[134.10857,35.20569],[134.10768,35.20547]],[[134.19704,35.31202],[134.19824,35.31102],[134.19986,35.30881],[134.20058,35.30616],[134.20091,35.30553],[134.2013,35.30505],[134.20222,35.30429],[134.20378,35.30321],[134.20697,35.30152],[134.20743,35.3011],[134.20909,35.29923],[134.20985,35.29746],[134.21045,35.29688],[134.21164,35.29628],[134.21431,35.29574],[134.215,35.29541],[134.21555,35.29499],[134.21605,35.29437],[134.21715,35.29211],[134.21801,35.29069],[134.21818,35.29054],[134.21898,35.29],[134.21976,35.28969],[134.22633,35.28818],[134.22719,35.28776],[134.22799,35.28699],[134.22853,35.28601],[134.22881,35.2848],[134.22885,35.28416],[134.22874,35.2827],[134.22845,35.28178],[134.22797,35.28106],[134.22741,35.28062],[134.22523,35.27964],[134.22475,35.27928],[134.22442,35.27892],[134.22367,35.2778],[134.22304,35.27709],[134.22286,35.2768],[134.22272,35.27631],[134.2227,35.27558],[134.22343,35.2729],[134.2236,35.27059],[134.225,35.26763],[134.22547,35.26567]],[[134.07826,35.14177],[134.07873,35.14086],[134.07873,35.14011],[134.07706,35.13644],[134.07654,35.13437],[134.07607,35.13317],[134.07538,35.13211],[134.07175,35.12824],[134.07134,35.1276],[134.07118,35.12688],[134.07138,35.12397]],[[134.24866,35.46169],[134.24862,35.46256],[134.24834,35.46366],[134.2481,35.46419],[134.24183,35.47363],[134.2402,35.47665],[134.23903,35.47929],[134.23385,35.49032],[134.23339,35.49094],[134.23263,35.49159]],[[134.22564,35.23353],[134.22581,35.23247]],[[134.0779,35.14245],[134.07826,35.14177]],[[134.25998,35.42882],[134.25967,35.42949]],[[134.20693,35.35474],[134.20841,35.35626],[134.20895,35.35664],[134.21017,35.35724],[134.21138,35.35833],[134.21195,35.35898],[134.21322,35.36098],[134.21352,35.36229],[134.21383,35.36299],[134.21404,35.36445],[134.21497,35.36581],[134.21513,35.36655],[134.21569,35.36787],[134.21709,35.37058],[134.21771,35.37263]],[[134.07783,35.19281],[134.07632,35.19248]],[[134.21804,35.37375],[134.21827,35.37586],[134.21811,35.37674],[134.21799,35.37709],[134.21762,35.37771],[134.21689,35.3786],[134.21652,35.37945],[134.21598,35.3817],[134.21581,35.38358],[134.21525,35.38596],[134.21559,35.3885],[134.21539,35.38963],[134.21554,35.39173],[134.21551,35.3946],[134.21571,35.39528],[134.21613,35.39608],[134.21667,35.39666],[134.21719,35.39705],[134.21776,35.39735],[134.21837,35.39759],[134.2193,35.39777],[134.22048,35.3978],[134.22234,35.39764]],[[134.06199,35.16975],[134.0624,35.16919]],[[134.24855,35.40988],[134.24654,35.40805],[134.24284,35.40539],[134.24254,35.405],[134.24219,35.40446],[134.24199,35.40385],[134.24061,35.39813],[134.24024,35.39743],[134.23993,35.39708],[134.23952,35.39667],[134.2391,35.39643],[134.23759,35.39591],[134.23666,35.39577],[134.2358,35.39577],[134.22385,35.39744]],[[134.21771,35.37263],[134.21804,35.37375]],[[134.22724,35.49374],[134.23263,35.49159]],[[134.22724,35.49374],[134.22493,35.4947]],[[134.25036,35.41215],[134.24855,35.40988]],[[134.25131,35.41347],[134.25036,35.41215]],[[134.06646,35.08081],[134.06543,35.08014]],[[134.06543,35.08014],[134.0484,35.07101],[134.0467,35.07003],[134.0446,35.06817],[134.03976,35.0632],[134.03737,35.05974],[134.03585,35.0588]],[[134.07143,35.1232],[134.07162,35.12061],[134.07166,35.11868],[134.07146,35.11744],[134.07127,35.1168],[134.06911,35.11226],[134.06638,35.1079],[134.06598,35.10712],[134.06589,35.10678],[134.06597,35.10633],[134.06692,35.10359],[134.06765,35.10289],[134.06887,35.102],[134.06914,35.10156],[134.06926,35.10116],[134.0695,35.09507],[134.06966,35.09418],[134.07043,35.0925],[134.07058,35.09199],[134.07078,35.0886],[134.07072,35.08767],[134.07037,35.08602],[134.06975,35.08456],[134.06929,35.08377],[134.06828,35.08249],[134.06646,35.08081]],[[134.03109,35.05866],[134.03254,35.05873]],[[134.03254,35.05873],[134.03585,35.0588]]]}}