{"type":"Feature","properties":{"id":"西日本旅客鉄道_片町線","name":"片町線","operator":"西日本旅客鉄道","railType":"普通鉄道(JR)","operatorType":"JR在来線","category":"rail","attribution":"国土数値情報（鉄道データ）国土交通省"},"geometry":{"type":"MultiLineString","coordinates":[[[135.82465,34.73433],[135.8249,34.73686]],[[135.65337,34.75583],[135.65333,34.75518]],[[135.64487,34.74534],[135.64393,34.74433],[135.64352,34.7437],[135.64096,34.73634],[135.64069,34.73567],[135.63965,34.73398],[135.63932,34.73274],[135.63927,34.73117]],[[135.74949,34.83087],[135.74815,34.83107],[135.74771,34.83122],[135.7453,34.83247],[135.74302,34.83329],[135.74196,34.83346],[135.73947,34.8334],[135.73867,34.8336],[135.73784,34.83406],[135.73678,34.83511],[135.73582,34.83567],[135.73434,34.83605],[135.73241,34.83636],[135.73115,34.83633],[135.73018,34.83606],[135.72961,34.83577],[135.72904,34.83538],[135.72853,34.83489],[135.72784,34.83374]],[[135.77865,34.8053],[135.77822,34.80583]],[[135.62238,34.70631],[135.62049,34.70626]],[[135.63688,34.71795],[135.63717,34.71896]],[[135.66281,34.76708],[135.66173,34.76657],[135.66128,34.76624],[135.65373,34.75966],[135.65345,34.75922],[135.65333,34.75874],[135.65337,34.75583]],[[135.66408,34.76762],[135.66281,34.76708]],[[135.62238,34.70631],[135.62434,34.70639],[135.62539,34.70668],[135.63228,34.70904],[135.63313,34.70937],[135.63391,34.70986],[135.63467,34.7108],[135.63498,34.71138],[135.63688,34.71795]],[[135.7029,34.81479],[135.7026,34.81409]],[[135.68428,34.77635],[135.66408,34.76762]],[[135.78427,34.79899],[135.78361,34.80036],[135.78299,34.80126],[135.77865,34.8053]],[[135.78849,34.78093],[135.78721,34.78891],[135.78635,34.79322],[135.78566,34.7959],[135.78474,34.79795]],[[135.80203,34.73826],[135.79919,34.73921],[135.79834,34.7397],[135.79789,34.74004],[135.7965,34.74147],[135.79572,34.74232],[135.79539,34.74282],[135.79502,34.74365],[135.79494,34.74425],[135.79502,34.74866],[135.79496,34.74973],[135.79462,34.75093],[135.79373,34.75287],[135.79324,34.75374],[135.79286,34.75483],[135.79258,34.75597],[135.79205,34.75985]],[[135.80286,34.738],[135.80203,34.73826]],[[135.69804,34.80188],[135.69791,34.80094]],[[135.71339,34.82617],[135.71268,34.82571]],[[135.76776,34.8227],[135.76701,34.82382],[135.76653,34.8242],[135.7658,34.82449],[135.76448,34.82468],[135.7613,34.82468],[135.76046,34.82475],[135.75932,34.82497],[135.7585,34.82524],[135.75724,34.82593],[135.75615,34.8268],[135.75509,34.82789],[135.75394,34.82924],[135.75316,34.82988],[135.75201,34.83046],[135.7503,34.83074]],[[135.72784,34.83374],[135.7273,34.83264]],[[135.7026,34.81409],[135.69847,34.80336],[135.69804,34.80188]],[[135.59848,34.69875],[135.59914,34.69868],[135.60022,34.6987],[135.60079,34.69882],[135.6015,34.69909],[135.61077,34.70389],[135.61344,34.70509],[135.61533,34.70565],[135.61714,34.70606],[135.62049,34.70626]],[[135.63922,34.72963],[135.63927,34.73117]],[[135.69791,34.80094],[135.69671,34.79134],[135.69652,34.79033],[135.69606,34.78935],[135.68948,34.77969],[135.68878,34.77883],[135.68739,34.77774],[135.68502,34.77668]],[[135.71268,34.82571],[135.71211,34.82521],[135.70925,34.82164],[135.70834,34.82084],[135.7055,34.8187],[135.70474,34.81798],[135.70425,34.81731],[135.70332,34.81572],[135.7029,34.81479]],[[135.79205,34.75985],[135.792,34.76053]],[[135.792,34.76053],[135.79127,34.76709],[135.79009,34.77563],[135.7897,34.77719],[135.78905,34.77843],[135.78882,34.77911],[135.78862,34.78022]],[[135.76895,34.82071],[135.76776,34.8227]],[[135.77822,34.80583],[135.77751,34.80727],[135.77663,34.80969],[135.77619,34.81053],[135.77245,34.81482],[135.76895,34.82071]],[[135.68502,34.77668],[135.68428,34.77635]],[[135.65333,34.75518],[135.65312,34.7541],[135.65264,34.75325],[135.64544,34.74595]],[[135.78427,34.79899],[135.78474,34.79795]],[[135.78862,34.78022],[135.78849,34.78093]],[[135.64544,34.74595],[135.64487,34.74534]],[[135.7503,34.83074],[135.74949,34.83087]],[[135.63717,34.71896],[135.63908,34.72592],[135.63928,34.72745],[135.63922,34.72963]],[[135.8249,34.73686],[135.82476,34.73743],[135.82456,34.73781],[135.82412,34.73843],[135.82375,34.73874],[135.82282,34.73925],[135.82139,34.73951],[135.82056,34.73949],[135.81938,34.73922],[135.8176,34.73852],[135.81613,34.73817],[135.81504,34.73758],[135.81452,34.73739],[135.81239,34.73714],[135.80881,34.73688],[135.80724,34.73692],[135.80525,34.73724],[135.80286,34.738]],[[135.7273,34.83264],[135.72675,34.83147],[135.72598,34.83021],[135.7252,34.82957],[135.72309,34.82841],[135.72205,34.82809],[135.72,34.828],[135.7193,34.82789],[135.71504,34.82684],[135.71339,34.82617]],[[135.59681,34.69897],[135.59848,34.69875]],[[135.53334,34.69581],[135.53483,34.69624]],[[135.56227,34.68802],[135.56123,34.68813],[135.55889,34.68856],[135.55698,34.68903],[135.55466,34.69001],[135.5522,34.6912],[135.5516,34.69138],[135.55093,34.6915],[135.54739,34.69175],[135.54663,34.69193],[135.5459,34.6922]],[[135.58184,34.69301],[135.58499,34.6971],[135.58536,34.69749],[135.5861,34.69794],[135.588,34.69855],[135.59182,34.69953],[135.59295,34.69951],[135.59681,34.69897]],[[135.5459,34.6922],[135.54492,34.69283],[135.54436,34.69338]],[[135.564,34.68798],[135.56227,34.68802]],[[135.564,34.68798],[135.5747,34.68787],[135.57533,34.68793],[135.5762,34.68817],[135.57682,34.68844],[135.57751,34.68881],[135.57891,34.68975],[135.58009,34.6909],[135.581,34.69197]],[[135.54436,34.69338],[135.54395,34.69387],[135.54324,34.69566],[135.54288,34.69628],[135.54252,34.69673],[135.54207,34.6971],[135.54121,34.69747],[135.54026,34.69761],[135.53923,34.69749],[135.53483,34.69624]],[[135.581,34.69197],[135.58184,34.69301]]]}}