{"type":"Feature","properties":{"id":"西日本旅客鉄道_奈良線","name":"奈良線","operator":"西日本旅客鉄道","railType":"普通鉄道(JR)","operatorType":"JR在来線","category":"rail","attribution":"国土数値情報（鉄道データ）国土交通省"},"geometry":{"type":"MultiLineString","coordinates":[[[135.76955,34.98182],[135.76889,34.98262],[135.76768,34.98371],[135.76625,34.98497],[135.76566,34.98529],[135.76458,34.98542],[135.76325,34.98543],[135.76218,34.98537],[135.76116,34.98521]],[[135.76116,34.98521],[135.75748,34.98513]],[[135.79882,34.92424],[135.79903,34.92538]],[[135.77061,34.96729],[135.77042,34.969],[135.77028,34.97168],[135.77011,34.97871],[135.77001,34.98022],[135.76985,34.98093]],[[135.7979,34.9326],[135.79676,34.93313]],[[135.77101,34.93278],[135.76963,34.9335],[135.7688,34.93429],[135.76833,34.93494],[135.76773,34.93633],[135.76767,34.93685],[135.76775,34.93735],[135.76792,34.93788],[135.76844,34.93875],[135.77319,34.94388],[135.77372,34.94455],[135.77528,34.94736]],[[135.75748,34.98513],[135.75571,34.98524],[135.75412,34.98546]],[[135.77528,34.94736],[135.77593,34.94857]],[[135.77593,34.94857],[135.77639,34.94951],[135.77659,34.95021],[135.77746,34.95544],[135.77748,34.95631],[135.77728,34.95713],[135.77685,34.95822],[135.77635,34.95899],[135.77182,34.96466],[135.77091,34.96621]],[[135.79903,34.92538],[135.79945,34.92803],[135.79965,34.92979],[135.79963,34.93028],[135.79936,34.93106],[135.79891,34.93175],[135.79851,34.93218],[135.7979,34.9326]],[[135.77091,34.96621],[135.7707,34.96674],[135.77061,34.96729]],[[135.80387,34.91227],[135.8035,34.91332]],[[135.77291,34.93234],[135.77101,34.93278]],[[135.8035,34.91332],[135.8031,34.91428],[135.80271,34.91493],[135.79936,34.91919],[135.79868,34.92033],[135.79845,34.92148],[135.7985,34.9225],[135.79882,34.92424]],[[135.76985,34.98093],[135.76955,34.98182]],[[135.79676,34.93313],[135.79247,34.93456],[135.79172,34.93467],[135.78978,34.9347],[135.78687,34.93431],[135.78563,34.93401],[135.7847,34.93356],[135.78296,34.93218],[135.7821,34.93172],[135.78079,34.93142],[135.77933,34.93151],[135.77291,34.93234]],[[135.82465,34.73433],[135.8249,34.73686]],[[135.7807,34.87385],[135.78076,34.87483]],[[135.78687,34.88916],[135.7909,34.88888],[135.79325,34.88893],[135.79736,34.88929],[135.79878,34.88957],[135.80021,34.89008]],[[135.8249,34.73686],[135.82508,34.73938],[135.82509,34.74011],[135.82499,34.74093],[135.82466,34.742],[135.82153,34.7499]],[[135.80698,34.80014],[135.80696,34.80124]],[[135.78557,34.88895],[135.78634,34.88913],[135.78687,34.88916]],[[135.78919,34.84264],[135.78767,34.84329],[135.78725,34.84356],[135.78657,34.8444],[135.78594,34.8456],[135.7832,34.85212],[135.78288,34.85274],[135.78134,34.85513]],[[135.80141,34.89068],[135.80315,34.89181],[135.80759,34.89516],[135.80828,34.89601],[135.80861,34.89678],[135.80875,34.89739],[135.80878,34.89772],[135.80868,34.89839],[135.80387,34.91227]],[[135.82153,34.7499],[135.82107,34.75105]],[[135.82107,34.75105],[135.81897,34.75652],[135.81784,34.7592],[135.8177,34.76184],[135.81754,34.76233],[135.81703,34.76312],[135.81605,34.76414],[135.81555,34.76527],[135.81529,34.76703],[135.8153,34.76774],[135.81578,34.77054],[135.816,34.77427]],[[135.80696,34.80124],[135.80687,34.80913],[135.80764,34.81178],[135.8077,34.81299],[135.80762,34.81372],[135.80746,34.81432],[135.80712,34.81543],[135.8064,34.81724]],[[135.816,34.77427],[135.81604,34.775]],[[135.80021,34.89008],[135.80141,34.89068]],[[135.78076,34.87483],[135.78079,34.87591],[135.78072,34.87672],[135.77998,34.87908],[135.7798,34.87995],[135.77985,34.88092],[135.78008,34.88182],[135.7831,34.88716],[135.78367,34.88788],[135.7844,34.8885],[135.78557,34.88895]],[[135.8064,34.81724],[135.80612,34.81795]],[[135.78134,34.85513],[135.78078,34.85603]],[[135.80612,34.81795],[135.80324,34.82507],[135.80043,34.82787]],[[135.81604,34.775],[135.81641,34.77911],[135.81639,34.78018],[135.81613,34.78128],[135.81586,34.78188],[135.81273,34.78738],[135.8099,34.79299],[135.80736,34.79706],[135.8072,34.7974],[135.80708,34.79809],[135.80698,34.80014]],[[135.78078,34.85603],[135.77905,34.8589],[135.77883,34.85956],[135.77867,34.86066],[135.77872,34.86149],[135.78042,34.86949],[135.7807,34.87385]],[[135.79988,34.82841],[135.79766,34.8306],[135.79721,34.83121],[135.79702,34.83163],[135.79682,34.83292],[135.79693,34.83471],[135.79685,34.83567],[135.79596,34.83839],[135.79559,34.83922],[135.79529,34.83964],[135.79445,34.84032],[135.79363,34.84076],[135.79036,34.84214]],[[135.79036,34.84214],[135.78919,34.84264]],[[135.80043,34.82787],[135.79988,34.82841]]]}}