{"type":"Feature","properties":{"id":"西日本旅客鉄道_小野田線","name":"小野田線","operator":"西日本旅客鉄道","railType":"普通鉄道(JR)","operatorType":"JR在来線","category":"rail","attribution":"国土数値情報（鉄道データ）国土交通省"},"geometry":{"type":"MultiLineString","coordinates":[[[131.1843,34.00803],[131.18703,34.00769]],[[131.18703,34.00769],[131.18769,34.00761]],[[131.2032,33.97051],[131.20234,33.97032]],[[131.17984,33.95082],[131.17934,33.95024]],[[131.20234,33.97032],[131.20048,33.9698],[131.19961,33.96937],[131.19903,33.9689],[131.19701,33.96677]],[[131.17498,33.97202],[131.17487,33.97116]],[[131.19637,33.96628],[131.19504,33.96554],[131.19372,33.96494],[131.19088,33.96414],[131.19014,33.96364],[131.18729,33.96093]],[[131.17934,33.98697],[131.17834,33.9868]],[[131.18315,33.99635],[131.18298,33.99566],[131.18329,33.99408],[131.18338,33.99308],[131.18312,33.99175],[131.18313,33.99126],[131.18337,33.99021],[131.18333,33.98947],[131.18264,33.98854],[131.18141,33.98756],[131.18075,33.98731],[131.17934,33.98697]],[[131.18352,33.99691],[131.18315,33.99635]],[[131.17496,33.97774],[131.175,33.97703]],[[131.18642,33.96044],[131.18729,33.96093]],[[131.18729,33.96093],[131.18665,33.96028]],[[131.17934,33.95024],[131.17843,33.94914],[131.17452,33.94486],[131.17348,33.94333]],[[131.17834,33.9868],[131.17745,33.98645],[131.17709,33.9861],[131.17681,33.98559],[131.17666,33.9848],[131.17668,33.98239],[131.1764,33.98173],[131.1754,33.98076],[131.17499,33.98005],[131.17491,33.97977],[131.17496,33.97774]],[[131.175,33.97703],[131.17541,33.97535],[131.17498,33.97202]],[[131.19701,33.96677],[131.19637,33.96628]],[[131.18665,33.96028],[131.18537,33.95905],[131.18488,33.95842],[131.1814,33.95296],[131.17984,33.95082]],[[131.18352,33.99691],[131.18391,33.99724],[131.18461,33.9976],[131.18754,33.99832],[131.18805,33.99853],[131.18852,33.99887],[131.19007,34.0005],[131.19098,34.00173],[131.1911,34.00226],[131.19086,34.00326],[131.18924,34.00651],[131.18875,34.00697],[131.18769,34.00761]],[[131.17348,33.94333],[131.17309,33.94265]],[[131.22784,33.96726],[131.22741,33.96852]],[[131.22741,33.96852],[131.22664,33.96954],[131.22634,33.96979],[131.22542,33.97032],[131.22507,33.97043],[131.2242,33.97052],[131.22017,33.9708],[131.21205,33.97113],[131.20778,33.97073],[131.20493,33.9708],[131.2032,33.97051]],[[131.22826,33.96602],[131.22784,33.96726]],[[131.17487,33.97116],[131.17443,33.96743],[131.17468,33.96638],[131.17501,33.9656],[131.17527,33.96516],[131.17565,33.96474],[131.17678,33.96401],[131.1809,33.96164],[131.18357,33.96042],[131.18421,33.96019],[131.18487,33.96012],[131.18569,33.96021],[131.18642,33.96044]]]}}