{"type":"Feature","properties":{"id":"西日本旅客鉄道_赤穂線","name":"赤穂線","operator":"西日本旅客鉄道","railType":"普通鉄道(JR)","operatorType":"JR在来線","category":"rail","attribution":"国土数値情報（鉄道データ）国土交通省"},"geometry":{"type":"MultiLineString","coordinates":[[[134.33263,34.74666],[134.33074,34.74674]],[[134.19599,34.74805],[134.18497,34.74542]],[[134.45138,34.80193],[134.45734,34.80541],[134.4586,34.80623],[134.45951,34.80707],[134.46004,34.80771],[134.46043,34.80834],[134.46218,34.81156],[134.46323,34.81332],[134.46457,34.81508],[134.46567,34.81622],[134.4667,34.81702],[134.46752,34.81748],[134.46824,34.81774],[134.47023,34.81816]],[[134.47023,34.81816],[134.47155,34.8181]],[[134.27751,34.73498],[134.27551,34.73535]],[[134.33074,34.74674],[134.32492,34.74698],[134.32332,34.74713],[134.31211,34.7492],[134.31058,34.74945],[134.30967,34.74951],[134.3081,34.7494],[134.30219,34.74794],[134.3008,34.74751],[134.29809,34.74632]],[[134.12084,34.72812],[134.11958,34.7277]],[[134.22466,34.74101],[134.2244,34.7421]],[[134.18355,34.74507],[134.18194,34.74462],[134.17289,34.74155],[134.16187,34.73876]],[[134.11958,34.7277],[134.11456,34.726],[134.11348,34.72555],[134.11273,34.72511],[134.11202,34.72457],[134.11086,34.72336],[134.11035,34.72258],[134.10999,34.72176],[134.109,34.7187],[134.10814,34.71664],[134.09889,34.7]],[[134.39136,34.75661],[134.39474,34.75665]],[[134.16187,34.73876],[134.16035,34.73842]],[[134.35203,34.7493],[134.35621,34.75088],[134.35757,34.75125],[134.36253,34.75168],[134.37275,34.75316],[134.3764,34.75377],[134.37814,34.75441],[134.38087,34.75574],[134.38199,34.75615],[134.38337,34.75648],[134.38504,34.7566],[134.39136,34.75661]],[[134.19767,34.74846],[134.19599,34.74805]],[[134.16035,34.73842],[134.15795,34.73809],[134.14874,34.73727],[134.1471,34.73695],[134.12084,34.72812]],[[134.3508,34.74882],[134.34625,34.74711],[134.34485,34.74666],[134.34309,34.74632],[134.34074,34.74632],[134.33263,34.74666]],[[134.45006,34.8009],[134.45138,34.80193]],[[134.39474,34.75665],[134.39855,34.75672],[134.39989,34.75687],[134.40124,34.75716],[134.40246,34.75753],[134.40401,34.75819],[134.40597,34.75936],[134.41669,34.76817]],[[134.27551,34.73535],[134.27206,34.73594],[134.27071,34.73605],[134.26903,34.7359],[134.26627,34.73543],[134.26468,34.73481],[134.26097,34.73297],[134.25461,34.73105],[134.25273,34.73076],[134.24982,34.73076],[134.23492,34.7316],[134.23319,34.73176],[134.23101,34.73217],[134.22984,34.7326],[134.22848,34.73338],[134.2272,34.73441],[134.22655,34.73518],[134.22608,34.73594],[134.22566,34.73682],[134.22466,34.74101]],[[134.41669,34.76817],[134.41803,34.76926]],[[134.29738,34.74599],[134.29614,34.74537],[134.29473,34.7444],[134.28998,34.7392],[134.28818,34.73737],[134.28752,34.73679],[134.28665,34.73618],[134.28588,34.73577],[134.284,34.73508],[134.2833,34.73489],[134.28188,34.73467],[134.27956,34.73468],[134.27751,34.73498]],[[134.47571,34.81786],[134.47155,34.8181]],[[134.41803,34.76926],[134.43732,34.78529],[134.4451,34.79206],[134.4463,34.79324],[134.44723,34.79479],[134.44785,34.79641],[134.44847,34.79853],[134.449,34.79964],[134.44978,34.80065],[134.45006,34.8009]],[[134.29809,34.74632],[134.29738,34.74599]],[[134.2244,34.7421],[134.22321,34.74729],[134.22289,34.74806],[134.22234,34.74891],[134.22143,34.74991],[134.22026,34.75077],[134.21873,34.75152],[134.21669,34.75215],[134.21504,34.75233],[134.21367,34.75221],[134.19767,34.74846]],[[134.3508,34.74882],[134.35203,34.7493]],[[134.18497,34.74542],[134.18355,34.74507]],[[133.9884,34.68571],[133.99335,34.68614]],[[133.98599,34.68548],[133.9884,34.68571]],[[134.00596,34.6657],[134.00688,34.6654]],[[134.00688,34.6654],[134.02028,34.66191],[134.02219,34.66158],[134.02338,34.66148],[134.02488,34.66148],[134.03584,34.66181]],[[134.07151,34.66154],[134.07028,34.66127]],[[133.99335,34.68614],[133.99535,34.68589],[133.99695,34.68538],[133.99799,34.68481],[133.99902,34.68402],[133.99973,34.68323],[134.00033,34.68235],[134.00076,34.68133],[134.00098,34.67982],[134.00068,34.67216],[134.0007,34.67165],[134.00091,34.67068],[134.0012,34.6699],[134.00187,34.66873],[134.003,34.66746],[134.00362,34.66691],[134.00422,34.66653],[134.00596,34.6657]],[[134.09143,34.66904],[134.09187,34.6699],[134.09669,34.68216],[134.09739,34.68397],[134.09769,34.68499],[134.09778,34.68635],[134.09765,34.68736],[134.09621,34.69187],[134.09602,34.69288],[134.09601,34.69366],[134.09618,34.69462],[134.09656,34.69575],[134.09809,34.69861]],[[134.03584,34.66181],[134.03768,34.66186]],[[134.09143,34.66904],[134.09052,34.66787]],[[134.09809,34.69861],[134.09889,34.7]],[[134.07028,34.66127],[134.06203,34.65941],[134.06077,34.65923],[134.05974,34.6592],[134.05878,34.6593],[134.05759,34.65955],[134.04902,34.66207],[134.04653,34.66212],[134.03768,34.66186]],[[134.09052,34.66787],[134.08954,34.66701],[134.08837,34.66619],[134.08692,34.66534],[134.08576,34.66487],[134.08375,34.66433],[134.07151,34.66154]]]}}