{"type":"Feature","properties":{"id":"西日本旅客鉄道_紀勢線","name":"紀勢線","operator":"西日本旅客鉄道","railType":"普通鉄道(JR)","operatorType":"JR在来線","category":"rail","attribution":"国土数値情報（鉄道データ）国土交通省"},"geometry":{"type":"MultiLineString","coordinates":[[[135.99505,33.72356],[135.99384,33.7251]],[[135.92234,33.5825],[135.92339,33.5843],[135.92349,33.58459],[135.92362,33.58539],[135.92343,33.58714],[135.92366,33.5878],[135.92429,33.58848],[135.92627,33.58995],[135.92724,33.5909]],[[135.73667,33.491],[135.73936,33.49218],[135.73966,33.49225],[135.74096,33.49234],[135.74239,33.49204],[135.74334,33.49211],[135.74444,33.49248],[135.74538,33.49294],[135.74761,33.49355],[135.74851,33.49374],[135.75271,33.49422],[135.75412,33.49425],[135.75875,33.49333],[135.75949,33.49311],[135.76017,33.49279],[135.76843,33.48776],[135.76881,33.48746],[135.76948,33.48664],[135.76978,33.48589],[135.77035,33.48108],[135.77045,33.48061],[135.77066,33.48017],[135.77123,33.47961],[135.77186,33.47931],[135.77271,33.4791],[135.77376,33.47905],[135.77457,33.47887],[135.77535,33.47843],[135.77594,33.47785],[135.77647,33.47487],[135.77663,33.47435],[135.77692,33.47404],[135.77783,33.47355],[135.77918,33.47352],[135.77954,33.47366],[135.7801,33.47404],[135.78137,33.47521]],[[135.60347,33.50977],[135.60307,33.5092]],[[135.9362,33.64328],[135.93678,33.64441]],[[135.97073,33.68011],[135.97022,33.67957]],[[135.93461,33.63677],[135.93423,33.63738]],[[135.92724,33.5909],[135.92754,33.59133],[135.9278,33.59191]],[[135.73667,33.491],[135.73585,33.49087]],[[135.97073,33.68011],[135.97301,33.68262],[135.97454,33.68373],[135.97829,33.68597],[135.98131,33.68697],[135.98219,33.68734],[135.98317,33.68801],[135.98452,33.68918]],[[135.65525,33.5012],[135.65459,33.5011]],[[135.92234,33.5825],[135.92187,33.58174]],[[135.86832,33.53696],[135.86794,33.53599]],[[135.97199,33.66239],[135.97239,33.66279],[135.97261,33.66323]],[[135.79636,33.49756],[135.79619,33.49703]],[[135.82094,33.51779],[135.82128,33.51595],[135.82118,33.51516],[135.82079,33.51425],[135.82009,33.51353],[135.81845,33.51259],[135.81762,33.51184],[135.81716,33.51105],[135.81602,33.50794],[135.81561,33.50716],[135.81204,33.50393],[135.81095,33.50324],[135.81073,33.50321],[135.80598,33.50442],[135.80539,33.50443],[135.80469,33.50425],[135.80432,33.50405],[135.80381,33.50359],[135.8033,33.5019],[135.80279,33.50121],[135.80238,33.50103],[135.80174,33.5009],[135.79933,33.50079],[135.79871,33.50069],[135.79799,33.50043],[135.79755,33.50009],[135.7972,33.4997],[135.7968,33.49903],[135.79636,33.49756]],[[135.89438,33.56076],[135.89367,33.5602]],[[135.97261,33.66323],[135.97277,33.66371],[135.97281,33.66481],[135.97313,33.66651],[135.97317,33.66736],[135.97307,33.66771],[135.97282,33.6681],[135.97106,33.67005],[135.97001,33.6709],[135.96959,33.67195],[135.96849,33.6753],[135.96853,33.67627],[135.96931,33.67832],[135.96952,33.67871],[135.97022,33.67957]],[[135.94149,33.62867],[135.94147,33.63007],[135.94134,33.63053],[135.94102,33.63112],[135.93617,33.63507],[135.93461,33.63677]],[[135.98535,33.68988],[135.98653,33.6909],[135.98709,33.69125],[135.9877,33.69152],[135.98886,33.69186],[135.98929,33.69208],[135.99082,33.69341],[135.99105,33.69372],[135.99156,33.69479],[135.99223,33.69891],[135.99218,33.69944],[135.99179,33.70047],[135.99168,33.701],[135.99178,33.70164],[135.99206,33.70247],[135.99397,33.70508],[135.99485,33.70643],[135.99594,33.70752],[135.99676,33.70885],[135.99889,33.71144],[136.00091,33.71412],[136.00111,33.71459],[136.00119,33.71508],[136.00115,33.71563],[136.0009,33.71613],[135.99505,33.72356]],[[135.73585,33.49087],[135.73519,33.49084],[135.73391,33.49106],[135.73302,33.49144],[135.73146,33.49239],[135.73054,33.49266],[135.72989,33.49276],[135.72926,33.49275],[135.72665,33.49194],[135.7241,33.49053],[135.7224,33.48931],[135.72174,33.48895],[135.72069,33.48848],[135.71967,33.48819]],[[135.65459,33.5011],[135.653,33.50087],[135.651,33.50075],[135.64957,33.50117],[135.64692,33.50212],[135.64489,33.50246],[135.64374,33.50278],[135.6431,33.50319],[135.64066,33.50617],[135.63984,33.50675],[135.63899,33.50714],[135.636,33.50783],[135.62902,33.51122],[135.62776,33.51156],[135.62709,33.51156],[135.626,33.51138],[135.62471,33.5109],[135.62316,33.50961],[135.62168,33.50785],[135.62111,33.50737],[135.62064,33.5071],[135.61986,33.50682],[135.61896,33.50656],[135.61829,33.50647],[135.61722,33.5065],[135.61637,33.50674],[135.61569,33.50704],[135.61308,33.50861],[135.61237,33.50893],[135.60936,33.50931],[135.6086,33.50974],[135.6075,33.51064],[135.60678,33.51099],[135.60586,33.51109],[135.60463,33.51088],[135.6041,33.51055],[135.60347,33.50977]],[[135.78186,33.47577],[135.78137,33.47521]],[[135.92187,33.58174],[135.91943,33.5776],[135.91929,33.57721],[135.91917,33.57639],[135.91898,33.57594],[135.91741,33.5739],[135.91407,33.57063],[135.91327,33.57008],[135.91159,33.56932],[135.91086,33.56879],[135.91017,33.56808],[135.90938,33.56703],[135.90901,33.56669],[135.90852,33.56643],[135.90674,33.56595],[135.9059,33.56558],[135.90557,33.56529],[135.90504,33.56418],[135.90449,33.56347],[135.90389,33.56316],[135.90335,33.56304],[135.90259,33.56304],[135.9012,33.56344],[135.90033,33.56344],[135.8978,33.56228],[135.89578,33.56187],[135.89438,33.56076]],[[135.8208,33.51889],[135.82094,33.51779]],[[135.94127,33.62739],[135.94141,33.62779],[135.94149,33.62867]],[[135.86794,33.53599],[135.86696,33.53355],[135.86652,33.53274],[135.86556,33.52959],[135.8651,33.52897],[135.86335,33.5279],[135.8628,33.52766],[135.8623,33.5276],[135.86056,33.52762],[135.85963,33.52728],[135.8589,33.52673],[135.85845,33.52615],[135.85819,33.52567],[135.85765,33.52509],[135.85542,33.52339],[135.85488,33.52311],[135.85406,33.52291],[135.85315,33.52283],[135.85261,33.5229],[135.85148,33.52321],[135.85022,33.52324],[135.84817,33.52204],[135.84407,33.51924],[135.84351,33.51908],[135.84288,33.51905],[135.84198,33.51924],[135.84159,33.51947],[135.83989,33.52134],[135.83785,33.52279],[135.83488,33.52391],[135.83366,33.52461],[135.83314,33.52481],[135.83049,33.5251],[135.83003,33.52506],[135.82956,33.52495],[135.82644,33.52375],[135.82371,33.52298],[135.82283,33.52262],[135.82197,33.5221],[135.82122,33.5215],[135.82069,33.52074],[135.82064,33.52033],[135.8208,33.51889]],[[135.98535,33.68988],[135.98452,33.68918]],[[135.67794,33.4903],[135.67712,33.4903]],[[135.9278,33.59191],[135.92815,33.59289],[135.92822,33.59362],[135.92794,33.59818],[135.92823,33.59967],[135.92819,33.60031],[135.92803,33.60071],[135.92573,33.60464],[135.92546,33.60523],[135.9249,33.60794],[135.92485,33.6085],[135.92492,33.60911]],[[135.92542,33.61006],[135.92604,33.61066],[135.92796,33.6118],[135.92841,33.61202],[135.92989,33.61236],[135.93031,33.61253],[135.93314,33.61478],[135.93465,33.61579],[135.93522,33.61637],[135.93564,33.6172],[135.93611,33.61897],[135.93626,33.61934],[135.93648,33.61962],[135.93713,33.62014],[135.93876,33.62081],[135.93925,33.62117],[135.93959,33.62157],[135.94007,33.62254],[135.94021,33.62302],[135.94045,33.62592],[135.94127,33.62739]],[[135.92492,33.60911],[135.92504,33.60945],[135.92542,33.61006]],[[135.79619,33.49703],[135.79581,33.49557],[135.79446,33.49224],[135.79439,33.49179],[135.79453,33.48988],[135.79443,33.48952],[135.79342,33.48828],[135.79266,33.48749],[135.79109,33.48639],[135.79066,33.48596],[135.78656,33.48036],[135.78568,33.47964],[135.78333,33.47796],[135.78186,33.47577]],[[135.93423,33.63738],[135.93405,33.63819],[135.93411,33.63904],[135.9362,33.64328]],[[135.71859,33.48797],[135.71437,33.48762],[135.71333,33.48766],[135.71275,33.48774],[135.71024,33.48847],[135.70634,33.49],[135.70581,33.49028],[135.70537,33.49059],[135.70442,33.49168],[135.70292,33.49375],[135.70218,33.49429],[135.70152,33.49457],[135.70055,33.49471],[135.69961,33.49463],[135.69874,33.49429],[135.69796,33.4936],[135.69711,33.49233],[135.69647,33.49164],[135.69518,33.49105],[135.69139,33.48965],[135.69086,33.4896],[135.68992,33.48967],[135.685,33.49103],[135.68414,33.49099],[135.6811,33.49039],[135.67794,33.4903]],[[135.67712,33.4903],[135.67568,33.49041],[135.67456,33.49069],[135.67323,33.49124],[135.67113,33.49243],[135.66597,33.49413],[135.66361,33.49555],[135.66146,33.49698],[135.66096,33.49758],[135.66027,33.4993],[135.6594,33.50041],[135.65876,33.50094],[135.65824,33.50122],[135.65731,33.50139],[135.65525,33.5012]],[[135.89367,33.5602],[135.89163,33.55855],[135.89007,33.55634],[135.88963,33.5559],[135.88506,33.55309],[135.88452,33.55295],[135.88125,33.55278],[135.88038,33.55247],[135.87677,33.55049],[135.87621,33.55008],[135.8759,33.54959],[135.87558,33.5484],[135.87534,33.5479],[135.875,33.54751],[135.87469,33.54729],[135.87378,33.54699],[135.87189,33.547],[135.8713,33.54688],[135.86977,33.54634],[135.86918,33.54594],[135.86864,33.54513],[135.86843,33.54419],[135.86871,33.54315],[135.86942,33.54165],[135.86951,33.54115],[135.8695,33.54031],[135.86832,33.53696]],[[135.71967,33.48819],[135.71859,33.48797]],[[135.93678,33.64441],[135.93744,33.64552],[135.93786,33.64604],[135.93864,33.64655],[135.93923,33.64683],[135.9404,33.64691],[135.94185,33.64673],[135.94262,33.64677],[135.94307,33.64688],[135.94426,33.64744],[135.94568,33.64856],[135.948,33.64971],[135.94931,33.65009],[135.95136,33.65028],[135.95408,33.65025],[135.95507,33.65058],[135.95608,33.65128],[135.95807,33.65364],[135.95901,33.65434],[135.96011,33.65462],[135.96275,33.65479],[135.96382,33.65518],[135.96511,33.65589],[135.966,33.65671],[135.96644,33.65739],[135.96696,33.65976],[135.96734,33.6604],[135.96763,33.66069],[135.9684,33.66121],[135.96885,33.66141],[135.97097,33.66176],[135.97139,33.66195],[135.97199,33.66239]],[[135.38782,33.6773],[135.38928,33.68025],[135.39004,33.68076],[135.39106,33.68112],[135.39156,33.6811],[135.39403,33.68063],[135.39496,33.68063],[135.39546,33.68073],[135.39587,33.68086],[135.39894,33.68275],[135.39949,33.68298],[135.40228,33.683],[135.4038,33.68274],[135.4044,33.68252],[135.40552,33.68167],[135.40641,33.68139],[135.40687,33.68133],[135.40762,33.6814],[135.40837,33.6817],[135.40886,33.68205],[135.41374,33.6867],[135.41675,33.69176],[135.41751,33.69624]],[[135.40278,33.72048],[135.40194,33.72149]],[[135.45788,33.58518],[135.45746,33.58574],[135.45706,33.58611],[135.45598,33.58658],[135.45526,33.58665],[135.4546,33.5866],[135.45225,33.58607],[135.45174,33.58603],[135.45065,33.58608],[135.45004,33.58629],[135.44971,33.58672],[135.44888,33.58734],[135.4468,33.58876],[135.43993,33.59372],[135.43957,33.59433],[135.43882,33.59627],[135.43836,33.5969],[135.43795,33.59724],[135.43609,33.59827],[135.42183,33.60532],[135.41989,33.60653],[135.41909,33.6073],[135.41816,33.60801],[135.41695,33.6083],[135.41423,33.60791],[135.41339,33.60796],[135.41298,33.60809],[135.41128,33.60917],[135.41033,33.60951],[135.40942,33.60953],[135.4079,33.60913],[135.40692,33.60905],[135.4057,33.60911],[135.40461,33.6095]],[[135.35555,33.74694],[135.35516,33.74754]],[[135.49572,33.5473],[135.49543,33.5488],[135.49517,33.5494],[135.4937,33.55186],[135.49331,33.55265],[135.49303,33.55374],[135.49299,33.55429],[135.49413,33.55862],[135.49482,33.56078],[135.49497,33.5616],[135.49501,33.56222],[135.49471,33.56454],[135.49495,33.56843],[135.49501,33.57085],[135.49497,33.57117],[135.49443,33.57247],[135.49323,33.57468],[135.4922,33.57623],[135.49138,33.57678],[135.47874,33.58299],[135.47808,33.58323],[135.47744,33.5833],[135.47685,33.58326],[135.47616,33.5831],[135.47509,33.58262],[135.47011,33.57985],[135.46919,33.57955],[135.46808,33.57949],[135.46748,33.57957],[135.46663,33.57984],[135.46029,33.5821],[135.45977,33.58235],[135.45945,33.58258],[135.45902,33.58314],[135.45822,33.58462]],[[135.40461,33.6095],[135.4039,33.60986],[135.40319,33.61041]],[[135.38724,33.67515],[135.38734,33.67603],[135.38782,33.6773]],[[135.39297,33.65305],[135.38634,33.66071],[135.386,33.66115],[135.38541,33.66263],[135.3853,33.6631],[135.38526,33.66416],[135.38546,33.66522],[135.38737,33.67188],[135.38724,33.67515]],[[135.40194,33.72149],[135.40074,33.72325],[135.39997,33.72407],[135.3995,33.72433],[135.39785,33.72482],[135.39697,33.72517],[135.3946,33.72687],[135.39278,33.72782],[135.39095,33.72955],[135.39063,33.72974],[135.38742,33.73061],[135.38645,33.73131],[135.38452,33.73295]],[[135.39395,33.65194],[135.39297,33.65305]],[[135.41751,33.69624],[135.41768,33.69727]],[[135.41768,33.69727],[135.4188,33.70392],[135.41904,33.70579],[135.419,33.70637],[135.41878,33.70722],[135.41837,33.70826],[135.41716,33.70961],[135.41654,33.71001],[135.41521,33.71073],[135.41369,33.71116],[135.41315,33.71144],[135.41047,33.71325],[135.4102,33.71355],[135.40996,33.71412],[135.40973,33.71598],[135.40931,33.71699],[135.40905,33.71738],[135.4084,33.71795],[135.40754,33.7184],[135.40513,33.71909],[135.40466,33.7193],[135.40388,33.71967],[135.40278,33.72048]],[[135.49579,33.54644],[135.49572,33.5473]],[[135.38295,33.73426],[135.37747,33.73886],[135.37628,33.73954],[135.37536,33.73969],[135.3744,33.73973],[135.37393,33.73966],[135.37279,33.73921],[135.36891,33.73621],[135.36768,33.7356],[135.36622,33.73539],[135.3637,33.73533],[135.36275,33.73547],[135.36209,33.73573],[135.36136,33.73613],[135.36069,33.73669],[135.35695,33.74185],[135.35655,33.74283],[135.35608,33.74571],[135.35555,33.74694]],[[135.38452,33.73295],[135.38295,33.73426]],[[135.57571,33.51528],[135.57547,33.51593]],[[135.49579,33.54644],[135.4959,33.54456],[135.49607,33.54402],[135.4965,33.54339],[135.49916,33.54175],[135.50105,33.54079],[135.50194,33.54069],[135.50376,33.54077],[135.50474,33.54056],[135.50519,33.54035],[135.50993,33.53567],[135.51116,33.53498],[135.51261,33.53455],[135.51343,33.5345],[135.51705,33.53476],[135.51813,33.53478],[135.51948,33.53468],[135.52394,33.5339],[135.52513,33.53401],[135.52881,33.53496],[135.52938,33.53496],[135.53357,33.53446],[135.53488,33.53422],[135.5454,33.53044],[135.54627,33.52998],[135.54723,33.52911],[135.5477,33.52857],[135.5504,33.52483],[135.55219,33.52293],[135.55466,33.52093],[135.55815,33.51882],[135.55904,33.51837],[135.56352,33.517],[135.5654,33.51677],[135.5662,33.51679],[135.56945,33.51783],[135.57011,33.51795],[135.57155,33.51788],[135.57303,33.51758],[135.57375,33.51733],[135.57481,33.51671],[135.57547,33.51593]],[[135.40319,33.61041],[135.40275,33.61089],[135.40262,33.61118],[135.40066,33.61616],[135.40044,33.61772],[135.40049,33.62224],[135.40034,33.62354],[135.39991,33.62437],[135.39952,33.62485],[135.39919,33.62512],[135.39883,33.6257],[135.39818,33.62714],[135.39807,33.62758],[135.39806,33.62809],[135.39816,33.62864],[135.39975,33.63097],[135.39987,33.63127],[135.39996,33.63239],[135.40021,33.63372],[135.40077,33.63453],[135.40247,33.6364],[135.4027,33.63699],[135.40276,33.63744],[135.40268,33.6382],[135.40174,33.64003],[135.4006,33.64424],[135.40027,33.64472],[135.3986,33.64653],[135.39395,33.65194]],[[135.45822,33.58462],[135.45788,33.58518]],[[135.60307,33.5092],[135.60259,33.50851],[135.60211,33.50807],[135.59984,33.50761],[135.59876,33.50756],[135.59721,33.50763],[135.59385,33.50786],[135.59252,33.50805],[135.59175,33.50839],[135.59012,33.50968],[135.58952,33.51002],[135.58815,33.51035],[135.58189,33.51153],[135.57768,33.51242],[135.57689,33.5128],[135.57646,33.51323],[135.57611,33.5139],[135.57571,33.51528]],[[135.19156,34.23162],[135.19123,34.23334]],[[135.19123,34.23334],[135.1905,34.23714]],[[135.17667,33.91111],[135.18411,33.91066],[135.18551,33.91042],[135.18611,33.91023],[135.18696,33.90977],[135.18772,33.90904],[135.18894,33.90757],[135.18956,33.90712],[135.19011,33.90679],[135.19162,33.90644],[135.19206,33.90639],[135.19325,33.90644],[135.1961,33.90685],[135.19904,33.90822]],[[135.20639,33.89662],[135.20746,33.89762]],[[135.2801,33.78015],[135.28087,33.77953],[135.28183,33.77848],[135.28229,33.77773],[135.28292,33.77626],[135.2836,33.77557],[135.28434,33.77511],[135.28922,33.77328],[135.29057,33.77309],[135.29508,33.77331],[135.29605,33.77353],[135.29659,33.77377],[135.29861,33.77496]],[[135.19904,33.90822],[135.20011,33.90859],[135.20082,33.90867],[135.20215,33.90853],[135.20313,33.90829],[135.20422,33.90788],[135.20469,33.90764],[135.20592,33.90676]],[[135.14507,33.9264],[135.14401,33.93027],[135.14377,33.93087],[135.14336,33.93155],[135.14258,33.93238],[135.14209,33.93275],[135.13818,33.93484],[135.13745,33.93531],[135.13691,33.93576],[135.13585,33.93691],[135.13521,33.93788],[135.13505,33.93841]],[[135.19122,34.04936],[135.19676,34.05705]],[[135.1359,34.10813],[135.14078,34.10828],[135.14363,34.10845],[135.14492,34.10869]],[[135.21438,34.15536],[135.21387,34.15787],[135.21355,34.15867],[135.2131,34.15943],[135.21184,34.16096]],[[135.11525,34.09931],[135.11356,34.09513],[135.11332,34.0943],[135.11326,34.09393],[135.11328,34.09258],[135.11348,34.09153],[135.11381,34.09079],[135.11464,34.08971],[135.11604,34.08834],[135.11655,34.08794],[135.11729,34.08755],[135.11911,34.08693],[135.12327,34.08621]],[[135.17968,34.03165],[135.18068,34.03272]],[[135.21073,34.16884],[135.21105,34.16709],[135.21139,34.16213],[135.21148,34.16167],[135.21184,34.16096]],[[135.18047,34.24191],[135.18226,34.24199]],[[135.20639,33.886],[135.20718,33.88382],[135.20783,33.88243],[135.20881,33.88096],[135.21025,33.87909],[135.21294,33.87636],[135.21544,33.87465],[135.21658,33.87364]],[[135.14507,33.9264],[135.1454,33.92527]],[[135.15224,33.98184],[135.15283,33.98233],[135.15324,33.98286],[135.15365,33.98389],[135.15255,34.00116],[135.15263,34.00221],[135.15308,34.00333],[135.15353,34.00375]],[[135.19676,34.05705],[135.19754,34.0583]],[[135.20746,33.89762],[135.20924,33.89944],[135.20976,33.90047],[135.20996,33.90157],[135.20985,33.90222],[135.20961,33.90292],[135.20933,33.90337],[135.20592,33.90676]],[[135.17968,34.03165],[135.17886,34.0305],[135.17662,34.02596],[135.17585,34.02458],[135.17036,34.01632],[135.16921,34.01521],[135.16712,34.01384],[135.16623,34.01337],[135.16554,34.01311],[135.16477,34.01292],[135.1641,34.01285]],[[135.12612,33.96018],[135.12561,33.96421],[135.12568,33.96551],[135.1259,33.96639],[135.12618,33.96693],[135.12661,33.9675],[135.12764,33.96849]],[[135.18904,34.21378],[135.19211,34.22209],[135.19258,34.22409],[135.19265,34.22497],[135.1926,34.22572],[135.19211,34.22903],[135.19156,34.23162]],[[135.18068,34.03272],[135.18449,34.03543],[135.19015,34.04256]],[[135.15353,34.00375],[135.15758,34.00607],[135.1587,34.007],[135.15938,34.00796],[135.15963,34.00852],[135.15968,34.00984],[135.15992,34.01091],[135.1602,34.01135],[135.16061,34.01176],[135.16123,34.01224],[135.16163,34.01243],[135.16337,34.01278]],[[135.20639,33.89662],[135.20517,33.89545],[135.20449,33.89451],[135.20414,33.89355],[135.20412,33.89291],[135.20436,33.8919],[135.20472,33.89113],[135.20534,33.89026],[135.2058,33.88934],[135.20617,33.88803],[135.20639,33.886]],[[135.32395,33.76794],[135.32479,33.76715]],[[135.16744,34.23697],[135.16939,34.23852],[135.17239,34.24045],[135.17362,34.24109],[135.17434,34.24136],[135.17515,34.24152],[135.18047,34.24191]],[[135.11525,34.09931],[135.11551,34.09992],[135.11601,34.10068]],[[135.11601,34.10068],[135.11663,34.10137],[135.11776,34.10229],[135.11872,34.10295],[135.12151,34.10459],[135.12224,34.10495],[135.12293,34.10517],[135.12477,34.10558]],[[135.19904,33.90822],[135.19994,33.90835],[135.20061,33.90835],[135.20237,33.90816],[135.20398,33.90777],[135.20501,33.90733],[135.20592,33.90676]],[[135.1613,34.12623],[135.1658,34.12787],[135.16735,34.12855]],[[135.24116,33.79767],[135.24139,33.79952],[135.24143,33.80086],[135.24083,33.80237],[135.24061,33.80266],[135.24023,33.80294],[135.2389,33.80367],[135.2366,33.80468],[135.23556,33.80492],[135.23181,33.805],[135.23033,33.80522],[135.22944,33.80543],[135.22837,33.80581],[135.22773,33.80612],[135.22684,33.80683],[135.22623,33.8075],[135.22584,33.80813],[135.22441,33.81128],[135.22328,33.81348],[135.22243,33.81472],[135.22062,33.81686],[135.22003,33.8179]],[[135.15224,33.98184],[135.1527,33.98238],[135.15293,33.98283],[135.15323,33.98383],[135.15208,34.0016],[135.15223,34.00232],[135.1528,34.00333],[135.15353,34.00375]],[[135.18878,34.21303],[135.18904,34.21378]],[[135.17496,33.91118],[135.1719,33.91128],[135.17018,33.91107],[135.1597,33.90802]],[[135.21073,34.16884],[135.21091,34.16441],[135.21113,34.16211],[135.21127,34.16167],[135.21184,34.16096]],[[135.18755,34.18704],[135.18763,34.18839]],[[135.24093,33.7959],[135.24116,33.79767]],[[135.17687,34.13915],[135.17774,34.13955],[135.1804,34.14025],[135.18125,34.1406],[135.18298,34.14153],[135.18457,34.14199],[135.1857,34.14213],[135.18944,34.14217],[135.19304,34.14201]],[[135.21452,34.15375],[135.21438,34.15536]],[[135.19017,34.23904],[135.1905,34.23714]],[[135.18226,34.24199],[135.1863,34.24221],[135.18762,34.24184],[135.18839,34.24147],[135.18944,34.24072],[135.18986,34.23998],[135.19017,34.23904]],[[135.12482,34.08597],[135.13954,34.08379],[135.14139,34.08322],[135.14333,34.08231],[135.14423,34.08206],[135.14599,34.08174],[135.14951,34.0819],[135.15266,34.0818],[135.15385,34.08166],[135.16647,34.0785],[135.16916,34.07808]],[[135.17081,34.07782],[135.17573,34.07715],[135.17772,34.07659],[135.18834,34.07202],[135.18934,34.07156],[135.19032,34.07088],[135.19751,34.06527],[135.19829,34.06457],[135.19884,34.06391],[135.19908,34.06341],[135.19925,34.0628],[135.19931,34.06227],[135.19924,34.06161],[135.19876,34.06035],[135.19754,34.0583]],[[135.22907,33.85232],[135.23031,33.85318]],[[135.18763,34.18839],[135.18789,34.19208],[135.18898,34.19671],[135.18901,34.19727],[135.18878,34.19834],[135.18845,34.19903],[135.18741,34.20042],[135.18708,34.20103],[135.18696,34.20147],[135.1868,34.20482],[135.18679,34.20701],[135.18691,34.20781],[135.18878,34.21303]],[[135.30837,33.77596],[135.31192,33.77576],[135.31323,33.77558],[135.31489,33.77514],[135.31703,33.77424],[135.31833,33.77344],[135.31963,33.7724],[135.32395,33.76794]],[[135.35516,33.74754],[135.35374,33.74904],[135.3526,33.75001],[135.35101,33.7512],[135.34941,33.75215],[135.34739,33.75307],[135.34015,33.75591],[135.33693,33.7573],[135.3345,33.75841],[135.33208,33.75971],[135.32937,33.76191],[135.3281,33.76344],[135.32479,33.76715]],[[135.1641,34.01285],[135.16337,34.01278]],[[135.17667,33.91111],[135.17496,33.91118]],[[135.21039,34.1703],[135.21065,34.16962],[135.21073,34.16884]],[[135.27903,33.78065],[135.2801,33.78015]],[[135.19437,34.14192],[135.19843,34.14244],[135.20018,34.14279],[135.20149,34.14316],[135.20462,34.14457],[135.20518,34.14464]],[[135.19015,34.04256],[135.19032,34.04336],[135.19025,34.04398],[135.18966,34.04574],[135.1895,34.04634],[135.18953,34.04662],[135.19,34.04767],[135.19122,34.04936]],[[135.19304,34.14201],[135.19395,34.14194]],[[135.24093,33.7959],[135.24077,33.79441],[135.24054,33.79351],[135.24031,33.79298],[135.23983,33.7923],[135.23937,33.79191],[135.23584,33.78955],[135.23531,33.78872],[135.2352,33.7881],[135.23522,33.78684],[135.23533,33.78469],[135.23554,33.78383],[135.23591,33.78321],[135.23641,33.78259],[135.23693,33.78221],[135.23788,33.78176],[135.23861,33.78159],[135.23929,33.78153],[135.24136,33.78156],[135.24348,33.78127],[135.24402,33.78127],[135.24452,33.7813],[135.25469,33.78331],[135.25849,33.78316],[135.26106,33.78282],[135.26219,33.78277],[135.26411,33.78291],[135.26652,33.78326],[135.27007,33.78327],[135.27138,33.78301],[135.27197,33.78275],[135.27333,33.7818],[135.27431,33.78135],[135.27546,33.78115],[135.27751,33.78106],[135.27903,33.78065]],[[135.15961,34.12565],[135.15741,34.12491],[135.1565,34.12442],[135.15555,34.12363],[135.15479,34.12239],[135.15413,34.1202],[135.1535,34.11749],[135.15338,34.11589],[135.15346,34.1151],[135.15376,34.11361],[135.15376,34.11287],[135.1537,34.11252],[135.15316,34.11151],[135.15227,34.11074],[135.15115,34.11018],[135.14654,34.10908]],[[135.12477,34.10558],[135.12797,34.10603],[135.1359,34.10813]],[[135.20976,34.1715],[135.20818,34.17451],[135.20775,34.17517],[135.20699,34.17579],[135.20612,34.17616],[135.20476,34.17644],[135.19087,34.17695],[135.19024,34.17709],[135.18953,34.1774],[135.18884,34.17788],[135.18816,34.17872],[135.18795,34.1795],[135.18755,34.18488],[135.18755,34.18704]],[[135.16638,34.23622],[135.16744,34.23697]],[[135.29861,33.77496],[135.29905,33.77511],[135.30001,33.77516],[135.30214,33.77462],[135.30285,33.77454],[135.30365,33.77456],[135.30474,33.77488],[135.30721,33.77581],[135.30837,33.77596]],[[135.22003,33.8179],[135.21968,33.8193]],[[135.1597,33.90802],[135.15776,33.90745]],[[135.16735,34.12855],[135.16849,34.129],[135.16929,34.12941],[135.17009,34.13003],[135.17059,34.13097],[135.17142,34.13374],[135.1717,34.1344],[135.17253,34.13545],[135.17351,34.13637],[135.17687,34.13915]],[[135.23031,33.85318],[135.23147,33.85396],[135.23224,33.85434],[135.23287,33.8549],[135.23331,33.85562],[135.23343,33.85624],[135.23325,33.85745],[135.23294,33.85807],[135.23256,33.8586],[135.23213,33.859],[135.23137,33.85946],[135.23077,33.85972],[135.22836,33.86047],[135.22745,33.86117],[135.22723,33.86148],[135.22705,33.8618],[135.22688,33.8625],[135.22663,33.86413],[135.22649,33.86768],[135.22642,33.86802],[135.22609,33.86868],[135.22502,33.8697],[135.22428,33.87009],[135.2203,33.87118],[135.21941,33.8715],[135.21891,33.87177],[135.21658,33.87364]],[[135.12889,33.96943],[135.12945,33.9698],[135.13031,33.9702],[135.13244,33.97084],[135.14061,33.973],[135.14179,33.9735],[135.14335,33.97459],[135.14549,33.97713],[135.14726,33.97902],[135.14818,33.97972],[135.14894,33.98016],[135.15113,33.9812],[135.15224,33.98184]],[[135.19015,34.04256],[135.19067,34.04341],[135.19085,34.04415],[135.19062,34.04731],[135.19074,34.0479],[135.19122,34.04936]],[[135.14492,34.10869],[135.14654,34.10908]],[[135.20639,33.886],[135.20642,33.88545],[135.20625,33.88414],[135.20487,33.87939],[135.20482,33.87874],[135.20496,33.87819],[135.20528,33.87759],[135.20566,33.87719],[135.2061,33.87689],[135.20735,33.87629],[135.20796,33.87615],[135.21101,33.87601],[135.21241,33.87573],[135.21355,33.87534],[135.21503,33.87462],[135.21658,33.87364]],[[135.12482,34.08597],[135.12327,34.08621]],[[135.21968,33.8193],[135.21957,33.82058],[135.21989,33.82165],[135.22025,33.82234],[135.22092,33.82291],[135.22364,33.82465],[135.22438,33.82604],[135.22449,33.82643],[135.22451,33.82691],[135.2226,33.83269],[135.22243,33.83458],[135.22255,33.8362],[135.22389,33.83959],[135.2243,33.84122],[135.22467,33.84445],[135.22506,33.84655],[135.22555,33.84771],[135.22604,33.84858],[135.22737,33.85041],[135.22861,33.85194],[135.22907,33.85232]],[[135.15776,33.90745],[135.15534,33.90676],[135.15484,33.90668],[135.15387,33.90675],[135.15295,33.90694],[135.15232,33.90718],[135.15155,33.90782],[135.15036,33.90941],[135.15003,33.91023],[135.14747,33.91855],[135.14657,33.92118],[135.1454,33.92527]],[[135.19437,34.14192],[135.19623,34.14184],[135.19788,34.14191],[135.20016,34.14228],[135.20161,34.14271],[135.20518,34.14464]],[[135.29861,33.77496],[135.29972,33.77552],[135.30045,33.77574],[135.30219,33.776],[135.30509,33.77609],[135.30837,33.77596]],[[135.15961,34.12565],[135.1613,34.12623]],[[135.19395,34.14194],[135.19437,34.14192]],[[135.12889,33.96943],[135.12764,33.96849]],[[135.20518,34.14464],[135.21056,34.14552],[135.21176,34.146],[135.21269,34.14677],[135.21412,34.14849],[135.2146,34.14921],[135.21472,34.14959],[135.21452,34.15375]],[[135.16735,34.12855],[135.16878,34.1296],[135.16953,34.1303],[135.17029,34.13143],[135.17114,34.13378],[135.17148,34.13449],[135.17204,34.1352],[135.17335,34.13648],[135.17468,34.13763],[135.1761,34.13874],[135.17657,34.13905],[135.17687,34.13915]],[[135.21039,34.1703],[135.20976,34.1715]],[[135.16916,34.07808],[135.17081,34.07782]],[[135.12612,33.96018],[135.1262,33.95896],[135.12632,33.95836],[135.13205,33.94357],[135.13246,33.94274],[135.13288,33.94212],[135.13415,33.94098],[135.13435,33.94072],[135.13466,33.94017],[135.13505,33.93841]],[[135.12477,34.10558],[135.12819,34.10633],[135.13438,34.108],[135.1359,34.10813]],[[135.12612,33.96018],[135.12665,33.95843],[135.13251,33.94316],[135.13306,33.94225],[135.13425,33.94113],[135.13468,33.94054],[135.13503,33.93961],[135.13505,33.93841]]]}}