{"type":"Feature","properties":{"id":"西日本旅客鉄道_芸備線","name":"芸備線","operator":"西日本旅客鉄道","railType":"普通鉄道(JR)","operatorType":"JR在来線","category":"rail","attribution":"国土数値情報（鉄道データ）国土交通省"},"geometry":{"type":"MultiLineString","coordinates":[[[133.4009,34.9944],[133.40026,34.99481]],[[133.33263,34.94319],[133.33282,34.94381]],[[133.27385,34.90158],[133.27334,34.90211]],[[133.31736,34.91532],[133.32741,34.92416],[133.32791,34.92481],[133.32918,34.92818],[133.32907,34.93177],[133.32917,34.93238],[133.33263,34.94319]],[[133.3462,34.96615],[133.34697,34.96635]],[[133.31736,34.91532],[133.31673,34.91482]],[[133.31673,34.91482],[133.31508,34.91378],[133.31287,34.91257],[133.3006,34.9062],[133.30002,34.90594],[133.29938,34.90577],[133.29857,34.90568],[133.2979,34.90572],[133.29705,34.90604],[133.29653,34.90635],[133.29581,34.90705],[133.29499,34.90841],[133.29442,34.90914],[133.29359,34.90965],[133.29277,34.90986],[133.2918,34.9099],[133.29116,34.90983],[133.29044,34.90962],[133.28929,34.90879],[133.28664,34.90617],[133.28623,34.90548],[133.28565,34.90363],[133.28275,34.89982],[133.2819,34.89918],[133.28008,34.89848],[133.27944,34.89835],[133.27864,34.89834],[133.27785,34.89839],[133.277,34.89862],[133.27603,34.89927],[133.27385,34.90158]],[[133.34697,34.96635],[133.35558,34.96912],[133.35645,34.96929],[133.35774,34.96917],[133.35919,34.96868],[133.36096,34.96788],[133.36214,34.96755],[133.36394,34.96758],[133.36568,34.96798],[133.36621,34.96815],[133.36708,34.96867],[133.37058,34.97269]],[[133.37058,34.97269],[133.37106,34.97324]],[[133.33282,34.94381],[133.33361,34.94641],[133.33372,34.94728],[133.33338,34.94843],[133.33138,34.95094],[133.33101,34.95156],[133.3307,34.95238],[133.33052,34.95359],[133.33045,34.95506],[133.33049,34.95647],[133.33058,34.95776],[133.33091,34.95853],[133.33119,34.95894],[133.33164,34.95938],[133.3353,34.96224],[133.33684,34.96327],[133.34137,34.96494],[133.3462,34.96615]],[[133.40026,34.99481],[133.39826,34.99534],[133.39727,34.99527],[133.39657,34.99506],[133.39582,34.99471],[133.39538,34.99434],[133.39499,34.99371],[133.39476,34.99296],[133.3944,34.9906],[133.39395,34.98977],[133.39355,34.9894],[133.39271,34.98888],[133.38957,34.98824],[133.38846,34.98776],[133.3876,34.98706],[133.38476,34.98425],[133.38006,34.98074],[133.3752,34.97797],[133.37468,34.97755],[133.37106,34.97324]],[[133.23237,34.93844],[133.23173,34.93792]],[[133.21112,34.99423],[133.21069,34.99172],[133.21072,34.99137],[133.21106,34.99083],[133.2125,34.98958],[133.21282,34.98943],[133.21331,34.98935],[133.21512,34.98936],[133.21571,34.98927],[133.22089,34.98784],[133.22127,34.98764],[133.222,34.98703],[133.2241,34.98511],[133.2249,34.98457],[133.22697,34.98357],[133.22768,34.98285],[133.22786,34.9824],[133.22785,34.9817],[133.22762,34.98107],[133.22714,34.98037],[133.22686,34.97912],[133.2269,34.97856],[133.22715,34.97796],[133.22822,34.9764],[133.22861,34.97603],[133.22908,34.97569],[133.23115,34.97487],[133.23137,34.97469],[133.2326,34.97283],[133.23268,34.97252],[133.23276,34.97214],[133.23274,34.97169],[133.23256,34.9713],[133.23164,34.97028],[133.23026,34.96911],[133.23008,34.96883],[133.22991,34.96826],[133.22992,34.96776],[133.23014,34.96716],[133.23125,34.96568],[133.2317,34.96523]],[[133.14792,35.00099],[133.14871,35.00128]],[[133.17848,35.01057],[133.17912,35.01005],[133.1798,35.00976],[133.18135,35.00961],[133.182,35.0098],[133.18358,35.01061],[133.18757,35.01089],[133.18864,35.01081],[133.19088,35.00977],[133.19336,35.00923],[133.19428,35.00884],[133.19743,35.00623],[133.19938,35.00512],[133.19995,35.00429],[133.20018,35.00408],[133.20194,35.00301],[133.20298,35.00249],[133.20509,35.00196],[133.20618,35.0014],[133.20663,35.00127],[133.20736,35.00134],[133.20891,35.00173],[133.20956,35.00169],[133.21036,35.00147],[133.21133,35.00085],[133.21159,35.00058],[133.2118,35.00023],[133.21194,34.99973],[133.21195,34.99935],[133.21123,34.99491]],[[133.1195,34.94011],[133.12005,34.94067]],[[133.21123,34.99491],[133.21112,34.99423]],[[133.12005,34.94067],[133.12289,34.94363],[133.12324,34.94406],[133.12345,34.9445],[133.12538,34.95594],[133.12539,34.95754],[133.12507,34.95884],[133.12346,34.96192],[133.12328,34.96389],[133.12332,34.96594]],[[133.12326,34.96661],[133.12332,34.96594]],[[133.2322,34.96464],[133.23346,34.96316],[133.23501,34.96215],[133.23556,34.96161],[133.23642,34.96056],[133.23664,34.96008],[133.23673,34.9596],[133.23684,34.95762],[133.23677,34.95609],[133.23684,34.95589],[133.2372,34.95534],[133.23857,34.954],[133.23988,34.95284],[133.24099,34.95201],[133.24128,34.95152],[133.24149,34.95077],[133.24141,34.95048],[133.24094,34.94975],[133.2406,34.94949],[133.23937,34.94887],[133.23896,34.9485],[133.2387,34.94812],[133.2386,34.94763],[133.23863,34.94717],[133.23911,34.94541],[133.23908,34.94501],[133.23886,34.94456],[133.23862,34.94428],[133.23811,34.94395],[133.23603,34.94343],[133.23544,34.9432],[133.23489,34.94287],[133.23442,34.94215],[133.23368,34.94015],[133.23329,34.93936],[133.23301,34.939],[133.23237,34.93844]],[[133.14871,35.00128],[133.15076,35.00214],[133.15241,35.00272],[133.15333,35.00318],[133.15433,35.0039],[133.15467,35.00445],[133.15567,35.00748],[133.15635,35.00832],[133.15779,35.00957],[133.15819,35.01014],[133.15826,35.01056],[133.15817,35.01098],[133.15776,35.01166],[133.1571,35.01214],[133.15524,35.01281],[133.1548,35.01318],[133.15456,35.01354],[133.15438,35.01411],[133.1544,35.01432],[133.15495,35.01597],[133.15522,35.01708],[133.15515,35.01759],[133.15481,35.0186],[133.15478,35.01903],[133.15492,35.01937],[133.15677,35.02172],[133.15739,35.02372],[133.15835,35.0257],[133.1588,35.02744],[133.15933,35.028],[133.16001,35.02845],[133.16132,35.02853],[133.16207,35.02832],[133.16249,35.028],[133.16307,35.02739],[133.16368,35.02639],[133.16391,35.02615],[133.16435,35.02585],[133.16481,35.02568],[133.16534,35.02556],[133.16592,35.02554],[133.16776,35.02617],[133.16919,35.0263],[133.17023,35.02603],[133.17089,35.02569],[133.17154,35.02516],[133.17198,35.02447],[133.17226,35.02365],[133.17202,35.0203],[133.1721,35.01941],[133.17237,35.01888],[133.17377,35.01685],[133.17574,35.01508],[133.17806,35.01119]],[[133.2317,34.96523],[133.2322,34.96464]],[[133.14619,35.0005],[133.14792,35.00099]],[[133.12326,34.96661],[133.12328,34.9677],[133.12368,34.96886],[133.1242,34.96992],[133.12525,34.97173],[133.12585,34.97228],[133.12635,34.97244],[133.12845,34.97267],[133.12955,34.97288],[133.12996,34.97304],[133.13117,34.97363],[133.13256,34.97479],[133.13401,34.97555],[133.13622,34.97703],[133.13708,34.97727],[133.13864,34.97725],[133.13934,34.97733],[133.13998,34.9776],[133.14063,34.97821],[133.141,34.97895],[133.14104,34.97964],[133.14096,34.98005],[133.14061,34.98067],[133.13915,34.98207],[133.13882,34.98279],[133.13893,34.98382],[133.13944,34.98476],[133.14043,34.98609],[133.14074,34.98693],[133.14104,34.98815],[133.14099,34.98876],[133.14059,34.98971],[133.14056,34.99011],[133.14072,34.99083],[133.14099,34.99152],[133.14109,34.99237],[133.14046,34.99459],[133.13978,34.99621],[133.1395,34.9971],[133.13946,34.99803],[133.13974,34.99885],[133.13997,34.99912],[133.14068,34.99961],[133.14109,34.99974],[133.14317,35.00009],[133.14436,35.00046],[133.14572,35.00039],[133.14619,35.0005]],[[133.17806,35.01119],[133.17848,35.01057]],[[132.913,34.7742],[132.91388,34.77427]],[[132.91388,34.77427],[132.91557,34.77442]],[[132.85143,34.80237],[132.85563,34.80266]],[[132.85563,34.80266],[132.85641,34.80273]],[[132.65808,34.5547],[132.65767,34.55683],[132.65774,34.55793],[132.65908,34.56179],[132.66047,34.56753],[132.66096,34.56879],[132.66187,34.57002],[132.66341,34.57149],[132.66562,34.57338],[132.6675,34.57458],[132.67418,34.57845],[132.67475,34.57929],[132.6749,34.57977],[132.67493,34.58037],[132.67464,34.58175],[132.67458,34.58256],[132.67543,34.58458]],[[132.90302,34.78045],[132.90555,34.77691],[132.90603,34.77632],[132.90655,34.77585],[132.90766,34.77521],[132.9099,34.77436],[132.91133,34.77413],[132.913,34.7742]],[[132.7459,34.66442],[132.7458,34.66376]],[[132.588,34.50087],[132.58764,34.50028]],[[132.67581,34.58544],[132.67695,34.58877],[132.67808,34.59295],[132.67855,34.59361],[132.6805,34.59511],[132.68128,34.59604],[132.68274,34.59802],[132.6832,34.59849],[132.68758,34.60097],[132.68931,34.6029],[132.69026,34.60381],[132.69748,34.60889],[132.69899,34.60965],[132.70012,34.60989],[132.70111,34.60999],[132.70177,34.60999],[132.70359,34.60975],[132.71043,34.60922],[132.71332,34.60948],[132.71486,34.60975],[132.71764,34.61109],[132.71802,34.61138],[132.71994,34.61481]],[[132.6088,34.51317],[132.60997,34.51401]],[[132.90258,34.78107],[132.90302,34.78045]],[[132.87924,34.80216],[132.8805,34.80171],[132.88208,34.80083],[132.88288,34.80016],[132.88367,34.79934],[132.88556,34.79684],[132.88693,34.79545],[132.89226,34.79113],[132.89519,34.78832],[132.89663,34.78736],[132.89856,34.78622],[132.89914,34.78573],[132.89962,34.78521],[132.90258,34.78107]],[[132.80427,34.74067],[132.80632,34.7417],[132.80744,34.74263],[132.80891,34.74448],[132.80981,34.74612],[132.81004,34.74668],[132.81017,34.74727],[132.81008,34.74801],[132.80914,34.75019],[132.80878,34.75123],[132.80878,34.75187],[132.80899,34.75244],[132.8092,34.75275],[132.81177,34.75542],[132.81604,34.75882],[132.81834,34.76224],[132.82073,34.76463],[132.82144,34.76545],[132.82182,34.76616],[132.82245,34.76784],[132.82303,34.76871],[132.82724,34.77219],[132.82752,34.77261],[132.82984,34.77741],[132.83008,34.77821],[132.82912,34.78576],[132.82911,34.78638],[132.82924,34.78721],[132.82973,34.78832],[132.83019,34.78888],[132.83079,34.78939],[132.83487,34.7916],[132.83572,34.7923],[132.83939,34.79669],[132.84046,34.7981]],[[132.78469,34.72504],[132.78509,34.72563]],[[133.07045,34.87759],[133.07091,34.87818]],[[132.9856,34.84417],[132.98302,34.8422],[132.98213,34.84176],[132.96612,34.83591],[132.96427,34.83467],[132.95795,34.82983]],[[133.10037,34.91318],[133.10132,34.91433],[133.10265,34.91566],[133.10314,34.91604],[133.10429,34.91669],[133.107,34.91796],[133.10773,34.91817],[133.10847,34.91825],[133.11361,34.91795],[133.11422,34.91813],[133.11512,34.91866],[133.11558,34.91904],[133.11611,34.91975],[133.11627,34.9202],[133.11627,34.92087],[133.11603,34.92168],[133.11511,34.9238],[133.11494,34.92497],[133.1151,34.92551],[133.11651,34.92744],[133.11683,34.92794],[133.11702,34.92843],[133.1171,34.92901],[133.11675,34.93197],[133.11665,34.93379],[133.11691,34.93468],[133.11827,34.93789],[133.11877,34.93894],[133.1195,34.94011]],[[133.09994,34.91267],[133.10037,34.91318]],[[132.99826,34.85474],[132.99811,34.85385],[132.99773,34.85287],[132.99737,34.85217],[132.99677,34.85154],[132.99571,34.85091],[132.99318,34.84981],[132.99254,34.84946],[132.98617,34.8446]],[[132.64347,34.53871],[132.64422,34.53865]],[[132.60997,34.51401],[132.6127,34.5161],[132.6143,34.51849],[132.61521,34.51923],[132.61926,34.52062],[132.62001,34.52112],[132.62368,34.52432],[132.62422,34.52469],[132.63385,34.52903],[132.635,34.52967],[132.63583,34.53055],[132.63669,34.53231],[132.63885,34.53723],[132.63933,34.53785],[132.63976,34.53819],[132.64064,34.53851],[132.64158,34.53867],[132.64347,34.53871]],[[132.7458,34.66376],[132.74557,34.66261],[132.74492,34.66163],[132.74421,34.66092],[132.74056,34.65777],[132.73953,34.65662],[132.73858,34.65534],[132.73589,34.65091],[132.73551,34.64981],[132.73543,34.64929],[132.73541,34.64397],[132.73516,34.64277],[132.73481,34.64206],[132.7341,34.64123],[132.7286,34.63632],[132.72755,34.6353],[132.7244,34.62984],[132.72285,34.62669],[132.72175,34.62399],[132.72163,34.62341],[132.7216,34.61885],[132.7213,34.61772],[132.72023,34.61542]],[[132.95745,34.82945],[132.95795,34.82983]],[[133.01661,34.8624],[133.01764,34.86256]],[[133.01526,34.86234],[133.0155,34.86244],[133.01739,34.86268],[133.01764,34.86256]],[[132.78509,34.72563],[132.78713,34.72876],[132.78767,34.7299],[132.78802,34.73119],[132.78829,34.73184],[132.78928,34.73284],[132.79106,34.73395],[132.80359,34.74031]],[[132.7459,34.66442],[132.74673,34.66796],[132.74727,34.66913],[132.74786,34.66988],[132.75243,34.67677],[132.75303,34.67782],[132.7534,34.67887],[132.75374,34.68117],[132.75399,34.68191],[132.75431,34.68242],[132.75697,34.68542],[132.75751,34.68619],[132.75774,34.68681],[132.75784,34.68863],[132.75809,34.68999],[132.75842,34.69064],[132.75976,34.69223]],[[132.84091,34.79868],[132.84225,34.80036],[132.84286,34.801],[132.84368,34.80151],[132.84478,34.80181],[132.84542,34.80183],[132.84746,34.80144],[132.84824,34.80145],[132.84931,34.80169],[132.85143,34.80237]],[[132.91557,34.77442],[132.9171,34.77499],[132.92064,34.77669],[132.9217,34.77766],[132.92206,34.77829],[132.92226,34.77908],[132.92215,34.78049],[132.92081,34.78602],[132.9208,34.78649],[132.92098,34.78793],[132.92134,34.7892],[132.92389,34.79402],[132.9252,34.79727]],[[132.80359,34.74031],[132.80427,34.74067]],[[132.72023,34.61542],[132.71994,34.61481]],[[132.67543,34.58458],[132.67581,34.58544]],[[133.23173,34.93792],[133.23094,34.93716],[133.23053,34.93652],[133.23004,34.93498],[133.22998,34.93419],[133.23017,34.93364],[133.23186,34.93142],[133.23201,34.93113],[133.23205,34.93052],[133.23167,34.92877],[133.23181,34.92793],[133.23241,34.92722],[133.23283,34.92689],[133.23346,34.92661],[133.23439,34.92645],[133.23673,34.92669],[133.2378,34.92643],[133.2382,34.92617],[133.23844,34.9259],[133.23903,34.92451],[133.23984,34.92323],[133.24024,34.92232],[133.24116,34.92066],[133.24188,34.91955],[133.24382,34.91721],[133.24417,34.91702],[133.24623,34.9165],[133.24667,34.91632],[133.2483,34.91525],[133.24908,34.91483],[133.25061,34.91413],[133.25162,34.91379],[133.25238,34.91371],[133.25372,34.91372],[133.25606,34.91384],[133.25675,34.91378],[133.25767,34.9135],[133.26446,34.90965],[133.26929,34.90631],[133.27053,34.9051],[133.27334,34.90211]],[[132.98617,34.8446],[132.9856,34.84417]],[[133.01764,34.86256],[133.02323,34.86337],[133.02694,34.86488],[133.03141,34.8653],[133.03215,34.8655],[133.03276,34.86582],[133.03377,34.86653],[133.0341,34.86685],[133.03429,34.86716],[133.03601,34.87172],[133.03674,34.87338],[133.03724,34.87423],[133.03806,34.87524],[133.03874,34.87562],[133.03941,34.87584],[133.04043,34.87594],[133.04124,34.87579],[133.04195,34.87546],[133.04315,34.87441],[133.04358,34.87416],[133.04406,34.87398],[133.04455,34.87391],[133.04554,34.87393],[133.04971,34.87451],[133.05057,34.87455],[133.05116,34.87444],[133.05279,34.87377],[133.05414,34.87241],[133.05517,34.87176],[133.05766,34.87111],[133.05893,34.87101],[133.05957,34.87109],[133.06037,34.87142],[133.06115,34.87187],[133.06298,34.87322],[133.06406,34.87386],[133.06717,34.87459],[133.06819,34.87502],[133.069,34.87577],[133.07045,34.87759]],[[133.09994,34.91267],[133.0984,34.91083],[133.09765,34.91017],[133.09314,34.9069],[133.092,34.9063],[133.09013,34.90571],[133.08918,34.90518],[133.08506,34.9019],[133.0833,34.90024],[133.08112,34.89788],[133.07989,34.89539],[133.07625,34.88666],[133.07578,34.88573],[133.07311,34.88121],[133.07091,34.87818]],[[132.64422,34.53865],[132.64592,34.53837],[132.65138,34.53583],[132.6527,34.53524],[132.65318,34.53511],[132.65419,34.53508],[132.65483,34.53524],[132.65785,34.53648],[132.65838,34.53689],[132.65891,34.53788],[132.65978,34.54008],[132.65982,34.54074],[132.65972,34.54337],[132.66103,34.54762],[132.66112,34.54833],[132.6608,34.54951],[132.66039,34.55006],[132.65943,34.55108],[132.65904,34.55165],[132.65861,34.55267],[132.65822,34.55404]],[[132.588,34.50087],[132.58874,34.50155],[132.59434,34.50496],[132.59484,34.50547],[132.59624,34.50764],[132.59687,34.50821],[132.59759,34.50857],[132.60651,34.51163],[132.60728,34.51203],[132.6088,34.51317]],[[132.99838,34.85545],[132.99826,34.85474]],[[132.57899,34.48568],[132.57914,34.48703]],[[132.9255,34.79805],[132.9252,34.79727]],[[132.58764,34.50028],[132.58736,34.49855],[132.58718,34.49792],[132.58693,34.49748],[132.58635,34.49689],[132.58568,34.49649],[132.5851,34.49627],[132.58325,34.49602],[132.58218,34.49568],[132.58011,34.4944],[132.57947,34.49374],[132.5792,34.49321],[132.57907,34.49257],[132.57908,34.49208],[132.57939,34.49027],[132.57914,34.48703]],[[132.65822,34.55404],[132.65808,34.5547]],[[132.76023,34.69279],[132.76316,34.69632],[132.7649,34.69786],[132.76863,34.70075],[132.76898,34.70111],[132.76925,34.7015],[132.76944,34.70211],[132.76942,34.70498],[132.76948,34.70542],[132.76962,34.70597],[132.77001,34.70678],[132.77631,34.71373],[132.78068,34.71912],[132.78469,34.72504]],[[132.75976,34.69223],[132.76023,34.69279]],[[132.99838,34.85545],[132.99854,34.85596],[132.99919,34.85692],[132.99996,34.85753],[133.00134,34.85821],[133.01021,34.86135],[133.01269,34.86188],[133.01581,34.86231]],[[132.85641,34.80273],[132.87243,34.80393],[132.87449,34.80365],[132.87846,34.80241]],[[132.87846,34.80241],[132.87924,34.80216]],[[132.84046,34.7981],[132.84091,34.79868]],[[132.9255,34.79805],[132.92693,34.80159],[132.93159,34.80791],[132.93277,34.8088],[132.93388,34.80935],[132.93437,34.80949],[132.93512,34.80966],[132.93607,34.80976],[132.93926,34.80972],[132.94002,34.80981],[132.9408,34.81002],[132.94188,34.8106],[132.94245,34.81117],[132.94478,34.8142],[132.94573,34.81524],[132.94856,34.81776],[132.95157,34.82063],[132.95259,34.82228],[132.9536,34.82515],[132.95437,34.82682],[132.95495,34.82741],[132.95745,34.82945]],[[133.01581,34.86231],[133.01661,34.8624]],[[132.50831,34.48229],[132.50974,34.48372],[132.51141,34.48564],[132.51199,34.48618],[132.5161,34.48907],[132.51695,34.48954],[132.51808,34.48975],[132.51922,34.48976],[132.52395,34.48886]],[[132.49521,34.46445],[132.49573,34.4686],[132.4959,34.46909],[132.49615,34.46945],[132.49654,34.46987],[132.49704,34.47025],[132.49831,34.47104],[132.49911,34.47182],[132.50057,34.47484],[132.5009,34.47541],[132.50138,34.47596],[132.50413,34.47818],[132.50776,34.48174]],[[132.53276,34.48116],[132.53401,34.48103]],[[132.47397,34.39816],[132.47697,34.39683]],[[132.49736,34.39864],[132.49812,34.3997]],[[132.49133,34.43781],[132.4911,34.43922]],[[132.4911,34.43922],[132.49106,34.43973],[132.49114,34.44045],[132.49165,34.44301],[132.49203,34.44551],[132.49334,34.4586],[132.4936,34.45949],[132.49467,34.46161],[132.4949,34.46268]],[[132.56302,34.47601],[132.56535,34.47642],[132.56605,34.47673],[132.56651,34.47709],[132.56688,34.47759],[132.56707,34.47802],[132.56764,34.48024],[132.56785,34.48063],[132.56831,34.48113],[132.56885,34.48151],[132.56937,34.48173],[132.57004,34.48184],[132.57354,34.48177],[132.5743,34.48182],[132.57534,34.48202],[132.57603,34.48225],[132.57715,34.48287],[132.5781,34.48364],[132.57858,34.48437],[132.57899,34.48568]],[[132.50831,34.48229],[132.50776,34.48174]],[[132.52395,34.48886],[132.52538,34.48857]],[[132.52538,34.48857],[132.52718,34.4881],[132.52778,34.48771],[132.5281,34.48737],[132.52868,34.48639],[132.52944,34.48336],[132.52974,34.48262],[132.52992,34.48242],[132.5305,34.48193],[132.53123,34.48152],[132.53166,34.48136],[132.53276,34.48116]],[[132.49812,34.3997],[132.49948,34.4019],[132.49978,34.40275],[132.49983,34.40361],[132.49965,34.40499],[132.49836,34.41033],[132.49814,34.41617],[132.49797,34.41682],[132.4976,34.41756],[132.49422,34.42348],[132.49176,34.42827],[132.49152,34.43649],[132.49133,34.43781]],[[132.4949,34.46268],[132.49521,34.46445]],[[132.49736,34.39864],[132.49502,34.395],[132.49452,34.3944],[132.49379,34.39386],[132.49323,34.39359],[132.49241,34.39341],[132.48827,34.39318],[132.48732,34.39321]],[[132.48732,34.39321],[132.48438,34.3938],[132.48148,34.3946],[132.48047,34.39498],[132.47869,34.39581],[132.47697,34.39683]],[[132.53401,34.48103],[132.53705,34.48076],[132.53807,34.4806],[132.53879,34.48039],[132.54141,34.47927],[132.54593,34.47705],[132.54682,34.47679],[132.54955,34.47647],[132.55028,34.47627],[132.55102,34.47585],[132.55286,34.4745],[132.55335,34.47428],[132.55411,34.4741],[132.55503,34.47415],[132.56221,34.47583]],[[132.56302,34.47601],[132.56221,34.47583]]]}}