{"type":"Feature","properties":{"id":"西日本旅客鉄道_大阪環状線","name":"大阪環状線","operator":"西日本旅客鉄道","railType":"普通鉄道(JR)","operatorType":"JR在来線","category":"rail","attribution":"国土数値情報（鉄道データ）国土交通省"},"geometry":{"type":"MultiLineString","coordinates":[[[135.52163,34.7052],[135.52029,34.70483]],[[135.53358,34.69761],[135.53432,34.69593]],[[135.52163,34.7052],[135.52242,34.70523],[135.52344,34.7051],[135.52465,34.70462],[135.5316,34.70033],[135.53224,34.69988],[135.53276,34.69932],[135.53358,34.69761]],[[135.48736,34.69757],[135.49026,34.69914],[135.4923,34.70039],[135.49456,34.70144]],[[135.48736,34.69757],[135.4858,34.69679]],[[135.51157,34.70545],[135.51023,34.70616],[135.50901,34.70649],[135.50733,34.70661],[135.50579,34.7066],[135.50519,34.70651],[135.50438,34.70633],[135.50377,34.70608],[135.50177,34.70504],[135.49902,34.7039],[135.49719,34.70289]],[[135.51317,34.70443],[135.51157,34.70545]],[[135.49719,34.70289],[135.49456,34.70144]],[[135.51317,34.70443],[135.5139,34.70405],[135.51471,34.70379],[135.51533,34.70367],[135.51597,34.70365],[135.51695,34.7038],[135.52029,34.70483]],[[135.53408,34.67983],[135.53397,34.68108]],[[135.53432,34.69593],[135.53495,34.69457],[135.53543,34.69319],[135.53532,34.69202],[135.53454,34.68879]],[[135.52823,34.65925],[135.52777,34.65781]],[[135.4923,34.65481],[135.49131,34.65653],[135.49064,34.65725],[135.48964,34.65814]],[[135.49235,34.65467],[135.4923,34.65481]],[[135.53304,34.67431],[135.53408,34.67774],[135.53417,34.67829],[135.53408,34.67983]],[[135.46476,34.68072],[135.46358,34.67963],[135.46217,34.67812],[135.46076,34.67523],[135.46051,34.674],[135.46055,34.67316],[135.46095,34.67191],[135.46157,34.67076]],[[135.46625,34.68215],[135.46476,34.68072]],[[135.48096,34.66516],[135.48445,34.66385],[135.48512,34.66353],[135.48569,34.66312],[135.48874,34.65901]],[[135.46238,34.66929],[135.46342,34.66753],[135.46399,34.66679],[135.46481,34.66619],[135.46564,34.66589],[135.46669,34.6658],[135.46745,34.66588],[135.47149,34.66765],[135.47242,34.66783],[135.47395,34.66769],[135.47903,34.66587]],[[135.51208,34.64744],[135.50292,34.64962]],[[135.51522,34.64685],[135.51294,34.64742],[135.51208,34.64744]],[[135.5307,34.66679],[135.53164,34.66992],[135.5321,34.67121],[135.53265,34.67236],[135.53271,34.67273]],[[135.4858,34.69679],[135.4831,34.69541],[135.48266,34.6951],[135.48083,34.69343],[135.47567,34.6895]],[[135.53427,34.68688],[135.53454,34.68879]],[[135.46765,34.68342],[135.46625,34.68215]],[[135.46157,34.67076],[135.46238,34.66929]],[[135.50066,34.65019],[135.496,34.65136],[135.49508,34.65168],[135.49401,34.65229],[135.49327,34.65301],[135.49301,34.65341]],[[135.49235,34.65467],[135.49301,34.65341]],[[135.51782,34.64615],[135.51602,34.64665]],[[135.52319,34.64755],[135.52188,34.64652],[135.52131,34.64621],[135.5206,34.64597],[135.51996,34.64582],[135.51919,34.64585],[135.51782,34.64615]],[[135.52401,34.64833],[135.52319,34.64755]],[[135.5307,34.66679],[135.53004,34.66471]],[[135.53397,34.68108],[135.53392,34.68176],[135.53427,34.68688]],[[135.51602,34.64665],[135.51522,34.64685]],[[135.47419,34.68837],[135.46765,34.68342]],[[135.47567,34.6895],[135.47419,34.68837]],[[135.48964,34.65814],[135.48874,34.65901]],[[135.52777,34.65781],[135.52522,34.65006],[135.52463,34.64908],[135.52401,34.64833]],[[135.53271,34.67273],[135.53304,34.67431]],[[135.47903,34.66587],[135.48096,34.66516]],[[135.53004,34.66471],[135.52823,34.65925]],[[135.50292,34.64962],[135.50066,34.65019]]]}}