{"type":"Feature","properties":{"id":"西日本旅客鉄道_北陸新幹線","name":"北陸新幹線","operator":"西日本旅客鉄道","railType":"普通鉄道(JR)","operatorType":"JR新幹線","category":"shinkansen","attribution":"国土数値情報（鉄道データ）国土交通省"},"geometry":{"type":"MultiLineString","coordinates":[[[138.24734,37.08247],[138.24125,37.08825],[138.23807,37.09085],[138.2351,37.09304],[138.22421,37.10076],[138.22111,37.10271],[138.21799,37.10448],[138.21458,37.10608],[138.21091,37.10756],[138.20687,37.10889],[138.20301,37.1099],[138.19821,37.11087],[138.19501,37.11127],[138.18862,37.11169],[138.18228,37.11146],[138.17843,37.11108],[138.17202,37.11006],[138.13696,37.10397],[138.11476,37.10022],[138.10212,37.09883],[138.05708,37.09101],[137.99255,37.08452],[137.98427,37.08359],[137.96271,37.0797],[137.95957,37.07902],[137.95503,37.07788],[137.95068,37.07613],[137.9464,37.07399],[137.94001,37.06981],[137.92716,37.06103],[137.92341,37.05871],[137.91906,37.0565],[137.9162,37.05532],[137.91281,37.05421],[137.90728,37.05282],[137.88797,37.05032],[137.88437,37.04958],[137.88172,37.04893],[137.86293,37.04357]],[[137.86293,37.04357],[137.85966,37.04266]],[[137.85966,37.04266],[137.84991,37.0398],[137.84704,37.03879],[137.83989,37.03602],[137.82243,37.02903],[137.82009,37.02799],[137.80807,37.02209],[137.80498,37.02086],[137.80253,37.02002],[137.79913,37.01908],[137.77422,37.01421],[137.77128,37.01345],[137.76792,37.01236],[137.76259,37.01023],[137.7379,37.00084],[137.73588,37.00018],[137.70713,36.99135],[137.69849,36.98855],[137.67373,36.98128],[137.65949,36.97695],[137.65431,36.97534],[137.65007,36.97381],[137.6458,36.97206],[137.55134,36.92492],[137.51764,36.90805],[137.51566,36.90695],[137.51347,36.90557],[137.51132,36.90408],[137.50866,36.90197],[137.50662,36.90002],[137.49512,36.8872],[137.49298,36.88503],[137.48227,36.87515]],[[137.48227,36.87515],[137.47998,36.87298]],[[137.47998,36.87298],[137.47273,36.86629],[137.47085,36.8644],[137.4678,36.86102],[137.45735,36.84904],[137.45546,36.8467],[137.45436,36.84502],[137.44794,36.83364],[137.44307,36.82475],[137.42672,36.79538],[137.42447,36.79176],[137.42278,36.78965],[137.42139,36.78811],[137.41872,36.78546],[137.41661,36.78375],[137.41415,36.78198],[137.41035,36.77973],[137.40052,36.77448],[137.39059,36.769],[137.3773,36.7619],[137.37349,36.75967],[137.37125,36.75824],[137.36898,36.75666],[137.35145,36.74387],[137.32156,36.72184],[137.31831,36.7196],[137.31614,36.71828],[137.3113,36.71589],[137.30792,36.71459],[137.30451,36.71353],[137.30063,36.71265],[137.29701,36.7121],[137.29349,36.71176],[137.2893,36.71166],[137.28591,36.71185],[137.28344,36.7121],[137.27921,36.71282],[137.27228,36.7145],[137.25922,36.71787],[137.25736,36.71823],[137.25551,36.71838],[137.25309,36.71834],[137.25113,36.71817],[137.24891,36.71764],[137.24736,36.71712],[137.2451,36.71613],[137.24367,36.71528],[137.24224,36.71419],[137.24047,36.71242],[137.23958,36.71115],[137.23804,36.70841],[137.23587,36.70407],[137.23512,36.70287],[137.23425,36.70172],[137.23272,36.70056],[137.23143,36.6999],[137.2298,36.69923],[137.22836,36.69891],[137.22292,36.69811],[137.22205,36.69812],[137.22098,36.6983],[137.22006,36.69865],[137.21489,36.70078]],[[137.21489,36.70078],[137.21172,36.7021]],[[137.21172,36.7021],[137.19862,36.70732],[137.19699,36.7082],[137.19521,36.70957],[137.19232,36.71224],[137.19057,36.71357],[137.18944,36.71428],[137.18773,36.71511],[137.18641,36.71566],[137.1805,36.71777],[137.17718,36.71879],[137.17512,36.71936],[137.17185,36.72004],[137.16896,36.72048],[137.10977,36.72735],[137.10256,36.72816],[137.09878,36.72844],[137.09509,36.72846],[137.09079,36.72819],[137.08635,36.7275],[137.08318,36.72682],[137.07918,36.72565],[137.07107,36.72288],[137.06803,36.72205],[137.06308,36.72108],[137.05872,36.72062],[137.05614,36.72052],[137.051,36.72065],[137.04776,36.72099],[137.04502,36.72143],[137.04006,36.72255],[137.03201,36.72468],[137.03018,36.725],[137.02784,36.72539],[137.0243,36.72583],[137.01361,36.72685]],[[137.01361,36.72685],[137.01015,36.72706]],[[137.01015,36.72706],[137.00598,36.72706],[137.0023,36.7268],[137.0001,36.72653],[136.99712,36.72599],[136.99436,36.72537],[136.99178,36.7246],[136.98872,36.72357],[136.96777,36.71602],[136.9633,36.71424],[136.95935,36.71219],[136.92738,36.69356],[136.9206,36.68897],[136.90439,36.67753],[136.90192,36.67588],[136.89742,36.67353],[136.89328,36.67181],[136.88959,36.6707],[136.88626,36.66986],[136.88341,36.66934],[136.87984,36.66891],[136.87663,36.66875],[136.87275,36.66872],[136.86863,36.66908],[136.86644,36.66939],[136.86356,36.66989],[136.85809,36.67124],[136.82854,36.67917],[136.82547,36.67983],[136.81945,36.68098],[136.79991,36.68338],[136.79551,36.68376],[136.78897,36.68362],[136.78259,36.68281],[136.77688,36.68124],[136.77426,36.68031],[136.77133,36.67912],[136.76691,36.67684],[136.7647,36.67538],[136.76163,36.67317],[136.75939,36.67115],[136.75706,36.66884],[136.75444,36.66558],[136.75201,36.66201],[136.74937,36.65866],[136.74661,36.65561],[136.74283,36.65221],[136.72869,36.64029],[136.72463,36.6371],[136.72156,36.635],[136.7029,36.62339],[136.70076,36.62192],[136.69958,36.621],[136.69067,36.61301],[136.68042,36.60359],[136.677,36.60025],[136.6756,36.59861],[136.67361,36.59602],[136.67057,36.59185],[136.66964,36.59094],[136.6684,36.59001],[136.66719,36.58932],[136.65741,36.58474],[136.65311,36.58286],[136.65194,36.58222],[136.65018,36.58072],[136.64901,36.57918]],[[136.64901,36.57918],[136.64708,36.57665]],[[138.2496,37.08026],[138.24734,37.08247]]]}}