{"type":"Feature","properties":{"id":"豊橋鉄道_渥美線","name":"渥美線","operator":"豊橋鉄道","railType":"普通鉄道","operatorType":"民営","category":"rail","attribution":"国土数値情報（鉄道データ）国土交通省"},"geometry":{"type":"MultiLineString","coordinates":[[[137.29407,34.66777],[137.29332,34.6675]],[[137.37364,34.71121],[137.37529,34.7122],[137.376,34.7128],[137.37998,34.71813]],[[137.38375,34.76169],[137.383,34.76283]],[[137.37998,34.71813],[137.38039,34.71866]],[[137.38147,34.72681],[137.38197,34.7274]],[[137.35841,34.69589],[137.3593,34.69602]],[[137.38589,34.7359],[137.38589,34.73624],[137.38567,34.73708],[137.38592,34.74139]],[[137.38595,34.74201],[137.38612,34.74451],[137.38727,34.74577],[137.38743,34.74645],[137.38751,34.74762],[137.38786,34.74857]],[[137.26947,34.66692],[137.26858,34.66695]],[[137.38829,34.74921],[137.38928,34.7508],[137.38958,34.75184],[137.38956,34.75329],[137.38878,34.75459]],[[137.38592,34.74139],[137.38595,34.74201]],[[137.33446,34.69209],[137.33545,34.69235]],[[137.3884,34.75517],[137.38679,34.75638],[137.38651,34.7567],[137.38486,34.75926],[137.38452,34.7604],[137.38375,34.76169]],[[137.38578,34.73524],[137.38589,34.7359]],[[137.27701,34.66788],[137.27314,34.66671],[137.26947,34.66692]],[[137.38786,34.74857],[137.38829,34.74921]],[[137.3679,34.70644],[137.36937,34.70845],[137.36975,34.70886],[137.37108,34.70979],[137.37285,34.71074]],[[137.29332,34.6675],[137.29224,34.66725],[137.29144,34.66722],[137.29093,34.66734],[137.28897,34.66806],[137.28776,34.66819],[137.28492,34.6681],[137.28239,34.66896],[137.28151,34.66909],[137.28056,34.66899],[137.27773,34.6681]],[[137.30953,34.67391],[137.30876,34.67367]],[[137.32089,34.68069],[137.32136,34.68193],[137.32168,34.6824],[137.32905,34.69022],[137.32978,34.69078],[137.33046,34.69108],[137.33446,34.69209]],[[137.27773,34.6681],[137.27701,34.66788]],[[137.38878,34.75459],[137.3884,34.75517]],[[137.38197,34.7274],[137.38395,34.7302],[137.38528,34.73259],[137.38546,34.7331],[137.38578,34.73524]],[[137.37285,34.71074],[137.37364,34.71121]],[[137.3593,34.69602],[137.36111,34.69635],[137.3618,34.69675],[137.36232,34.69721],[137.36581,34.70262],[137.36662,34.70454],[137.36745,34.70583]],[[137.32062,34.67993],[137.32019,34.67877],[137.31995,34.67838],[137.31948,34.67794],[137.31856,34.67736],[137.31554,34.67581],[137.31463,34.67544],[137.30953,34.67391]],[[137.38039,34.71866],[137.38084,34.71942],[137.38091,34.71984],[137.38019,34.72241],[137.38014,34.72291],[137.3802,34.7235],[137.38035,34.72417],[137.38085,34.72562],[137.38124,34.72648],[137.38147,34.72681]],[[137.36745,34.70583],[137.3679,34.70644]],[[137.32062,34.67993],[137.32089,34.68069]],[[137.29407,34.66777],[137.29833,34.66934],[137.30026,34.67049],[137.30155,34.6711],[137.30323,34.67166],[137.30558,34.67265],[137.30876,34.67367]],[[137.33545,34.69235],[137.33883,34.69314],[137.34174,34.69313],[137.34246,34.69319],[137.35121,34.69483],[137.35841,34.69589]]]}}