{"type":"Feature","properties":{"id":"近江鉄道_多賀線","name":"多賀線","operator":"近江鉄道","railType":"普通鉄道","operatorType":"民営","category":"rail","attribution":"国土数値情報（鉄道データ）国土交通省"},"geometry":{"type":"MultiLineString","coordinates":[[[136.26089,35.23666],[136.26049,35.23777]],[[136.26125,35.23609],[136.26089,35.23666]],[[136.28444,35.22626],[136.28372,35.22663]],[[136.28372,35.22663],[136.27364,35.23202],[136.27279,35.23232],[136.27235,35.23239],[136.26897,35.23249],[136.26815,35.23277],[136.26742,35.23317]],[[136.26693,35.23344],[136.26461,35.23465],[136.26211,35.2355],[136.26125,35.23609]],[[136.26742,35.23317],[136.26693,35.23344]]]}}