{"type":"Feature","properties":{"id":"近江鉄道_本線","name":"本線","operator":"近江鉄道","railType":"普通鉄道","operatorType":"民営","category":"rail","attribution":"国土数値情報（鉄道データ）国土交通省"},"geometry":{"type":"MultiLineString","coordinates":[[[136.2464,35.21425],[136.24596,35.2138]],[[136.1848,35.0881],[136.18455,35.08746]],[[136.2464,35.21425],[136.25483,35.2233],[136.26003,35.22955],[136.26054,35.23043],[136.26089,35.23153],[136.26093,35.23242],[136.26065,35.23565]],[[136.19725,35.15437],[136.19725,35.15531]],[[136.18615,34.98002],[136.18082,34.97623],[136.17721,34.97444]],[[136.18745,35.09526],[136.1848,35.0881]],[[136.19465,35.11449],[136.19502,35.11584],[136.19525,35.11721],[136.19505,35.12198],[136.19506,35.12369],[136.19619,35.13497]],[[136.19371,35.05067],[136.19727,35.04173],[136.19771,35.04084],[136.19812,35.04019],[136.19872,35.03947],[136.20551,35.03178]],[[136.19626,35.13568],[136.197,35.1435],[136.19725,35.15437]],[[136.21364,35.17645],[136.2132,35.17587]],[[136.21945,35.01163],[136.21947,35.01287]],[[136.23124,35.19817],[136.24596,35.2138]],[[136.28318,35.28513],[136.28289,35.28442]],[[136.1652,34.96808],[136.16247,34.96768],[136.16155,34.96743],[136.1609,34.96717],[136.16037,34.96684],[136.15942,34.96593],[136.1567,34.96238],[136.15193,34.95802],[136.15067,34.95673],[136.15042,34.95624],[136.15031,34.95583],[136.15032,34.95533],[136.15059,34.95462],[136.1508,34.95426],[136.15132,34.95368],[136.15181,34.95332],[136.15287,34.95279]],[[136.18051,35.07451],[136.1803,35.07517]],[[136.18769,35.0959],[136.19085,35.10458],[136.19338,35.11117]],[[136.19338,35.11117],[136.19443,35.11386]],[[136.29041,35.31439],[136.29009,35.31357]],[[136.17721,34.97444],[136.17645,34.97406]],[[136.19443,35.11386],[136.19465,35.11449]],[[136.20605,35.03118],[136.21567,35.02014],[136.21738,35.01788],[136.21929,35.01514],[136.21948,35.01434],[136.21947,35.01287]],[[136.17185,34.97028],[136.17137,34.96974]],[[136.17137,34.96974],[136.17031,34.96902],[136.16962,34.96874],[136.16835,34.96849],[136.166,34.96818]],[[136.25875,35.2555],[136.25843,35.25488]],[[136.19371,35.05067],[136.19345,35.05131]],[[136.26358,35.27166],[136.26267,35.26832],[136.26123,35.26236]],[[136.26381,35.27269],[136.26358,35.27166]],[[136.18785,35.06459],[136.18877,35.06299],[136.19345,35.05131]],[[136.26065,35.23565],[136.26056,35.23678]],[[136.15287,34.95279],[136.15356,34.95248]],[[136.17645,34.97406],[136.1747,34.97308],[136.17353,34.97229],[136.173,34.97176],[136.17185,34.97028]],[[136.166,34.96818],[136.1652,34.96808]],[[136.26056,35.23678],[136.26049,35.23777]],[[136.26049,35.23777],[136.25973,35.24668],[136.25932,35.24819],[136.25802,35.25126],[136.25779,35.25242],[136.2578,35.25321],[136.25843,35.25488]],[[136.23124,35.19817],[136.23073,35.19764]],[[136.20605,35.03118],[136.20551,35.03178]],[[136.2132,35.17587],[136.2088,35.16988],[136.20718,35.16792],[136.20609,35.16711],[136.19902,35.16248],[136.19848,35.16205],[136.19792,35.16142],[136.19754,35.16075],[136.19734,35.16002],[136.19725,35.15531]],[[136.28289,35.28442],[136.28267,35.28397],[136.28204,35.28316],[136.28058,35.28192],[136.27906,35.28125],[136.27692,35.28055],[136.27554,35.2802],[136.27289,35.27977],[136.27235,35.27957],[136.26896,35.27753],[136.26567,35.27576],[136.26495,35.27527],[136.26425,35.27454],[136.26411,35.27421],[136.26381,35.27269]],[[136.18051,35.07451],[136.18119,35.07325],[136.18731,35.0653]],[[136.19626,35.13568],[136.19619,35.13497]],[[136.18785,35.06459],[136.18731,35.0653]],[[136.18455,35.08746],[136.1825,35.08192],[136.18044,35.07761],[136.18021,35.07658],[136.18022,35.07551],[136.1803,35.07517]],[[136.18673,34.98043],[136.18615,34.98002]],[[136.18769,35.0959],[136.18745,35.09526]],[[136.21945,35.01163],[136.21944,35.00987],[136.21926,35.00906],[136.21902,35.0086],[136.21814,35.0075],[136.21314,35.00265],[136.21238,35.00171],[136.21169,35.00052],[136.21059,34.99698],[136.21012,34.99578],[136.20969,34.9951],[136.2088,34.99411],[136.20776,34.99318],[136.20721,34.99284],[136.2038,34.99197],[136.2026,34.99139],[136.20103,34.99034],[136.20028,34.9897],[136.19792,34.98662],[136.19745,34.98616],[136.19398,34.98388],[136.19284,34.98336],[136.18967,34.98236],[136.1886,34.98178],[136.18673,34.98043]],[[136.23073,35.19764],[136.22658,35.19331],[136.22476,35.19125],[136.21364,35.17645]],[[136.28536,35.29394],[136.28517,35.29157],[136.28503,35.29099],[136.28318,35.28513]],[[136.29009,35.31357],[136.28647,35.3045],[136.2859,35.30153],[136.28541,35.29456]],[[136.28541,35.29456],[136.28536,35.29394]],[[136.26123,35.26236],[136.26113,35.26194]],[[136.26113,35.26194],[136.26019,35.25827],[136.25985,35.25746],[136.25875,35.2555]]]}}