{"type":"Feature","properties":{"id":"近江鉄道_八日市線","name":"八日市線","operator":"近江鉄道","railType":"普通鉄道","operatorType":"民営","category":"rail","attribution":"国土数値情報（鉄道データ）国土交通省"},"geometry":{"type":"MultiLineString","coordinates":[[[136.10306,35.12242],[136.10235,35.122]],[[136.166,35.10394],[136.16524,35.10374]],[[136.166,35.10394],[136.17974,35.10775],[136.18355,35.10845]],[[136.13029,35.11505],[136.131,35.11469]],[[136.19243,35.11059],[136.19338,35.11117]],[[136.13029,35.11505],[136.12812,35.11622],[136.12712,35.11667],[136.10626,35.12341],[136.10561,35.12354],[136.10508,35.12354],[136.10413,35.1231],[136.10306,35.12242]],[[136.19174,35.11036],[136.19243,35.11059]],[[136.14631,35.11031],[136.13882,35.11306],[136.1378,35.11334],[136.13295,35.11424],[136.131,35.11469]],[[136.18355,35.10845],[136.18442,35.10863]],[[136.18442,35.10863],[136.19174,35.11036]],[[136.14631,35.11031],[136.14697,35.11006]],[[136.16524,35.10374],[136.16419,35.10354],[136.16375,35.10354],[136.16287,35.10377],[136.16077,35.10457],[136.1522,35.10813],[136.14697,35.11006]],[[136.19443,35.11386],[136.19465,35.11449]],[[136.19338,35.11117],[136.19443,35.11386]]]}}