{"type":"Feature","properties":{"id":"近畿日本鉄道_けいはんな線","name":"けいはんな線","operator":"近畿日本鉄道","railType":"軌道","operatorType":"民営","category":"tram","attribution":"国土数値情報（鉄道データ）国土交通省"},"geometry":{"type":"MultiLineString","coordinates":[[[135.64171,34.68009],[135.63993,34.68011]],[[135.60546,34.67862],[135.60984,34.6786],[135.61286,34.6787],[135.61691,34.67941],[135.61979,34.68002],[135.62218,34.68034],[135.62343,34.68036]],[[135.62343,34.68036],[135.6256,34.68031]],[[135.64704,34.68002],[135.64171,34.68009]],[[135.6256,34.68031],[135.63993,34.68011]],[[135.64704,34.68002],[135.6488,34.68007],[135.65022,34.68022],[135.65466,34.68151],[135.65557,34.68184],[135.65681,34.6825],[135.65831,34.68359],[135.6623,34.68774],[135.66304,34.68824],[135.66474,34.68906],[135.66612,34.68955],[135.66981,34.69019],[135.68525,34.69209],[135.69183,34.69258],[135.69539,34.69276]],[[135.60452,34.67863],[135.60546,34.67862]],[[135.69539,34.69276],[135.69688,34.69295]],[[135.69688,34.69295],[135.69923,34.69325]],[[135.59111,34.67876],[135.59282,34.67875]],[[135.59282,34.67875],[135.60057,34.67861],[135.60452,34.67863]],[[135.74832,34.72632],[135.75,34.72645]],[[135.7067,34.69248],[135.70758,34.69247],[135.71054,34.69198],[135.71247,34.69194],[135.71424,34.69222],[135.71519,34.69258],[135.71611,34.69307],[135.71743,34.69413],[135.71796,34.69478],[135.71834,34.69555],[135.7186,34.6963],[135.71876,34.69702],[135.7188,34.69784],[135.71842,34.6993],[135.71789,34.70036],[135.71216,34.71055],[135.71181,34.71176],[135.71167,34.71301],[135.71171,34.71397],[135.71196,34.71546],[135.71231,34.71645],[135.71283,34.71742],[135.71382,34.71875],[135.71494,34.71981],[135.71636,34.72076]],[[135.7173,34.7213],[135.72281,34.72458]],[[135.72403,34.72511],[135.72533,34.72547],[135.72655,34.72556],[135.739,34.72583],[135.74832,34.72632]],[[135.71636,34.72076],[135.7173,34.7213]],[[135.72281,34.72458],[135.72403,34.72511]],[[135.69923,34.69325],[135.7011,34.69338],[135.7067,34.69248]]]}}