{"type":"Feature","properties":{"id":"近畿日本鉄道_橿原線","name":"橿原線","operator":"近畿日本鉄道","railType":"普通鉄道","operatorType":"民営","category":"rail","attribution":"国土数値情報（鉄道データ）国土交通省"},"geometry":{"type":"MultiLineString","coordinates":[[[135.79101,34.55267],[135.7935,34.54478],[135.79396,34.54307],[135.79412,34.54185]],[[135.78844,34.51483],[135.78817,34.51523],[135.78798,34.5158],[135.78775,34.5175],[135.78776,34.52061],[135.78785,34.5213],[135.78803,34.52163],[135.78885,34.52232],[135.79007,34.52276],[135.79309,34.52287],[135.79349,34.52296],[135.79414,34.52337],[135.79455,34.52396]],[[135.78957,34.51409],[135.78844,34.51483]],[[135.79086,34.5109],[135.79058,34.51265],[135.79017,34.51334],[135.78957,34.51409]],[[135.79464,34.52464],[135.79455,34.52396]],[[135.79075,34.5104],[135.79086,34.5109]],[[135.7859,34.57092],[135.78582,34.57178]],[[135.7848,34.58491],[135.78441,34.58954],[135.78502,34.59768]],[[135.78582,34.57178],[135.78488,34.58414]],[[135.78322,34.67023],[135.78312,34.67107]],[[135.78312,34.67107],[135.7832,34.67529],[135.78357,34.6794],[135.78354,34.68063]],[[135.7941,34.541],[135.79386,34.53778],[135.79385,34.53655],[135.79468,34.52565]],[[135.79101,34.55267],[135.79074,34.5535]],[[135.7941,34.541],[135.79412,34.54185]],[[135.78084,34.64663],[135.78061,34.64547]],[[135.79134,34.51259],[135.7916,34.51354]],[[135.79464,34.52464],[135.79468,34.52565]],[[135.78322,34.67023],[135.78375,34.66513],[135.78381,34.66392],[135.78361,34.66243],[135.78303,34.65982]],[[135.78507,34.59845],[135.78502,34.59768]],[[135.78289,34.659],[135.78174,34.65319],[135.78151,34.65035],[135.78084,34.64663]],[[135.79075,34.5104],[135.79075,34.50893]],[[135.78251,34.60741],[135.78307,34.60601]],[[135.78443,34.69289],[135.78401,34.69315]],[[135.78351,34.68158],[135.78355,34.684],[135.7837,34.6848],[135.7861,34.68934],[135.78629,34.6902],[135.7862,34.69097],[135.78584,34.69162],[135.78443,34.69289]],[[135.79134,34.51259],[135.79086,34.5109]],[[135.78061,34.64547],[135.7799,34.64145],[135.77984,34.64001],[135.78105,34.63136],[135.7812,34.62949],[135.78115,34.62748],[135.78073,34.62283],[135.78063,34.62069]],[[135.79425,34.49182],[135.79422,34.49372]],[[135.7859,34.57092],[135.78609,34.56863],[135.78641,34.56715],[135.79074,34.5535]],[[135.78303,34.65982],[135.78289,34.659]],[[135.78063,34.62069],[135.78069,34.61979]],[[135.79428,34.48471],[135.79425,34.49182]],[[135.7916,34.51354],[135.79438,34.52294],[135.79455,34.52396]],[[135.78307,34.60601],[135.78475,34.60133],[135.78496,34.60031],[135.78507,34.59845]],[[135.78488,34.58414],[135.7848,34.58491]],[[135.78069,34.61979],[135.78165,34.61032],[135.78199,34.60869],[135.78251,34.60741]],[[135.78354,34.68063],[135.78351,34.68158]],[[135.79422,34.49372],[135.79423,34.49663],[135.79389,34.49814],[135.79142,34.50328],[135.79093,34.50456],[135.7908,34.50512],[135.79075,34.50893]],[[135.78401,34.69315],[135.78213,34.69415]],[[135.79434,34.48339],[135.79428,34.48471]]]}}