{"type":"Feature","properties":{"id":"近畿日本鉄道_生駒線","name":"生駒線","operator":"近畿日本鉄道","railType":"普通鉄道","operatorType":"民営","category":"rail","attribution":"国土数値情報（鉄道データ）国土交通省"},"geometry":{"type":"MultiLineString","coordinates":[[[135.70888,34.65668],[135.70835,34.6552],[135.70821,34.65448],[135.7083,34.65368],[135.70846,34.65313],[135.70912,34.6515],[135.70908,34.65022],[135.70881,34.64931]],[[135.70793,34.67575],[135.7071,34.68318],[135.70674,34.68531]],[[135.70468,34.61751],[135.70465,34.61687]],[[135.70839,34.6481],[135.70751,34.64597],[135.70677,34.64492],[135.70595,34.64409],[135.70485,34.64322],[135.70291,34.64246],[135.70184,34.64189],[135.70095,34.64088]],[[135.69688,34.69295],[135.69893,34.69308]],[[135.70069,34.60594],[135.69771,34.60453],[135.69682,34.60402],[135.69624,34.60345],[135.6958,34.60274],[135.69523,34.60125]],[[135.7023,34.59769],[135.70317,34.59774]],[[135.69512,34.60056],[135.69512,34.6002],[135.69533,34.5997],[135.69673,34.59861],[135.69763,34.5981],[135.6987,34.5978],[135.7023,34.59769]],[[135.70457,34.62895],[135.70562,34.62729],[135.70631,34.62603],[135.70646,34.62558],[135.70655,34.62471],[135.70652,34.62446],[135.70627,34.62388],[135.70522,34.62254],[135.70482,34.62172],[135.7047,34.621],[135.70468,34.61751]],[[135.70658,34.68586],[135.70628,34.68647],[135.70576,34.68714],[135.70174,34.69172],[135.70101,34.69227],[135.7002,34.69273],[135.69945,34.69299],[135.69893,34.69308]],[[135.70864,34.66576],[135.7091,34.66525]],[[135.70416,34.62959],[135.70457,34.62895]],[[135.70465,34.61687],[135.7045,34.61128],[135.70431,34.6104],[135.70335,34.60845],[135.70288,34.60772],[135.70201,34.60671],[135.70134,34.60626]],[[135.70802,34.67508],[135.70846,34.67078],[135.70842,34.67024],[135.70802,34.66831],[135.70795,34.66749],[135.70809,34.66676],[135.7083,34.66625],[135.70864,34.66576]],[[135.70802,34.67508],[135.70793,34.67575]],[[135.70881,34.64931],[135.70839,34.6481]],[[135.70674,34.68531],[135.70658,34.68586]],[[135.70095,34.64088],[135.70064,34.64033]],[[135.7091,34.66525],[135.71068,34.66317],[135.7108,34.66277],[135.7108,34.66233],[135.70908,34.65728]],[[135.70908,34.65728],[135.70888,34.65668]],[[135.70064,34.64033],[135.70054,34.63995],[135.70056,34.63936],[135.7012,34.63648],[135.70202,34.6333],[135.7026,34.63213],[135.70416,34.62959]],[[135.69523,34.60125],[135.69512,34.60056]],[[135.70134,34.60626],[135.70069,34.60594]]]}}