{"type":"Feature","properties":{"id":"近畿日本鉄道_長野線","name":"長野線","operator":"近畿日本鉄道","railType":"普通鉄道","operatorType":"民営","category":"rail","attribution":"国土数値情報（鉄道データ）国土交通省"},"geometry":{"type":"MultiLineString","coordinates":[[[135.60739,34.52336],[135.6071,34.52193]],[[135.6071,34.52193],[135.60486,34.51165],[135.60375,34.50693],[135.6034,34.50621],[135.60286,34.50557],[135.60226,34.50513],[135.60157,34.50477]],[[135.60843,34.55183],[135.60812,34.54941],[135.60742,34.54618],[135.60737,34.54562],[135.60811,34.53639],[135.60851,34.52909],[135.60841,34.52823],[135.60739,34.52336]],[[135.60872,34.55341],[135.60843,34.55183]],[[135.60157,34.50477],[135.59991,34.5039]],[[135.60974,34.55487],[135.60913,34.55414],[135.60872,34.55341]],[[135.57914,34.46736],[135.57894,34.4684],[135.5784,34.47002],[135.5782,34.4709],[135.57819,34.47181],[135.57844,34.47242],[135.57978,34.47464],[135.58023,34.47523],[135.58144,34.47623],[135.58506,34.47874],[135.58558,34.47926],[135.58592,34.47977],[135.58648,34.48097]],[[135.58689,34.48181],[135.58731,34.48302],[135.58798,34.48704],[135.58825,34.48794],[135.58874,34.48904],[135.59044,34.49164]],[[135.59044,34.49164],[135.59088,34.49229]],[[135.58648,34.48097],[135.58689,34.48181]],[[135.59655,34.50068],[135.59802,34.50277],[135.59871,34.50328],[135.59991,34.5039]],[[135.57342,34.45183],[135.57289,34.45038]],[[135.57342,34.45183],[135.57419,34.45301],[135.57681,34.45537],[135.57715,34.45582],[135.57748,34.45653],[135.57766,34.45734],[135.57752,34.45933],[135.578,34.46122],[135.578,34.46191],[135.57783,34.46314],[135.57789,34.46442],[135.57825,34.46522],[135.57895,34.46626],[135.57908,34.46666]],[[135.57908,34.46666],[135.57914,34.46736]],[[135.59601,34.49987],[135.59655,34.50068]],[[135.59088,34.49229],[135.59601,34.49987]]]}}