{"type":"Feature","properties":{"id":"近畿日本鉄道_鳥羽線","name":"鳥羽線","operator":"近畿日本鉄道","railType":"普通鉄道","operatorType":"民営","category":"rail","attribution":"国土数値情報（鉄道データ）国土交通省"},"geometry":{"type":"MultiLineString","coordinates":[[[136.84148,34.48736],[136.83936,34.48836],[136.83849,34.48858],[136.83788,34.4886],[136.83716,34.48856],[136.8365,34.48838],[136.83588,34.48811],[136.83453,34.48729],[136.83356,34.48701],[136.8331,34.487],[136.83095,34.4873],[136.82952,34.48732],[136.82876,34.4872],[136.82804,34.48689],[136.82715,34.48632],[136.8238,34.48355],[136.8214,34.48191],[136.82081,34.48138],[136.81961,34.48003],[136.81899,34.47945]],[[136.75666,34.47706],[136.75363,34.47589],[136.75271,34.47565],[136.74887,34.4747],[136.74773,34.47449],[136.74674,34.47442],[136.7454,34.47415],[136.74481,34.47396],[136.74135,34.4724],[136.74059,34.47212],[136.73954,34.4719],[136.73795,34.47191],[136.73729,34.47204],[136.73521,34.47271],[136.73222,34.4739],[136.72788,34.47614]],[[136.84197,34.48714],[136.84148,34.48736]],[[136.81899,34.47945],[136.81769,34.47879]],[[136.72672,34.47673],[136.72095,34.47979],[136.71936,34.4808],[136.71721,34.48238],[136.71645,34.48303],[136.71561,34.48381],[136.71446,34.48537],[136.71416,34.48599],[136.714,34.48655],[136.71394,34.48716],[136.71399,34.48779]],[[136.75816,34.47733],[136.75726,34.47722],[136.75666,34.47706]],[[136.81769,34.47879],[136.81678,34.47843],[136.80795,34.47577],[136.80679,34.47549],[136.80445,34.47514],[136.79884,34.47492],[136.79749,34.4749],[136.79598,34.47505],[136.79379,34.47547],[136.79139,34.47604],[136.79016,34.47616],[136.78083,34.4765],[136.77569,34.4763],[136.77455,34.47648],[136.77125,34.47731],[136.76911,34.47756],[136.76662,34.47754],[136.76424,34.47714],[136.76359,34.4771],[136.75816,34.47733]],[[136.72788,34.47614],[136.72672,34.47673]],[[136.71399,34.48779],[136.71404,34.48885]]]}}