{"type":"Feature","properties":{"id":"近畿日本鉄道_南大阪線","name":"南大阪線","operator":"近畿日本鉄道","railType":"普通鉄道","operatorType":"民営","category":"rail","attribution":"国土数値情報（鉄道データ）国土交通省"},"geometry":{"type":"MultiLineString","coordinates":[[[135.69437,34.5317],[135.70559,34.51682]],[[135.71116,34.51098],[135.71226,34.51004],[135.71277,34.50973],[135.71442,34.50903],[135.71646,34.50859],[135.71959,34.50854]],[[135.63722,34.53305],[135.63808,34.53284]],[[135.62168,34.54611],[135.62048,34.54737],[135.61974,34.54788],[135.61887,34.54829],[135.61683,34.54888],[135.61176,34.54974],[135.6106,34.54997],[135.60979,34.55023],[135.60942,34.55042],[135.6089,34.55085],[135.60849,34.55151],[135.60843,34.55183]],[[135.71959,34.50854],[135.72203,34.50855]],[[135.79268,34.48398],[135.79236,34.48434],[135.79206,34.48452],[135.79087,34.48499],[135.79037,34.48503],[135.78774,34.48484],[135.78568,34.48481],[135.78427,34.48505],[135.7835,34.48529],[135.78181,34.48602]],[[135.76448,34.49374],[135.75562,34.4977]],[[135.72326,34.5086],[135.73246,34.50886],[135.73458,34.50876],[135.73659,34.50841],[135.74234,34.5069]],[[135.72203,34.50855],[135.72326,34.5086]],[[135.79353,34.48298],[135.79268,34.48398]],[[135.71049,34.5116],[135.71116,34.51098]],[[135.75562,34.4977],[135.7541,34.49832]],[[135.62237,34.54539],[135.62564,34.54189],[135.6261,34.5415],[135.62824,34.5401],[135.63111,34.53693],[135.63237,34.53596],[135.63582,34.53363],[135.63722,34.53305]],[[135.78085,34.48641],[135.76583,34.49318]],[[135.62035,34.56909],[135.62036,34.5697],[135.62025,34.57009],[135.61972,34.57053],[135.61858,34.57098],[135.61612,34.57153]],[[135.76583,34.49318],[135.76448,34.49374]],[[135.62168,34.54611],[135.62237,34.54539]],[[135.68594,34.53892],[135.68691,34.53855]],[[135.78181,34.48602],[135.78085,34.48641]],[[135.69377,34.53234],[135.69437,34.5317]],[[135.63808,34.53284],[135.64019,34.53229],[135.64146,34.53178],[135.64227,34.53128],[135.64424,34.52961],[135.645,34.52914],[135.64604,34.52885],[135.64684,34.52881],[135.64741,34.52888],[135.64908,34.52933],[135.65404,34.531],[135.65566,34.53157],[135.65606,34.53178],[135.65664,34.53227],[135.65715,34.53305],[135.6577,34.53486],[135.65798,34.53549],[135.65864,34.53637],[135.6592,34.53683],[135.66059,34.53768],[135.66513,34.53999],[135.66627,34.54045],[135.66965,34.54147],[135.67168,34.54183],[135.67272,34.54191],[135.67596,34.54188],[135.67761,34.54169],[135.67864,34.54143],[135.68137,34.54037],[135.68594,34.53892]],[[135.62011,34.56766],[135.61987,34.56651],[135.61936,34.56531],[135.61564,34.5591],[135.61508,34.55857],[135.6106,34.55562],[135.60974,34.55487]],[[135.70609,34.51615],[135.7075,34.5145],[135.71049,34.5116]],[[135.74348,34.50657],[135.7452,34.50587],[135.7463,34.5052],[135.74849,34.50328],[135.75221,34.49945],[135.7541,34.49832]],[[135.68691,34.53855],[135.68779,34.53815],[135.68858,34.53757],[135.69377,34.53234]],[[135.74234,34.5069],[135.74348,34.50657]],[[135.61612,34.57153],[135.61511,34.5717]],[[135.70559,34.51682],[135.70609,34.51615]],[[135.62035,34.56909],[135.62011,34.56766]],[[135.60872,34.55341],[135.60843,34.55183]],[[135.60974,34.55487],[135.60913,34.55414],[135.60872,34.55341]],[[135.53971,34.57724],[135.53912,34.57845]],[[135.54658,34.57519],[135.54543,34.57517]],[[135.58374,34.57141],[135.57961,34.57097],[135.57845,34.57098],[135.57787,34.57114],[135.57322,34.57336]],[[135.5247,34.64072],[135.52379,34.64134]],[[135.58529,34.57157],[135.58374,34.57141]],[[135.51591,34.6452],[135.51311,34.64605]],[[135.53091,34.6268],[135.5291,34.63159]],[[135.53128,34.62581],[135.53091,34.6268]],[[135.53598,34.5849],[135.53515,34.58667]],[[135.52379,34.64134],[135.52004,34.64344],[135.51793,34.64416],[135.51591,34.6452]],[[135.53912,34.57845],[135.53598,34.5849]],[[135.57322,34.57336],[135.57242,34.57376]],[[135.57242,34.57376],[135.57001,34.57491],[135.56902,34.57515],[135.55835,34.57547]],[[135.59496,34.57151],[135.59304,34.57152]],[[135.533,34.61747],[135.53217,34.6233],[135.53128,34.62581]],[[135.5331,34.61662],[135.533,34.61747]],[[135.55648,34.57552],[135.55367,34.57556],[135.54658,34.57519]],[[135.54543,34.57517],[135.54252,34.57534],[135.54097,34.57567],[135.54033,34.57613],[135.53971,34.57724]],[[135.61511,34.5717],[135.61315,34.57191],[135.61258,34.57185],[135.61223,34.57172],[135.60943,34.57011],[135.60902,34.56993],[135.60843,34.5698],[135.60765,34.56984],[135.59946,34.5709],[135.59603,34.57145],[135.59496,34.57151]],[[135.53288,34.60526],[135.53303,34.60655]],[[135.53303,34.60655],[135.53366,34.61226],[135.53365,34.61288],[135.5331,34.61662]],[[135.52878,34.63247],[135.52638,34.63886],[135.52562,34.63995],[135.52534,34.64025],[135.5247,34.64072]],[[135.53515,34.58667],[135.53447,34.58868],[135.53325,34.5929],[135.53259,34.5962],[135.53229,34.59817],[135.53221,34.59966],[135.53288,34.60526]],[[135.5291,34.63159],[135.52878,34.63247]],[[135.59304,34.57152],[135.58735,34.57168],[135.58529,34.57157]],[[135.55835,34.57547],[135.55648,34.57552]]]}}