{"type":"Feature","properties":{"id":"近畿日本鉄道_御所線","name":"御所線","operator":"近畿日本鉄道","railType":"普通鉄道","operatorType":"民営","category":"rail","attribution":"国土数値情報（鉄道データ）国土交通省"},"geometry":{"type":"MultiLineString","coordinates":[[[135.72727,34.48882],[135.72729,34.48978]],[[135.73239,34.46416],[135.73237,34.46526]],[[135.73199,34.47631],[135.73193,34.47669],[135.73132,34.4781],[135.72757,34.4857],[135.72728,34.4869],[135.72727,34.48882]],[[135.73204,34.47564],[135.73199,34.47631]],[[135.72729,34.48978],[135.7262,34.50605],[135.72583,34.507],[135.72524,34.50772],[135.72438,34.50825],[135.72326,34.5086]],[[135.73237,34.46526],[135.73204,34.47564]],[[135.71959,34.50854],[135.72203,34.50855]],[[135.72203,34.50855],[135.72326,34.5086]]]}}