{"type":"Feature","properties":{"id":"近畿日本鉄道_奈良線","name":"奈良線","operator":"近畿日本鉄道","railType":"普通鉄道","operatorType":"民営","category":"rail","attribution":"国土数値情報（鉄道データ）国土交通省"},"geometry":{"type":"MultiLineString","coordinates":[[[135.61913,34.66271],[135.61773,34.66276]],[[135.69539,34.69276],[135.69688,34.69295]],[[135.65561,34.68539],[135.65747,34.68695],[135.65902,34.68786],[135.65999,34.68828],[135.68825,34.6918],[135.69539,34.69276]],[[135.64795,34.66921],[135.64687,34.66537],[135.6464,34.66452],[135.6459,34.66385],[135.64536,34.6633],[135.64439,34.66268],[135.64282,34.6621],[135.64125,34.66189],[135.63984,34.66197]],[[135.70888,34.69207],[135.71098,34.69158]],[[135.82714,34.68399],[135.82568,34.68424],[135.82231,34.68426],[135.81729,34.68485],[135.81168,34.68533]],[[135.65126,34.67553],[135.65097,34.67486]],[[135.64816,34.66987],[135.64795,34.66921]],[[135.60895,34.66309],[135.60776,34.66313]],[[135.81168,34.68533],[135.80969,34.68552]],[[135.61773,34.66276],[135.60895,34.66309]],[[135.65097,34.67486],[135.65059,34.67357],[135.65019,34.67269],[135.64816,34.66987]],[[135.62631,34.66238],[135.61913,34.66271]],[[135.73387,34.69397],[135.73559,34.69444]],[[135.80969,34.68552],[135.80085,34.68691],[135.79398,34.68819],[135.79205,34.68889],[135.78443,34.69289]],[[135.63844,34.66203],[135.62727,34.66235]],[[135.71098,34.69158],[135.71505,34.69067],[135.71678,34.69058],[135.71954,34.69074],[135.72273,34.69112],[135.72421,34.69138],[135.73387,34.69397]],[[135.63984,34.66197],[135.63844,34.66203]],[[135.75094,34.69716],[135.74867,34.69687]],[[135.78119,34.69469],[135.7776,34.69659],[135.77624,34.69721],[135.77551,34.69743],[135.77321,34.69767],[135.76213,34.69793]],[[135.82857,34.68395],[135.82714,34.68399]],[[135.76042,34.69792],[135.75837,34.69788],[135.75642,34.69774],[135.75094,34.69716]],[[135.62727,34.66235],[135.62631,34.66238]],[[135.76213,34.69793],[135.76042,34.69792]],[[135.73559,34.69444],[135.73737,34.6949],[135.74087,34.69559],[135.74625,34.69653],[135.74867,34.69687]],[[135.65451,34.68409],[135.65339,34.68212],[135.65307,34.68102],[135.65307,34.67957],[135.65294,34.67902],[135.65126,34.67553]],[[135.65451,34.68409],[135.65513,34.68494],[135.65561,34.68539]],[[135.69688,34.69295],[135.69923,34.69325]],[[135.78401,34.69315],[135.78213,34.69415]],[[135.78443,34.69289],[135.78401,34.69315]],[[135.78213,34.69415],[135.78119,34.69469]],[[135.57379,34.66424],[135.57249,34.66425]],[[135.58872,34.66374],[135.58198,34.66396]],[[135.60776,34.66313],[135.59011,34.66371]],[[135.58198,34.66396],[135.58066,34.664]],[[135.57249,34.66425],[135.56463,34.66411]],[[135.59011,34.66371],[135.58872,34.66374]],[[135.58066,34.664],[135.57379,34.66424]],[[135.56463,34.66411],[135.56251,34.66406]],[[135.69923,34.69325],[135.7011,34.69338],[135.7067,34.69248]],[[135.7067,34.69248],[135.70888,34.69207]]]}}