{"type":"Feature","properties":{"id":"近畿日本鉄道_京都線","name":"京都線","operator":"近畿日本鉄道","railType":"普通鉄道","operatorType":"民営","category":"rail","attribution":"国土数値情報（鉄道データ）国土交通省"},"geometry":{"type":"MultiLineString","coordinates":[[[135.76947,34.91517],[135.7689,34.91606],[135.76828,34.91741],[135.76691,34.92266],[135.76509,34.92682],[135.76525,34.92867],[135.76524,34.93088],[135.76552,34.9324],[135.76554,34.93304]],[[135.77007,34.91428],[135.76947,34.91517]],[[135.75619,34.95497],[135.75613,34.95701]],[[135.76642,34.93849],[135.76635,34.94105],[135.76626,34.94176],[135.76598,34.94267],[135.76555,34.94327],[135.76511,34.94368],[135.76195,34.94574]],[[135.76103,34.9463],[135.758,34.94822],[135.75744,34.94864],[135.75682,34.94937],[135.7564,34.95032],[135.7563,34.95097],[135.75619,34.95497]],[[135.75259,34.97968],[135.7526,34.98029]],[[135.76554,34.93304],[135.76556,34.93362]],[[135.76643,34.93772],[135.76642,34.93849]],[[135.75292,34.96463],[135.75254,34.9654]],[[135.76195,34.94574],[135.76103,34.9463]],[[135.75247,34.97443],[135.75259,34.97968]],[[135.7526,34.98029],[135.75269,34.98286],[135.75291,34.98352],[135.7534,34.98422],[135.75385,34.98462],[135.75472,34.98498],[135.75514,34.985],[135.75684,34.98459]],[[135.75245,34.97356],[135.75247,34.97443]],[[135.76556,34.93362],[135.76566,34.93493],[135.76623,34.93628],[135.76643,34.93772]],[[135.75613,34.95701],[135.75605,34.95962],[135.75591,34.96044],[135.75529,34.9614],[135.75357,34.96362],[135.75292,34.96463]],[[135.75254,34.9654],[135.75236,34.96623],[135.75234,34.96675],[135.75245,34.97356]],[[135.75684,34.98459],[135.76127,34.98466]],[[135.77722,34.87525],[135.77889,34.88176]],[[135.79379,34.73732],[135.79397,34.73824]],[[135.7769,34.87401],[135.77722,34.87525]],[[135.79607,34.74721],[135.79598,34.74814],[135.79556,34.7495],[135.79339,34.75402],[135.79315,34.75477],[135.79282,34.7595]],[[135.77296,34.83972],[135.77287,34.8406]],[[135.77291,34.82127],[135.77407,34.82797],[135.77416,34.82936],[135.77296,34.83972]],[[135.78959,34.78007],[135.78945,34.78081]],[[135.796,34.74609],[135.79607,34.74721]],[[135.78622,34.79829],[135.78596,34.79899]],[[135.77486,34.8653],[135.7769,34.87401]],[[135.77287,34.8406],[135.77176,34.85051],[135.77178,34.8519],[135.77201,34.85293]],[[135.79185,34.72433],[135.7918,34.72528],[135.79188,34.72757],[135.79224,34.73118],[135.79258,34.73281],[135.79379,34.73732]],[[135.7791,34.88256],[135.78176,34.89255]],[[135.77274,34.82014],[135.77291,34.82127]],[[135.79397,34.73824],[135.796,34.74609]],[[135.78596,34.79899],[135.78525,34.80015],[135.78257,34.80337],[135.77891,34.80803]],[[135.78119,34.69469],[135.7806,34.69537],[135.78029,34.696],[135.78033,34.69679],[135.78074,34.69812],[135.78145,34.69931],[135.7821,34.70001],[135.78264,34.70042],[135.78396,34.70117]],[[135.78213,34.69415],[135.78119,34.69469]],[[135.78176,34.89255],[135.782,34.89346]],[[135.77845,34.80861],[135.77268,34.81605],[135.77256,34.81642],[135.77248,34.81744],[135.77274,34.82014]],[[135.78959,34.78007],[135.79245,34.76385],[135.79274,34.76114]],[[135.78743,34.79212],[135.78666,34.79657],[135.78622,34.79829]],[[135.77471,34.86461],[135.77486,34.8653]],[[135.7876,34.79112],[135.78743,34.79212]],[[135.78945,34.78081],[135.7876,34.79112]],[[135.79187,34.72309],[135.79185,34.72433]],[[135.79282,34.7595],[135.79274,34.76114]],[[135.78534,34.70176],[135.78603,34.70217],[135.78644,34.70264],[135.78692,34.70342],[135.78814,34.70583],[135.79152,34.70947],[135.79185,34.71008],[135.79205,34.71065],[135.7922,34.71193],[135.79219,34.71436],[135.79187,34.72309]],[[135.78396,34.70117],[135.78534,34.70176]],[[135.77216,34.85361],[135.77471,34.86461]],[[135.77845,34.80861],[135.77891,34.80803]],[[135.782,34.89346],[135.78258,34.89555],[135.78268,34.89651],[135.7825,34.89784],[135.7821,34.89878],[135.78168,34.89938],[135.77463,34.90776],[135.77267,34.91045],[135.77007,34.91428]],[[135.77889,34.88176],[135.7791,34.88256]],[[135.77201,34.85293],[135.77216,34.85361]],[[135.78401,34.69315],[135.78213,34.69415]]]}}