{"type":"Feature","properties":{"id":"近畿日本鉄道_湯の山線","name":"湯の山線","operator":"近畿日本鉄道","railType":"普通鉄道","operatorType":"民営","category":"rail","attribution":"国土数値情報（鉄道データ）国土交通省"},"geometry":{"type":"MultiLineString","coordinates":[[[136.56736,34.9777],[136.57023,34.97804],[136.57136,34.97762],[136.57251,34.97701],[136.57464,34.97685],[136.57566,34.97637],[136.57723,34.97468],[136.57746,34.97452],[136.57925,34.97381],[136.58162,34.97371],[136.58214,34.97357],[136.59033,34.96982]],[[136.49459,35.01259],[136.49382,35.01252]],[[136.49459,35.01259],[136.501,35.01309],[136.50386,35.01241]],[[136.54209,34.99626],[136.5437,34.99518],[136.55242,34.98672],[136.55261,34.98641],[136.55278,34.98588],[136.55275,34.98524],[136.55285,34.98485],[136.55302,34.98459],[136.5542,34.98345]],[[136.51776,35.00867],[136.51695,35.00877]],[[136.56654,34.97762],[136.56736,34.9777]],[[136.4741,35.01166],[136.47329,35.01155]],[[136.4741,35.01166],[136.47518,35.01182],[136.47602,35.01182],[136.47952,35.01148],[136.48202,35.01174],[136.4843,35.01214],[136.4861,35.01216],[136.48908,35.0124],[136.49197,35.01237],[136.49382,35.01252]],[[136.51776,35.00867],[136.51854,35.0085],[136.51982,35.00785],[136.52253,35.00598],[136.52527,35.005],[136.52566,35.00476],[136.52771,35.00288],[136.52831,35.00249],[136.52868,35.00231],[136.53621,34.99991],[136.53726,34.99936],[136.54142,34.99667]],[[136.54142,34.99667],[136.54209,34.99626]],[[136.55472,34.98296],[136.55957,34.97841],[136.56047,34.97782],[136.56173,34.97737],[136.56229,34.97727],[136.56654,34.97762]],[[136.61843,34.96598],[136.61827,34.96681]],[[136.50463,35.01219],[136.50587,35.01186],[136.50779,35.01172],[136.50909,35.0114],[136.51015,35.01132],[136.51319,35.01042],[136.51459,35.00927],[136.515,35.00904],[136.51541,35.00892],[136.51695,35.00877]],[[136.60284,34.96925],[136.60363,34.9694]],[[136.5542,34.98345],[136.55472,34.98296]],[[136.59033,34.96982],[136.59113,34.96945]],[[136.60363,34.9694],[136.60701,34.97005],[136.61055,34.97139],[136.6113,34.97152],[136.61222,34.97146],[136.61304,34.97123],[136.61351,34.971],[136.61787,34.96827],[136.61809,34.96803],[136.6183,34.96751],[136.61827,34.96681]],[[136.50463,35.01219],[136.50386,35.01241]],[[136.59113,34.96945],[136.59306,34.96856],[136.59398,34.96833],[136.5946,34.96828],[136.59798,34.96838],[136.60284,34.96925]]]}}