{"type":"Feature","properties":{"id":"近畿日本鉄道_道明寺線","name":"道明寺線","operator":"近畿日本鉄道","railType":"普通鉄道","operatorType":"民営","category":"rail","attribution":"国土数値情報（鉄道データ）国土交通省"},"geometry":{"type":"MultiLineString","coordinates":[[[135.62502,34.58197],[135.62495,34.58128]],[[135.62495,34.58128],[135.6244,34.57596],[135.62415,34.57474],[135.62383,34.57401],[135.62355,34.57359],[135.62087,34.57011],[135.62035,34.56909]],[[135.62035,34.56909],[135.62011,34.56766]],[[135.62363,34.58608],[135.62458,34.58489],[135.62494,34.58409],[135.62511,34.5831],[135.62502,34.58197]],[[135.62271,34.58728],[135.62363,34.58608]]]}}