{"type":"Feature","properties":{"id":"近畿日本鉄道_志摩線","name":"志摩線","operator":"近畿日本鉄道","railType":"普通鉄道","operatorType":"民営","category":"rail","attribution":"国土数値情報（鉄道データ）国土交通省"},"geometry":{"type":"MultiLineString","coordinates":[[[136.84197,34.48714],[136.84148,34.48736]],[[136.81035,34.40696],[136.81077,34.40753],[136.81517,34.41129],[136.81794,34.41456],[136.82061,34.41796],[136.82201,34.41998],[136.82464,34.42407],[136.82549,34.4253],[136.82646,34.42649],[136.82839,34.42782],[136.83081,34.42902]],[[136.81577,34.35913],[136.81496,34.36032],[136.81348,34.3617],[136.81262,34.36279],[136.81103,34.36567],[136.81027,34.36615],[136.80844,34.36676],[136.80772,34.3671],[136.80726,34.36748],[136.80617,34.36903]],[[136.82014,34.30861],[136.82191,34.30911],[136.82393,34.30937],[136.82464,34.30972],[136.82522,34.31036],[136.82542,34.31082],[136.8253,34.31293],[136.8255,34.31338],[136.82587,34.31386],[136.82635,34.31418],[136.82813,34.31452],[136.82862,34.31468],[136.82913,34.31506],[136.82978,34.31591]],[[136.83019,34.3165],[136.83119,34.31794],[136.83138,34.31855],[136.83205,34.32372],[136.832,34.32419],[136.83182,34.32458],[136.83087,34.32598],[136.83013,34.32704],[136.8296,34.32764],[136.82743,34.32915],[136.82704,34.32928],[136.82614,34.32936]],[[136.8186,34.33371],[136.81812,34.33424]],[[136.81035,34.40696],[136.80984,34.4064]],[[136.81168,34.37964],[136.81181,34.37996],[136.81185,34.38039],[136.81183,34.38172],[136.81166,34.3825],[136.8111,34.38318],[136.80948,34.38424],[136.8091,34.38457],[136.80894,34.38484],[136.80901,34.38586],[136.80963,34.38742],[136.81005,34.3881],[136.81115,34.38939],[136.81242,34.39111],[136.81399,34.39263],[136.81437,34.39331],[136.81447,34.39382]],[[136.83081,34.42902],[136.83151,34.42939]],[[136.84672,34.44451],[136.84733,34.44569],[136.8473,34.44624],[136.84529,34.45054],[136.84515,34.45073],[136.84446,34.45125],[136.84411,34.4517],[136.84319,34.45584],[136.8429,34.45631],[136.8424,34.45667]],[[136.8464,34.4439],[136.84672,34.44451]],[[136.84543,34.47995],[136.84544,34.48084],[136.84464,34.48206],[136.8445,34.48269],[136.84451,34.48331],[136.84485,34.48472],[136.84478,34.4854],[136.84458,34.48572],[136.84423,34.48604],[136.84268,34.48675]],[[136.81812,34.33424],[136.81771,34.33495],[136.81764,34.33533],[136.81739,34.3391],[136.81677,34.34234],[136.81635,34.34368],[136.81586,34.34478],[136.8159,34.34524],[136.81625,34.34598],[136.81638,34.34654],[136.81609,34.34888],[136.81609,34.34971],[136.81638,34.35381],[136.81642,34.35558],[136.81635,34.357],[136.81618,34.35815],[136.81599,34.35866]],[[136.84539,34.47927],[136.84543,34.47995]],[[136.80542,34.37009],[136.80617,34.36903]],[[136.84161,34.45707],[136.84072,34.45758],[136.84041,34.45823],[136.84043,34.45856],[136.8409,34.45941],[136.84114,34.46002],[136.84123,34.4606],[136.84114,34.46138],[136.84071,34.46207],[136.84005,34.46267],[136.83956,34.46332],[136.83926,34.46422],[136.83916,34.46478],[136.8392,34.46496],[136.8404,34.46697],[136.84075,34.4685],[136.84119,34.46927],[136.84147,34.46955]],[[136.81873,34.30816],[136.82014,34.30861]],[[136.83979,34.43234],[136.84033,34.43279]],[[136.83151,34.42939],[136.83253,34.42965],[136.83429,34.42977],[136.83614,34.43008],[136.83738,34.43064],[136.83883,34.43158],[136.83979,34.43234]],[[136.81168,34.37964],[136.81136,34.37901]],[[136.81439,34.39444],[136.81447,34.39382]],[[136.81136,34.37901],[136.81102,34.37859],[136.81029,34.37805],[136.80825,34.37732],[136.80768,34.37702],[136.807,34.37647],[136.80643,34.3758],[136.80611,34.37531],[136.8053,34.37351],[136.80457,34.37257],[136.80445,34.3723],[136.8044,34.372],[136.80447,34.37165],[136.80542,34.37009]],[[136.84147,34.46955],[136.84196,34.47009]],[[136.82532,34.32939],[136.82423,34.3294],[136.8237,34.3295],[136.82315,34.32971],[136.82275,34.33004],[136.82038,34.3328],[136.81914,34.33332],[136.8186,34.33371]],[[136.82614,34.32936],[136.82532,34.32939]],[[136.81599,34.35866],[136.81577,34.35913]],[[136.84033,34.43279],[136.8436,34.43653],[136.84374,34.43698],[136.84397,34.43913],[136.8464,34.4439]],[[136.84196,34.47009],[136.84343,34.471],[136.84489,34.4715],[136.84541,34.47179],[136.84578,34.4724],[136.84577,34.47278],[136.84477,34.47446],[136.84459,34.47492],[136.84461,34.47531],[136.84519,34.47698],[136.84539,34.47927]],[[136.84268,34.48675],[136.84197,34.48714]],[[136.81439,34.39444],[136.81432,34.39511],[136.81473,34.39723],[136.81471,34.39776],[136.81446,34.39828],[136.8125,34.40001],[136.81076,34.40063],[136.81035,34.40092],[136.81006,34.4013],[136.80926,34.40308],[136.80916,34.40341],[136.80916,34.40375],[136.80935,34.40513],[136.80954,34.40592],[136.80984,34.4064]],[[136.82978,34.31591],[136.83019,34.3165]],[[136.8424,34.45667],[136.84161,34.45707]]]}}