{"type":"Feature","properties":{"id":"近畿日本鉄道_生駒鋼索線","name":"生駒鋼索線","operator":"近畿日本鉄道","railType":"鋼索鉄道","operatorType":"民営","category":"cable","attribution":"国土数値情報（鉄道データ）国土交通省"},"geometry":{"type":"MultiLineString","coordinates":[[[135.68317,34.68099],[135.68087,34.67967]],[[135.68087,34.67967],[135.68027,34.67933]],[[135.68901,34.68592],[135.68826,34.68452],[135.68782,34.68399],[135.68709,34.68332]],[[135.68953,34.68632],[135.68901,34.68592]],[[135.69565,34.69182],[135.68953,34.68632]],[[135.68367,34.68128],[135.68317,34.68099]],[[135.68709,34.68332],[135.68641,34.68293]],[[135.69618,34.69231],[135.69565,34.69182]],[[135.68641,34.68293],[135.68367,34.68128]]]}}