{"type":"Feature","properties":{"id":"近畿日本鉄道_田原本線","name":"田原本線","operator":"近畿日本鉄道","railType":"普通鉄道","operatorType":"民営","category":"rail","attribution":"国土数値情報（鉄道データ）国土交通省"},"geometry":{"type":"MultiLineString","coordinates":[[[135.77813,34.56819],[135.78003,34.56657],[135.78359,34.56333],[135.78824,34.55895],[135.78878,34.55824],[135.78925,34.55717],[135.78948,34.55626],[135.78955,34.55445]],[[135.77813,34.56819],[135.77738,34.56861]],[[135.70433,34.59769],[135.70508,34.59767]],[[135.76787,34.56944],[135.7688,34.56941]],[[135.77738,34.56861],[135.77647,34.56895],[135.77511,34.5692],[135.7688,34.56941]],[[135.75169,34.57019],[135.75083,34.57037]],[[135.78955,34.55337],[135.78955,34.55445]],[[135.7368,34.57892],[135.73523,34.57951],[135.73459,34.5799],[135.73428,34.58025],[135.73396,34.58079],[135.73266,34.58376],[135.73187,34.58464],[135.73137,34.58502]],[[135.70508,34.59767],[135.7058,34.59762],[135.70664,34.59738],[135.7091,34.59651],[135.7096,34.59621],[135.70975,34.59606],[135.70998,34.5955],[135.7101,34.59393],[135.71047,34.59322],[135.71161,34.5915],[135.71241,34.59087],[135.71361,34.59031],[135.71428,34.5901],[135.71698,34.58995],[135.72,34.58927]],[[135.72076,34.58907],[135.72534,34.58792],[135.73079,34.58539]],[[135.75169,34.57019],[135.75371,34.56982],[135.76787,34.56944]],[[135.75083,34.57037],[135.74672,34.57116],[135.74548,34.57163],[135.74451,34.5725],[135.74183,34.57562],[135.73829,34.57827],[135.73757,34.57862]],[[135.73757,34.57862],[135.7368,34.57892]],[[135.73137,34.58502],[135.73079,34.58539]],[[135.72,34.58927],[135.72076,34.58907]]]}}