{"type":"Feature","properties":{"id":"近畿日本鉄道_名古屋線","name":"名古屋線","operator":"近畿日本鉄道","railType":"普通鉄道","operatorType":"民営","category":"rail","attribution":"国土数値情報（鉄道データ）国土交通省"},"geometry":{"type":"MultiLineString","coordinates":[[[136.72703,35.11337],[136.7285,35.1138]],[[136.65049,35.01024],[136.64969,35.00706]],[[136.65926,35.01585],[136.65678,35.01382],[136.65584,35.01317],[136.65144,35.01103],[136.651,35.01076],[136.65049,35.01024]],[[136.88015,35.16155],[136.87909,35.16097]],[[136.76867,35.12334],[136.77007,35.12364]],[[136.85504,35.14968],[136.85923,35.15074],[136.86004,35.15103],[136.86349,35.15265]],[[136.80785,35.13271],[136.81509,35.13443],[136.81748,35.13506],[136.8191,35.13561],[136.82239,35.13716],[136.82749,35.13995]],[[136.80704,35.1325],[136.80785,35.13271]],[[136.87026,35.15593],[136.87135,35.15662]],[[136.68324,35.06615],[136.68351,35.0678]],[[136.85363,35.14937],[136.85504,35.14968]],[[136.66026,35.01664],[136.66174,35.01791],[136.66273,35.01901],[136.66657,35.02509],[136.66761,35.0269],[136.66814,35.02805],[136.66845,35.02921],[136.66856,35.03004],[136.66885,35.03791]],[[136.68324,35.06615],[136.68321,35.06507],[136.68312,35.0646],[136.68267,35.06359],[136.68197,35.06273],[136.68007,35.06068],[136.67945,35.05969],[136.67889,35.05842]],[[136.86349,35.15265],[136.86413,35.15298]],[[136.65926,35.01585],[136.66026,35.01664]],[[136.88376,35.16971],[136.88374,35.16901]],[[136.82816,35.14035],[136.83712,35.14528],[136.84159,35.14632],[136.84756,35.14794],[136.85363,35.14937]],[[136.88374,35.16901],[136.8837,35.16581],[136.88351,35.16503],[136.88186,35.1631],[136.88057,35.16184],[136.88015,35.16155]],[[136.69668,35.09786],[136.70038,35.09934],[136.70301,35.1007],[136.71742,35.10907],[136.72042,35.11073],[136.7238,35.11224],[136.72703,35.11337]],[[136.68351,35.0678],[136.68379,35.06924],[136.68377,35.06972],[136.68367,35.07012],[136.68306,35.0711],[136.68283,35.07169],[136.68269,35.07236],[136.68248,35.07463],[136.68219,35.07535],[136.68134,35.07695],[136.67851,35.0844],[136.67844,35.08483],[136.67847,35.08552],[136.67882,35.08657],[136.67938,35.08747],[136.68028,35.08835],[136.6896,35.0947],[136.69055,35.09528],[136.69204,35.09603],[136.69548,35.0974]],[[136.87135,35.15662],[136.87296,35.15795],[136.87909,35.16097]],[[136.82749,35.13995],[136.82816,35.14035]],[[136.66885,35.03791],[136.66889,35.0386]],[[136.69548,35.0974],[136.69668,35.09786]],[[136.64906,35.00594],[136.64969,35.00706]],[[136.7285,35.1138],[136.74075,35.1168],[136.75188,35.11938]],[[136.75188,35.11938],[136.75273,35.11958]],[[136.66889,35.0386],[136.66922,35.04613],[136.66946,35.0473],[136.67027,35.0491],[136.67103,35.05035],[136.67178,35.05108],[136.67288,35.05172],[136.67526,35.05271],[136.67592,35.0531],[136.67641,35.05353],[136.6773,35.05492],[136.67828,35.05715]],[[136.79576,35.12978],[136.80704,35.1325]],[[136.67828,35.05715],[136.67889,35.05842]],[[136.86413,35.15298],[136.86886,35.15516],[136.87026,35.15593]],[[136.77007,35.12364],[136.79467,35.12952]],[[136.79467,35.12952],[136.79576,35.12978]],[[136.75273,35.11958],[136.76867,35.12334]],[[136.62983,34.98577],[136.62903,34.98468]],[[136.61857,34.95603],[136.62261,34.94623],[136.62302,34.94446],[136.623,34.94369]],[[136.62493,34.91589],[136.62469,34.91671]],[[136.62983,34.98577],[136.63097,34.98707],[136.63138,34.98743],[136.63242,34.98811],[136.63356,34.98921],[136.63649,34.99289]],[[136.62469,34.91671],[136.62299,34.92295],[136.62208,34.92712],[136.62195,34.92808],[136.62194,34.929],[136.62218,34.93244]],[[136.63728,34.99389],[136.64119,34.9987],[136.64765,35.00432],[136.64906,35.00594]],[[136.62292,34.94294],[136.62288,34.94214],[136.6225,34.93951],[136.62225,34.9338]],[[136.61831,34.95669],[136.61857,34.95603]],[[136.62225,34.9338],[136.62218,34.93244]],[[136.6235,34.97774],[136.6244,34.98039],[136.62499,34.98149],[136.62528,34.98183],[136.6257,34.98215],[136.62765,34.98325],[136.62839,34.98392],[136.62903,34.98468]],[[136.623,34.94369],[136.62292,34.94294]],[[136.63133,34.90535],[136.6315,34.90583],[136.63157,34.90699],[136.63148,34.90752],[136.63114,34.90825],[136.63069,34.90886],[136.63019,34.90926],[136.6276,34.91091],[136.62648,34.91182],[136.62587,34.91276],[136.62554,34.91365],[136.62493,34.91589]],[[136.6235,34.97774],[136.62299,34.97667]],[[136.63728,34.99389],[136.63649,34.99289]],[[136.61872,34.96795],[136.61843,34.96598]],[[136.62299,34.97667],[136.61963,34.97165],[136.61913,34.97032],[136.61872,34.96795]],[[136.51414,34.74516],[136.51515,34.75102],[136.51625,34.75476]],[[136.60867,34.85537],[136.60804,34.85433]],[[136.53231,34.77035],[136.52982,34.76689],[136.52897,34.76586],[136.52792,34.76485],[136.52756,34.76458],[136.52563,34.76353],[136.52136,34.76153],[136.52018,34.76081],[136.51901,34.75987],[136.5186,34.75948],[136.51744,34.75783],[136.51685,34.75651],[136.5165,34.75547]],[[136.497,34.69245],[136.49772,34.69328],[136.4987,34.69469],[136.49919,34.69576],[136.49952,34.69721],[136.49961,34.69826],[136.49962,34.70198],[136.49985,34.70585],[136.49965,34.71384],[136.49979,34.71501]],[[136.4775,34.67494],[136.47564,34.67121],[136.47532,34.67034],[136.47521,34.66967],[136.47531,34.66857],[136.47554,34.66756],[136.47732,34.66368]],[[136.54345,34.78559],[136.54272,34.78491]],[[136.49593,34.69161],[136.4901,34.68658],[136.48222,34.67962],[136.48085,34.67846],[136.47851,34.67673],[136.47813,34.67619]],[[136.61567,34.86752],[136.60867,34.85537]],[[136.61648,34.86897],[136.61567,34.86752]],[[136.56921,34.81302],[136.56854,34.81228]],[[136.58172,34.8266],[136.5808,34.82578]],[[136.6171,34.87002],[136.61648,34.86897]],[[136.51414,34.74516],[136.5139,34.74372]],[[136.5808,34.82578],[136.58029,34.82532],[136.57766,34.82232],[136.56921,34.81302]],[[136.59005,34.83433],[136.58895,34.83339]],[[136.55576,34.79801],[136.55351,34.79544],[136.54496,34.78698],[136.54345,34.78559]],[[136.60804,34.85433],[136.60322,34.84692],[136.60221,34.84549],[136.60084,34.84382],[136.59938,34.84245],[136.59433,34.83844],[136.59005,34.83433]],[[136.63101,34.90442],[136.63133,34.90535]],[[136.6265,34.89193],[136.63101,34.90442]],[[136.47732,34.66368],[136.47761,34.66308]],[[136.56854,34.81228],[136.56101,34.8037],[136.55953,34.80229],[136.55663,34.79902]],[[136.5165,34.75547],[136.51625,34.75476]],[[136.47683,34.63681],[136.47753,34.63597]],[[136.47703,34.64037],[136.47648,34.63894],[136.47643,34.63853],[136.47646,34.63788],[136.47683,34.63681]],[[136.47761,34.66308],[136.48108,34.65585],[136.48183,34.65414],[136.48215,34.65314],[136.48237,34.65211],[136.48235,34.65132],[136.4822,34.65051],[136.48158,34.64901],[136.47703,34.64037]],[[136.62185,34.8791],[136.62221,34.88004]],[[136.54272,34.78491],[136.54045,34.78236],[136.53722,34.77781],[136.53276,34.77106]],[[136.55663,34.79902],[136.55576,34.79801]],[[136.58895,34.83339],[136.58172,34.8266]],[[136.47813,34.67619],[136.4775,34.67494]],[[136.6262,34.89111],[136.62221,34.88004]],[[136.6262,34.89111],[136.6265,34.89193]],[[136.51013,34.73522],[136.51001,34.73661],[136.51022,34.73765],[136.51086,34.73866],[136.51273,34.7407],[136.51327,34.74147],[136.51367,34.74242],[136.5139,34.74372]],[[136.53276,34.77106],[136.53231,34.77035]],[[136.49979,34.71501],[136.50008,34.71636]],[[136.497,34.69245],[136.49593,34.69161]],[[136.50008,34.71636],[136.50156,34.7218],[136.50216,34.72334],[136.5027,34.72403],[136.50323,34.72447],[136.5037,34.72476],[136.50482,34.7252],[136.50569,34.72565],[136.50631,34.72605],[136.50705,34.72669],[136.50856,34.7289],[136.50965,34.73013],[136.51024,34.73102],[136.5105,34.73175],[136.51033,34.73361]],[[136.51033,34.73361],[136.51013,34.73522]],[[136.62185,34.8791],[136.62032,34.87573],[136.6171,34.87002]],[[136.47867,34.63466],[136.47753,34.63597]],[[136.61843,34.96598],[136.6182,34.96447]],[[136.6182,34.96447],[136.61761,34.9603],[136.6176,34.95972],[136.61772,34.9584],[136.61831,34.95669]]]}}