{"type":"Feature","properties":{"id":"近畿日本鉄道_吉野線","name":"吉野線","operator":"近畿日本鉄道","railType":"普通鉄道","operatorType":"民営","category":"rail","attribution":"国土数値情報（鉄道データ）国土交通省"},"geometry":{"type":"MultiLineString","coordinates":[[[135.75992,34.43132],[135.76465,34.43634],[135.76574,34.43734],[135.76654,34.43794],[135.77066,34.44041],[135.77175,34.44099],[135.77298,34.44133],[135.7752,34.44146],[135.77582,34.44159]],[[135.8234,34.39014],[135.82767,34.39076],[135.82798,34.39084],[135.82934,34.39154],[135.83109,34.39168],[135.83328,34.3925],[135.83656,34.39307],[135.83772,34.39356],[135.84095,34.39556],[135.84167,34.39585],[135.8421,34.39592],[135.8453,34.3957]],[[135.78656,34.38421],[135.78724,34.38383]],[[135.75076,34.42107],[135.75131,34.42339],[135.75159,34.42402],[135.75201,34.42459],[135.75275,34.42506],[135.75512,34.42562],[135.7553,34.42572],[135.75573,34.42616],[135.75808,34.42931],[135.75926,34.43063]],[[135.79434,34.48111],[135.79434,34.48339]],[[135.84808,34.39055],[135.84826,34.38982]],[[135.74316,34.40737],[135.74334,34.40561],[135.74303,34.40482],[135.743,34.40453],[135.74301,34.4041],[135.74318,34.40369],[135.74611,34.39998],[135.74638,34.39904],[135.74665,34.39846],[135.74717,34.39765],[135.74907,34.39597],[135.74985,34.39558]],[[135.74985,34.39558],[135.75061,34.39527]],[[135.79479,34.44914],[135.79484,34.45022]],[[135.77683,34.44195],[135.78337,34.44582],[135.78453,34.44631],[135.78529,34.44648],[135.79319,34.44713],[135.79373,34.44736],[135.79438,34.44794],[135.79466,34.44842],[135.79479,34.44914]],[[135.79353,34.48298],[135.79385,34.48256],[135.79434,34.48111]],[[135.75926,34.43063],[135.75992,34.43132]],[[135.75058,34.42031],[135.75076,34.42107]],[[135.79572,34.47463],[135.795,34.47601],[135.7946,34.47714],[135.79446,34.47835],[135.79434,34.48111]],[[135.79619,34.47384],[135.79572,34.47463]],[[135.79484,34.45022],[135.79499,34.45633],[135.7951,34.45802],[135.79683,34.46212],[135.79797,34.46453]],[[135.82257,34.39002],[135.8234,34.39014]],[[135.80339,34.38609],[135.80505,34.38582],[135.80561,34.38582],[135.80746,34.38619],[135.8122,34.38664],[135.81403,34.38689],[135.81483,34.38714],[135.81699,34.38809],[135.81968,34.38891],[135.82257,34.39002]],[[135.74342,34.40818],[135.74351,34.40845],[135.7439,34.40889],[135.74579,34.41049],[135.74717,34.41243],[135.74764,34.41272],[135.7482,34.41327],[135.74847,34.4139],[135.74838,34.41562],[135.74844,34.41611],[135.74866,34.41657],[135.74987,34.41803],[135.7501,34.41857],[135.75058,34.42031]],[[135.79797,34.46453],[135.79837,34.46548]],[[135.85356,34.37735],[135.85356,34.37666]],[[135.77582,34.44159],[135.77683,34.44195]],[[135.84611,34.39556],[135.84677,34.39522],[135.84712,34.39483],[135.84751,34.39336],[135.84808,34.39055]],[[135.79434,34.48339],[135.79428,34.48471]],[[135.76659,34.38809],[135.76779,34.38534],[135.76839,34.38493],[135.77017,34.38419],[135.77079,34.38364],[135.77133,34.38266],[135.77171,34.38227],[135.77212,34.38203],[135.77276,34.3818],[135.77323,34.38173],[135.77397,34.38181],[135.77481,34.38204],[135.77628,34.38264],[135.77772,34.38334],[135.7806,34.38488],[135.78176,34.38531],[135.78255,34.38548],[135.78349,34.38552],[135.78411,34.38541],[135.78656,34.38421]],[[135.75061,34.39527],[135.7519,34.39492],[135.75644,34.39498],[135.7582,34.39518],[135.75897,34.39505],[135.75973,34.39457],[135.76303,34.39112],[135.76369,34.39072],[135.76494,34.39026],[135.76556,34.38981],[135.76627,34.38871]],[[135.84826,34.38982],[135.84863,34.38886],[135.85326,34.38045],[135.85343,34.37968],[135.85356,34.37735]],[[135.74342,34.40818],[135.74316,34.40737]],[[135.8453,34.3957],[135.84611,34.39556]],[[135.78724,34.38383],[135.78844,34.38333],[135.78967,34.38319],[135.79143,34.38338],[135.79328,34.3838],[135.79393,34.38408],[135.7943,34.38444],[135.79527,34.38609],[135.79563,34.38651],[135.79601,34.38677],[135.79662,34.38694],[135.79804,34.38691],[135.80131,34.38623],[135.80237,34.38615]],[[135.79837,34.46548],[135.79867,34.46646],[135.79854,34.46752],[135.79741,34.47145],[135.79619,34.47384]],[[135.80237,34.38615],[135.80339,34.38609]],[[135.76627,34.38871],[135.76659,34.38809]]]}}