{"type":"Feature","properties":{"id":"道南いさりび鉄道_道南いさりび鉄道線","name":"道南いさりび鉄道線","operator":"道南いさりび鉄道","railType":"普通鉄道","operatorType":"第三セクター","category":"rail","attribution":"国土数値情報（鉄道データ）国土交通省"},"geometry":{"type":"MultiLineString","coordinates":[[[140.73218,41.80838],[140.73254,41.8076],[140.7327,41.80696]],[[140.73386,41.80234],[140.73326,41.80471]],[[140.73326,41.80471],[140.7327,41.80696]],[[140.65349,41.82471],[140.65246,41.82455]],[[140.64127,41.81977],[140.63999,41.81943]],[[140.61569,41.79147],[140.61826,41.79018],[140.61898,41.7894],[140.61923,41.78894],[140.6194,41.78817],[140.6193,41.78763],[140.61819,41.78588]],[[140.46761,41.69925],[140.46463,41.69919],[140.46269,41.69891],[140.45599,41.6966],[140.45475,41.69605],[140.45313,41.69486],[140.43446,41.67809]],[[140.50624,41.7008],[140.50297,41.70059],[140.49796,41.70103],[140.49692,41.70104],[140.49602,41.70092],[140.49543,41.70072],[140.49391,41.69976],[140.4932,41.69944],[140.4926,41.69927],[140.48844,41.69909],[140.48687,41.69911],[140.48534,41.69942],[140.48464,41.69966],[140.48212,41.70124],[140.4813,41.70164],[140.48021,41.70191],[140.47944,41.70195],[140.47868,41.70186],[140.47763,41.70157],[140.47691,41.70122],[140.47491,41.69997],[140.47385,41.69958],[140.47255,41.69938],[140.46861,41.69928]],[[140.60104,41.76579],[140.60024,41.7673]],[[140.61569,41.79147],[140.61771,41.78962],[140.61848,41.78852],[140.61867,41.78795],[140.61863,41.78716],[140.61819,41.78588]],[[140.63999,41.81943],[140.63928,41.81926],[140.63848,41.81919],[140.63705,41.81925],[140.63634,41.81943],[140.63511,41.8201],[140.63363,41.82159],[140.63294,41.82205],[140.63212,41.82237],[140.63121,41.82258],[140.62986,41.82264],[140.62839,41.82238],[140.62749,41.82202],[140.62678,41.82156],[140.62635,41.82115],[140.62593,41.82062],[140.62551,41.81985],[140.62043,41.80574],[140.61993,41.80451],[140.61967,41.80409],[140.61912,41.80353],[140.61846,41.80319],[140.61477,41.80217],[140.61418,41.8018],[140.61367,41.80135],[140.6134,41.80083],[140.61324,41.80024],[140.61323,41.79905],[140.61347,41.79397],[140.61384,41.793],[140.61413,41.79261],[140.61471,41.7921],[140.61569,41.79147]],[[140.57907,41.73687],[140.57856,41.73395],[140.57837,41.73337],[140.57788,41.73264],[140.57738,41.73229],[140.57696,41.73207],[140.57614,41.7318],[140.56757,41.73019],[140.56581,41.72965],[140.56399,41.72893],[140.56191,41.72847],[140.56134,41.72827],[140.56039,41.72759],[140.55876,41.72527],[140.55827,41.72471],[140.55784,41.72436],[140.55654,41.72362],[140.55293,41.72196],[140.54957,41.72153],[140.54829,41.72099],[140.5478,41.7206],[140.54659,41.71921],[140.5461,41.7188],[140.54229,41.71691],[140.54066,41.7158],[140.53833,41.71306],[140.53747,41.71235]],[[140.6802,41.82603],[140.67921,41.82612]],[[140.46861,41.69928],[140.46761,41.69925]],[[140.5072,41.70089],[140.50624,41.7008]],[[140.67921,41.82612],[140.66951,41.827],[140.6684,41.82697],[140.66726,41.82679]],[[140.70877,41.81737],[140.70742,41.81783]],[[140.57921,41.73777],[140.57962,41.74007],[140.57989,41.74073],[140.58011,41.74104],[140.58078,41.74171],[140.58147,41.74214],[140.58273,41.7427],[140.58364,41.74297],[140.58512,41.74306],[140.58588,41.74297],[140.5885,41.74198],[140.59125,41.74164],[140.59292,41.74073],[140.59475,41.74048],[140.59573,41.74065],[140.59733,41.7412],[140.59829,41.74178],[140.59884,41.74244],[140.59977,41.74393],[140.60026,41.74528],[140.60096,41.74672],[140.60121,41.74764],[140.60122,41.74941],[140.60133,41.75004],[140.60216,41.75257],[140.60347,41.755],[140.60392,41.75613],[140.60447,41.75842],[140.60448,41.759],[140.60396,41.7603],[140.60104,41.76579]],[[140.65246,41.82455],[140.64929,41.82406],[140.64827,41.8238],[140.64266,41.82044],[140.64177,41.81993],[140.64127,41.81977]],[[140.70742,41.81783],[140.68605,41.82527],[140.68468,41.82554],[140.6802,41.82603]],[[140.60024,41.7673],[140.59888,41.76985],[140.59865,41.77041],[140.59864,41.77096],[140.59875,41.7715],[140.59896,41.77193],[140.5993,41.77236],[140.59967,41.7727],[140.60528,41.77622],[140.61467,41.78121],[140.61526,41.78165],[140.61819,41.78588]],[[140.53747,41.71235],[140.5368,41.71191]],[[140.66726,41.82679],[140.66582,41.82655]],[[140.5368,41.71191],[140.53609,41.71149],[140.53291,41.70924],[140.5263,41.70318],[140.5255,41.70266],[140.52472,41.7023],[140.52382,41.70207],[140.52322,41.70206],[140.5167,41.70325],[140.51579,41.70331],[140.51487,41.70318],[140.51402,41.70292],[140.51366,41.70274],[140.51297,41.70215],[140.51231,41.70175],[140.51087,41.7012],[140.5072,41.70089]],[[140.66582,41.82655],[140.65349,41.82471]],[[140.73218,41.80838],[140.73182,41.80881],[140.7312,41.80931],[140.73039,41.8098],[140.73,41.80995],[140.70877,41.81737]],[[140.57921,41.73777],[140.57907,41.73687]],[[140.43446,41.67809],[140.43336,41.6771]]]}}