{"type":"Feature","properties":{"id":"遠州鉄道_鉄道線","name":"鉄道線","operator":"遠州鉄道","railType":"普通鉄道","operatorType":"民営","category":"rail","attribution":"国土数値情報（鉄道データ）国土交通省"},"geometry":{"type":"MultiLineString","coordinates":[[[137.74136,34.73291],[137.74156,34.73352]],[[137.73835,34.72328],[137.73858,34.72392]],[[137.7955,34.80801],[137.7956,34.80868]],[[137.77375,34.77645],[137.77405,34.77711]],[[137.73301,34.70799],[137.73345,34.7093],[137.73347,34.71023]],[[137.78963,34.79784],[137.78989,34.79848]],[[137.75747,34.75759],[137.75796,34.75861],[137.75971,34.76096],[137.76319,34.76779]],[[137.73243,34.70375],[137.73215,34.70468],[137.73211,34.70514],[137.7322,34.70564],[137.7327,34.70712]],[[137.7327,34.70712],[137.73301,34.70799]],[[137.77405,34.77711],[137.77644,34.78189],[137.77764,34.78396]],[[137.75717,34.75696],[137.75747,34.75759]],[[137.74156,34.73352],[137.74272,34.73617],[137.74333,34.73729],[137.74466,34.73939],[137.74543,34.7412]],[[137.79878,34.8244],[137.79917,34.82776],[137.79941,34.82861],[137.80035,34.8307],[137.80069,34.83165],[137.80089,34.83243],[137.80109,34.83401]],[[137.73249,34.70307],[137.73243,34.70375]],[[137.80109,34.83401],[137.80119,34.8347]],[[137.73347,34.71023],[137.73339,34.71094]],[[137.73581,34.71664],[137.73617,34.7175]],[[137.7846,34.79162],[137.7874,34.79461],[137.78834,34.79573],[137.78905,34.79672],[137.78963,34.79784]],[[137.73617,34.7175],[137.73835,34.72328]],[[137.74571,34.74189],[137.7464,34.74336],[137.74677,34.7439],[137.75134,34.74739]],[[137.7956,34.80868],[137.79598,34.81098],[137.79617,34.81276],[137.79625,34.81677],[137.79634,34.818],[137.79651,34.81865],[137.79689,34.81952],[137.79788,34.82119],[137.79844,34.82233],[137.79871,34.82371]],[[137.75193,34.74782],[137.75225,34.7481],[137.75298,34.74909],[137.75444,34.75126],[137.75594,34.75425],[137.75717,34.75696]],[[137.75134,34.74739],[137.75193,34.74782]],[[137.79871,34.82371],[137.79878,34.8244]],[[137.73339,34.71094],[137.73334,34.71171],[137.73352,34.71247],[137.7353,34.71552],[137.73581,34.71664]],[[137.78408,34.79104],[137.7846,34.79162]],[[137.76363,34.76837],[137.76436,34.76901],[137.76538,34.76966],[137.76606,34.76995],[137.76937,34.771],[137.76998,34.77129],[137.77066,34.77175],[137.77139,34.77235],[137.77189,34.77288],[137.77375,34.77645]],[[137.73858,34.72392],[137.74006,34.7279],[137.74136,34.73291]],[[137.74543,34.7412],[137.74571,34.74189]],[[137.78989,34.79848],[137.79065,34.80014],[137.79153,34.8016],[137.79397,34.80458],[137.79468,34.80562],[137.79527,34.80695],[137.7955,34.80801]],[[137.77764,34.78396],[137.77807,34.78452]],[[137.76319,34.76779],[137.76363,34.76837]],[[137.77807,34.78452],[137.78056,34.78712],[137.78408,34.79104]],[[137.80119,34.8347],[137.80129,34.83553],[137.80153,34.8365],[137.80219,34.83776],[137.80569,34.84252],[137.80742,34.84473],[137.8078,34.84544],[137.80793,34.84594],[137.80794,34.84641]],[[137.80794,34.84641],[137.80797,34.84709]]]}}