{"type":"Feature","properties":{"id":"銚子電気鉄道_銚子電気鉄道線","name":"銚子電気鉄道線","operator":"銚子電気鉄道","railType":"普通鉄道","operatorType":"民営","category":"rail","attribution":"国土数値情報（鉄道データ）国土交通省"},"geometry":{"type":"MultiLineString","coordinates":[[[140.82883,35.72915],[140.8261,35.7295]],[[140.86341,35.7218],[140.86284,35.72236]],[[140.8572,35.72809],[140.85668,35.72865]],[[140.86096,35.70657],[140.8609,35.70593]],[[140.82883,35.72915],[140.8327,35.72866],[140.83338,35.72872]],[[140.8572,35.72809],[140.85995,35.72534]],[[140.85711,35.69903],[140.85758,35.6996]],[[140.8609,35.70593],[140.86054,35.70436],[140.85976,35.70192],[140.85947,35.70148],[140.85758,35.6996]],[[140.84027,35.72897],[140.84407,35.7306],[140.84561,35.7309],[140.84683,35.73094]],[[140.83415,35.72887],[140.83338,35.72872]],[[140.86341,35.7218],[140.864,35.72111],[140.8643,35.72046],[140.86437,35.71999],[140.86427,35.71934],[140.86411,35.7189],[140.86349,35.71805],[140.8615,35.71587],[140.86087,35.715],[140.86063,35.71439]],[[140.86048,35.72482],[140.85995,35.72534]],[[140.86046,35.71375],[140.86034,35.71186],[140.86078,35.70882],[140.86099,35.70693],[140.86096,35.70657]],[[140.84027,35.72897],[140.83942,35.72884]],[[140.86048,35.72482],[140.86284,35.72236]],[[140.83415,35.72887],[140.83564,35.72902],[140.83811,35.72885],[140.83942,35.72884]],[[140.84777,35.73095],[140.84683,35.73094]],[[140.84777,35.73095],[140.85088,35.73103],[140.85231,35.73077],[140.85397,35.73029],[140.85541,35.72976],[140.85586,35.72947],[140.85668,35.72865]],[[140.86046,35.71375],[140.86063,35.71439]]]}}