{"type":"Feature","properties":{"id":"長崎電気軌道_桜町支線","name":"桜町支線","operator":"長崎電気軌道","railType":"軌道","operatorType":"民営","category":"tram","attribution":"国土数値情報（鉄道データ）国土交通省"},"geometry":{"type":"MultiLineString","coordinates":[[[129.87168,32.75282],[129.87196,32.75229]],[[129.87601,32.75067],[129.87512,32.75081],[129.87401,32.75111],[129.8731,32.75153],[129.87233,32.75198],[129.87196,32.75229]],[[129.88044,32.74956],[129.87932,32.75026],[129.87837,32.75061],[129.87655,32.75065]],[[129.88044,32.74956],[129.88054,32.74949]],[[129.87655,32.75065],[129.87601,32.75067]],[[129.88064,32.74943],[129.88054,32.74949]]]}}