{"type":"Feature","properties":{"id":"長崎電気軌道_本線","name":"本線","operator":"長崎電気軌道","railType":"軌道","operatorType":"民営","category":"tram","attribution":"国土数値情報（鉄道データ）国土交通省"},"geometry":{"type":"MultiLineString","coordinates":[[[129.87208,32.7457],[129.87204,32.74558]],[[129.87754,32.74352],[129.87658,32.74396]],[[129.87636,32.74396],[129.87658,32.74396]],[[129.87624,32.74385],[129.87636,32.74396]],[[129.88279,32.74099],[129.88238,32.74125]],[[129.87034,32.75491],[129.86996,32.75617],[129.86958,32.75711],[129.86882,32.75794]],[[129.87222,32.74934],[129.87223,32.7492]],[[129.86167,32.78775],[129.86182,32.78733]],[[129.86167,32.78775],[129.86126,32.78903]],[[129.86196,32.77482],[129.86157,32.77721]],[[129.8751,32.74301],[129.87478,32.74266]],[[129.86348,32.77063],[129.86364,32.77049]],[[129.86126,32.78903],[129.86111,32.78948]],[[129.86111,32.78948],[129.86079,32.79032]],[[129.86132,32.7792],[129.86155,32.77986]],[[129.86574,32.76109],[129.86567,32.76156]],[[129.87208,32.7457],[129.87236,32.74707],[129.8724,32.7478],[129.87223,32.7492]],[[129.86245,32.7847],[129.86245,32.78517]],[[129.86002,32.79178],[129.85974,32.7922]],[[129.86206,32.77416],[129.86196,32.77482]],[[129.8705,32.7543],[129.87071,32.75381],[129.87141,32.75318],[129.87168,32.75282]],[[129.8746,32.74243],[129.8744,32.74235],[129.87412,32.74242],[129.87214,32.74344],[129.87184,32.74368]],[[129.87478,32.74266],[129.8746,32.74243]],[[129.86238,32.78217],[129.86239,32.78251]],[[129.86062,32.79075],[129.86002,32.79178]],[[129.86413,32.76571],[129.86409,32.7689]],[[129.86155,32.77986],[129.86233,32.78154],[129.86238,32.78217]],[[129.86882,32.75794],[129.86842,32.75827]],[[129.87222,32.74934],[129.87216,32.7515],[129.87196,32.75229]],[[129.86409,32.7689],[129.86408,32.76936]],[[129.86408,32.76936],[129.86407,32.77002],[129.86364,32.77049]],[[129.87803,32.74331],[129.87754,32.74352]],[[129.87624,32.74385],[129.87584,32.74359]],[[129.86239,32.78251],[129.86245,32.7847]],[[129.86079,32.79032],[129.86062,32.79075]],[[129.86442,32.7642],[129.86415,32.76524]],[[129.86567,32.76156],[129.86456,32.76376]],[[129.86157,32.77721],[129.86146,32.77792]],[[129.86456,32.76376],[129.86442,32.7642]],[[129.86348,32.77063],[129.86261,32.77115],[129.86248,32.7713],[129.86206,32.77416]],[[129.88008,32.74274],[129.87878,32.74301],[129.87803,32.74331]],[[129.87584,32.74359],[129.8751,32.74301]],[[129.86842,32.75827],[129.86633,32.75945],[129.86587,32.76009],[129.86574,32.76109]],[[129.88238,32.74125],[129.8806,32.74261]],[[129.8806,32.74261],[129.88008,32.74274]],[[129.8765,32.74415],[129.87658,32.74396]],[[129.87184,32.74368],[129.87179,32.74414]],[[129.87168,32.75282],[129.87196,32.75229]],[[129.87179,32.74414],[129.87204,32.74558]],[[129.86245,32.78517],[129.86244,32.78541],[129.86182,32.78733]],[[129.86146,32.77792],[129.86132,32.7792]],[[129.8705,32.7543],[129.87034,32.75491]],[[129.86415,32.76524],[129.86413,32.76571]]]}}