{"type":"Feature","properties":{"id":"長崎電気軌道_蛍茶屋支線","name":"蛍茶屋支線","operator":"長崎電気軌道","railType":"軌道","operatorType":"民営","category":"tram","attribution":"国土数値情報（鉄道データ）国土交通省"},"geometry":{"type":"MultiLineString","coordinates":[[[129.88064,32.74943],[129.88068,32.74925]],[[129.88085,32.74942],[129.88064,32.74943]],[[129.88065,32.74922],[129.88029,32.74884]],[[129.87816,32.74676],[129.87784,32.74646],[129.87767,32.74584],[129.87712,32.74523],[129.8769,32.74487]],[[129.88453,32.75245],[129.88399,32.75258]],[[129.88399,32.75258],[129.88368,32.75249],[129.88085,32.74942]],[[129.8765,32.74415],[129.87636,32.74396]],[[129.87667,32.74445],[129.8765,32.74415]],[[129.89082,32.75219],[129.89028,32.75224]],[[129.8934,32.75151],[129.89242,32.75199],[129.89082,32.75219]],[[129.87854,32.74705],[129.87816,32.74676]],[[129.88065,32.74922],[129.88068,32.74925]],[[129.89028,32.75224],[129.88673,32.75221]],[[129.88615,32.75219],[129.88554,32.75221],[129.88453,32.75245]],[[129.88673,32.75221],[129.88615,32.75219]],[[129.8769,32.74487],[129.87667,32.74445]],[[129.89388,32.75128],[129.8934,32.75151]],[[129.88029,32.74884],[129.87854,32.74705]],[[129.88068,32.74925],[129.88085,32.74942]],[[129.87624,32.74385],[129.87636,32.74396]],[[129.87624,32.74385],[129.87584,32.74359]]]}}