{"type":"Feature","properties":{"id":"長崎電気軌道_大浦支線","name":"大浦支線","operator":"長崎電気軌道","railType":"軌道","operatorType":"民営","category":"tram","attribution":"国土数値情報（鉄道データ）国土交通省"},"geometry":{"type":"MultiLineString","coordinates":[[[129.87478,32.74266],[129.8746,32.74243]],[[129.8751,32.74301],[129.87478,32.74266]],[[129.8746,32.74243],[129.87366,32.74132],[129.87286,32.74092],[129.87262,32.74064]],[[129.87262,32.74064],[129.87236,32.74023]],[[129.87224,32.73466],[129.87255,32.7343]],[[129.87236,32.74023],[129.87191,32.73953],[129.87156,32.7392],[129.87083,32.73808]],[[129.87056,32.73768],[129.87026,32.73715],[129.87085,32.7364]],[[129.87083,32.73808],[129.87056,32.73768]],[[129.8711,32.73608],[129.87224,32.73466]],[[129.87085,32.7364],[129.8711,32.73608]]]}}