{"type":"Feature","properties":{"id":"長野電鉄_長野線","name":"長野線","operator":"長野電鉄","railType":"普通鉄道","operatorType":"民営","category":"rail","attribution":"国土数値情報（鉄道データ）国土交通省"},"geometry":{"type":"MultiLineString","coordinates":[[[138.30381,36.65632],[138.3046,36.65725]],[[138.30305,36.65539],[138.30381,36.65632]],[[138.19352,36.65782],[138.19381,36.65896]],[[138.2579,36.66332],[138.25867,36.66352]],[[138.18859,36.64411],[138.18918,36.6448]],[[138.34992,36.71288],[138.35687,36.71871],[138.35792,36.71971],[138.36232,36.72644]],[[138.24025,36.6664],[138.2356,36.66739],[138.23236,36.66894],[138.23132,36.66922],[138.22681,36.66919],[138.22603,36.66909],[138.22554,36.66897],[138.22347,36.66814],[138.22134,36.66754]],[[138.28922,36.65578],[138.29112,36.65507],[138.29223,36.65492],[138.29295,36.65495],[138.29528,36.65551],[138.29662,36.65568],[138.29815,36.6555],[138.30032,36.65487],[138.3012,36.65477],[138.30209,36.6549],[138.30305,36.65539]],[[138.24836,36.66253],[138.24877,36.66227],[138.24969,36.66189],[138.25092,36.66175],[138.25252,36.66205],[138.2579,36.66332]],[[138.20457,36.66279],[138.20362,36.66243]],[[138.34933,36.7124],[138.34992,36.71288]],[[138.22134,36.66754],[138.2205,36.66734]],[[138.21273,36.6656],[138.20968,36.66484],[138.20457,36.66279]],[[138.36463,36.74499],[138.36404,36.74577],[138.36389,36.7461],[138.3637,36.74664],[138.36362,36.74726],[138.36364,36.74761],[138.36388,36.74819],[138.36445,36.74871],[138.36645,36.74953],[138.37047,36.75088],[138.37172,36.75098],[138.37386,36.75071]],[[138.36269,36.72704],[138.36943,36.73744],[138.36973,36.73829],[138.36969,36.73901],[138.36955,36.7394],[138.36927,36.73983],[138.36511,36.74443]],[[138.27991,36.65943],[138.28062,36.65914]],[[138.40338,36.76029],[138.4033,36.75965]],[[138.4158,36.74049],[138.4153,36.74091],[138.415,36.74134]],[[138.19106,36.64764],[138.19138,36.64854]],[[138.32174,36.70389],[138.32258,36.70421]],[[138.30867,36.67873],[138.3081,36.68498],[138.30756,36.69363],[138.30756,36.69508],[138.30779,36.69567],[138.30808,36.69608],[138.30881,36.69676],[138.31233,36.69874]],[[138.25867,36.66352],[138.26363,36.66466],[138.26477,36.66475],[138.26616,36.66461],[138.26794,36.66405],[138.27991,36.65943]],[[138.28837,36.6561],[138.28922,36.65578]],[[138.36232,36.72644],[138.36269,36.72704]],[[138.24115,36.66626],[138.24335,36.66584],[138.24413,36.66554],[138.24744,36.66314]],[[138.32258,36.70421],[138.33796,36.7091],[138.3391,36.70924],[138.34035,36.70919],[138.34288,36.70855],[138.34411,36.70857],[138.34451,36.70867],[138.3455,36.70916],[138.34933,36.7124]],[[138.20362,36.66243],[138.19582,36.6609],[138.19505,36.66049],[138.19444,36.66004],[138.19401,36.65945],[138.19381,36.65896]],[[138.18918,36.6448],[138.19058,36.64643],[138.19078,36.64677],[138.19106,36.64764]],[[138.2134,36.66574],[138.21273,36.6656]],[[138.394,36.7613],[138.39469,36.76166],[138.39862,36.7626],[138.40024,36.76289],[138.40195,36.76238],[138.40248,36.76207],[138.40286,36.76172],[138.40313,36.76127],[138.4033,36.76086],[138.40338,36.76029]],[[138.394,36.7613],[138.39332,36.76088]],[[138.2205,36.66734],[138.2134,36.66574]],[[138.41479,36.74195],[138.41459,36.74297],[138.41438,36.74346],[138.41399,36.74391],[138.41362,36.74413],[138.4127,36.74435],[138.4104,36.74416],[138.40936,36.74442],[138.40891,36.74474],[138.4085,36.74522],[138.40739,36.74695],[138.40726,36.74727],[138.40717,36.74812],[138.4075,36.74933]],[[138.24744,36.66314],[138.24836,36.66253]],[[138.19222,36.65356],[138.19322,36.65647],[138.19352,36.65782]],[[138.19138,36.64854],[138.19189,36.65023],[138.19186,36.65223],[138.192,36.65293]],[[138.4075,36.74933],[138.4077,36.7499]],[[138.31233,36.69874],[138.31324,36.69924]],[[138.4077,36.7499],[138.40839,36.75197],[138.40843,36.75262],[138.40829,36.75308],[138.40781,36.75384],[138.40742,36.75415],[138.40673,36.75451],[138.40398,36.75567],[138.40349,36.75602],[138.40317,36.75653],[138.403,36.75719],[138.4033,36.75965]],[[138.415,36.74134],[138.41479,36.74195]],[[138.3046,36.65725],[138.30762,36.66036],[138.30795,36.66084],[138.30816,36.66143],[138.30922,36.66858],[138.30941,36.67042],[138.30941,36.67143],[138.30874,36.67805]],[[138.39332,36.76088],[138.3915,36.7597],[138.38704,36.7588],[138.38601,36.75841],[138.38561,36.75808],[138.38475,36.75685],[138.38437,36.75656],[138.38388,36.7564],[138.38336,36.75634],[138.38149,36.75636],[138.38098,36.75618],[138.38029,36.75572],[138.37991,36.75524],[138.37949,36.75329],[138.3792,36.75263],[138.37869,36.752],[138.37735,36.75107],[138.37654,36.75069],[138.3757,36.75055],[138.37473,36.75061]],[[138.30874,36.67805],[138.30867,36.67873]],[[138.192,36.65293],[138.19222,36.65356]],[[138.28062,36.65914],[138.28837,36.6561]],[[138.31324,36.69924],[138.32063,36.70337],[138.32174,36.70389]],[[138.24115,36.66626],[138.24025,36.6664]],[[138.36511,36.74443],[138.36463,36.74499]],[[138.37473,36.75061],[138.37386,36.75071]]]}}