{"type":"Feature","properties":{"id":"関東鉄道_常総線","name":"常総線","operator":"関東鉄道","railType":"普通鉄道","operatorType":"民営","category":"rail","attribution":"国土数値情報（鉄道データ）国土交通省"},"geometry":{"type":"MultiLineString","coordinates":[[[139.99278,36.03248],[139.99155,36.04071],[139.99076,36.0469]],[[140.01379,35.92958],[140.0037,35.9337]],[[139.98591,35.96595],[139.98563,35.96686]],[[139.99076,36.0469],[139.99065,36.04765]],[[140.05893,35.90914],[140.05813,35.90994],[140.05727,35.91054],[140.05542,35.91144]],[[139.99081,36.01744],[139.99198,36.0182]],[[140.02322,35.92593],[140.02216,35.92631]],[[140.00182,35.93448],[140.00041,35.93509],[139.99921,35.93579],[139.99829,35.93665],[139.99779,35.93738],[139.99708,35.93885],[139.99229,35.95041]],[[140.0037,35.9337],[140.00182,35.93448]],[[140.05994,35.90804],[140.05893,35.90914]],[[140.04286,35.91734],[140.04146,35.91798]],[[139.99229,35.95041],[139.99197,35.95123]],[[139.99197,35.95123],[139.98591,35.96595]],[[139.99289,36.0317],[139.99278,36.03248]],[[140.04146,35.91798],[140.03557,35.92071]],[[140.01481,35.92915],[140.01379,35.92958]],[[140.02216,35.92631],[140.01481,35.92915]],[[139.99198,36.0182],[139.99426,36.0197],[139.99492,36.02025],[139.99549,36.02114],[139.99567,36.02207],[139.99567,36.02263],[139.99552,36.02323],[139.99327,36.02993],[139.99289,36.0317]],[[140.05419,35.912],[140.04286,35.91734]],[[140.05542,35.91144],[140.05419,35.912]],[[139.97631,36.22361],[139.97626,36.22285]],[[139.98327,35.98166],[139.98306,35.98291],[139.98069,35.99226],[139.98047,35.9945],[139.98009,36.00316],[139.98056,36.00473],[139.98284,36.01043],[139.98328,36.0114],[139.98391,36.01244],[139.98452,36.01309],[139.98579,36.01418],[139.99081,36.01744]],[[139.97053,36.15432],[139.97065,36.15292]],[[139.95949,36.27889],[139.95765,36.28343],[139.95743,36.28402],[139.95727,36.28479],[139.9573,36.28535],[139.95816,36.28843],[139.95836,36.28899],[139.95867,36.28952],[139.96475,36.29579],[139.97245,36.30276],[139.97289,36.30305],[139.97381,36.30336],[139.97581,36.30364],[139.97754,36.30377]],[[139.97454,36.11656],[139.97423,36.11755]],[[139.97065,36.15292],[139.97109,36.14611],[139.97046,36.13975],[139.96999,36.13584]],[[139.97754,36.30377],[139.97887,36.30396]],[[139.97497,36.24758],[139.97503,36.24682]],[[139.9701,36.20285],[139.96852,36.1986],[139.96267,36.19052],[139.96243,36.18999],[139.96231,36.18909],[139.9624,36.18818],[139.9643,36.18275]],[[139.98563,35.96686],[139.98519,35.96886],[139.98343,35.98062]],[[139.97626,36.22285],[139.97516,36.21785],[139.97405,36.21376],[139.97028,36.20347]],[[139.9643,36.18275],[139.96466,36.18182]],[[139.95994,36.27765],[139.95949,36.27889]],[[139.96466,36.18182],[139.96569,36.1787],[139.96966,36.16228],[139.97,36.16026],[139.97053,36.15432]],[[139.95994,36.27765],[139.9611,36.27478],[139.96187,36.27339],[139.97331,36.25763],[139.97375,36.2569],[139.97414,36.25609],[139.97431,36.25529],[139.97497,36.24758]],[[139.97503,36.24682],[139.97617,36.23318],[139.97637,36.22471],[139.97631,36.22361]],[[139.98343,35.98062],[139.98327,35.98166]],[[139.97397,36.10266],[139.97495,36.11428],[139.97492,36.11501],[139.97454,36.11656]],[[139.97392,36.10197],[139.97397,36.10266]],[[139.983,36.07377],[139.97659,36.09371],[139.9762,36.09472],[139.97465,36.09764],[139.97404,36.09913],[139.97387,36.09982],[139.97383,36.1007],[139.97392,36.10197]],[[139.98321,36.07315],[139.983,36.07377]],[[139.96994,36.13519],[139.96975,36.13317],[139.96983,36.1319],[139.97423,36.11755]],[[139.96999,36.13584],[139.96994,36.13519]],[[139.97028,36.20347],[139.9701,36.20285]],[[139.99065,36.04765],[139.99022,36.05066],[139.98973,36.05288],[139.98321,36.07315]],[[140.06403,35.89761],[140.06527,35.89905],[140.06559,35.89961],[140.06575,35.90043],[140.06573,35.90084],[140.06558,35.90138],[140.06532,35.90197],[140.06498,35.90241],[140.05994,35.90804]],[[140.06365,35.89716],[140.06403,35.89761]],[[140.03469,35.92112],[140.03205,35.92236],[140.02813,35.92406],[140.02322,35.92593]],[[140.03557,35.92071],[140.03469,35.92112]]]}}