{"type":"Feature","properties":{"id":"関東鉄道_竜ヶ崎線","name":"竜ヶ崎線","operator":"関東鉄道","railType":"普通鉄道","operatorType":"民営","category":"rail","attribution":"国土数値情報（鉄道データ）国土交通省"},"geometry":{"type":"MultiLineString","coordinates":[[[140.13819,35.92906],[140.13833,35.92975]],[[140.13819,35.92906],[140.13815,35.92849],[140.13821,35.92801],[140.1385,35.92758],[140.13896,35.92722],[140.15024,35.92209],[140.15689,35.91916]],[[140.15689,35.91916],[140.15759,35.91887]],[[140.15759,35.91887],[140.16403,35.91647],[140.1654,35.91563],[140.17636,35.90971],[140.17852,35.90868]],[[140.17852,35.90868],[140.17926,35.90843]]]}}