{"type":"Feature","properties":{"id":"阪堺電気軌道_上町線","name":"上町線","operator":"阪堺電気軌道","railType":"軌道","operatorType":"民営","category":"tram","attribution":"国土数値情報（鉄道データ）国土交通省"},"geometry":{"type":"MultiLineString","coordinates":[[[135.51295,34.64601],[135.51186,34.64196]],[[135.51175,34.6416],[135.50992,34.63568]],[[135.4995,34.61838],[135.49908,34.61781]],[[135.49253,34.61513],[135.49293,34.61565],[135.49327,34.61588],[135.49399,34.61608],[135.49451,34.61606],[135.49565,34.61579],[135.49636,34.61581]],[[135.50977,34.63529],[135.50937,34.63424],[135.50857,34.63266]],[[135.50857,34.63266],[135.50841,34.63235]],[[135.50561,34.62747],[135.50536,34.62713]],[[135.49712,34.61585],[135.49816,34.61616],[135.49857,34.61669],[135.49887,34.61743]],[[135.51306,34.64644],[135.51295,34.64601]],[[135.49181,34.61414],[135.49202,34.61429]],[[135.50992,34.63568],[135.50977,34.63529]],[[135.50305,34.62393],[135.50085,34.62075]],[[135.50085,34.62075],[135.50065,34.62037]],[[135.50065,34.62037],[135.4995,34.61838]],[[135.49636,34.61581],[135.49712,34.61585]],[[135.50841,34.63235],[135.50657,34.62886],[135.50561,34.62747]],[[135.51186,34.64196],[135.51175,34.6416]],[[135.50329,34.62427],[135.50305,34.62393]],[[135.50536,34.62713],[135.50329,34.62427]],[[135.49215,34.61451],[135.49253,34.61513]],[[135.49202,34.61429],[135.49215,34.61451]],[[135.49887,34.61743],[135.49908,34.61781]]]}}