{"type":"Feature","properties":{"id":"阪堺電気軌道_阪堺線","name":"阪堺線","operator":"阪堺電気軌道","railType":"軌道","operatorType":"民営","category":"tram","attribution":"国土数値情報（鉄道データ）国土交通省"},"geometry":{"type":"MultiLineString","coordinates":[[[135.45052,34.54976],[135.44774,34.54635],[135.44704,34.54573],[135.44611,34.54511],[135.44579,34.54475],[135.44445,34.54297],[135.44367,34.54179]],[[135.48663,34.59433],[135.48687,34.59499]],[[135.50224,34.6454],[135.50175,34.64319]],[[135.49152,34.61329],[135.49169,34.61379]],[[135.44367,34.54179],[135.44338,34.54132]],[[135.48355,34.58799],[135.48412,34.5882],[135.48447,34.58854],[135.48514,34.59017]],[[135.50024,34.63652],[135.50016,34.63611]],[[135.49951,34.63331],[135.49941,34.6328]],[[135.49126,34.61274],[135.49152,34.61329]],[[135.46922,34.57343],[135.46689,34.57094]],[[135.47218,34.57661],[135.47184,34.57621]],[[135.48285,34.58784],[135.4824,34.58767],[135.48061,34.58568]],[[135.48031,34.58537],[135.47888,34.58386]],[[135.50234,34.64592],[135.50224,34.6454]],[[135.48865,34.59997],[135.48885,34.6006]],[[135.49941,34.6328],[135.49888,34.63082],[135.49868,34.63039],[135.49791,34.62943]],[[135.4947,34.62378],[135.49452,34.62333]],[[135.49001,34.60514],[135.48885,34.6006]],[[135.49193,34.61454],[135.49253,34.61804]],[[135.50087,34.63926],[135.50024,34.63652]],[[135.49017,34.60578],[135.49109,34.6094]],[[135.46655,34.57056],[135.46604,34.57002],[135.46564,34.56945],[135.46465,34.56728],[135.46286,34.565]],[[135.45488,34.55522],[135.4508,34.5501]],[[135.48355,34.58799],[135.48285,34.58784]],[[135.49588,34.62666],[135.4947,34.62378]],[[135.45519,34.55558],[135.45488,34.55522]],[[135.48514,34.59017],[135.48535,34.59078]],[[135.49109,34.6094],[135.49123,34.61002]],[[135.47678,34.58161],[135.47468,34.57931]],[[135.49452,34.62333],[135.49265,34.61842]],[[135.49253,34.61804],[135.49265,34.61842]],[[135.50175,34.64319],[135.50166,34.64275]],[[135.47857,34.58351],[135.47709,34.58192]],[[135.47435,34.57895],[135.47218,34.57661]],[[135.49605,34.62706],[135.49588,34.62666]],[[135.50329,34.64929],[135.50276,34.64775],[135.50234,34.64592]],[[135.49791,34.62943],[135.49749,34.62895]],[[135.4508,34.5501],[135.45052,34.54976]],[[135.50503,34.65388],[135.50487,34.65346]],[[135.50166,34.64275],[135.50097,34.63966]],[[135.49123,34.61002],[135.49127,34.61054],[135.49095,34.61141],[135.49116,34.61235]],[[135.50016,34.63611],[135.49951,34.63331]],[[135.50346,34.64977],[135.50329,34.64929]],[[135.48535,34.59078],[135.48663,34.59433]],[[135.50097,34.63966],[135.50087,34.63926]],[[135.46286,34.565],[135.46254,34.56463]],[[135.49017,34.60578],[135.49001,34.60514]],[[135.48687,34.59499],[135.48865,34.59997]],[[135.46957,34.57382],[135.46922,34.57343]],[[135.46689,34.57094],[135.46655,34.57056]],[[135.47184,34.57621],[135.46957,34.57382]],[[135.45894,34.56021],[135.45519,34.55558]],[[135.49185,34.61426],[135.49193,34.61454]],[[135.47468,34.57931],[135.47435,34.57895]],[[135.50487,34.65346],[135.50346,34.64977]],[[135.49116,34.61235],[135.49126,34.61274]],[[135.47709,34.58192],[135.47678,34.58161]],[[135.49749,34.62895],[135.49605,34.62706]],[[135.47888,34.58386],[135.47857,34.58351]],[[135.48061,34.58568],[135.48031,34.58537]],[[135.49169,34.61379],[135.49179,34.61409]],[[135.45923,34.56057],[135.45894,34.56021]],[[135.46254,34.56463],[135.45923,34.56057]],[[135.49179,34.61409],[135.49185,34.61426]]]}}