{"type":"Feature","properties":{"id":"阪急電鉄_嵐山線","name":"嵐山線","operator":"阪急電鉄","railType":"普通鉄道","operatorType":"民営","category":"rail","attribution":"国土数値情報（鉄道データ）国土交通省"},"geometry":{"type":"MultiLineString","coordinates":[[[135.68292,35.00948],[135.68412,35.00865],[135.68485,35.00804],[135.68538,35.00749],[135.68591,35.00663],[135.68811,35.00066]],[[135.69661,34.98969],[135.70243,34.9847],[135.70311,34.98394],[135.70335,34.98359],[135.70356,34.9829],[135.70351,34.98189],[135.70325,34.98029]],[[135.68292,35.00948],[135.68174,35.01026]],[[135.68811,35.00066],[135.68846,34.99969]],[[135.68846,34.99969],[135.68952,34.99705],[135.69032,34.99568],[135.69106,34.99465],[135.69149,34.99415],[135.69379,34.99203],[135.69581,34.99036]],[[135.69581,34.99036],[135.69661,34.98969]],[[135.70325,34.98029],[135.70306,34.97847],[135.70309,34.9775]]]}}