{"type":"Feature","properties":{"id":"阪急電鉄_千里線","name":"千里線","operator":"阪急電鉄","railType":"普通鉄道","operatorType":"民営","category":"rail","attribution":"国土数値情報（鉄道データ）国土交通省"},"geometry":{"type":"MultiLineString","coordinates":[[[135.51809,34.74064],[135.5195,34.74284],[135.51995,34.74439],[135.51999,34.7459]],[[135.51981,34.74693],[135.51999,34.7459]],[[135.51981,34.74693],[135.51836,34.75184],[135.51772,34.7544],[135.51772,34.75479],[135.51784,34.75529],[135.51818,34.75583],[135.51908,34.75689],[135.51923,34.75729],[135.51923,34.75773],[135.51897,34.75833],[135.51861,34.75874],[135.51801,34.75917]],[[135.51755,34.74006],[135.51809,34.74064]],[[135.51573,34.80448],[135.51638,34.80805],[135.51634,34.80893],[135.51618,34.80963],[135.51546,34.81136],[135.51141,34.81917]],[[135.50851,34.7651],[135.50904,34.76444],[135.50951,34.76406]],[[135.51074,34.71094],[135.51082,34.71163],[135.51161,34.71319],[135.51214,34.71574],[135.51227,34.71682],[135.51225,34.7174],[135.5121,34.71816],[135.51029,34.72378],[135.51028,34.72493],[135.51049,34.72666],[135.51065,34.72718],[135.51137,34.72827]],[[135.5155,34.80324],[135.51573,34.80448]],[[135.50872,34.7916],[135.50857,34.78748],[135.50832,34.78602],[135.50798,34.78521],[135.50542,34.7806],[135.50529,34.78017],[135.50535,34.77949]],[[135.51658,34.76004],[135.51801,34.75917]],[[135.50567,34.77847],[135.50586,34.77776],[135.50588,34.77736],[135.50565,34.77313],[135.50587,34.77149]],[[135.50587,34.77149],[135.50625,34.77042]],[[135.50878,34.79322],[135.50872,34.7916]],[[135.50535,34.77949],[135.50567,34.77847]],[[135.50951,34.76406],[135.51087,34.76311],[135.51399,34.76149],[135.51658,34.76004]],[[135.51611,34.73833],[135.51599,34.73736],[135.51622,34.73558],[135.51623,34.73497],[135.51622,34.73476],[135.51596,34.73413],[135.51197,34.72907]],[[135.50625,34.77042],[135.50658,34.77004],[135.50811,34.76896],[135.50857,34.76842],[135.50863,34.76791],[135.5082,34.76635],[135.50829,34.76557],[135.50851,34.7651]],[[135.51065,34.82064],[135.51141,34.81917]],[[135.51197,34.72907],[135.51137,34.72827]],[[135.50878,34.79322],[135.50891,34.79429],[135.50933,34.79522],[135.51199,34.79762],[135.51434,34.8001],[135.51481,34.80087],[135.51511,34.80164],[135.5155,34.80324]],[[135.5164,34.7387],[135.51611,34.73833]],[[135.51755,34.74006],[135.5164,34.7387]],[[135.51074,34.71094],[135.51077,34.70879]]]}}