{"type":"Feature","properties":{"id":"阪急電鉄_甲陽線","name":"甲陽線","operator":"阪急電鉄","railType":"普通鉄道","operatorType":"民営","category":"rail","attribution":"国土数値情報（鉄道データ）国土交通省"},"geometry":{"type":"MultiLineString","coordinates":[[[135.32802,34.74307],[135.3281,34.74226]],[[135.33014,34.76078],[135.33079,34.76052],[135.33122,34.76019]],[[135.33122,34.76019],[135.33244,34.75805],[135.33255,34.75767],[135.33251,34.75731],[135.33224,34.75681],[135.33063,34.75455],[135.32937,34.75256],[135.32924,34.7522],[135.32898,34.75037]],[[135.32898,34.75037],[135.3289,34.74975]],[[135.3289,34.74975],[135.32808,34.74427],[135.32802,34.74307]]]}}