{"type":"Feature","properties":{"id":"阪急電鉄_今津線","name":"今津線","operator":"阪急電鉄","railType":"普通鉄道","operatorType":"民営","category":"rail","attribution":"国土数値情報（鉄道データ）国土交通省"},"geometry":{"type":"MultiLineString","coordinates":[[[135.33963,34.81094],[135.34216,34.81003]],[[135.34216,34.81003],[135.34246,34.8099]],[[135.35836,34.75779],[135.35973,34.76626]],[[135.35504,34.7377],[135.35742,34.74174],[135.35757,34.74227],[135.35764,34.74296],[135.35728,34.74516]],[[135.35678,34.74765],[135.35701,34.74948],[135.35812,34.7563]],[[135.35038,34.79774],[135.34883,34.79939],[135.3466,34.80195],[135.34592,34.80307]],[[135.35728,34.74516],[135.35713,34.74601]],[[135.35244,34.78884],[135.35223,34.78992]],[[135.35467,34.73708],[135.35504,34.7377]],[[135.35223,34.78992],[135.35159,34.79485],[135.35146,34.79567],[135.35124,34.7964]],[[135.34592,34.80307],[135.34579,34.80394],[135.34594,34.80451]],[[135.35684,34.74597],[135.35668,34.74713]],[[135.35144,34.73165],[135.3518,34.73224]],[[135.35989,34.76727],[135.35997,34.76887],[135.35981,34.76956],[135.3593,34.7707],[135.3572,34.77451]],[[135.35124,34.7964],[135.35088,34.79711],[135.35038,34.79774]],[[135.35668,34.74713],[135.35678,34.74765]],[[135.3518,34.73224],[135.35467,34.73708]],[[135.35973,34.76626],[135.35989,34.76727]],[[135.35654,34.77565],[135.35499,34.77839],[135.35457,34.77927],[135.35244,34.78884]],[[135.35678,34.74765],[135.35692,34.74674],[135.35706,34.74647],[135.35763,34.74619],[135.3581,34.74618]],[[135.34594,34.80451],[135.34694,34.80669],[135.34701,34.80706],[135.34686,34.80762],[135.34645,34.80809],[135.34609,34.80831],[135.34246,34.8099]],[[135.3572,34.77451],[135.35654,34.77565]],[[135.35812,34.7563],[135.35836,34.75779]]]}}