{"type":"Feature","properties":{"id":"阪急電鉄_宝塚線","name":"宝塚線","operator":"阪急電鉄","railType":"普通鉄道","operatorType":"民営","category":"rail","attribution":"国土数値情報（鉄道データ）国土交通省"},"geometry":{"type":"MultiLineString","coordinates":[[[135.48263,34.73831],[135.48326,34.73662]],[[135.46792,34.77033],[135.46754,34.77155]],[[135.47514,34.75098],[135.47514,34.74971]],[[135.48263,34.71977],[135.4835,34.71836],[135.48433,34.71728],[135.48922,34.7115],[135.48986,34.71092],[135.49028,34.71066],[135.49174,34.71019]],[[135.47519,34.76369],[135.47506,34.76475],[135.47455,34.76566],[135.46951,34.76826],[135.46897,34.76861],[135.46848,34.76913],[135.46826,34.76948],[135.46792,34.77033]],[[135.49174,34.71019],[135.49341,34.70982]],[[135.46247,34.78653],[135.46198,34.78724],[135.46131,34.78773]],[[135.46525,34.77835],[135.46754,34.77155]],[[135.47517,34.76217],[135.47507,34.75369],[135.47514,34.75098]],[[135.4824,34.72174],[135.48232,34.72138],[135.48235,34.7207],[135.48263,34.71977]],[[135.48326,34.73662],[135.48437,34.73115],[135.48439,34.73005],[135.4824,34.72174]],[[135.49881,34.70476],[135.49836,34.70647]],[[135.47514,34.74971],[135.47516,34.74811],[135.47553,34.74721],[135.48159,34.73986],[135.48212,34.73919],[135.48263,34.73831]],[[135.46247,34.78653],[135.46296,34.78543],[135.46489,34.77949]],[[135.47517,34.76217],[135.47519,34.76369]],[[135.46525,34.77835],[135.46489,34.77949]],[[135.49341,34.70982],[135.49576,34.70927],[135.49719,34.70848],[135.49748,34.7082],[135.49792,34.70752],[135.49836,34.70647]],[[135.36233,34.81671],[135.36788,34.81869],[135.36877,34.81919]],[[135.36981,34.81989],[135.37061,34.82032],[135.3722,34.82052],[135.37813,34.82053],[135.38046,34.82082],[135.38418,34.8205],[135.38528,34.82075],[135.38768,34.82167]],[[135.36119,34.81558],[135.36171,34.81625],[135.36233,34.81671]],[[135.44959,34.79402],[135.44887,34.79527]],[[135.41491,34.82724],[135.41779,34.82658],[135.41871,34.82624],[135.42466,34.82227]],[[135.34246,34.8099],[135.3432,34.80987],[135.34378,34.80995],[135.34594,34.81106],[135.34666,34.81128],[135.35297,34.8112]],[[135.34216,34.81003],[135.34246,34.8099]],[[135.38768,34.82167],[135.3893,34.82223]],[[135.44572,34.80728],[135.44675,34.8027],[135.44748,34.79795],[135.44794,34.79687],[135.44887,34.79527]],[[135.44561,34.80776],[135.44572,34.80728]],[[135.40375,34.82776],[135.40479,34.82809],[135.4056,34.82812],[135.40618,34.82803],[135.40804,34.82736],[135.40872,34.82724],[135.41187,34.82748]],[[135.44596,34.80776],[135.44572,34.80728]],[[135.36877,34.81919],[135.36981,34.81989]],[[135.40207,34.82688],[135.40375,34.82776]],[[135.40207,34.82688],[135.39878,34.82521],[135.39568,34.82377],[135.3893,34.82223]],[[135.46131,34.78773],[135.45131,34.79168],[135.45066,34.7922],[135.44959,34.79402]],[[135.41187,34.82748],[135.41298,34.8275],[135.41491,34.82724]],[[135.42466,34.82227],[135.4266,34.82093]],[[135.44561,34.80776],[135.44537,34.80863]],[[135.35297,34.8112],[135.35392,34.81119]],[[135.44537,34.80863],[135.44518,34.80903],[135.44467,34.80942],[135.43598,34.81448],[135.4266,34.82093]],[[135.33963,34.81094],[135.34216,34.81003]],[[135.35392,34.81119],[135.35531,34.81121],[135.3559,34.81134],[135.35686,34.81179],[135.3587,34.81283],[135.35936,34.81324],[135.36,34.81387],[135.36119,34.81558]]]}}