{"type":"Feature","properties":{"id":"阪急電鉄_神戸高速線","name":"神戸高速線","operator":"阪急電鉄","railType":"普通鉄道","operatorType":"民営","category":"rail","attribution":"国土数値情報（鉄道データ）国土交通省"},"geometry":{"type":"MultiLineString","coordinates":[[[135.19342,34.69359],[135.19229,34.6927]],[[135.17024,34.67664],[135.16962,34.67627]],[[135.18096,34.68624],[135.18153,34.68669]],[[135.19229,34.6927],[135.19007,34.69124],[135.18749,34.68989],[135.18655,34.68949],[135.18471,34.68904],[135.18421,34.68878],[135.18153,34.68669]],[[135.17515,34.67971],[135.17132,34.67754],[135.17069,34.67693],[135.17024,34.67664]],[[135.17792,34.68139],[135.17827,34.68318],[135.17861,34.68407],[135.17918,34.68472],[135.18096,34.68624]],[[135.17578,34.68009],[135.17515,34.67971]],[[135.17578,34.68009],[135.17792,34.68139]]]}}