{"type":"Feature","properties":{"id":"阪急電鉄_伊丹線","name":"伊丹線","operator":"阪急電鉄","railType":"普通鉄道","operatorType":"民営","category":"rail","attribution":"国土数値情報（鉄道データ）国土交通省"},"geometry":{"type":"MultiLineString","coordinates":[[[135.41335,34.7803],[135.41411,34.77953]],[[135.41689,34.7529],[135.41601,34.75319],[135.41579,34.75341]],[[135.41411,34.77953],[135.41498,34.77865],[135.41522,34.77825],[135.41549,34.77744],[135.41557,34.77653],[135.41559,34.77276]],[[135.41564,34.76547],[135.41559,34.77197]],[[135.41559,34.77276],[135.41559,34.77197]],[[135.41564,34.76547],[135.41564,34.76466]],[[135.41564,34.76466],[135.4157,34.75633],[135.41579,34.75341]]]}}