{"type":"Feature","properties":{"id":"阪神電気鉄道_阪神なんば線","name":"阪神なんば線","operator":"阪神電気鉄道","railType":"普通鉄道","operatorType":"民営","category":"rail","attribution":"国土数値情報（鉄道データ）国土交通省"},"geometry":{"type":"MultiLineString","coordinates":[[[135.49835,34.66711],[135.49986,34.66701]],[[135.41675,34.71865],[135.41788,34.71837]],[[135.42652,34.71627],[135.42955,34.71548],[135.43025,34.71521],[135.43073,34.71492],[135.43121,34.71446],[135.43655,34.70765]],[[135.41788,34.71837],[135.4253,34.71661]],[[135.44251,34.7001],[135.44296,34.69955]],[[135.43714,34.70689],[135.44251,34.7001]],[[135.43655,34.70765],[135.43714,34.70689]],[[135.4253,34.71661],[135.42652,34.71627]],[[135.45821,34.68537],[135.45941,34.68521],[135.46158,34.68453],[135.46359,34.68407],[135.46487,34.68346],[135.46534,34.68309]],[[135.44296,34.69955],[135.45135,34.68959]],[[135.46534,34.68309],[135.46582,34.68241]],[[135.45135,34.68959],[135.45187,34.68895]],[[135.45732,34.68538],[135.45821,34.68537]],[[135.45187,34.68895],[135.45412,34.68627],[135.45453,34.68593],[135.45578,34.68551],[135.45732,34.68538]],[[135.49835,34.66711],[135.49533,34.66764],[135.48713,34.66841]],[[135.47913,34.66944],[135.47857,34.67074],[135.47831,34.67115]],[[135.47831,34.67115],[135.47796,34.6717],[135.47751,34.67211],[135.47528,34.6731]],[[135.47528,34.6731],[135.47424,34.67354],[135.47367,34.67388]],[[135.47367,34.67388],[135.473,34.67428],[135.47003,34.67648],[135.46804,34.67808],[135.46765,34.67871],[135.46739,34.68001],[135.46632,34.6817]],[[135.48592,34.66838],[135.48214,34.66784],[135.48152,34.66784],[135.48078,34.66808],[135.4799,34.66862],[135.47913,34.66944]],[[135.48713,34.66841],[135.48592,34.66838]],[[135.46632,34.6817],[135.46582,34.68241]]]}}