{"type":"Feature","properties":{"id":"阪神電気鉄道_神戸高速線","name":"神戸高速線","operator":"阪神電気鉄道","railType":"普通鉄道","operatorType":"民営","category":"rail","attribution":"国土数値情報（鉄道データ）国土交通省"},"geometry":{"type":"MultiLineString","coordinates":[[[135.18728,34.68904],[135.1866,34.68875]],[[135.14442,34.6627],[135.14356,34.6621]],[[135.1866,34.68875],[135.18411,34.68775],[135.17982,34.68434]],[[135.15125,34.66712],[135.15041,34.66665]],[[135.17024,34.67664],[135.16962,34.67627]],[[135.16962,34.67627],[135.16647,34.67435],[135.16246,34.67172]],[[135.16246,34.67172],[135.16185,34.67132]],[[135.16185,34.67132],[135.15723,34.66815],[135.15641,34.66793],[135.15258,34.66759],[135.15202,34.66745],[135.15125,34.66712]],[[135.15041,34.66665],[135.14442,34.6627]],[[135.17952,34.68368],[135.17939,34.68289],[135.17924,34.68247],[135.17792,34.68139]],[[135.17515,34.67971],[135.17132,34.67754],[135.17069,34.67693],[135.17024,34.67664]],[[135.17982,34.68434],[135.17952,34.68368]],[[135.17578,34.68009],[135.17515,34.67971]],[[135.17578,34.68009],[135.17792,34.68139]]]}}