{"type":"Feature","properties":{"id":"阪神電気鉄道_本線","name":"本線","operator":"阪神電気鉄道","railType":"普通鉄道","operatorType":"民営","category":"rail","attribution":"国土数値情報（鉄道データ）国土交通省"},"geometry":{"type":"MultiLineString","coordinates":[[[135.49811,34.70195],[135.49802,34.70191]],[[135.45788,34.70465],[135.4585,34.70405]],[[135.48749,34.69578],[135.48906,34.69636]],[[135.4585,34.70405],[135.46368,34.69781],[135.4649,34.69649]],[[135.4649,34.69649],[135.46551,34.6959]],[[135.49802,34.70191],[135.49655,34.70113]],[[135.48906,34.69636],[135.49096,34.6971],[135.49228,34.69801],[135.49449,34.69995],[135.49655,34.70113]],[[135.36385,34.72372],[135.3627,34.7242]],[[135.35136,34.73118],[135.3462,34.73501],[135.34498,34.73575],[135.34405,34.73607],[135.34058,34.73654]],[[135.33843,34.73682],[135.34058,34.73654]],[[135.43921,34.71805],[135.44325,34.7148],[135.44501,34.71268]],[[135.32933,34.7344],[135.32845,34.73423]],[[135.35658,34.72723],[135.35211,34.7306]],[[135.3627,34.7242],[135.35881,34.72586],[135.3572,34.72681]],[[135.40509,34.71821],[135.40661,34.71823],[135.41185,34.71914],[135.4131,34.71928],[135.41451,34.71918],[135.41675,34.71865]],[[135.37108,34.7195],[135.3722,34.71934],[135.37899,34.71918],[135.38155,34.71892]],[[135.38155,34.71892],[135.38391,34.71811]],[[135.40413,34.71831],[135.40509,34.71821]],[[135.36973,34.71987],[135.36803,34.72085],[135.36518,34.7231],[135.36385,34.72372]],[[135.42533,34.71669],[135.42669,34.71661]],[[135.39446,34.71759],[135.39591,34.7181]],[[135.43815,34.71857],[135.43921,34.71805]],[[135.38391,34.71811],[135.38688,34.71701],[135.38807,34.7168],[135.39004,34.71683],[135.39235,34.71701],[135.39446,34.71759]],[[135.44501,34.71268],[135.44569,34.71183]],[[135.33843,34.73682],[135.33608,34.73705],[135.33472,34.73689],[135.33374,34.73644],[135.33198,34.7354],[135.33066,34.73473],[135.32933,34.7344]],[[135.35211,34.7306],[135.35136,34.73118]],[[135.4249,34.71676],[135.42533,34.71669]],[[135.41788,34.71837],[135.4249,34.71676]],[[135.37108,34.7195],[135.36973,34.71987]],[[135.41675,34.71865],[135.41788,34.71837]],[[135.44569,34.71183],[135.44721,34.70991],[135.448,34.70925],[135.44909,34.7087],[135.45641,34.70554],[135.45741,34.705],[135.45788,34.70465]],[[135.39591,34.7181],[135.39779,34.71854],[135.39954,34.71878],[135.40056,34.71874],[135.40413,34.71831]],[[135.42669,34.71661],[135.4282,34.71658],[135.4289,34.71665],[135.42994,34.71694],[135.43408,34.71839],[135.43531,34.71869],[135.43677,34.71883],[135.43761,34.71873],[135.43815,34.71857]],[[135.3572,34.72681],[135.35658,34.72723]],[[135.47559,34.69442],[135.47653,34.69438]],[[135.47653,34.69438],[135.48079,34.69414],[135.4821,34.69416],[135.48294,34.69426],[135.48433,34.69464],[135.48749,34.69578]],[[135.46551,34.6959],[135.46642,34.69537],[135.46807,34.6949],[135.47559,34.69442]],[[135.31594,34.73172],[135.31519,34.73149]],[[135.24885,34.71315],[135.24102,34.71074]],[[135.23043,34.70751],[135.22744,34.70657],[135.22498,34.7059]],[[135.27014,34.71279],[135.26923,34.71257]],[[135.28024,34.71667],[135.27853,34.71538],[135.27688,34.71446],[135.27545,34.71401],[135.27014,34.71279]],[[135.21773,34.70401],[135.2159,34.70348],[135.21226,34.70197],[135.20997,34.70044],[135.20852,34.69977]],[[135.29096,34.72235],[135.28472,34.71966],[135.2828,34.71856],[135.28106,34.71729]],[[135.24102,34.71074],[135.24012,34.71047]],[[135.2617,34.7129],[135.26083,34.71321]],[[135.30409,34.728],[135.30301,34.72754]],[[135.29194,34.72279],[135.29096,34.72235]],[[135.32845,34.73423],[135.31798,34.73223],[135.31594,34.73172]],[[135.18728,34.68904],[135.1866,34.68875]],[[135.30301,34.72754],[135.29194,34.72279]],[[135.28106,34.71729],[135.28024,34.71667]],[[135.20852,34.69977],[135.20781,34.69947]],[[135.25609,34.71491],[135.25498,34.71487]],[[135.23171,34.7079],[135.23043,34.70751]],[[135.26923,34.71257],[135.2664,34.71191],[135.26523,34.71184],[135.26408,34.71204],[135.2617,34.7129]],[[135.20781,34.69947],[135.19567,34.694]],[[135.22498,34.7059],[135.22369,34.70555]],[[135.19567,34.694],[135.19499,34.69372]],[[135.24012,34.71047],[135.23171,34.7079]],[[135.19499,34.69372],[135.19423,34.69331],[135.19064,34.69078],[135.18849,34.68959],[135.18728,34.68904]],[[135.26083,34.71321],[135.25609,34.71491]],[[135.24998,34.71349],[135.24885,34.71315]],[[135.25498,34.71487],[135.24998,34.71349]],[[135.22369,34.70555],[135.21925,34.70439]],[[135.21925,34.70439],[135.21773,34.70401]],[[135.31519,34.73149],[135.30564,34.72856],[135.30409,34.728]]]}}