{"type":"Feature","properties":{"id":"阪神電気鉄道_武庫川線","name":"武庫川線","operator":"阪神電気鉄道","railType":"普通鉄道","operatorType":"民営","category":"rail","attribution":"国土数値情報（鉄道データ）国土交通省"},"geometry":{"type":"MultiLineString","coordinates":[[[135.3791,34.71239],[135.37867,34.71061],[135.3781,34.70931]],[[135.38141,34.71865],[135.38104,34.71805]],[[135.37782,34.70869],[135.37718,34.70735],[135.37701,34.70716],[135.37557,34.7062],[135.375,34.70523]],[[135.38104,34.71805],[135.38044,34.71705],[135.37972,34.71539],[135.37937,34.71426],[135.3792,34.71305]],[[135.375,34.70523],[135.37471,34.70464]],[[135.3792,34.71305],[135.3791,34.71239]],[[135.3781,34.70931],[135.37782,34.70869]]]}}