{"type":"Feature","properties":{"id":"阿武隈急行_阿武隈急行線","name":"阿武隈急行線","operator":"阿武隈急行","railType":"普通鉄道","operatorType":"第三セクター","category":"rail","attribution":"国土数値情報（鉄道データ）国土交通省"},"geometry":{"type":"MultiLineString","coordinates":[[[140.68613,37.91372],[140.68539,37.91309]],[[140.77235,37.97892],[140.77247,37.97966]],[[140.78023,38.01847],[140.77611,37.9973]],[[140.76959,37.96456],[140.76964,37.96523]],[[140.56722,37.82009],[140.56646,37.81969]],[[140.64628,37.89502],[140.64542,37.89316],[140.64509,37.89194],[140.6449,37.89035],[140.64489,37.88682],[140.64455,37.88567],[140.64414,37.88501],[140.6437,37.88454],[140.64277,37.88387],[140.6412,37.88312],[140.63959,37.88266],[140.63614,37.88199],[140.63357,37.88112],[140.63205,37.88009],[140.63118,37.87928],[140.63057,37.87862],[140.62773,37.87507]],[[140.55701,37.81478],[140.55618,37.81435]],[[140.60383,37.84629],[140.60992,37.85103],[140.61167,37.8525],[140.61261,37.85343],[140.61305,37.854],[140.61544,37.85755]],[[140.77186,37.94344],[140.77194,37.94506],[140.77184,37.94646],[140.76968,37.95889],[140.76947,37.96201],[140.76959,37.96456]],[[140.79001,38.05043],[140.79489,38.05787],[140.79607,38.05918],[140.80039,38.0633],[140.80097,38.06403],[140.80173,38.06534],[140.80231,38.06681]],[[140.80231,38.06681],[140.8027,38.06748],[140.80428,38.07109],[140.805,38.07241]],[[140.805,38.07241],[140.80644,38.07441],[140.80931,38.07803]],[[140.61544,37.85755],[140.61586,37.85819]],[[140.59267,37.83749],[140.59338,37.83803]],[[140.60311,37.84571],[140.60383,37.84629]],[[140.79001,38.05043],[140.78962,38.04983]],[[140.77247,37.97966],[140.77599,37.99667]],[[140.6272,37.87441],[140.62773,37.87507]],[[140.77599,37.99667],[140.77611,37.9973]],[[140.76212,37.93103],[140.76701,37.93478],[140.76893,37.93666],[140.76937,37.93723],[140.77012,37.93846],[140.77096,37.94],[140.7715,37.94147],[140.77178,37.94277]],[[140.80931,38.07803],[140.81063,38.07971]],[[140.76132,37.93041],[140.76212,37.93103]],[[140.6272,37.87441],[140.62306,37.86925],[140.62161,37.86692],[140.61586,37.85819]],[[140.77178,37.94277],[140.77186,37.94344]],[[140.58072,37.82809],[140.58003,37.82754]],[[140.78962,38.04983],[140.78601,38.04413],[140.78562,38.04332],[140.78503,38.0417],[140.78438,38.03898],[140.78042,38.0194]],[[140.58072,37.82809],[140.58732,37.83335],[140.59267,37.83749]],[[140.68539,37.91309],[140.68468,37.91255],[140.67982,37.90974],[140.66456,37.90095],[140.66264,37.89998],[140.66126,37.89944],[140.65933,37.899],[140.65776,37.8989],[140.65376,37.89899],[140.6525,37.89888],[140.65153,37.89869],[140.64953,37.898],[140.64852,37.89747],[140.64778,37.89691],[140.64674,37.89573]],[[140.76964,37.96523],[140.77045,37.96976],[140.77235,37.97892]],[[140.78042,38.0194],[140.78023,38.01847]],[[140.64674,37.89573],[140.64628,37.89502]],[[140.68613,37.91372],[140.68711,37.91467],[140.68826,37.91615],[140.68879,37.91719],[140.69014,37.92045],[140.69173,37.92366],[140.69229,37.92456],[140.69305,37.92543],[140.69419,37.92647],[140.6978,37.92928],[140.7018,37.93226],[140.7035,37.9331],[140.7054,37.93361],[140.70699,37.93378],[140.70938,37.93356],[140.71869,37.93207],[140.73218,37.92841],[140.73364,37.92811],[140.73503,37.92794],[140.74626,37.92716],[140.74997,37.92655],[140.75212,37.92635],[140.75344,37.92635],[140.75452,37.9265],[140.75641,37.92707],[140.75764,37.92769],[140.76132,37.93041]],[[140.59338,37.83803],[140.60311,37.84571]],[[140.58003,37.82754],[140.57931,37.82695],[140.57714,37.82544],[140.56722,37.82009]],[[140.56646,37.81969],[140.55701,37.81478]],[[140.5279,37.80844],[140.52656,37.80834]],[[140.49898,37.80253],[140.49815,37.80222]],[[140.52656,37.80834],[140.51363,37.80742],[140.5108,37.80672]],[[140.54346,37.80966],[140.54237,37.80957]],[[140.54237,37.80957],[140.5279,37.80844]],[[140.47984,37.79559],[140.48824,37.79862]],[[140.46668,37.78926],[140.46722,37.78937],[140.46889,37.79016],[140.475,37.79344],[140.47912,37.79532]],[[140.48824,37.79862],[140.48902,37.79892]],[[140.55618,37.81435],[140.55188,37.81214],[140.54917,37.81094],[140.54707,37.81028],[140.54557,37.80997],[140.54346,37.80966]],[[140.5108,37.80672],[140.50986,37.80644]],[[140.49815,37.80222],[140.48902,37.79892]],[[140.50986,37.80644],[140.49898,37.80253]],[[140.47912,37.79532],[140.47984,37.79559]],[[140.46006,37.75341],[140.4598,37.75522]],[[140.45562,37.77502],[140.45877,37.77786],[140.45968,37.77882],[140.46038,37.77997],[140.4608,37.78129]],[[140.4608,37.78129],[140.46097,37.78433],[140.46121,37.78504],[140.46172,37.7859],[140.46213,37.7864],[140.46339,37.78745],[140.46668,37.78926]],[[140.45562,37.77502],[140.45853,37.7773],[140.45985,37.77854],[140.46026,37.77912],[140.46062,37.78001],[140.46076,37.78064],[140.4608,37.78129]],[[140.4598,37.75522],[140.45939,37.75944],[140.45916,37.76049],[140.4585,37.76181],[140.45434,37.7683],[140.45378,37.7694],[140.4535,37.7703],[140.45339,37.77111],[140.4534,37.77181],[140.45391,37.77315],[140.45473,37.77421],[140.45562,37.77502]]]}}