{"type":"Feature","properties":{"id":"静岡鉄道_静岡清水線","name":"静岡清水線","operator":"静岡鉄道","railType":"普通鉄道","operatorType":"民営","category":"rail","attribution":"国土数値情報（鉄道データ）国土交通省"},"geometry":{"type":"MultiLineString","coordinates":[[[138.44232,35.00122],[138.44281,35.00161]],[[138.38721,34.97577],[138.38809,34.97595]],[[138.40103,34.97861],[138.4044,34.98008],[138.40483,34.98037],[138.4052,34.98075],[138.40592,34.98177]],[[138.43835,34.99771],[138.44005,34.99904],[138.44131,35.00017],[138.44232,35.00122]],[[138.47714,35.0129],[138.47645,35.01272],[138.47531,35.01256],[138.46015,35.01146]],[[138.39541,34.97846],[138.39628,34.97834]],[[138.47784,35.01324],[138.47714,35.0129]],[[138.43062,34.99346],[138.43224,34.99369],[138.43309,34.99406],[138.43561,34.99551],[138.43783,34.99732]],[[138.40592,34.98177],[138.40642,34.98242]],[[138.48103,35.01489],[138.47784,35.01324]],[[138.48785,35.01699],[138.48709,35.01706]],[[138.4132,34.98935],[138.41499,34.99048],[138.41922,34.99269]],[[138.41922,34.99269],[138.41997,34.99304]],[[138.41997,34.99304],[138.42164,34.99382],[138.42213,34.99395],[138.42292,34.99394],[138.42615,34.99345],[138.42979,34.99337]],[[138.42979,34.99337],[138.43062,34.99346]],[[138.39081,34.97684],[138.39154,34.97724]],[[138.39154,34.97724],[138.39382,34.97843],[138.39437,34.97855],[138.39541,34.97846]],[[138.43783,34.99732],[138.43835,34.99771]],[[138.46015,35.01146],[138.45934,35.0114]],[[138.40024,34.97825],[138.40103,34.97861]],[[138.48709,35.01706],[138.48574,35.01672],[138.48177,35.01519]],[[138.44281,35.00161],[138.45223,35.00769]],[[138.39628,34.97834],[138.3989,34.97792],[138.3995,34.97795],[138.40024,34.97825]],[[138.41257,34.98887],[138.4132,34.98935]],[[138.38809,34.97595],[138.38965,34.97629],[138.39081,34.97684]],[[138.45934,35.0114],[138.45721,35.01125],[138.45643,35.01099],[138.45407,35.00902],[138.45286,35.00812]],[[138.45286,35.00812],[138.45223,35.00769]],[[138.40642,34.98242],[138.40843,34.98507],[138.40897,34.98567],[138.41003,34.98674],[138.41257,34.98887]],[[138.48177,35.01519],[138.48103,35.01489]]]}}