{"type":"Feature","properties":{"id":"養老鉄道_養老線","name":"養老線","operator":"養老鉄道","railType":"普通鉄道","operatorType":"民営","category":"rail","attribution":"国土数値情報（鉄道データ）国土交通省"},"geometry":{"type":"MultiLineString","coordinates":[[[136.68351,35.0678],[136.68377,35.06915],[136.68379,35.06961],[136.68367,35.07012],[136.68305,35.07165],[136.67968,35.0737],[136.67727,35.07563],[136.6749,35.07802]],[[136.68351,35.0678],[136.68324,35.06615]],[[136.67435,35.07852],[136.66962,35.08193],[136.66589,35.08643],[136.66353,35.08941],[136.66166,35.09568]],[[136.6749,35.07802],[136.67435,35.07852]],[[136.66145,35.09643],[136.66112,35.09725],[136.65856,35.09958],[136.65772,35.10056],[136.65737,35.10112],[136.65564,35.1046],[136.65532,35.10498],[136.65355,35.10636],[136.65304,35.10686],[136.65112,35.10931],[136.65073,35.10996],[136.64985,35.11222],[136.6488,35.1136],[136.64748,35.11552]],[[136.66166,35.09568],[136.66145,35.09643]],[[136.647,35.11625],[136.64553,35.11853],[136.64514,35.1193],[136.64164,35.12838],[136.64073,35.13338]],[[136.64748,35.11552],[136.647,35.11625]],[[136.64073,35.13338],[136.64055,35.13438]],[[136.64055,35.13438],[136.64047,35.13482],[136.64043,35.13615],[136.64053,35.13752],[136.64077,35.13803],[136.64193,35.1398],[136.64209,35.14015],[136.6421,35.14053],[136.64186,35.1412],[136.63653,35.15142],[136.63287,35.16044]],[[136.63249,35.16137],[136.6293,35.1691],[136.62686,35.17555],[136.62681,35.1763],[136.62741,35.17996]],[[136.63287,35.16044],[136.63249,35.16137]],[[136.62741,35.17996],[136.62759,35.18096]],[[136.62759,35.18096],[136.62781,35.18209],[136.62731,35.18526],[136.62273,35.19254],[136.62236,35.19368],[136.62157,35.19843]],[[136.62149,35.19914],[136.62112,35.20108],[136.62084,35.20169],[136.61908,35.20402],[136.6185,35.20492],[136.61763,35.20668],[136.61481,35.21013],[136.61434,35.21068],[136.61388,35.21103],[136.60947,35.21335],[136.60871,35.21412],[136.60769,35.21558],[136.6072,35.21698],[136.60727,35.21752],[136.60746,35.21802],[136.60818,35.21949],[136.60811,35.22107],[136.60768,35.22197],[136.60733,35.22237],[136.60631,35.223],[136.60428,35.22352]],[[136.62157,35.19843],[136.62149,35.19914]],[[136.60428,35.22352],[136.60294,35.22387]],[[136.60294,35.22387],[136.59915,35.22494],[136.59811,35.22554],[136.59508,35.2288],[136.5945,35.22931],[136.59234,35.23061],[136.59205,35.23087],[136.59008,35.23352],[136.58945,35.23409],[136.58779,35.23494],[136.5863,35.23611],[136.58471,35.23693],[136.58222,35.23883],[136.58149,35.23959],[136.58122,35.24004],[136.58034,35.24376],[136.57996,35.24483],[136.57916,35.2458],[136.57236,35.24976],[136.57176,35.24999],[136.57021,35.25015],[136.56917,35.25037],[136.56714,35.25121]],[[136.56637,35.25155],[136.56485,35.25241],[136.56413,35.25325],[136.56385,35.25402],[136.56312,35.26122],[136.56299,35.26174],[136.56284,35.26215],[136.56097,35.26514],[136.56054,35.26624],[136.56053,35.26715],[136.56064,35.26764],[136.56139,35.26865],[136.56284,35.26982],[136.56352,35.27063],[136.56386,35.27158],[136.56385,35.2721],[136.5636,35.27299],[136.56318,35.27389],[136.5595,35.27828],[136.5584,35.28021],[136.55778,35.28183],[136.55711,35.28396],[136.55686,35.28629]],[[136.56714,35.25121],[136.56637,35.25155]],[[136.55682,35.28725],[136.55635,35.28968],[136.55617,35.29011],[136.5559,35.2905],[136.55385,35.29223],[136.55333,35.29291],[136.55314,35.29343],[136.55246,35.29629],[136.55242,35.29687],[136.55259,35.29796],[136.55285,35.29845],[136.5532,35.29893],[136.56331,35.30877]],[[136.55686,35.28629],[136.55682,35.28725]],[[136.56393,35.30937],[136.56491,35.31025],[136.5657,35.31059],[136.56642,35.31075],[136.56726,35.31077],[136.58573,35.30593],[136.58705,35.30577],[136.59133,35.30555]],[[136.56331,35.30877],[136.56393,35.30937]],[[136.59133,35.30555],[136.59215,35.30555]],[[136.59215,35.30555],[136.59427,35.30559],[136.59554,35.30571],[136.59625,35.30587],[136.59735,35.30658],[136.59823,35.30757],[136.5986,35.30824],[136.59866,35.30921],[136.59845,35.31095],[136.59752,35.3146]],[[136.5973,35.31543],[136.59678,35.31761],[136.59691,35.31913],[136.59708,35.31974],[136.59752,35.32073],[136.6005,35.32609]],[[136.59752,35.3146],[136.5973,35.31543]],[[136.60089,35.32681],[136.6035,35.33163],[136.604,35.33298],[136.60414,35.33414],[136.60389,35.34327]],[[136.6005,35.32609],[136.60089,35.32681]],[[136.60387,35.34396],[136.6034,35.35975]],[[136.60389,35.34327],[136.60387,35.34396]],[[136.60337,35.36083],[136.60333,35.36325],[136.6035,35.36412],[136.60368,35.3645],[136.60581,35.36641],[136.60638,35.36674],[136.60694,35.36694],[136.60797,35.36713],[136.60904,35.3672]],[[136.6034,35.35975],[136.60337,35.36083]],[[136.61686,35.36665],[136.61626,35.36669]],[[136.60904,35.3672],[136.60664,35.36726]],[[136.61626,35.36669],[136.61455,35.36693],[136.60904,35.3672]],[[136.60581,35.36728],[136.60439,35.36734],[136.60286,35.36778],[136.6021,35.36821],[136.60077,35.36927],[136.60028,35.36971],[136.59957,35.37066],[136.59945,35.37105],[136.59942,35.37198],[136.59956,35.37249],[136.60021,35.3735],[136.60166,35.37508]],[[136.60664,35.36726],[136.60581,35.36728]],[[136.60166,35.37508],[136.60215,35.3756]],[[136.60215,35.3756],[136.60294,35.37645],[136.60331,35.37698],[136.60354,35.37763],[136.60357,35.37831],[136.60276,35.38158],[136.60054,35.38957],[136.60046,35.39038],[136.60053,35.39222],[136.6009,35.39386]],[[136.60106,35.39446],[136.60128,35.39542],[136.60133,35.39605],[136.60115,35.40172],[136.60138,35.4098],[136.6021,35.41933]],[[136.6009,35.39386],[136.60106,35.39446]],[[136.60217,35.4202],[136.60249,35.42467],[136.60246,35.42536],[136.60232,35.42575],[136.60195,35.42629],[136.60134,35.42694],[136.60052,35.42749],[136.59976,35.42789],[136.59489,35.42988]],[[136.6021,35.41933],[136.60217,35.4202]],[[136.59405,35.43023],[136.57907,35.43635]],[[136.59489,35.42988],[136.59405,35.43023]],[[136.5783,35.43667],[136.576,35.43765],[136.57549,35.43823],[136.57523,35.43867],[136.5745,35.44069],[136.57381,35.44307]],[[136.57907,35.43635],[136.5783,35.43667]],[[136.57362,35.44371],[136.5719,35.44959]],[[136.57381,35.44307],[136.57362,35.44371]],[[136.57171,35.45025],[136.57072,35.45492],[136.57332,35.46593],[136.57332,35.46693],[136.57257,35.46997]],[[136.5719,35.44959],[136.57171,35.45025]],[[136.57257,35.46997],[136.57244,35.4706]]]}}