{"type":"Feature","properties":{"id":"首都圏新都市鉄道_常磐新線","name":"常磐新線","operator":"首都圏新都市鉄道","railType":"普通鉄道","operatorType":"第三セクター","category":"rail","attribution":"国土数値情報（鉄道データ）国土交通省"},"geometry":{"type":"MultiLineString","coordinates":[[[140.08155,36.0822],[140.08301,36.08213]],[[140.10956,36.08197],[140.10548,36.08015],[140.10482,36.07993],[140.10378,36.07964],[140.10278,36.07947],[140.1004,36.07936],[140.09905,36.0795],[140.09712,36.0799],[140.0903,36.08156],[140.08843,36.08178],[140.08301,36.08213]],[[140.03801,35.9938],[140.03868,35.99501]],[[140.03868,35.99501],[140.04319,36.00324],[140.04634,36.00869],[140.05328,36.0211],[140.05482,36.02456],[140.05608,36.02935]],[[140.10956,36.08197],[140.11153,36.08288]],[[140.05608,36.02935],[140.05633,36.03049]],[[140.08155,36.0822],[140.07843,36.0823],[140.07621,36.08218],[140.07375,36.08169],[140.07101,36.0806],[140.06948,36.07968],[140.0683,36.07869],[140.06732,36.07761],[140.06639,36.07634],[140.06063,36.06589],[140.0599,36.06408],[140.05936,36.06157],[140.05933,36.05899]],[[140.05942,36.05781],[140.06021,36.05152],[140.06044,36.04893],[140.06035,36.04699],[140.06015,36.04574],[140.05633,36.03049]],[[140.05942,36.05781],[140.05933,36.05899]],[[139.99266,35.9503],[139.99651,35.95199],[139.99881,35.95311],[140.0004,35.95426],[140.00176,35.95578],[140.00253,35.95709],[140.00608,35.96385],[140.00665,35.96484],[140.00739,35.9658],[140.0079,35.9663],[140.01089,35.96875],[140.03035,35.98357],[140.032,35.98506],[140.03302,35.98605],[140.03451,35.98776],[140.03684,35.99164],[140.03801,35.9938]],[[139.99136,35.94973],[139.99266,35.9503]],[[139.95734,35.91027],[139.95769,35.91145]],[[139.95769,35.91145],[139.96077,35.92225],[139.96283,35.92575],[139.96887,35.93539],[139.9731,35.94213],[139.97377,35.94299],[139.97479,35.94401],[139.97574,35.94477],[139.97692,35.94547],[139.97776,35.94581],[139.97902,35.9462],[139.98445,35.94705],[139.98566,35.94741],[139.99136,35.94973]],[[139.78118,35.70699],[139.7835,35.70677]],[[139.84529,35.80816],[139.85111,35.81236],[139.85938,35.81713],[139.86065,35.8177],[139.86262,35.8183],[139.86891,35.81976],[139.87301,35.82059],[139.87448,35.82113],[139.8755,35.82167],[139.87712,35.82291],[139.87804,35.82396]],[[139.91529,35.85519],[139.91507,35.85399]],[[139.92543,35.8722],[139.93068,35.87703],[139.9342,35.88001],[139.93593,35.88103],[139.94755,35.88653],[139.94827,35.88694],[139.94911,35.88755],[139.95057,35.88901],[139.95108,35.88971],[139.95169,35.89088],[139.95238,35.89276]],[[139.79261,35.71478],[139.7927,35.71667],[139.79269,35.71858],[139.79252,35.71909],[139.79123,35.7213],[139.79092,35.72651],[139.79096,35.72745],[139.79106,35.72796],[139.7916,35.72891],[139.79239,35.7297],[139.79369,35.73034],[139.79599,35.73087],[139.797,35.7312],[139.79776,35.73164],[139.79844,35.73233]],[[139.79844,35.73233],[139.79946,35.73364]],[[139.77395,35.6976],[139.77435,35.69877],[139.77455,35.70054]],[[139.90212,35.83801],[139.89949,35.83616],[139.89833,35.83502],[139.89701,35.83387],[139.89594,35.83317],[139.8946,35.83254],[139.89291,35.83191],[139.89062,35.83146],[139.88611,35.83108],[139.88452,35.83067],[139.88329,35.83013],[139.88235,35.8296],[139.88122,35.82866],[139.88058,35.828],[139.8787,35.82501]],[[139.82028,35.77281],[139.82056,35.77519],[139.8212,35.77822],[139.82149,35.78279],[139.82171,35.78394]],[[139.82021,35.77119],[139.82021,35.77122]],[[139.80554,35.75104],[139.80594,35.75285],[139.80659,35.75413],[139.80715,35.75491],[139.81071,35.75905],[139.81223,35.76013],[139.81503,35.76105],[139.81539,35.76124],[139.81626,35.76192],[139.81695,35.76275],[139.81794,35.76427],[139.8183,35.76502],[139.81977,35.76874],[139.82015,35.76982],[139.82021,35.77119]],[[139.82021,35.77119],[139.82028,35.77281]],[[139.7835,35.70677],[139.78858,35.70636],[139.78946,35.70643],[139.79005,35.70669],[139.79052,35.70709],[139.79077,35.70747],[139.79149,35.70952],[139.79205,35.71145],[139.7923,35.71308]],[[139.92448,35.87131],[139.92086,35.868],[139.91908,35.86625],[139.9179,35.86473],[139.91707,35.86319],[139.91603,35.86015],[139.91529,35.85519]],[[139.90347,35.83885],[139.90212,35.83801]],[[139.95267,35.89387],[139.95734,35.91027]],[[139.77455,35.70054],[139.77461,35.70106],[139.77449,35.70267],[139.77534,35.7068],[139.77548,35.70701],[139.77603,35.70738],[139.77665,35.70751],[139.78118,35.70699]],[[139.84418,35.80737],[139.84529,35.80816]],[[139.92448,35.87131],[139.92543,35.8722]],[[139.84418,35.80737],[139.83865,35.80358],[139.83236,35.80031],[139.82694,35.79898],[139.82585,35.79838],[139.82549,35.79808],[139.82242,35.7946],[139.82209,35.79382],[139.82202,35.79335],[139.82202,35.78661],[139.8219,35.78562]],[[139.79261,35.71478],[139.7923,35.71308]],[[139.79946,35.73364],[139.80015,35.73484],[139.80106,35.73726],[139.80328,35.74472],[139.80384,35.74633],[139.80481,35.74869]],[[139.91507,35.85399],[139.91444,35.85157],[139.91384,35.85031],[139.91321,35.84938],[139.91183,35.84801],[139.9096,35.84627],[139.90849,35.84522],[139.90803,35.8446],[139.90757,35.84373],[139.90689,35.84171],[139.90623,35.84057],[139.90554,35.84005],[139.90347,35.83885]],[[139.82171,35.78394],[139.8219,35.78562]],[[139.87804,35.82396],[139.8787,35.82501]],[[139.80481,35.74869],[139.80554,35.75104]],[[139.95238,35.89276],[139.95267,35.89387]]]}}