{"type":"Feature","properties":{"id":"高松琴平電気鉄道_志度線","name":"志度線","operator":"高松琴平電気鉄道","railType":"普通鉄道","operatorType":"民営","category":"rail","attribution":"国土数値情報（鉄道データ）国土交通省"},"geometry":{"type":"MultiLineString","coordinates":[[[134.1478,34.33676],[134.14713,34.33698]],[[134.14181,34.33735],[134.14112,34.33749]],[[134.14112,34.33749],[134.14022,34.33771],[134.1399,34.33791],[134.13452,34.34238]],[[134.05965,34.34166],[134.05887,34.34167]],[[134.05406,34.33964],[134.05325,34.33953]],[[134.16338,34.32675],[134.16288,34.32716],[134.16213,34.32843],[134.16,34.33051],[134.15859,34.33207]],[[134.14713,34.33698],[134.14633,34.33707],[134.14279,34.33719],[134.14181,34.33735]],[[134.11281,34.34094],[134.11205,34.3409]],[[134.15549,34.33555],[134.15454,34.33565]],[[134.1221,34.34464],[134.12146,34.34456],[134.12095,34.34439],[134.11502,34.34153],[134.11389,34.34115],[134.11281,34.34094]],[[134.06431,34.34012],[134.06312,34.34054],[134.06184,34.34127],[134.05965,34.34166]],[[134.10623,34.34149],[134.10542,34.34166]],[[134.09781,34.34126],[134.09447,34.34017],[134.09387,34.34006],[134.08829,34.34071],[134.08425,34.341]],[[134.12291,34.34463],[134.1221,34.34464]],[[134.07265,34.34126],[134.07182,34.34125]],[[134.09857,34.34149],[134.09781,34.34126]],[[134.15859,34.33207],[134.15831,34.33263]],[[134.13399,34.34282],[134.13345,34.34325],[134.13322,34.34333],[134.12343,34.34465],[134.12291,34.34463]],[[134.17293,34.32245],[134.17209,34.32247]],[[134.16396,34.32628],[134.16338,34.32675]],[[134.08425,34.341],[134.08341,34.34102]],[[134.15831,34.33263],[134.15837,34.33311],[134.15896,34.33421],[134.15897,34.33449],[134.1589,34.33462],[134.1583,34.33499],[134.15729,34.33539],[134.15549,34.33555]],[[134.07182,34.34125],[134.07103,34.3412],[134.07054,34.34108],[134.06992,34.34082],[134.06833,34.3398],[134.06785,34.33964],[134.06516,34.33991]],[[134.10542,34.34166],[134.1009,34.34209],[134.10011,34.34194],[134.09857,34.34149]],[[134.11205,34.3409],[134.10877,34.34074],[134.10623,34.34149]],[[134.17209,34.32247],[134.17097,34.32262],[134.16683,34.32432],[134.16538,34.32515],[134.16396,34.32628]],[[134.13452,34.34238],[134.13399,34.34282]],[[134.15454,34.33565],[134.15006,34.33606],[134.1478,34.33676]],[[134.06516,34.33991],[134.06431,34.34012]],[[134.08341,34.34102],[134.07654,34.34128],[134.07265,34.34126]],[[134.05887,34.34167],[134.05693,34.34157],[134.05591,34.34126],[134.05534,34.34073],[134.05471,34.3398],[134.05406,34.33964]]]}}