{"type":"Feature","properties":{"id":"高松琴平電気鉄道_長尾線","name":"長尾線","operator":"高松琴平電気鉄道","railType":"普通鉄道","operatorType":"民営","category":"rail","attribution":"国土数値情報（鉄道データ）国土交通省"},"geometry":{"type":"MultiLineString","coordinates":[[[134.05246,34.33823],[134.0527,34.33941]],[[134.05256,34.33798],[134.05246,34.33823]],[[134.13648,34.27069],[134.1317,34.27206]],[[134.15079,34.26667],[134.15012,34.26677]],[[134.16194,34.26664],[134.15629,34.26662]],[[134.07932,34.31994],[134.07985,34.3195]],[[134.16876,34.26665],[134.16274,34.26662]],[[134.11923,34.27932],[134.11966,34.27874]],[[134.08364,34.3107],[134.08389,34.31005]],[[134.0735,34.32319],[134.07863,34.32039],[134.07932,34.31994]],[[134.16956,34.26665],[134.16876,34.26665]],[[134.09216,34.30315],[134.09291,34.30295]],[[134.12538,34.27393],[134.12386,34.27446],[134.12281,34.27516],[134.121,34.2769],[134.11966,34.27874]],[[134.09291,34.30295],[134.09698,34.30182],[134.09763,34.30155],[134.09815,34.30116],[134.10095,34.29831],[134.10154,34.29781],[134.10181,34.29769],[134.10269,34.29769],[134.10357,34.29742],[134.10455,34.29627]],[[134.08389,34.31005],[134.08509,34.30554],[134.08532,34.3051],[134.08592,34.30448],[134.08652,34.30427],[134.08911,34.30401],[134.09216,34.30315]],[[134.16274,34.26662],[134.16194,34.26664]],[[134.15551,34.26664],[134.15079,34.26667]],[[134.1309,34.27231],[134.12618,34.27371]],[[134.1317,34.27206],[134.1309,34.27231]],[[134.07985,34.3195],[134.08013,34.31908],[134.08364,34.3107]],[[134.05934,34.33433],[134.06239,34.32984],[134.0632,34.32893],[134.06803,34.32617],[134.07298,34.32346]],[[134.10455,34.29627],[134.10498,34.29578]],[[134.05889,34.33489],[134.05934,34.33433]],[[134.15012,34.26677],[134.14924,34.26689],[134.1481,34.26724],[134.14589,34.26808],[134.13719,34.27049]],[[134.11224,34.28841],[134.11338,34.28744],[134.11923,34.27932]],[[134.05256,34.33798],[134.05326,34.33722],[134.05356,34.33704],[134.05468,34.33683],[134.05673,34.33661],[134.05757,34.33631],[134.05812,34.33591],[134.05889,34.33489]],[[134.1117,34.28882],[134.11224,34.28841]],[[134.13648,34.27069],[134.13719,34.27049]],[[134.12618,34.27371],[134.12538,34.27393]],[[134.10498,34.29578],[134.10934,34.29063],[134.1117,34.28882]],[[134.07298,34.32346],[134.0735,34.32319]],[[134.15629,34.26662],[134.15551,34.26664]]]}}