{"type":"Feature","properties":{"id":"鹿児島市_唐湊線","name":"唐湊線","operator":"鹿児島市","railType":"軌道","operatorType":"公営","category":"tram","attribution":"国土数値情報（鉄道データ）国土交通省"},"geometry":{"type":"MultiLineString","coordinates":[[[130.54922,31.56273],[130.54938,31.56299]],[[130.54938,31.56299],[130.54963,31.56343]],[[130.54354,31.58374],[130.5435,31.58355]],[[130.54049,31.5728],[130.54045,31.57231],[130.54068,31.57161]],[[130.54082,31.5712],[130.54177,31.56859]],[[130.54305,31.58106],[130.54298,31.58066]],[[130.54873,31.5627],[130.54731,31.56386],[130.54529,31.56497]],[[130.54922,31.56273],[130.54902,31.56262],[130.54873,31.5627]],[[130.54298,31.58066],[130.54273,31.57918]],[[130.5449,31.56516],[130.54529,31.56497]],[[130.54068,31.57161],[130.54082,31.5712]],[[130.54267,31.57887],[130.54226,31.57689],[130.54179,31.57568]],[[130.54273,31.57918],[130.54267,31.57887]],[[130.54377,31.56571],[130.5449,31.56516]],[[130.54192,31.56817],[130.54234,31.56724],[130.5434,31.56596]],[[130.54179,31.57568],[130.54161,31.57529]],[[130.54063,31.57324],[130.54049,31.5728]],[[130.54177,31.56859],[130.54192,31.56817]],[[130.54161,31.57529],[130.54063,31.57324]],[[130.5435,31.58355],[130.54305,31.58106]],[[130.5434,31.56596],[130.54377,31.56571]]]}}