{"type":"Feature","properties":{"id":"鹿児島市_第二期線","name":"第二期線","operator":"鹿児島市","railType":"軌道","operatorType":"公営","category":"tram","attribution":"国土数値情報（鉄道データ）国土交通省"},"geometry":{"type":"MultiLineString","coordinates":[[[130.55008,31.58825],[130.54966,31.58804]],[[130.54783,31.58716],[130.54742,31.58694]],[[130.54742,31.58694],[130.54549,31.586]],[[130.54549,31.586],[130.54508,31.58579]],[[130.54508,31.58579],[130.54401,31.5849],[130.54389,31.58429],[130.54354,31.58374]],[[130.54966,31.58804],[130.54783,31.58716]],[[130.54354,31.58374],[130.5435,31.58355]]]}}