{"type":"Feature","properties":{"id":"鹿児島市_谷山線","name":"谷山線","operator":"鹿児島市","railType":"軌道","operatorType":"公営","category":"tram","attribution":"国土数値情報（鉄道データ）国土交通省"},"geometry":{"type":"MultiLineString","coordinates":[[[130.55395,31.57926],[130.55399,31.57966]],[[130.55371,31.57725],[130.55376,31.57764]],[[130.54402,31.55505],[130.54492,31.55729],[130.54527,31.55767],[130.54601,31.55817],[130.5468,31.5593]],[[130.54963,31.56343],[130.55037,31.5651]],[[130.52371,31.53025],[130.5294,31.53542]],[[130.55376,31.57764],[130.55395,31.57926]],[[130.5468,31.5593],[130.54709,31.55972]],[[130.53362,31.53929],[130.53394,31.5396]],[[130.53893,31.54628],[130.53916,31.54665]],[[130.54156,31.5504],[130.54289,31.55263],[130.54377,31.55446]],[[130.55198,31.56978],[130.55292,31.57356]],[[130.54709,31.55972],[130.54886,31.56224]],[[130.53916,31.54665],[130.54122,31.54988]],[[130.52329,31.53008],[130.52371,31.53025]],[[130.55052,31.56549],[130.55169,31.56863],[130.55189,31.56943]],[[130.52979,31.53577],[130.53362,31.53929]],[[130.54922,31.56273],[130.54938,31.56299]],[[130.54886,31.56224],[130.54922,31.56273]],[[130.54938,31.56299],[130.54963,31.56343]],[[130.5294,31.53542],[130.52979,31.53577]],[[130.54873,31.5627],[130.54891,31.5625],[130.54886,31.56224]],[[130.53797,31.54476],[130.53893,31.54628]],[[130.53394,31.5396],[130.53515,31.54103],[130.53771,31.54434]],[[130.55292,31.57356],[130.55305,31.57401]],[[130.54122,31.54988],[130.54156,31.5504]],[[130.55189,31.56943],[130.55198,31.56978]],[[130.54377,31.55446],[130.54402,31.55505]],[[130.53771,31.54434],[130.53797,31.54476]],[[130.55305,31.57401],[130.55358,31.57612],[130.55371,31.57725]],[[130.55037,31.5651],[130.55052,31.56549]]]}}