{"type":"Feature","properties":{"id":"鹿児島市_第一期線","name":"第一期線","operator":"鹿児島市","railType":"軌道","operatorType":"公営","category":"tram","attribution":"国土数値情報（鉄道データ）国土交通省"},"geometry":{"type":"MultiLineString","coordinates":[[[130.55724,31.59497],[130.55723,31.59453]],[[130.55956,31.59885],[130.5592,31.59851]],[[130.55065,31.58851],[130.5511,31.58847]],[[130.55399,31.57966],[130.55416,31.58152],[130.5539,31.58307]],[[130.55065,31.58851],[130.55119,31.58879]],[[130.55496,31.59062],[130.55453,31.59041]],[[130.56262,31.60126],[130.56208,31.60113]],[[130.55802,31.59707],[130.55752,31.59596],[130.55724,31.59497]],[[130.5592,31.59851],[130.55826,31.59746]],[[130.5539,31.58307],[130.5538,31.58352]],[[130.56118,31.60015],[130.5608,31.59988]],[[130.55008,31.58825],[130.54966,31.58804]],[[130.55008,31.58825],[130.55065,31.58851]],[[130.55301,31.58576],[130.55274,31.58613]],[[130.5538,31.58352],[130.55343,31.585],[130.55301,31.58576]],[[130.55757,31.59164],[130.55711,31.59148]],[[130.55274,31.58613],[130.5511,31.58847]],[[130.55711,31.59148],[130.55496,31.59062]],[[130.56208,31.60113],[130.56172,31.60059],[130.56118,31.60015]],[[130.5511,31.58847],[130.55119,31.58879]],[[130.55395,31.57926],[130.55399,31.57966]],[[130.55826,31.59746],[130.55802,31.59707]],[[130.55453,31.59041],[130.55119,31.58879]],[[130.5608,31.59988],[130.55956,31.59885]],[[130.55723,31.59453],[130.55739,31.59324],[130.55777,31.59192],[130.55771,31.59171],[130.55757,31.59164]]]}}