{"type":"Feature","properties":{"id":"黒部峡谷鉄道_本線","name":"本線","operator":"黒部峡谷鉄道","railType":"普通鉄道","operatorType":"民営","category":"rail","attribution":"国土数値情報（鉄道データ）国土交通省"},"geometry":{"type":"MultiLineString","coordinates":[[[137.64732,36.71135],[137.64802,36.71223],[137.64805,36.71279],[137.64779,36.7136],[137.64741,36.71403],[137.64684,36.71437],[137.64676,36.71467],[137.6474,36.71564],[137.64746,36.71658],[137.64774,36.71825],[137.64825,36.71888],[137.64864,36.71957],[137.64853,36.71986],[137.64699,36.72224],[137.64686,36.72266],[137.64637,36.72576],[137.64628,36.72692],[137.64651,36.72731],[137.64721,36.72808],[137.64773,36.72842],[137.64821,36.72857],[137.64887,36.72894],[137.6495,36.72968],[137.651,36.73207],[137.65121,36.73252],[137.6513,36.73294],[137.65135,36.7341]],[[137.65793,36.69701],[137.65711,36.69717],[137.6562,36.69764],[137.65554,36.6981],[137.65435,36.69921],[137.65361,36.69954],[137.65331,36.69993],[137.65305,36.70047],[137.65285,36.70115],[137.65277,36.70179],[137.65285,36.70345],[137.65274,36.70403],[137.65228,36.70583],[137.65197,36.70623],[137.65147,36.70649],[137.65087,36.70658],[137.64923,36.7062],[137.64786,36.70609],[137.64722,36.70623],[137.6469,36.70647],[137.64661,36.70717],[137.64662,36.70799],[137.64713,36.70902],[137.64719,36.70928],[137.64679,36.71],[137.64666,36.71043],[137.64686,36.71083]],[[137.64163,36.74927],[137.64186,36.74986]],[[137.62378,36.78346],[137.62378,36.78368],[137.6239,36.78395],[137.62466,36.7844],[137.62603,36.78496],[137.62634,36.78527],[137.6263,36.78569],[137.62571,36.7864],[137.6251,36.7865]],[[137.58609,36.81501],[137.58828,36.81416],[137.59052,36.81457],[137.59103,36.8146],[137.59161,36.8144],[137.59203,36.81397],[137.59237,36.81284],[137.59224,36.81163],[137.59227,36.81073],[137.59261,36.81038],[137.59442,36.80907],[137.59558,36.8071],[137.59563,36.80679],[137.59554,36.80658],[137.59519,36.80621],[137.59386,36.8056],[137.59286,36.80416],[137.59266,36.80376],[137.59236,36.80352]],[[137.62404,36.78299],[137.62378,36.78346]],[[137.64186,36.74986],[137.64192,36.75022],[137.64167,36.75094],[137.64106,36.75177],[137.64064,36.752],[137.63997,36.7522],[137.63885,36.75233],[137.6382,36.7525],[137.63788,36.75274],[137.63761,36.75306],[137.63737,36.7537],[137.63734,36.75492],[137.63705,36.75568],[137.63661,36.75604],[137.63529,36.75666],[137.63501,36.75688],[137.63469,36.75725],[137.63435,36.75812],[137.63371,36.75854],[137.63346,36.75895],[137.63341,36.75931],[137.63415,36.75994],[137.63429,36.76048],[137.63472,36.76087],[137.63493,36.76125],[137.63496,36.76155],[137.63472,36.76227],[137.63471,36.76259],[137.63494,36.76294],[137.63537,36.76334],[137.63558,36.76396],[137.6359,36.76439],[137.6357,36.76512],[137.63609,36.7661],[137.63601,36.76627],[137.63506,36.76673],[137.63433,36.76685],[137.63397,36.76704]],[[137.65833,36.69653],[137.65793,36.69701]],[[137.59166,36.8032],[137.59146,36.8031],[137.59117,36.80278],[137.59099,36.80228],[137.59096,36.80176],[137.59107,36.80139],[137.59128,36.80112],[137.59174,36.80091],[137.59244,36.80073],[137.59244,36.79976],[137.59201,36.79877],[137.59187,36.79809],[137.59204,36.79699],[137.59238,36.79677],[137.59298,36.79669],[137.59374,36.79639],[137.59411,36.79606],[137.59499,36.79562],[137.59524,36.79523],[137.59557,36.79497],[137.59753,36.79464],[137.59934,36.79451],[137.60001,36.79421],[137.60097,36.7936],[137.60149,36.79344],[137.60205,36.7934],[137.60302,36.7929],[137.6037,36.79283],[137.60458,36.79249],[137.60523,36.79247],[137.6062,36.79186],[137.60733,36.79174],[137.60853,36.79213],[137.60958,36.79268],[137.60988,36.79268],[137.61221,36.792],[137.61283,36.79191]],[[137.61363,36.79206],[137.61283,36.79191]],[[137.6251,36.7865],[137.62459,36.78674]],[[137.58517,36.81531],[137.58609,36.81501]],[[137.64686,36.71083],[137.64732,36.71135]],[[137.65135,36.7341],[137.65133,36.73471]],[[137.63342,36.76748],[137.63286,36.76814],[137.63258,36.76861],[137.63178,36.77094],[137.63122,36.77151],[137.63109,36.77177],[137.63082,36.77327],[137.63062,36.77372],[137.63064,36.77429],[137.63037,36.77468],[137.6302,36.77513],[137.62971,36.7758],[137.62954,36.77663],[137.62906,36.777],[137.62862,36.77704],[137.62807,36.77733],[137.62782,36.77787],[137.62737,36.7784],[137.62722,36.77882],[137.62593,36.7802],[137.62577,36.78042],[137.62563,36.78092],[137.62404,36.78299]],[[137.59166,36.8032],[137.59236,36.80352]],[[137.62459,36.78674],[137.62393,36.78776],[137.62234,36.78879],[137.62193,36.78948],[137.62107,36.78984],[137.62039,36.78986],[137.61979,36.79006],[137.61851,36.79005],[137.61794,36.78996],[137.6176,36.79007],[137.61663,36.79016],[137.61577,36.79045],[137.61516,36.79104],[137.61485,36.79118],[137.61465,36.79154],[137.61465,36.79209],[137.61455,36.79218],[137.61363,36.79206]],[[137.63397,36.76704],[137.63342,36.76748]],[[137.65133,36.73471],[137.65123,36.73511],[137.6509,36.73557],[137.64819,36.73679],[137.64781,36.73711],[137.64769,36.73735],[137.64793,36.73862],[137.64698,36.7414],[137.64686,36.74214],[137.64692,36.74239],[137.64705,36.74247],[137.6489,36.74301],[137.64949,36.74349],[137.64962,36.74369],[137.64968,36.74396],[137.64959,36.74428],[137.64893,36.74569],[137.64858,36.74605],[137.64747,36.74682],[137.64501,36.74815],[137.64437,36.74824],[137.64263,36.74787],[137.64218,36.74801],[137.64194,36.74813],[137.64162,36.74852],[137.64152,36.74889],[137.64163,36.74927]]]}}